{
"type": "FeatureCollection",
"name": "se2530_rgb_250_05_osm_buildings",
"crs": { "type": "name", "properties": { "name": "urn:ogc:def:crs:EPSG::27700" } },
"features": [
{ "type": "Feature", "properties": { "addr:city": "Leeds", "addr:housenumber": "575a", "addr:postcode": "LS12 6JS", "addr:street": "Whitehall Road", "building": "house", "building:levels": "2", "osm_type": "way", "osm_id": 284169089, "ref:GB:uprn": null, "addr:country": null, "source:addr:postcode": null }, "geometry": { "type": "Polygon", "coordinates": [ [ [ 425195.137862910924014, 430940.87247557437513 ], [ 425193.194909053388983, 430940.628415408427827 ], [ 425192.084839331742842, 430941.156525989645161 ], [ 425191.412937730026897, 430942.321177707170136 ], [ 425191.299800506560132, 430943.755851743393578 ], [ 425191.906281879986636, 430944.960730685968883 ], [ 425193.982687347743195, 430946.128980151959695 ], [ 425192.485634061216842, 430948.768995796563104 ], [ 425189.219861945137382, 430946.937929762760177 ], [ 425185.054630266560707, 430954.303418110241182 ], [ 425196.579924154793844, 430960.796105368877761 ], [ 425200.445673837326467, 430953.974206070415676 ], [ 425202.259228061768226, 430954.996409983141348 ], [ 425206.617400549352169, 430947.298184877377935 ], [ 425195.137862910924014, 430940.87247557437513 ] ] ] } },
{ "type": "Feature", "properties": { "addr:city": "Leeds", "addr:housenumber": null, "addr:postcode": null, "addr:street": "Whitehall Road", "building": "house", "building:levels": "2", "osm_type": "way", "osm_id": 284169385, "ref:GB:uprn": "72232371", "addr:country": null, "source:addr:postcode": null }, "geometry": { "type": "Polygon", "coordinates": [ [ [ 425145.509148832876235, 430975.498598128673621 ], [ 425151.51689907949185, 430968.654735063551925 ], [ 425169.399554517003708, 430984.260345004848205 ], [ 425163.391738116682973, 430991.115311181987636 ], [ 425145.509148832876235, 430975.498598128673621 ] ] ] } },
{ "type": "Feature", "properties": { "addr:city": "Leeds", "addr:housenumber": null, "addr:postcode": null, "addr:street": "Whitehall Road", "building": "house", "building:levels": null, "osm_type": "way", "osm_id": 284169386, "ref:GB:uprn": "72232370", "addr:country": null, "source:addr:postcode": null }, "geometry": { "type": "Polygon", "coordinates": [ [ [ 425167.5034908913658, 430997.423620850662701 ], [ 425173.907058534619864, 431002.820728215854615 ], [ 425174.822376673982944, 431001.735260594519787 ], [ 425176.633237137109973, 431003.258119487552904 ], [ 425178.384253468248062, 431001.186894977348857 ], [ 425176.481543517089449, 430999.585660220705904 ], [ 425182.225392848369665, 430992.796054272213951 ], [ 425175.913670325651765, 430987.477310799644329 ], [ 425167.5034908913658, 430997.423620850662701 ] ] ] } },
{ "type": "Feature", "properties": { "addr:city": "Leeds", "addr:housenumber": null, "addr:postcode": null, "addr:street": "Whitehall Road", "building": "house", "building:levels": null, "osm_type": "way", "osm_id": 284169387, "ref:GB:uprn": "72544241", "addr:country": null, "source:addr:postcode": null }, "geometry": { "type": "Polygon", "coordinates": [ [ [ 425195.703864620649256, 431020.973045805934817 ], [ 425200.345954370568506, 431015.623965020407923 ], [ 425195.629140549513977, 431011.548750714282505 ], [ 425196.232565707468893, 431010.862159397103824 ], [ 425195.392865725385491, 431010.134456829517148 ], [ 425198.781622108479496, 431006.225065603968687 ], [ 425191.584995126584545, 431000.011462302762084 ], [ 425184.157636429648846, 431008.57223268027883 ], [ 425187.897018970281351, 431011.796608046512119 ], [ 425186.690052343474235, 431013.192044672206976 ], [ 425195.703864620649256, 431020.973045805934817 ] ] ] } },
{ "type": "Feature", "properties": { "addr:city": "Leeds", "addr:housenumber": null, "addr:postcode": "LS12 5DU", "addr:street": null, "building": "house", "building:levels": null, "osm_type": "way", "osm_id": 532321098, "ref:GB:uprn": "72232357", "addr:country": "GB", "source:addr:postcode": "ONSUD;OS Open UPRN" }, "geometry": { "type": "Polygon", "coordinates": [ [ [ 424998.927821275370661, 431001.219665617099963 ], [ 424995.224946168775205, 430998.540820225724019 ], [ 424990.013014536525588, 431005.745149532333016 ], [ 424993.715945972304326, 431008.412864953861572 ], [ 424998.927821275370661, 431001.219665617099963 ] ] ] } },
{ "type": "Feature", "properties": { "addr:city": null, "addr:housenumber": null, "addr:postcode": null, "addr:street": null, "building": "house", "building:levels": null, "osm_type": "way", "osm_id": 532322627, "ref:GB:uprn": "72232368", "addr:country": null, "source:addr:postcode": null }, "geometry": { "type": "Polygon", "coordinates": [ [ [ 425087.419403819891158, 431002.603287130245008 ], [ 425082.529288039891981, 430998.872175450320356 ], [ 425076.934442374738865, 431006.174502422451042 ], [ 425081.817964428977575, 431009.905573155730963 ], [ 425087.419403819891158, 431002.603287130245008 ] ] ] } },
{ "type": "Feature", "properties": { "addr:city": null, "addr:housenumber": null, "addr:postcode": null, "addr:street": null, "building": "house", "building:levels": null, "osm_type": "way", "osm_id": 532322628, "ref:GB:uprn": "72232379", "addr:country": null, "source:addr:postcode": null }, "geometry": { "type": "Polygon", "coordinates": [ [ [ 425072.724569589423481, 430991.053798673092388 ], [ 425071.136085549020208, 430989.843699562130496 ], [ 425072.655919102544431, 430987.860212932573631 ], [ 425069.354262982553337, 430985.339214787236415 ], [ 425062.239593875652645, 430994.625046862754971 ], [ 425067.12313969025854, 430998.35610213293694 ], [ 425072.724569589423481, 430991.053798673092388 ] ] ] } },
{ "type": "Feature", "properties": { "addr:city": null, "addr:housenumber": null, "addr:postcode": null, "addr:street": null, "building": "house", "building:levels": null, "osm_type": "way", "osm_id": 532322629, "ref:GB:uprn": "72232373", "addr:country": null, "source:addr:postcode": null }, "geometry": { "type": "Polygon", "coordinates": [ [ [ 425074.895316377980635, 430989.363064655801281 ], [ 425073.275913625839166, 430991.47953407082241 ], [ 425072.724569589423481, 430991.053798673092388 ], [ 425067.12313969025854, 430998.35610213293694 ], [ 425072.006677721627057, 431002.087162538548 ], [ 425077.608110901084729, 430994.784864876186475 ], [ 425079.227514501137193, 430992.668396946042776 ], [ 425074.895316377980635, 430989.363064655801281 ] ] ] } },
{ "type": "Feature", "properties": { "addr:city": null, "addr:housenumber": null, "addr:postcode": null, "addr:street": null, "building": "house", "building:levels": null, "osm_type": "way", "osm_id": 532322630, "ref:GB:uprn": null, "addr:country": null, "source:addr:postcode": null }, "geometry": { "type": "Polygon", "coordinates": [ [ [ 425042.872701639891602, 430979.212215676088817 ], [ 425048.812601223122329, 430971.466638464597054 ], [ 425043.725537007732783, 430967.57875211792998 ], [ 425037.785581809468567, 430975.335461613954976 ], [ 425042.872701639891602, 430979.212215676088817 ] ] ] } },
{ "type": "Feature", "properties": { "addr:city": null, "addr:housenumber": null, "addr:postcode": null, "addr:street": null, "building": "house", "building:levels": null, "osm_type": "way", "osm_id": 532322631, "ref:GB:uprn": "72232385", "addr:country": null, "source:addr:postcode": null }, "geometry": { "type": "Polygon", "coordinates": [ [ [ 425058.201192989014089, 430979.471892202156596 ], [ 425053.31762023473857, 430975.740846421336755 ], [ 425047.716202800220344, 430983.043172899982892 ], [ 425052.606362736492883, 430986.774247997673228 ], [ 425058.201192989014089, 430979.471892202156596 ] ] ] } },
{ "type": "Feature", "properties": { "addr:city": null, "addr:housenumber": null, "addr:postcode": null, "addr:street": null, "building": "house", "building:levels": null, "osm_type": "way", "osm_id": 532322633, "ref:GB:uprn": "72232381", "addr:country": null, "source:addr:postcode": null }, "geometry": { "type": "Polygon", "coordinates": [ [ [ 425063.091348427406047, 430983.202978244167753 ], [ 425058.201192989014089, 430979.471892202156596 ], [ 425052.606362736492883, 430986.774247997673228 ], [ 425057.489924421999604, 430990.505293126334436 ], [ 425063.091348427406047, 430983.202978244167753 ] ] ] } },
{ "type": "Feature", "properties": { "addr:city": null, "addr:housenumber": null, "addr:postcode": null, "addr:street": null, "building": "farm_auxiliary", "building:levels": null, "osm_type": "way", "osm_id": 564436636, "ref:GB:uprn": null, "addr:country": null, "source:addr:postcode": null }, "geometry": { "type": "Polygon", "coordinates": [ [ [ 425911.117213429417461, 430802.848559446167201 ], [ 425918.142966803978197, 430796.901378041715361 ], [ 425909.164944718650077, 430786.348751971614547 ], [ 425894.828759381431155, 430798.475234764977358 ], [ 425924.683158452913631, 430833.598311487818137 ], [ 425931.993571890867315, 430827.419069833005778 ], [ 425911.117213429417461, 430802.848559446167201 ] ] ] } },
{ "type": "Feature", "properties": { "addr:city": null, "addr:housenumber": null, "addr:postcode": null, "addr:street": null, "building": "yes", "building:levels": null, "osm_type": "way", "osm_id": 564436637, "ref:GB:uprn": null, "addr:country": null, "source:addr:postcode": null }, "geometry": { "type": "Polygon", "coordinates": [ [ [ 425959.998437762260437, 430846.488173044868745 ], [ 425960.932697194977663, 430845.592107872129418 ], [ 425953.848230137780774, 430838.298704193904996 ], [ 425952.913909225957468, 430839.205896648811176 ], [ 425949.735362321604043, 430835.939498141640797 ], [ 425945.461413560260553, 430840.077116857632063 ], [ 425948.639960572181735, 430843.343512482359074 ], [ 425947.685808272566646, 430844.261722742463462 ], [ 425954.770275696762837, 430851.55511715717148 ], [ 425955.724489350046497, 430850.625782453571446 ], [ 425958.385247353930026, 430853.366394378128462 ], [ 425962.665786330064293, 430849.228823774144985 ], [ 425959.998437762260437, 430846.488173044868745 ] ] ] } },
{ "type": "Feature", "properties": { "addr:city": null, "addr:housenumber": null, "addr:postcode": null, "addr:street": null, "building": "yes", "building:levels": null, "osm_type": "way", "osm_id": 564436638, "ref:GB:uprn": null, "addr:country": null, "source:addr:postcode": null }, "geometry": { "type": "Polygon", "coordinates": [ [ [ 425952.307434142217971, 430857.138009385787882 ], [ 425946.885686593304854, 430861.458437219727784 ], [ 425956.252527827105951, 430873.170411732047796 ], [ 425961.680861332453787, 430868.850031075533479 ], [ 425952.307434142217971, 430857.138009385787882 ] ] ] } },
{ "type": "Feature", "properties": { "addr:city": null, "addr:housenumber": null, "addr:postcode": null, "addr:street": null, "building": "yes", "building:levels": null, "osm_type": "way", "osm_id": 564436639, "ref:GB:uprn": null, "addr:country": null, "source:addr:postcode": null }, "geometry": { "type": "Polygon", "coordinates": [ [ [ 425970.31207147979876, 430859.807578189414926 ], [ 425960.351448697620071, 430863.724631174001843 ], [ 425962.424926977721043, 430868.976527955965139 ], [ 425976.830751474481076, 430863.326094093150459 ], [ 425973.073909520928282, 430853.792424449347891 ], [ 425968.628567986190319, 430855.548065054928884 ], [ 425970.31207147979876, 430859.807578189414926 ] ] ] } },
{ "type": "Feature", "properties": { "addr:city": null, "addr:housenumber": null, "addr:postcode": null, "addr:street": null, "building": "yes", "building:levels": null, "osm_type": "way", "osm_id": 564436640, "ref:GB:uprn": null, "addr:country": null, "source:addr:postcode": null }, "geometry": { "type": "Polygon", "coordinates": [ [ [ 425976.439556979108602, 430900.730274683795869 ], [ 425980.782090284454171, 430908.030814697500318 ], [ 425995.269963240483776, 430899.443569954833947 ], [ 425990.927444260683842, 430892.143016552436166 ], [ 425976.439556979108602, 430900.730274683795869 ] ] ] } },
{ "type": "Feature", "properties": { "addr:city": null, "addr:housenumber": null, "addr:postcode": null, "addr:street": null, "building": "yes", "building:levels": null, "osm_type": "way", "osm_id": 564436641, "ref:GB:uprn": null, "addr:country": null, "source:addr:postcode": null }, "geometry": { "type": "Polygon", "coordinates": [ [ [ 425952.342761262727436, 430888.94805721915327 ], [ 425954.855623796000145, 430888.628141516121104 ], [ 425954.066190644050948, 430882.393102412112057 ], [ 425938.052520643686876, 430884.41871532460209 ], [ 425938.848565322929062, 430890.653788044117391 ], [ 425942.034097042109352, 430890.259692968684249 ], [ 425942.930980653443839, 430897.329789120005444 ], [ 425953.246220194792841, 430896.018191755400039 ], [ 425952.968148104846478, 430893.85817077907268 ], [ 425955.876750987663399, 430893.484808979555964 ], [ 425955.523093596450053, 430890.690176230156794 ], [ 425952.614489010418765, 430891.063538252608851 ], [ 425952.342761262727436, 430888.94805721915327 ] ] ] } },
{ "type": "Feature", "properties": { "addr:city": null, "addr:housenumber": null, "addr:postcode": null, "addr:street": null, "building": "farm_auxiliary", "building:levels": null, "osm_type": "way", "osm_id": 564436642, "ref:GB:uprn": null, "addr:country": null, "source:addr:postcode": null }, "geometry": { "type": "Polygon", "coordinates": [ [ [ 425506.816738445486408, 430946.257850237074308 ], [ 425582.213533242349513, 430962.188516784692183 ], [ 425585.636109638377093, 430946.074134050286375 ], [ 425510.239065727684647, 430930.143413474084809 ], [ 425506.816738445486408, 430946.257850237074308 ] ] ] } },
{ "type": "Feature", "properties": { "addr:city": null, "addr:housenumber": null, "addr:postcode": null, "addr:street": null, "building": "yes", "building:levels": null, "osm_type": "way", "osm_id": 569091292, "ref:GB:uprn": null, "addr:country": null, "source:addr:postcode": null }, "geometry": { "type": "Polygon", "coordinates": [ [ [ 425160.626551064138766, 430363.516219153418206 ], [ 425160.673238140472677, 430372.039132181438617 ], [ 425185.425105423259083, 430371.904582085902803 ], [ 425185.378463396336883, 430363.381668684072793 ], [ 425160.626551064138766, 430363.516219153418206 ] ] ] } },
{ "type": "Feature", "properties": { "addr:city": null, "addr:housenumber": null, "addr:postcode": null, "addr:street": null, "building": "yes", "building:levels": null, "osm_type": "way", "osm_id": 569091294, "ref:GB:uprn": "72550678", "addr:country": null, "source:addr:postcode": null }, "geometry": { "type": "Polygon", "coordinates": [ [ [ 425134.277693815703969, 430363.987278111977503 ], [ 425134.175860572664533, 430371.941961019067094 ], [ 425156.895216845907271, 430372.241446571424603 ], [ 425156.997088692500256, 430364.286764046759345 ], [ 425134.277693815703969, 430363.987278111977503 ] ] ] } },
{ "type": "Feature", "properties": { "addr:city": null, "addr:housenumber": null, "addr:postcode": null, "addr:street": null, "building": "yes", "building:levels": null, "osm_type": "way", "osm_id": 570707135, "ref:GB:uprn": null, "addr:country": null, "source:addr:postcode": null }, "geometry": { "type": "Polygon", "coordinates": [ [ [ 425960.378435596066993, 430026.633291004574858 ], [ 425963.931920922361314, 430019.398622981621884 ], [ 425942.420840084727388, 430008.876920781680383 ], [ 425938.867380375275388, 430016.111604938399978 ], [ 425960.378435596066993, 430026.633291004574858 ] ] ] } }
]
}
