{
"type": "FeatureCollection",
"name": "se2531_rgb_250_04_osm_road_buffers",
"crs": { "type": "name", "properties": { "name": "urn:ogc:def:crs:EPSG::27700" } },
"features": [
{ "type": "Feature", "properties": { "highway": "residential", "maxspeed": "20 mph", "name": "Whincover View", "osm_type": "way", "osm_id": 26439599, "maxspeed:type": null, "sidewalk": null, "lanes": null, "surface": null, "source:name": null, "lit": null, "ref": null, "source": null, "access": null, "foot": null }, "geometry": { "type": "Polygon", "coordinates": [ [ [ 425768.088628026947845, 432071.475680793751962 ], [ 425768.343811716127675, 432070.940688683826011 ], [ 425778.108989822736476, 432046.894806073454674 ], [ 425778.275185513484757, 432046.417733997048344 ], [ 425778.392391847388353, 432045.926326377026271 ], [ 425781.040374655218329, 432031.665890959382523 ], [ 425781.114992998540401, 432031.059739552845713 ], [ 425781.115154312399682, 432030.449012609955389 ], [ 425780.401838798890822, 432018.740304334030952 ], [ 425780.361353562329896, 432018.340852889348753 ], [ 425777.639598535839468, 431999.18880872160662 ], [ 425767.739074836950749, 432000.595802142634057 ], [ 425770.432561829511542, 432019.548933980171569 ], [ 425771.096313136920799, 432030.444071236299351 ], [ 425768.653042973717675, 432043.602048043103423 ], [ 425759.190389387251344, 432066.902990927977953 ], [ 425745.624169002461713, 432091.47957697941456 ], [ 425754.378932432446163, 432096.3121867593145 ], [ 425768.088628026947845, 432071.475680793751962 ] ] ] } },
{ "type": "Feature", "properties": { "highway": "residential", "maxspeed": "20 mph", "name": "Cobden Road", "osm_type": "way", "osm_id": 26439601, "maxspeed:type": null, "sidewalk": null, "lanes": null, "surface": null, "source:name": null, "lit": null, "ref": null, "source": null, "access": null, "foot": null }, "geometry": { "type": "Polygon", "coordinates": [ [ [ 425797.044676408579107, 431988.914455251535401 ], [ 425797.099072877259459, 431988.507296845957171 ], [ 425797.861629286780953, 431980.21708408073755 ], [ 425806.923825535923243, 431967.898184053658042 ], [ 425830.513349439774174, 431950.524142690352164 ], [ 425830.726178378972691, 431950.358351649250835 ], [ 425875.922023174643982, 431913.149352121574339 ], [ 425900.313660389045253, 431896.11902952141827 ], [ 425900.443437702429947, 431896.025292821926996 ], [ 425970.679668307537213, 431843.563194046728313 ], [ 425964.695381141966209, 431835.551433496177197 ], [ 425894.523288783675525, 431887.965624987496994 ], [ 425870.034740202652756, 431905.063611427613068 ], [ 425869.719135558756534, 431905.303111710585654 ], [ 425824.474413828575052, 431942.552350818703417 ], [ 425800.38150514755398, 431960.297142688767053 ], [ 425799.992249089234974, 431960.615219001541846 ], [ 425799.636898322729394, 431960.970773009408731 ], [ 425799.319044631614815, 431961.360210874467157 ], [ 425788.982416414190084, 431975.411538623971865 ], [ 425788.731335233489517, 431975.787320760544389 ], [ 425788.51521157840034, 431976.184239567373879 ], [ 425788.335811213590205, 431976.59905215469189 ], [ 425788.194599868555088, 431977.028369437670335 ], [ 425788.092731262324378, 431977.468683825980406 ], [ 425788.031037677719723, 431977.916397881053854 ], [ 425787.159939048695378, 431987.386638881231192 ], [ 425785.984804299718235, 431994.075798321282491 ], [ 425795.833973815373611, 431995.806075712665915 ], [ 425797.044676408579107, 431988.914455251535401 ] ] ] } },
{ "type": "Feature", "properties": { "highway": "residential", "maxspeed": null, "name": "Cobden Street", "osm_type": "way", "osm_id": 26439702, "maxspeed:type": null, "sidewalk": null, "lanes": null, "surface": null, "source:name": null, "lit": null, "ref": null, "source": null, "access": null, "foot": null }, "geometry": { "type": "Polygon", "coordinates": [ [ [ 425981.793917783012148, 431860.979156727320515 ], [ 425998.234575194423087, 431877.648126940708607 ], [ 426014.399555683077779, 431894.037118483509403 ], [ 426030.479144065931905, 431910.347759244963527 ], [ 426037.600471431680489, 431903.327310787048191 ], [ 426021.520440413383767, 431887.016221029800363 ], [ 426005.354206243355293, 431870.625958206772339 ], [ 425988.91353711055126, 431853.956976109184325 ], [ 425971.247277190501336, 431836.046165471721906 ], [ 425964.127772259002086, 431843.068462071183603 ], [ 425981.793917783012148, 431860.979156727320515 ] ] ] } },
{ "type": "Feature", "properties": { "highway": "residential", "maxspeed": "20 mph", "name": "Cow Close Road", "osm_type": "way", "osm_id": 26439703, "maxspeed:type": "sign", "sidewalk": "both", "lanes": null, "surface": null, "source:name": null, "lit": null, "ref": null, "source": null, "access": null, "foot": null }, "geometry": { "type": "Polygon", "coordinates": [ [ [ 425928.024796119891107, 432038.709148361929692 ], [ 425928.459751187998336, 432038.46421188430395 ], [ 425928.868115666555241, 432038.177126109658275 ], [ 425940.561578087101225, 432029.051371813344304 ], [ 425941.101465257292148, 432028.562780885957181 ], [ 425948.742991037841421, 432020.56068875035271 ], [ 425949.061445021012332, 432020.192942385270726 ], [ 425949.342654812149704, 432019.79598976613488 ], [ 425970.708493641926907, 431986.292193958826829 ], [ 425975.933329861843958, 431978.65587088430766 ], [ 426034.442574021930341, 431913.852712272084318 ], [ 426037.596612715104129, 431910.359217699209694 ], [ 426054.70698233274743, 431894.600433849205729 ], [ 426054.823368583747651, 431894.489733639871702 ], [ 426074.871573486947455, 431874.798033567145467 ], [ 426093.482381216774229, 431857.455958736885805 ], [ 426095.523791894956958, 431855.552359337452799 ], [ 426095.532676183211152, 431855.544054584170226 ], [ 426115.185888628708199, 431837.128013045119587 ], [ 426115.244414910208434, 431837.072275840735529 ], [ 426118.82197203533724, 431833.609640235372353 ], [ 426118.911847777431831, 431833.520419582840987 ], [ 426134.374160321836825, 431817.777038539235946 ], [ 426144.058512958232313, 431808.193846593436319 ], [ 426155.915249392273836, 431798.43830225901911 ], [ 426166.836183100997005, 431793.129802874813322 ], [ 426179.228604179283138, 431789.116929855372291 ], [ 426194.879113497096114, 431786.020602298900485 ], [ 426206.91504077333957, 431784.624839663505554 ], [ 426229.177828329557087, 431784.803852277458645 ], [ 426249.178877996164374, 431785.093383571191225 ], [ 426271.388858314545359, 431785.417730545974337 ], [ 426291.246820515661966, 431785.717901865078602 ], [ 426311.445704875106458, 431786.008984206535388 ], [ 426311.53177923389012, 431786.009483621339314 ], [ 426331.386423246120103, 431785.953778883675113 ], [ 426331.614484366786201, 431785.94793440529611 ], [ 426352.805667670385446, 431784.920698292902671 ], [ 426352.903389990504365, 431784.915001898189075 ], [ 426372.52141371864127, 431783.578625942580402 ], [ 426371.841790671285708, 431773.601747046224773 ], [ 426352.272600221273024, 431774.934796488436405 ], [ 426331.244269836868625, 431775.954138355504256 ], [ 426311.546762395766564, 431776.009402226482052 ], [ 426291.396200071845669, 431775.719017484574579 ], [ 426271.538720012351405, 431775.418853453535121 ], [ 426249.324579439475201, 431775.094445067981724 ], [ 426229.306487645022571, 431774.804667034884915 ], [ 426229.274319350253791, 431774.804304876772221 ], [ 426206.686335662961937, 431774.62267739669187 ], [ 426206.07016068889061, 431774.655800909327809 ], [ 426193.528721053735353, 431776.11018597119255 ], [ 426193.134292196715251, 431776.17197243636474 ], [ 426176.998465575336013, 431779.364316123072058 ], [ 426176.428527750598732, 431779.512422330386471 ], [ 426163.42367506067967, 431783.72361093928339 ], [ 426162.778145902324468, 431783.983547250390984 ], [ 426151.010343213158194, 431789.703696735319681 ], [ 426150.496084687998518, 431789.992338490090333 ], [ 426150.019387714739423, 431790.339521279151086 ], [ 426137.527776119764894, 431800.61743134324206 ], [ 426137.187676520785317, 431800.924445081152953 ], [ 426127.314979362592567, 431810.69401414191816 ], [ 426127.264668494346552, 431810.74451435636729 ], [ 426111.821753388969228, 431826.468145361111965 ], [ 426108.318737027293537, 431829.858634668693412 ], [ 426088.69945006375201, 431848.242886336927768 ], [ 426086.664436094812118, 431850.1405212857062 ], [ 426068.006166390608996, 431867.526822520478163 ], [ 426067.91113811993273, 431867.617736624437384 ], [ 426047.873320905258879, 431887.299233726516832 ], [ 426030.652518184913788, 431903.159727325255517 ], [ 426030.328567635617219, 431903.486908683204092 ], [ 426027.020217586366925, 431907.151322494784836 ], [ 425968.285584551340435, 431972.204115352360532 ], [ 425967.870202219171915, 431972.731418977549765 ], [ 425962.409727363614365, 431980.712138062750455 ], [ 425962.320540751155932, 431980.847123541636392 ], [ 425941.173699846898671, 432014.007508456532378 ], [ 425934.121446622128133, 432021.392523136746604 ], [ 425923.110766046273056, 432029.985424191749189 ], [ 425909.558061429474037, 432036.749617887660861 ], [ 425914.023774549888913, 432045.697098333388567 ], [ 425928.024796119891107, 432038.709148361929692 ] ] ] } },
{ "type": "Feature", "properties": { "highway": "residential", "maxspeed": "20 mph", "name": "Low Moorside", "osm_type": "way", "osm_id": 27512945, "maxspeed:type": null, "sidewalk": null, "lanes": null, "surface": null, "source:name": null, "lit": null, "ref": null, "source": null, "access": null, "foot": null }, "geometry": { "type": "Polygon", "coordinates": [ [ [ 424547.347139009740204, 431148.495062215137295 ], [ 424547.776077921036631, 431148.797497375460807 ], [ 424548.234355939319357, 431149.053303696506191 ], [ 424548.716923654312268, 431149.259662646683864 ], [ 424549.218464026576839, 431149.414300516713411 ], [ 424549.733450971601997, 431149.515513471851591 ], [ 424565.861377777589951, 431151.813851392653305 ], [ 424566.372940897475928, 431151.860102420963813 ], [ 424566.886549735208973, 431151.853625922522042 ], [ 424567.396783951146062, 431151.794490246626083 ], [ 424567.898258819361217, 431151.683319478004705 ], [ 424588.886095257883426, 431145.88499893975677 ], [ 424589.420783918816596, 431145.704229888622649 ], [ 424596.068853485223372, 431143.029685327725019 ], [ 424609.774125282187015, 431139.396462303411681 ], [ 424631.819562830845825, 431137.708234234480187 ], [ 424641.265824808971956, 431137.260867030243389 ], [ 424641.294453922891989, 431137.259428917430341 ], [ 424659.052921370312106, 431136.316335129842628 ], [ 424672.469973449828103, 431136.495880246395245 ], [ 424693.845103960658889, 431137.56087878101971 ], [ 424693.94695118960226, 431137.564913034555502 ], [ 424753.312603333615698, 431139.31060277891811 ], [ 424840.248521899920888, 431144.338185698434245 ], [ 424840.299416644556914, 431144.34086880623363 ], [ 424847.885254588676617, 431144.702025687496644 ], [ 424856.38628423580667, 431145.234366378979757 ], [ 424872.732509812165517, 431146.255446409806609 ], [ 424872.867430777638219, 431146.262046076299157 ], [ 424885.808609237195924, 431146.719933620013762 ], [ 424885.818911617912818, 431146.720287507981993 ], [ 424888.989996812946629, 431146.82594200578751 ], [ 424923.103910596866626, 431148.030092395842075 ], [ 424923.700803600833751, 431148.015489829645958 ], [ 424970.955576236185152, 431144.027108043723274 ], [ 424971.071728708164301, 431144.015938123338856 ], [ 424995.628595727670472, 431141.364857515087351 ], [ 424995.908453421725426, 431141.326620378007647 ], [ 425019.208961469179485, 431137.469762754277326 ], [ 425032.58843676984543, 431139.570908565656282 ], [ 425046.756734831840731, 431147.301277024962474 ], [ 425051.546309433993883, 431138.522895902569871 ], [ 425036.616222903132439, 431130.376887856458779 ], [ 425036.230714599543717, 431130.187563602754381 ], [ 425035.830381005711388, 431130.03202152234735 ], [ 425035.418175948143471, 431129.911409268854186 ], [ 425034.997140846040566, 431129.826616769423708 ], [ 425019.963726764428429, 431127.465732331271283 ], [ 425019.433757624239661, 431127.411236253683455 ], [ 425018.900998522993177, 431127.413438997638877 ], [ 425018.37149813293945, 431127.472315554332454 ], [ 424994.414795259188395, 431131.437790982134175 ], [ 424970.056408383417875, 431134.067444310639985 ], [ 424923.157786942145322, 431138.025766340550035 ], [ 424889.33781569666462, 431136.831991512328386 ], [ 424889.32793396897614, 431136.831652490305714 ], [ 424886.157059096090961, 431136.726005 ], [ 424873.288536711945198, 431136.270688189135399 ], [ 424857.010882246075198, 431135.253891566884704 ], [ 424848.472896067833062, 431134.719236630364321 ], [ 424848.398181975993793, 431134.715118991094641 ], [ 424840.800425788387656, 431134.353394689911511 ], [ 424753.819138020277023, 431129.323188028356526 ], [ 424753.677430881536566, 431129.317008247948252 ], [ 424694.291825510503259, 431127.570731764601078 ], [ 424672.87669586535776, 431126.503740305546671 ], [ 424672.694786874228157, 431126.497993337397929 ], [ 424659.02058691997081, 431126.315007103898097 ], [ 424658.688523711520247, 431126.321595406043343 ], [ 424640.778446620388422, 431127.272740683110896 ], [ 424631.27381138788769, 431127.722872396698222 ], [ 424631.128562608617358, 431127.731871452298947 ], [ 424608.553863900189754, 431129.460630063782446 ], [ 424608.100657924660482, 431129.516246265906375 ], [ 424607.654415355005767, 431129.612974686024245 ], [ 424593.207928174815606, 431133.442691500240471 ], [ 424592.622993412602227, 431133.637060953304172 ], [ 424585.950692885206081, 431136.321353725215886 ], [ 424566.240143297240138, 431141.766797557880636 ], [ 424552.474540228082333, 431139.805106640211307 ], [ 424535.664789995120373, 431126.579376125708222 ], [ 424529.481352405447979, 431134.438453652663156 ], [ 424547.347139009740204, 431148.495062215137295 ] ] ] } },
{ "type": "Feature", "properties": { "highway": "tertiary", "maxspeed": "30 mph", "name": "Lawns Lane", "osm_type": "way", "osm_id": 27512947, "maxspeed:type": null, "sidewalk": null, "lanes": "2", "surface": "asphalt", "source:name": null, "lit": null, "ref": null, "source": null, "access": null, "foot": null }, "geometry": { "type": "Polygon", "coordinates": [ [ [ 424865.085208782867994, 432068.397563588398043 ], [ 424866.495482554950286, 432057.765203133283649 ], [ 424877.919434723444283, 432006.871440599963535 ], [ 424877.951975572796073, 432006.718496776127722 ], [ 424879.183593878522515, 432000.594566569372546 ], [ 424880.936288499739021, 431991.880985192139633 ], [ 424881.006193074805196, 431991.470711202942766 ], [ 424901.69511044526007, 431843.624327154131606 ], [ 424902.729142083611805, 431836.242482574016321 ], [ 424903.716546795447357, 431829.142312142357696 ], [ 424903.72688062756788, 431829.064835856377613 ], [ 424909.632174863188993, 431782.822198964015115 ], [ 424909.639767090324312, 431782.760572429397143 ], [ 424913.30227116093738, 431751.90473861398641 ], [ 424913.309848970966414, 431751.838177559664473 ], [ 424916.073414862446953, 431726.485058880061843 ], [ 424916.081170982681215, 431726.410166954214219 ], [ 424918.295779800100718, 431703.842377452878281 ], [ 424922.122302758798469, 431680.187208112853114 ], [ 424933.71805652329931, 431640.545979503367562 ], [ 424933.820697629707865, 431640.153149805613793 ], [ 424938.818098412593827, 431618.474848877696786 ], [ 424939.876408343494404, 431613.898897350358311 ], [ 424939.984234295436181, 431613.324347679619677 ], [ 424940.043744634196628, 431612.742804663488641 ], [ 424940.054524325183593, 431612.15832407498965 ], [ 424937.960449752339628, 431522.403224983194377 ], [ 424937.873804874485359, 431518.825066023040563 ], [ 424937.847176355076954, 431518.361519357073121 ], [ 424937.588219419587404, 431515.509620358352549 ], [ 424938.906419759208802, 431497.848022298596334 ], [ 424950.760995501186699, 431434.895870219217613 ], [ 424958.214833857375197, 431410.090002848475706 ], [ 424958.280253574543167, 431409.857851112028584 ], [ 424976.290486961894203, 431341.452830826223362 ], [ 425007.162226597836707, 431258.645170074072666 ], [ 425029.839998343959451, 431206.753402193135116 ], [ 425032.173545355559327, 431201.428516165702604 ], [ 425032.216358048841357, 431201.328724175633397 ], [ 425055.534800123772584, 431145.790855263418052 ], [ 425064.344904871948529, 431127.544789065374061 ], [ 425065.292909437092021, 431125.576838376990054 ], [ 425077.221066831552889, 431101.930133257119451 ], [ 425098.464320851839148, 431061.897458170482423 ], [ 425086.09761701093521, 431055.33509303961182 ], [ 425064.820438893162645, 431095.431697709311265 ], [ 425064.753919743641745, 431095.560244614083786 ], [ 425052.764367151015904, 431119.328661252220627 ], [ 425052.707814716966823, 431119.44336627057055 ], [ 425051.736236232914962, 431121.460260699444916 ], [ 425042.847885091439821, 431139.868378191138618 ], [ 425042.697337799239904, 431140.20219632080989 ], [ 425019.329008708533365, 431195.858881856140215 ], [ 425017.015824236092158, 431201.137302909977734 ], [ 425017.01296588749392, 431201.143834378512111 ], [ 424994.256441141478717, 431253.215806577412877 ], [ 424994.111662085691933, 431253.573676000291016 ], [ 424963.050830858352128, 431336.888539538427722 ], [ 424962.840535252762493, 431337.551542869536206 ], [ 424944.772354070562869, 431406.176655810151715 ], [ 424937.246590817405377, 431431.221884348953608 ], [ 424937.071382940222975, 431431.940905911149457 ], [ 424925.075853949587326, 431495.641571521293372 ], [ 424924.97436281706905, 431496.415973064431455 ], [ 424923.583957161870785, 431515.044997109042015 ], [ 424923.564766642230097, 431515.62219505244866 ], [ 424923.593221121991519, 431516.199010520824231 ], [ 424923.88353112176992, 431519.396201575582381 ], [ 424923.964330724033061, 431522.732863760611508 ], [ 424926.037766743334942, 431611.603364260983653 ], [ 424925.177576865535229, 431615.322678490367252 ], [ 424920.224114563665353, 431636.810370092047378 ], [ 424908.563175216142554, 431676.674442050105426 ], [ 424908.371462554379832, 431677.521901600935962 ], [ 424904.440457970253192, 431701.822965548199136 ], [ 424904.384094713488594, 431702.257137565349694 ], [ 424902.15177308669081, 431725.005427997617517 ], [ 424899.395916297333315, 431750.287822913727723 ], [ 424895.74101983330911, 431781.079564228304662 ], [ 424889.84460901125567, 431827.252637699595653 ], [ 424888.864024336100556, 431834.303791809245013 ], [ 424887.830406094843056, 431841.682685190520715 ], [ 424867.170136692700908, 431989.324345683620777 ], [ 424865.458475807565264, 431997.833926435792819 ], [ 424864.242215012956876, 432003.881495043053292 ], [ 424852.767167237529065, 432055.002888753951993 ], [ 424852.657990596664604, 432055.615589565888513 ], [ 424851.0932870770921, 432067.412229448847938 ], [ 424851.032807789335493, 432068.268217203789391 ], [ 424851.077520157094114, 432069.125173203297891 ], [ 424852.462837259925436, 432081.282325931126252 ], [ 424866.372819492651615, 432079.697272529359907 ], [ 424865.085208782867994, 432068.397563588398043 ] ] ] } },
{ "type": "Feature", "properties": { "highway": "unclassified", "maxspeed": null, "name": "Ashfield Way", "osm_type": "way", "osm_id": 31732677, "maxspeed:type": null, "sidewalk": null, "lanes": null, "surface": null, "source:name": null, "lit": null, "ref": null, "source": null, "access": null, "foot": null }, "geometry": { "type": "Polygon", "coordinates": [ [ [ 425712.802640171314124, 431746.375881844258402 ], [ 425694.501982291636523, 431726.869149100442883 ], [ 425646.49298162170453, 431675.671591887890827 ], [ 425639.198412307247054, 431682.511859318066854 ], [ 425687.207823124947026, 431733.709853918699082 ], [ 425706.744979371491354, 431754.534574637829792 ], [ 425707.100976152985822, 431754.878247354063205 ], [ 425707.489199068455491, 431755.185049590480048 ], [ 425707.905845945759211, 431755.451976591604762 ], [ 425708.346836234733928, 431755.676414131652564 ], [ 425708.807850970886648, 431755.856164117401931 ], [ 425709.284375074668787, 431755.989466116006952 ], [ 425709.771741571137682, 431756.075014596281108 ], [ 425728.776294229319319, 431758.448749124014284 ], [ 425730.015698425471783, 431748.525852508668322 ], [ 425712.802640171314124, 431746.375881844258402 ] ] ] } },
{ "type": "Feature", "properties": { "highway": "unclassified", "maxspeed": null, "name": "Ashfield Way", "osm_type": "way", "osm_id": 31732678, "maxspeed:type": null, "sidewalk": null, "lanes": null, "surface": null, "source:name": null, "lit": null, "ref": null, "source": null, "access": null, "foot": null }, "geometry": { "type": "Polygon", "coordinates": [ [ [ 425481.105946182098705, 431549.843056633369997 ], [ 425455.867803452769294, 431625.108421219163574 ], [ 425455.726182152808178, 431625.619105442019645 ], [ 425455.63940847775666, 431626.14191066136118 ], [ 425455.608457260474097, 431626.670963579497766 ], [ 425455.534702748351265, 431640.289056826091837 ], [ 425455.553336417477112, 431640.748247162089683 ], [ 425455.614052643359173, 431641.203786971746013 ], [ 425457.904409884416964, 431653.900082492968068 ], [ 425458.033328116696794, 431654.440720179467462 ], [ 425458.221453810518142, 431654.963709416508209 ], [ 425460.380491821793839, 431660.057398325065151 ], [ 425463.795149920566473, 431668.139716302219313 ], [ 425464.001273479079828, 431668.569270853244234 ], [ 425464.247346936666872, 431668.977256008831318 ], [ 425464.531135906523559, 431669.359967197931837 ], [ 425464.850063539110124, 431669.71392934123287 ], [ 425473.743666408350691, 431678.685349061677698 ], [ 425474.080388302099891, 431678.995269159786403 ], [ 425474.44403628190048, 431679.273104088730179 ], [ 425474.831563965359237, 431679.516526346269529 ], [ 425564.47847694932716, 431730.260380790627096 ], [ 425564.933887385181151, 431730.488357763388194 ], [ 425565.410126364324242, 431730.668825488712173 ], [ 425565.902252961415797, 431730.799911634530872 ], [ 425566.405161418777425, 431730.880256196833216 ], [ 425584.759651283558924, 431732.860450650565326 ], [ 425585.23240861017257, 431732.888893585652113 ], [ 425585.705736227857415, 431732.872478447679896 ], [ 425586.175387280469295, 431732.811352518736385 ], [ 425586.637147899251431, 431732.706064241472632 ], [ 425587.086875011154916, 431732.557558298110962 ], [ 425587.520533511822578, 431732.367167134361807 ], [ 425587.934232469822746, 431732.136599004385062 ], [ 425592.337180116039235, 431729.401654612331185 ], [ 425600.687471676443238, 431724.218185943434946 ], [ 425601.067114699457306, 431723.957562668831088 ], [ 425601.421170083165634, 431723.66311725549167 ], [ 425618.434271775360685, 431708.134819903119933 ], [ 425646.18898869905388, 431682.809752557252068 ], [ 425665.08000330964569, 431666.069765780877788 ], [ 425730.020233665942214, 431608.523845461080782 ], [ 425730.385089636722114, 431608.165598715364467 ], [ 425730.711449005932081, 431607.77196160791209 ], [ 425730.995898568828125, 431607.34705096273683 ], [ 425731.235463431221433, 431606.895310675667133 ], [ 425731.427638121997006, 431606.421465238381643 ], [ 425736.716974791779649, 431591.185235649871174 ], [ 425736.863546798878815, 431590.678034637414385 ], [ 425736.955820562376175, 431590.158206037944183 ], [ 425736.992767280549742, 431589.631545653741341 ], [ 425736.973975017899647, 431589.103925457806326 ], [ 425729.587727129110135, 431505.787699366454035 ], [ 425732.6988404301228, 431497.340482662199065 ], [ 425734.389168274297845, 431495.056805574567989 ], [ 425736.804692114761565, 431494.538965719228145 ], [ 425748.824693778762594, 431492.929449929099064 ], [ 425749.355757821234874, 431492.828863380360417 ], [ 425749.872861261363141, 431492.671539818285964 ], [ 425759.830396708974149, 431489.043309145607054 ], [ 425760.323812456510495, 431488.832899406144861 ], [ 425760.791848270688206, 431488.570842475339305 ], [ 425761.229117408394814, 431488.260154433140997 ], [ 425761.630587227875367, 431487.904411067196634 ], [ 425768.190125618479215, 431481.431516456941608 ], [ 425768.469407664844766, 431481.13239517994225 ], [ 425768.723292696464341, 431480.811436630494427 ], [ 425768.950079968024511, 431480.470790871360805 ], [ 425778.419560424983501, 431464.901482029410545 ], [ 425781.586642497568391, 431459.686771486129146 ], [ 425773.03949934290722, 431454.495784692291636 ], [ 425769.874916284810752, 431459.706382502801716 ], [ 425760.7269576069084, 431474.747059187910054 ], [ 425755.382626667735167, 431480.020797806675546 ], [ 425746.959422547311988, 431483.08996363717597 ], [ 425735.283954314538278, 431484.653345324040856 ], [ 425734.899461370136123, 431484.720196454960387 ], [ 425730.446016277768649, 431485.674925745523069 ], [ 425729.947932631592266, 431485.808913363842294 ], [ 425729.4663027030183, 431485.993501045857556 ], [ 425729.006251805112697, 431486.226724483363796 ], [ 425728.57267561549088, 431486.506101805774961 ], [ 425728.170188078598585, 431486.828659991384484 ], [ 425727.803072305803653, 431487.190966504975222 ], [ 425727.475234996294603, 431487.589165825629607 ], [ 425724.235382430255413, 431491.966291303164326 ], [ 425723.971935473149642, 431492.359925340744667 ], [ 425723.746918354940135, 431492.7767218752997 ], [ 425723.562350397638511, 431493.212940540513955 ], [ 425719.816322899714578, 431503.384060327429324 ], [ 425719.654587851196993, 431503.911157925787847 ], [ 425719.551871073781513, 431504.452858366712462 ], [ 425719.50942156277597, 431505.002574787358753 ], [ 425719.527755487535615, 431505.553622853592969 ], [ 425726.918341080017854, 431588.91877786105033 ], [ 425722.409515686624218, 431601.906701140862424 ], [ 425658.447883270098828, 431658.585449928301387 ], [ 425639.529638844833244, 431675.349565992888529 ], [ 425639.475525730231311, 431675.398225115379319 ], [ 425611.693661511235405, 431700.748063280712813 ], [ 425595.020963122602552, 431715.965665674302727 ], [ 425587.062535696954001, 431720.905883499770425 ], [ 425584.120360127242748, 431722.73345132288523 ], [ 425568.505195764999371, 431721.048792032874189 ], [ 425480.35895659099333, 431671.154380930704065 ], [ 425472.631229488411918, 431663.359038104885258 ], [ 425469.590980813256465, 431656.162927744386252 ], [ 425469.588699669577181, 431656.157537199615035 ], [ 425467.64643296925351, 431651.575263845734298 ], [ 425465.537052956351545, 431639.882191896089353 ], [ 425465.603966639260761, 431627.527194933209103 ], [ 425490.587196735199541, 431553.022032573702745 ], [ 425505.872801829944365, 431507.420134518004488 ], [ 425496.391282396507449, 431504.241960634535644 ], [ 425481.105946182098705, 431549.843056633369997 ] ] ] } },
{ "type": "Feature", "properties": { "highway": "unclassified", "maxspeed": null, "name": "Ashfield Way", "osm_type": "way", "osm_id": 31804488, "maxspeed:type": null, "sidewalk": null, "lanes": null, "surface": null, "source:name": null, "lit": null, "ref": null, "source": null, "access": null, "foot": null }, "geometry": { "type": "Polygon", "coordinates": [ [ [ 425478.391760437749326, 431350.065724902320653 ], [ 425491.29109556163894, 431364.371733780251816 ], [ 425491.574185441015288, 431364.661213463055901 ], [ 425491.879769572929945, 431364.926838583953213 ], [ 425564.54910899157403, 431423.099921147862915 ], [ 425564.995038344815839, 431423.418428557401057 ], [ 425565.473145169904456, 431423.686222922289744 ], [ 425565.977686448371969, 431423.900087497080676 ], [ 425587.123195513209794, 431431.525330984964967 ], [ 425587.561201716249343, 431431.660930754209403 ], [ 425588.009788068302441, 431431.755836054799147 ], [ 425647.210646833351348, 431441.469048794242553 ], [ 425693.240705921838526, 431450.361990613513626 ], [ 425694.130547678389121, 431450.537115617829841 ], [ 425713.674595584569033, 431458.715882346150465 ], [ 425718.752627180307172, 431467.814343437377829 ], [ 425726.744155363936443, 431492.12525479629403 ], [ 425736.244048943219241, 431489.002432037435938 ], [ 425728.102587494067848, 431464.235410877678078 ], [ 425727.931592224282213, 431463.78853866684949 ], [ 425727.718665818567388, 431463.360057044250425 ], [ 425721.564626415551174, 431452.333680581941735 ], [ 425721.313630007323809, 431451.930280526808929 ], [ 425721.025478049938101, 431451.552524982951581 ], [ 425720.702772334392648, 431451.203824792813975 ], [ 425720.348426645388827, 431450.887328451382928 ], [ 425719.965640452399384, 431450.6058936775662 ], [ 425719.557870020798873, 431450.362061611260287 ], [ 425719.128797204466537, 431450.158033868705388 ], [ 425697.523465453763492, 431441.11666386568686 ], [ 425697.048536204441916, 431440.94554164155852 ], [ 425696.558772513584699, 431440.823180967301596 ], [ 425695.163190348772332, 431440.548523893870879 ], [ 425695.1461415689555, 431440.545199364656582 ], [ 425649.038271644269116, 431431.637224602745846 ], [ 425648.899354383756872, 431431.612414166214876 ], [ 425590.082760677440092, 431421.962248624768108 ], [ 425570.150640262756497, 431414.774563006707467 ], [ 425498.446051698178053, 431357.373780446243472 ], [ 425485.269158157345373, 431342.75994537898805 ], [ 425484.885057790728752, 431342.377798053028528 ], [ 425484.461862391966861, 431342.039456029480789 ], [ 425484.004541454545688, 431341.748892386618536 ], [ 425455.844790116767399, 431325.930644410604145 ], [ 425450.947261630906723, 431334.649257530283649 ], [ 425478.391760437749326, 431350.065724902320653 ] ] ] } },
{ "type": "Feature", "properties": { "highway": "unclassified", "maxspeed": null, "name": "Whitehall Park", "osm_type": "way", "osm_id": 31804489, "maxspeed:type": null, "sidewalk": null, "lanes": null, "surface": null, "source:name": null, "lit": null, "ref": null, "source": null, "access": null, "foot": null }, "geometry": { "type": "Polygon", "coordinates": [ [ [ 425988.789680953195784, 431568.434185792808421 ], [ 425988.624032107996754, 431568.828379974642303 ], [ 425983.968070437607821, 431581.386401577561628 ], [ 425983.815452775568701, 431581.872795228206087 ], [ 425983.71315415535355, 431582.372200801270083 ], [ 425983.662237954442389, 431582.879427057167049 ], [ 425983.66323343856493, 431583.389201461337507 ], [ 425983.716130259737838, 431583.896224991767667 ], [ 425983.82037856412353, 431584.395227221422829 ], [ 425987.040931024355814, 431596.651885992381722 ], [ 425987.18293962610187, 431597.103976761398371 ], [ 425987.367108751437627, 431597.540593572484795 ], [ 425987.591784174845088, 431597.957814689551014 ], [ 426003.171718551253434, 431623.867967821483035 ], [ 426003.480855195957702, 431624.323298815288581 ], [ 426003.838162014377303, 431624.741896016057581 ], [ 426004.239309994678479, 431625.118687837733887 ], [ 426018.76148936158279, 431637.326649419032037 ], [ 426019.14499532879563, 431637.618685124849435 ], [ 426019.554840850003529, 431637.872433679818641 ], [ 426081.413729785766918, 431672.161420629185159 ], [ 426086.261830844392534, 431663.415226249664556 ], [ 426024.826018695661332, 431629.360754899913445 ], [ 426011.312163157563191, 431618.000433211505879 ], [ 425996.530689595791046, 431593.418157429841813 ], [ 425993.893500444944948, 431583.3816410448635 ], [ 425997.92595244437689, 431572.505344608973246 ], [ 426004.39607069734484, 431558.782892412156798 ], [ 425995.351058911415748, 431554.518181191873737 ], [ 425988.789680953195784, 431568.434185792808421 ] ] ] } },
{ "type": "Feature", "properties": { "highway": "residential", "maxspeed": "20 mph", "name": "Whincover Road", "osm_type": "way", "osm_id": 31804571, "maxspeed:type": null, "sidewalk": null, "lanes": null, "surface": null, "source:name": null, "lit": null, "ref": null, "source": null, "access": null, "foot": null }, "geometry": { "type": "Polygon", "coordinates": [ [ [ 425449.022080509923398, 432108.875207790697459 ], [ 425580.962008904665709, 432055.72960153099848 ], [ 425636.243304562289268, 432035.501054499996826 ], [ 425639.678253389080055, 432035.049588526948355 ], [ 425639.68385947594652, 432035.048848476493731 ], [ 425653.386115089058876, 432033.232152004959062 ], [ 425659.749744503351394, 432032.387853014050052 ], [ 425660.128153946774546, 432032.3227751996601 ], [ 425668.987597202474717, 432030.4463303227094 ], [ 425703.970533804851584, 432023.038305847905576 ], [ 425704.23072625376517, 432022.975888846674934 ], [ 425740.967903711425606, 432013.116434378549457 ], [ 425773.921371522650588, 432004.738137678708881 ], [ 425774.00055132486159, 432004.717314879992045 ], [ 425791.310277808865067, 432000.013330981251784 ], [ 425811.88238780410029, 432002.235612801741809 ], [ 425835.660749052301981, 432009.990266819891986 ], [ 425864.861154519836418, 432023.192650822282303 ], [ 425909.542387063440401, 432045.689240853476804 ], [ 425914.039448915922549, 432036.757475367572624 ], [ 425869.264838128117844, 432014.213870248466264 ], [ 425869.076198013033718, 432014.123784395575058 ], [ 425839.531122195417993, 432000.765564532543067 ], [ 425839.021486272104084, 432000.567933462560177 ], [ 425814.487598259118386, 431992.566885313135572 ], [ 425813.986618580296636, 431992.431822428130545 ], [ 425813.474339356529526, 431992.349405085027684 ], [ 425791.446385042800102, 431989.969857123040128 ], [ 425790.981229694094509, 431989.94145315134665 ], [ 425790.515450262115337, 431989.956479952728841 ], [ 425790.053092996648047, 431990.01480698864907 ], [ 425789.598174419079442, 431990.115927569102496 ], [ 425771.417626703798305, 431995.056560444005299 ], [ 425738.471782312612049, 432003.432918917620555 ], [ 425738.407789460208733, 432003.449640249134973 ], [ 425701.767931742651854, 432013.282976228801999 ], [ 425666.915830844372977, 432020.663294793455862 ], [ 425658.244057851203252, 432022.499990791489836 ], [ 425652.071555265923962, 432023.318931916437577 ], [ 425638.372326441924088, 432025.135227084916551 ], [ 425634.392403018020559, 432025.658320758724585 ], [ 425633.85188061138615, 432025.759871129994281 ], [ 425633.325781325052958, 432025.920172380458098 ], [ 425577.450196144869551, 432046.366181998339016 ], [ 425577.300230643537361, 432046.423805800906848 ], [ 425442.415943166881334, 432100.755404431198258 ], [ 425441.958947368490044, 432100.966816625208594 ], [ 425441.525532284576911, 432101.223120430426206 ], [ 425441.120093442325015, 432101.521716513321735 ], [ 425440.746742644812912, 432101.859576628659852 ], [ 425440.409266270580702, 432102.233274330443237 ], [ 425440.11108687374508, 432102.639019722060766 ], [ 425439.8552284737234, 432103.072697891504504 ], [ 425439.644285886897705, 432103.529910643526819 ], [ 425439.480398410989437, 432104.006021104229148 ], [ 425439.365228129026946, 432104.496200746449176 ], [ 425439.29994305310538, 432104.995478358992841 ], [ 425435.680916043231264, 432150.33751841186313 ], [ 425445.649214344681241, 432151.133149591099937 ], [ 425449.022080509923398, 432108.875207790697459 ] ] ] } },
{ "type": "Feature", "properties": { "highway": "residential", "maxspeed": "20 mph", "name": "Cobden Avenue", "osm_type": "way", "osm_id": 36894117, "maxspeed:type": null, "sidewalk": null, "lanes": null, "surface": null, "source:name": null, "lit": null, "ref": null, "source": null, "access": null, "foot": null }, "geometry": { "type": "Polygon", "coordinates": [ [ [ 425995.914925518271048, 431824.231845062924549 ], [ 425988.604342086182442, 431831.054994620382786 ], [ 426047.664401052810717, 431894.334200937184505 ], [ 426054.974984484899323, 431887.511051379726268 ], [ 425995.914925518271048, 431824.231845062924549 ] ] ] } },
{ "type": "Feature", "properties": { "highway": "residential", "maxspeed": "20 mph", "name": "Pinder Avenue", "osm_type": "way", "osm_id": 36894121, "maxspeed:type": null, "sidewalk": null, "lanes": null, "surface": null, "source:name": null, "lit": null, "ref": null, "source": null, "access": null, "foot": null }, "geometry": { "type": "Polygon", "coordinates": [ [ [ 425886.832104216387961, 431926.612953513162211 ], [ 425900.385633838071954, 431937.379366646695416 ], [ 425919.207584159797989, 431952.336376659455709 ], [ 425938.156036036380101, 431967.373512363468762 ], [ 425950.127851220488083, 431976.884895133029204 ], [ 425963.425912010250613, 431987.450355151959229 ], [ 425969.646623594802804, 431979.620748049288522 ], [ 425956.348527016118169, 431969.05525959568331 ], [ 425944.375522616552189, 431959.542932015610859 ], [ 425925.427706362039316, 431944.506301148154307 ], [ 425906.606693755020387, 431929.55003629764542 ], [ 425893.051729657745454, 431918.782483565970324 ], [ 425876.006362961954437, 431905.247551694570575 ], [ 425869.787849982152693, 431913.078905110189226 ], [ 425886.832104216387961, 431926.612953513162211 ] ] ] } },
{ "type": "Feature", "properties": { "highway": "residential", "maxspeed": "20 mph", "name": "Pinder View", "osm_type": "way", "osm_id": 36894122, "maxspeed:type": null, "sidewalk": null, "lanes": null, "surface": null, "source:name": null, "lit": null, "ref": null, "source": null, "access": null, "foot": null }, "geometry": { "type": "Polygon", "coordinates": [ [ [ 425893.796543264179491, 431925.881974908697885 ], [ 425886.086919812951237, 431919.513167623255868 ], [ 425846.212887093541212, 431967.781825155427214 ], [ 425853.922510544769466, 431974.150632440869231 ], [ 425893.796543264179491, 431925.881974908697885 ] ] ] } },
{ "type": "Feature", "properties": { "highway": "residential", "maxspeed": null, "name": "Pinder Grove", "osm_type": "way", "osm_id": 36894123, "maxspeed:type": null, "sidewalk": null, "lanes": null, "surface": null, "source:name": null, "lit": null, "ref": null, "source": null, "access": null, "foot": null }, "geometry": { "type": "Polygon", "coordinates": [ [ [ 425957.022367426543497, 431976.238068517239299 ], [ 425949.45397502114065, 431969.702057776798028 ], [ 425921.826580667693634, 432001.693278402031865 ], [ 425929.39497307309648, 432008.229289142473135 ], [ 425957.022367426543497, 431976.238068517239299 ] ] ] } },
{ "type": "Feature", "properties": { "highway": "residential", "maxspeed": "20 mph", "name": "Pinder Street", "osm_type": "way", "osm_id": 36894144, "maxspeed:type": null, "sidewalk": null, "lanes": null, "surface": null, "source:name": null, "lit": null, "ref": null, "source": null, "access": null, "foot": null }, "geometry": { "type": "Polygon", "coordinates": [ [ [ 425994.365141948743258, 431919.857605992059689 ], [ 426021.404911540565081, 431894.150123795901891 ], [ 426014.514641920453869, 431886.902766721614171 ], [ 425987.474572357488796, 431912.610534108884167 ], [ 425937.819504174112808, 431959.834684935049154 ], [ 425944.710973843175452, 431967.080900899250992 ], [ 425994.365141948743258, 431919.857605992059689 ] ] ] } },
{ "type": "Feature", "properties": { "highway": "residential", "maxspeed": null, "name": "Billey Lane", "osm_type": "way", "osm_id": 36894145, "maxspeed:type": null, "sidewalk": null, "lanes": null, "surface": null, "source:name": "OS_OpenData_Locator", "lit": null, "ref": null, "source": null, "access": null, "foot": null }, "geometry": { "type": "Polygon", "coordinates": [ [ [ 425338.28538141498575, 432107.847214876033831 ], [ 425338.227327244821936, 432107.39339579018997 ], [ 425338.128033585788216, 432106.946783185587265 ], [ 425337.988331811968237, 432106.511116496811155 ], [ 425337.809391629882157, 432106.09004350961186 ], [ 425337.592711284465622, 432105.687089818413369 ], [ 425337.340105014678556, 432105.305629306938499 ], [ 425337.053687863110099, 432104.948855899041519 ], [ 425330.479057386808563, 432097.48608352051815 ], [ 425328.655208756914362, 432078.762074047233909 ], [ 425368.997387488547247, 431995.353960537351668 ], [ 425359.995093229750637, 431990.999801826663315 ], [ 425319.041473140881862, 432075.672080330434255 ], [ 425318.861787233734503, 432076.09137639880646 ], [ 425318.721063872682862, 432076.525303989357781 ], [ 425318.620474417752121, 432076.970251154503785 ], [ 425318.560856160300318, 432077.422514221281745 ], [ 425318.542705353698693, 432077.878328620339744 ], [ 425318.566173082508612, 432078.33390022162348 ], [ 425320.682806014141534, 432100.063694247975945 ], [ 425320.7602017778554, 432100.57860122207785 ], [ 425320.890726636513136, 432101.082667247042991 ], [ 425321.072965077881236, 432101.570425841782708 ], [ 425321.304940767528024, 432102.03658737562364 ], [ 425321.584137982164975, 432102.476096433121711 ], [ 425321.907528891577385, 432102.884186638751999 ], [ 425328.453548274526838, 432110.314482959802262 ], [ 425331.334875629923772, 432145.60516260022996 ], [ 425341.30171135434648, 432144.791414700972382 ], [ 425338.28538141498575, 432107.847214876033831 ] ] ] } },
{ "type": "Feature", "properties": { "highway": "residential", "maxspeed": "20 mph", "name": "Cobden Terrace", "osm_type": "way", "osm_id": 36894146, "maxspeed:type": null, "sidewalk": null, "lanes": null, "surface": null, "source:name": null, "lit": null, "ref": null, "source": null, "access": null, "foot": null }, "geometry": { "type": "Polygon", "coordinates": [ [ [ 425957.751242729078513, 431889.878551475179847 ], [ 425988.753196190809831, 431861.13458184042247 ], [ 425981.95421979308594, 431853.801511546073016 ], [ 425950.950314489426091, 431882.547290863061789 ], [ 425950.946412777993828, 431882.5509122631629 ], [ 425900.092596540926024, 431929.801646796229761 ], [ 425906.899376361514442, 431937.127474290376995 ], [ 425957.751242729078513, 431889.878551475179847 ] ] ] } },
{ "type": "Feature", "properties": { "highway": "residential", "maxspeed": null, "name": "Coach Road", "osm_type": "way", "osm_id": 36964843, "maxspeed:type": null, "sidewalk": null, "lanes": null, "surface": null, "source:name": null, "lit": null, "ref": null, "source": null, "access": null, "foot": null }, "geometry": { "type": "Polygon", "coordinates": [ [ [ 425103.112659688515123, 431179.064486936666071 ], [ 425103.307405311323237, 431179.162041346949991 ], [ 425123.725431152677629, 431188.839639036741573 ], [ 425124.079542407998815, 431188.991064137546346 ], [ 425152.320774381805677, 431199.800964903086424 ], [ 425152.759479139524046, 431199.946026886405889 ], [ 425153.209701904444955, 431200.049970647087321 ], [ 425184.89809119066922, 431205.838334612199105 ], [ 425202.425367169256788, 431209.036623558669817 ], [ 425202.555954907555133, 431209.058669670135714 ], [ 425215.547892563394271, 431211.075413341401145 ], [ 425215.616279607231263, 431211.085545420763083 ], [ 425266.521041302359663, 431218.268198719946668 ], [ 425267.114637736813165, 431218.316138279798906 ], [ 425267.709723479812965, 431218.293162490881514 ], [ 425297.916054604749661, 431215.317993667384144 ], [ 425298.406522525358014, 431215.244977086258586 ], [ 425298.887345936556812, 431215.123737449408509 ], [ 425299.353795647679362, 431214.955467222433072 ], [ 425299.801283842185512, 431214.74182144535007 ], [ 425300.225409201520961, 431214.484901454183273 ], [ 425300.622000194969587, 431214.187234213401098 ], [ 425300.987156108836643, 431213.851747461303603 ], [ 425307.149766572809312, 431207.598658400995191 ], [ 425311.927443674241658, 431202.751150609110482 ], [ 425304.805262719921302, 431195.731568110524677 ], [ 425300.027528968697879, 431200.579133380204439 ], [ 425295.134966833109502, 431205.543527434114367 ], [ 425267.325353571271989, 431208.282631830079481 ], [ 425217.047666880767792, 431201.18845870840596 ], [ 425204.155327590822708, 431199.187175731232855 ], [ 425186.694557655311655, 431196.001022557902616 ], [ 425155.462627227418125, 431190.296037712600082 ], [ 425127.834290013532154, 431179.720734769885894 ], [ 425107.688837221416179, 431170.172329409047961 ], [ 425100.851848652993795, 431166.559071948053315 ], [ 425096.17936099373037, 431175.40033085574396 ], [ 425103.112659688515123, 431179.064486936666071 ] ] ] } },
{ "type": "Feature", "properties": { "highway": "residential", "maxspeed": null, "name": "Gainsborough Field", "osm_type": "way", "osm_id": 36964845, "maxspeed:type": null, "sidewalk": null, "lanes": null, "surface": null, "source:name": null, "lit": null, "ref": null, "source": null, "access": null, "foot": null }, "geometry": { "type": "Polygon", "coordinates": [ [ [ 425098.905245856032707, 431176.404467552143615 ], [ 425098.696452644013334, 431176.862489498860668 ], [ 425098.534769713238347, 431177.339183676464017 ], [ 425098.421835744229611, 431177.829718718712684 ], [ 425098.358795339532662, 431178.329122980241664 ], [ 425098.346287422988098, 431178.832334924780298 ], [ 425098.384438764187507, 431179.334254424495157 ], [ 425098.47286269365577, 431179.829794450895861 ], [ 425098.610663021623623, 431180.313932632270735 ], [ 425098.796443121507764, 431180.781762156286277 ], [ 425099.028320084267762, 431181.228541501390282 ], [ 425099.303943802602589, 431181.649742492532823 ], [ 425099.620520789176226, 431182.041096195229329 ], [ 425099.974842489289586, 431182.398636181664187 ], [ 425100.363317799929064, 431182.718738730996847 ], [ 425103.393811439920682, 431184.969638267590199 ], [ 425119.864847739809193, 431197.23198213026626 ], [ 425126.852601994236466, 431204.037933573767077 ], [ 425133.829866220999975, 431196.874290372768883 ], [ 425126.604899535188451, 431189.837298135447782 ], [ 425126.102077874238603, 431189.40851679595653 ], [ 425109.741178698139265, 431177.228167730732821 ], [ 425109.888318658806384, 431176.94420380651718 ], [ 425108.14023554942105, 431176.038409591128584 ], [ 425106.326004193455447, 431174.690889020683244 ], [ 425106.289197487290949, 431174.740443648479413 ], [ 425106.378071775718126, 431175.125319278507959 ], [ 425101.009488377487287, 431172.343511159124319 ], [ 425098.905245856032707, 431176.404467552143615 ] ] ] } },
{ "type": "Feature", "properties": { "highway": "residential", "maxspeed": null, "name": "Croft Cottages", "osm_type": "way", "osm_id": 36964846, "maxspeed:type": null, "sidewalk": null, "lanes": null, "surface": null, "source:name": null, "lit": null, "ref": null, "source": null, "access": null, "foot": null }, "geometry": { "type": "Polygon", "coordinates": [ [ [ 425141.921573221217841, 431220.595598012732808 ], [ 425172.167360782681499, 431254.14878932654392 ], [ 425179.595025726070162, 431247.453283857204951 ], [ 425149.340604433731642, 431213.890514706377871 ], [ 425149.323287681327201, 431213.871403687167913 ], [ 425134.037749826908112, 431197.089248219388537 ], [ 425126.644718388328329, 431203.822975727147423 ], [ 425141.921573221217841, 431220.595598012732808 ] ] ] } },
{ "type": "Feature", "properties": { "highway": "residential", "maxspeed": null, "name": "Croft Terrace", "osm_type": "way", "osm_id": 36964847, "maxspeed:type": null, "sidewalk": null, "lanes": null, "surface": null, "source:name": null, "lit": null, "ref": null, "source": null, "access": null, "foot": null }, "geometry": { "type": "Polygon", "coordinates": [ [ [ 425204.710444328375161, 431293.027208132087253 ], [ 425204.908019299502485, 431293.249439546198118 ], [ 425232.792249874677509, 431322.795308576140087 ], [ 425234.835476793930866, 431328.383879251021426 ], [ 425244.227449135505594, 431324.950097729742993 ], [ 425241.830859985144343, 431318.395021678705234 ], [ 425241.632746748218779, 431317.928076577663887 ], [ 425241.388343817205168, 431317.483606343215797 ], [ 425241.100166455842555, 431317.066185224452056 ], [ 425240.771180430834647, 431316.680109095468652 ], [ 425212.2827256108867, 431286.494009726215154 ], [ 425179.715074841980822, 431247.591464662109502 ], [ 425172.047311666770838, 431254.010608521639369 ], [ 425204.710444328375161, 431293.027208132087253 ] ] ] } },
{ "type": "Feature", "properties": { "highway": "residential", "maxspeed": null, "name": "Low Moorside Close", "osm_type": "way", "osm_id": 36964854, "maxspeed:type": null, "sidewalk": null, "lanes": null, "surface": null, "source:name": null, "lit": null, "ref": null, "source": null, "access": null, "foot": null }, "geometry": { "type": "Polygon", "coordinates": [ [ [ 425023.492827791953459, 431113.535992499091662 ], [ 425044.791739351581782, 431100.730654100538231 ], [ 425039.639093783334829, 431092.16034234140534 ], [ 425015.810729217308108, 431106.486439282889478 ], [ 425015.40801853465382, 431106.755955785745755 ], [ 425015.033288726466708, 431107.063189589243848 ], [ 425014.690059480431955, 431107.405254968791269 ], [ 425014.381554612133186, 431107.778939040494151 ], [ 425014.110671784903388, 431108.180731938802637 ], [ 425013.879955293203238, 431108.606859783059917 ], [ 425013.691572165116668, 431109.053320124279708 ], [ 425013.547291808295995, 431109.51591953827301 ], [ 425013.448469390685204, 431109.99031301314244 ], [ 425013.39603311184328, 431110.472044759895653 ], [ 425013.390475484833587, 431110.956590064277407 ], [ 425014.191445003845729, 431132.590188881324138 ], [ 425024.184598037041724, 431132.220199077681173 ], [ 425023.492827791953459, 431113.535992499091662 ] ] ] } },
{ "type": "Feature", "properties": { "highway": "residential", "maxspeed": null, "name": "Forge Row", "osm_type": "way", "osm_id": 36964878, "maxspeed:type": null, "sidewalk": null, "lanes": null, "surface": "unpaved", "source:name": null, "lit": null, "ref": null, "source": null, "access": null, "foot": null }, "geometry": { "type": "Polygon", "coordinates": [ [ [ 424856.611883839184884, 431249.856375694624148 ], [ 424862.673134603362996, 431233.093649424030446 ], [ 424863.966808556288015, 431230.345559637935366 ], [ 424876.95626420766348, 431204.86806710367091 ], [ 424925.550743750063702, 431201.943953650828917 ], [ 424977.637463954160921, 431199.733205817814451 ], [ 424993.841791809303686, 431199.456342826248147 ], [ 425012.341875715123024, 431200.058382382965647 ], [ 425019.17080200946657, 431200.760943576518912 ], [ 425023.401813811680768, 431203.026634065143298 ], [ 425028.12253361864714, 431194.21103400021093 ], [ 425023.022952633211389, 431191.48022806661902 ], [ 425022.583677935414016, 431191.271814105741214 ], [ 425022.126237560412847, 431191.107050813036039 ], [ 425021.654957039630972, 431190.98749618139118 ], [ 425021.17429277591873, 431190.914280712779146 ], [ 425013.191152293351479, 431190.092973751190584 ], [ 425012.842078813584521, 431190.069366577314213 ], [ 424994.04304730129661, 431189.457598508801311 ], [ 424993.795004483254161, 431189.455682715808507 ], [ 424977.403302161488682, 431189.735747139493469 ], [ 424977.276691314356867, 431189.739515064517036 ], [ 424925.082520246214699, 431191.954823498846963 ], [ 424924.994221682834905, 431191.959353627287783 ], [ 424873.500602716056164, 431195.057919253944419 ], [ 424873.031129502109252, 431195.108505972486455 ], [ 424872.568521789158694, 431195.2031538389856 ], [ 424872.11690537398681, 431195.341018730250653 ], [ 424871.680308026727289, 431195.520871089363936 ], [ 424871.262623569054995, 431195.74110689148074 ], [ 424870.867577146738768, 431195.999761949293315 ], [ 424870.498692006862257, 431196.29452943103388 ], [ 424870.159258075349499, 431196.622780433855951 ], [ 424869.852302615647204, 431196.981587429938372 ], [ 424869.580563229799736, 431197.367750375997275 ], [ 424869.346463443187531, 431197.777825252851471 ], [ 424855.022094246698543, 431225.873614565120079 ], [ 424854.952754426456522, 431226.015082186262589 ], [ 424853.52641141746426, 431229.044994511234108 ], [ 424853.348167870426551, 431229.474375039339066 ], [ 424847.208902952610515, 431246.452855216804892 ], [ 424845.898448184889276, 431250.072041164385155 ], [ 424855.30105690570781, 431253.47658948157914 ], [ 424856.611883839184884, 431249.856375694624148 ] ] ] } },
{ "type": "Feature", "properties": { "highway": "residential", "maxspeed": "20 mph", "name": "Stephenson Drive", "osm_type": "way", "osm_id": 36964916, "maxspeed:type": null, "sidewalk": null, "lanes": null, "surface": null, "source:name": null, "lit": null, "ref": null, "source": null, "access": null, "foot": null }, "geometry": { "type": "Polygon", "coordinates": [ [ [ 424958.158183578285389, 431443.07399517914746 ], [ 424958.308069046004675, 431443.119772544538137 ], [ 424980.949609744711779, 431449.648716325580608 ], [ 424981.65959118923638, 431449.798646718380041 ], [ 425009.600713631603867, 431453.607714826939628 ], [ 425010.148518367030192, 431453.651910499436781 ], [ 425010.697864398302045, 431453.635717180732172 ], [ 425011.24211467418354, 431453.559330514108296 ], [ 425040.565409506962169, 431447.785135157697368 ], [ 425040.990184868918732, 431447.682016872568056 ], [ 425041.40433077007765, 431447.542193193046842 ], [ 425041.80468201788608, 431447.366732749564108 ], [ 425062.320392944267951, 431437.284429999126587 ], [ 425062.724506981205195, 431437.062128315505106 ], [ 425063.106417420262005, 431436.803534792852588 ], [ 425063.462874567310791, 431436.510849815909751 ], [ 425092.608460575749632, 431410.23784170957515 ], [ 425124.761598323413637, 431387.745536813978106 ], [ 425125.06682616652688, 431387.514113001641817 ], [ 425149.226665549154859, 431367.693971442407928 ], [ 425149.732972380181309, 431367.215889031533152 ], [ 425158.065147415560205, 431358.170346266240813 ], [ 425150.710001912724692, 431351.395256995107047 ], [ 425142.614294048515148, 431360.1840872092871 ], [ 425118.872472742397804, 431379.66129695851123 ], [ 425086.623696128837764, 431402.220504765631631 ], [ 425086.141956194245722, 431402.603745938511565 ], [ 425057.284676923824009, 431428.616862709575798 ], [ 425037.986124912975356, 431438.101001217670273 ], [ 425010.126740141946357, 431443.586930786492303 ], [ 424983.370790390472393, 431439.939431115635671 ], [ 424961.154087753035128, 431433.532994184060954 ], [ 424945.485719827527646, 431428.477845164015889 ], [ 424942.415231673687231, 431437.994782827794552 ], [ 424958.158183578285389, 431443.07399517914746 ] ] ] } },
{ "type": "Feature", "properties": { "highway": "residential", "maxspeed": null, "name": "Barkers Well Lawn", "osm_type": "way", "osm_id": 36964919, "maxspeed:type": null, "sidewalk": null, "lanes": null, "surface": null, "source:name": null, "lit": null, "ref": null, "source": null, "access": null, "foot": null }, "geometry": { "type": "Polygon", "coordinates": [ [ [ 425039.436091716052033, 431457.858654330426361 ], [ 425043.050590032013133, 431482.610544621828012 ], [ 425052.945642929407768, 431481.165578131913207 ], [ 425049.264342589711305, 431455.956231170799583 ], [ 425049.176810333097819, 431455.503786140179727 ], [ 425049.047993708518334, 431455.061321815126576 ], [ 425044.330563196563162, 431441.261950279818848 ], [ 425034.868208061554469, 431444.496735481079668 ], [ 425039.436091716052033, 431457.858654330426361 ] ] ] } },
{ "type": "Feature", "properties": { "highway": "residential", "maxspeed": null, "name": "Barkers Well Garth", "osm_type": "way", "osm_id": 36964920, "maxspeed:type": null, "sidewalk": null, "lanes": null, "surface": null, "source:name": null, "lit": null, "ref": null, "source": null, "access": null, "foot": null }, "geometry": { "type": "Polygon", "coordinates": [ [ [ 425097.713774966192432, 431425.308951632061508 ], [ 425104.147487078036647, 431462.026016271091066 ], [ 425104.255759007239249, 431462.504486988298595 ], [ 425104.410397778614424, 431462.970044598332606 ], [ 425104.609914795844816, 431463.41820751252817 ], [ 425104.852389452047646, 431463.844661588605959 ], [ 425105.135487617808394, 431464.245301659510005 ], [ 425105.456484110502061, 431464.616271051112562 ], [ 425105.812288927612826, 431464.953998707700521 ], [ 425106.199476991721895, 431465.255233567673713 ], [ 425106.614321121596731, 431465.517075859534089 ], [ 425107.052827910752967, 431465.737005015660543 ], [ 425107.510776169481687, 431465.912903936055955 ], [ 425107.983757558860816, 431466.043079368246254 ], [ 425108.467219026992097, 431466.126278206764255 ], [ 425108.956506637565326, 431466.161699556338135 ], [ 425109.446910370315891, 431466.149002440914046 ], [ 425109.933709460950922, 431466.088309086626396 ], [ 425110.41221784427762, 431465.98020374472253 ], [ 425146.836513923073653, 431455.849746600724757 ], [ 425147.253265979350545, 431455.713894934684504 ], [ 425162.368121005478315, 431450.042506909172516 ], [ 425158.855085101909935, 431440.679890889034141 ], [ 425143.945625809254125, 431446.274210434465203 ], [ 425113.045627561339643, 431454.868229858286213 ], [ 425107.352882433857303, 431422.379848783137277 ], [ 425107.24769783654483, 431421.912513458868489 ], [ 425107.098274191084784, 431421.457388554059435 ], [ 425106.905983003845904, 431421.018651498248801 ], [ 425106.672589247289579, 431420.600329302775208 ], [ 425106.400235159613658, 431420.206261598272249 ], [ 425093.462051802605856, 431403.280996237066574 ], [ 425085.517416609625798, 431409.354115011752583 ], [ 425097.713774966192432, 431425.308951632061508 ] ] ] } },
{ "type": "Feature", "properties": { "highway": "residential", "maxspeed": "20 mph", "name": "Barkers Well Gate", "osm_type": "way", "osm_id": 36964921, "maxspeed:type": null, "sidewalk": null, "lanes": null, "surface": null, "source:name": null, "lit": null, "ref": null, "source": null, "access": null, "foot": null }, "geometry": { "type": "Polygon", "coordinates": [ [ [ 425189.025655850535259, 431412.905315903655719 ], [ 425185.765236283594277, 431424.058037723472808 ], [ 425195.363489608687814, 431426.864019389206078 ], [ 425199.465185689681675, 431412.833593414339703 ], [ 425199.579625165555626, 431412.356274123420008 ], [ 425199.646711602341384, 431411.870033947052434 ], [ 425199.665798474394251, 431411.379558880988043 ], [ 425199.636701837647706, 431410.889575733512174 ], [ 425199.559702102327719, 431410.404806572070811 ], [ 425199.435541330487467, 431409.929923215997405 ], [ 425199.265416084963363, 431409.469502213119995 ], [ 425199.05096589733148, 431409.027980734419543 ], [ 425198.794257467787247, 431408.609613812528551 ], [ 425198.497764747939073, 431408.218433334783185 ], [ 425198.164345098484773, 431407.85820918722311 ], [ 425149.553685700113419, 431360.255951001716312 ], [ 425142.557113557413686, 431367.400737790216226 ], [ 425189.025655850535259, 431412.905315903655719 ] ] ] } },
{ "type": "Feature", "properties": { "highway": "residential", "maxspeed": null, "name": "Barkers Well Gate", "osm_type": "way", "osm_id": 36964922, "maxspeed:type": null, "sidewalk": null, "lanes": null, "surface": null, "source:name": null, "lit": null, "ref": null, "source": null, "access": null, "foot": null }, "geometry": { "type": "Polygon", "coordinates": [ [ [ 425209.895189873990603, 431400.575294960231986 ], [ 425202.125054362346418, 431394.280456270382274 ], [ 425190.780991271312814, 431408.283183236548211 ], [ 425198.551126782956999, 431414.578021926397923 ], [ 425209.895189873990603, 431400.575294960231986 ] ] ] } },
{ "type": "Feature", "properties": { "highway": "residential", "maxspeed": "20 mph", "name": "Lodge Hill Walk", "osm_type": "way", "osm_id": 36964928, "maxspeed:type": null, "sidewalk": null, "lanes": null, "surface": null, "source:name": null, "lit": null, "ref": null, "source": null, "access": null, "foot": null }, "geometry": { "type": "Polygon", "coordinates": [ [ [ 425102.798485945619177, 431356.646618493832648 ], [ 425102.376851221895777, 431356.256953411968425 ], [ 425101.913326871581376, 431355.918191116303205 ], [ 425082.329077118251007, 431343.263325110543519 ], [ 425081.923981857136823, 431343.02771009108983 ], [ 425081.49860679107951, 431342.831056433147751 ], [ 425081.056688697310165, 431342.675091673096176 ], [ 425080.602109677856788, 431342.561185909085907 ], [ 425053.065080371103249, 431337.01817372161895 ], [ 425052.593280972098, 431336.946434714249335 ], [ 425052.116791245876811, 431336.920001801801845 ], [ 425051.639951845281757, 431336.93911577865947 ], [ 425051.167106608627364, 431337.003602523356676 ], [ 425050.702562988793943, 431337.112874584447127 ], [ 425050.250552813813556, 431337.265936531999614 ], [ 425049.815193736576475, 431337.461394025944173 ], [ 425049.400451724242885, 431337.697466517507564 ], [ 425049.010104929911904, 431337.97200346988393 ], [ 425048.647709274780937, 431338.282503948488738 ], [ 425048.316566055116709, 431338.626139403844718 ], [ 425048.019691868510563, 431338.999779438367113 ], [ 425047.759791133867111, 431339.400020323577337 ], [ 425047.539231454895344, 431339.823216006567236 ], [ 425047.360022052307613, 431340.265511324279942 ], [ 425044.482535225804895, 431348.472447295556776 ], [ 425053.919303485075943, 431351.781133563607 ], [ 425055.357179314887617, 431347.68014002952259 ], [ 425077.69866171706235, 431352.177324815187603 ], [ 425096.001435458252672, 431364.004132180591114 ], [ 425118.296759542543441, 431387.119600112899207 ], [ 425125.494360949727707, 431380.17737179750111 ], [ 425102.798485945619177, 431356.646618493832648 ] ] ] } },
{ "type": "Feature", "properties": { "highway": "residential", "maxspeed": null, "name": "Lodge Hill Walk", "osm_type": "way", "osm_id": 36964929, "maxspeed:type": null, "sidewalk": null, "lanes": null, "surface": null, "source:name": null, "lit": null, "ref": null, "source": null, "access": null, "foot": null }, "geometry": { "type": "Polygon", "coordinates": [ [ [ 425057.371174766682088, 431334.6657853043871 ], [ 425047.37909079680685, 431334.26796884147916 ], [ 425047.082364197005518, 431341.720946226851083 ], [ 425057.074448166880757, 431342.118762689759023 ], [ 425057.371174766682088, 431334.6657853043871 ] ] ] } },
{ "type": "Feature", "properties": { "highway": "residential", "maxspeed": null, "name": "Lodge Hill Close", "osm_type": "way", "osm_id": 36964930, "maxspeed:type": null, "sidewalk": null, "lanes": null, "surface": null, "source:name": null, "lit": null, "ref": null, "source": null, "access": null, "foot": null }, "geometry": { "type": "Polygon", "coordinates": [ [ [ 425036.622658551845234, 431389.371633787290193 ], [ 425028.35430699744029, 431394.996077099465765 ], [ 425055.980920778238215, 431435.609261786099523 ], [ 425064.249272332643159, 431429.984818473923951 ], [ 425036.622658551845234, 431389.371633787290193 ] ] ] } },
{ "type": "Feature", "properties": { "highway": "residential", "maxspeed": "20 mph", "name": "Well Holme Mead", "osm_type": "way", "osm_id": 36964931, "maxspeed:type": null, "sidewalk": null, "lanes": null, "surface": null, "source:name": null, "lit": null, "ref": null, "source": null, "access": null, "foot": null }, "geometry": { "type": "Polygon", "coordinates": [ [ [ 425043.777754531707615, 431219.579762906651013 ], [ 425059.956040419114288, 431232.606041718565393 ], [ 425073.675001242314465, 431250.398586585186422 ], [ 425067.523337648017332, 431261.98704298568191 ], [ 425067.331194078025874, 431262.39181957958499 ], [ 425067.176058920333162, 431262.812172199774068 ], [ 425063.82490827946458, 431273.319694888370577 ], [ 425063.687632886052597, 431273.848276115779299 ], [ 425063.608823492657393, 431274.388675715250429 ], [ 425062.033114758320153, 431291.815039700770285 ], [ 425071.992483976762742, 431292.715575525595341 ], [ 425073.518791734590195, 431275.835555784404278 ], [ 425076.56670221243985, 431266.278841708786786 ], [ 425084.018358498520683, 431252.24146910890704 ], [ 425084.221600331133232, 431251.810109284066129 ], [ 425084.382826584624127, 431251.3613502883818 ], [ 425084.500570883392356, 431250.899273648508824 ], [ 425084.573762326326687, 431250.428082016936969 ], [ 425084.601735226868186, 431249.952060948242433 ], [ 425084.584235167538282, 431249.475539921491873 ], [ 425084.521421313867904, 431249.002852962876204 ], [ 425084.413864966772962, 431248.538299227366224 ], [ 425084.262544366414659, 431248.086103896843269 ], [ 425084.06883579515852, 431247.650379751983564 ], [ 425083.834501059842296, 431247.235089765570592 ], [ 425083.561671468080021, 431246.84401105879806 ], [ 425067.513251644384582, 431226.030318722245283 ], [ 425067.12616213603178, 431225.585267118178308 ], [ 425066.689355780370533, 431225.188896804640535 ], [ 425049.621167906036135, 431211.446095149905887 ], [ 425049.176895565236919, 431211.126808901026379 ], [ 425048.700398667482659, 431210.857973769539967 ], [ 425025.642164838209283, 431199.464361648308113 ], [ 425021.212226914765779, 431208.429608437698334 ], [ 425043.777754531707615, 431219.579762906651013 ] ] ] } },
{ "type": "Feature", "properties": { "highway": "residential", "maxspeed": null, "name": "Well Holme Mead", "osm_type": "way", "osm_id": 36964932, "maxspeed:type": null, "sidewalk": null, "lanes": null, "surface": null, "source:name": null, "lit": null, "ref": null, "source": null, "access": null, "foot": null }, "geometry": { "type": "Polygon", "coordinates": [ [ [ 425097.238689462421462, 431259.913248731812928 ], [ 425108.480841196491383, 431266.475530293013435 ], [ 425109.594611284614075, 431271.012926405004691 ], [ 425119.30631159938639, 431268.629047843685839 ], [ 425117.687383950978983, 431262.033686650393065 ], [ 425117.543768754811026, 431261.553847934235819 ], [ 425117.352867125533521, 431261.090785210602917 ], [ 425117.116594726860058, 431260.649145230883732 ], [ 425116.837322509905789, 431260.233359773061238 ], [ 425116.517852921388112, 431259.847601169720292 ], [ 425116.161391781235579, 431259.495740439218935 ], [ 425115.771516113192774, 431259.181308440980501 ], [ 425115.352138249611016, 431258.907460443675518 ], [ 425101.713253824680578, 431250.946155357756652 ], [ 425101.328580481058452, 431250.743502525030635 ], [ 425100.927755931043066, 431250.57503462897148 ], [ 425100.513811077631544, 431250.442025568103418 ], [ 425080.923199112759903, 431245.074795878492296 ], [ 425078.280875694821589, 431254.71938643255271 ], [ 425097.238689462421462, 431259.913248731812928 ] ] ] } },
{ "type": "Feature", "properties": { "highway": "primary", "maxspeed": "40 mph", "name": "Whitehall Road", "osm_type": "way", "osm_id": 181926182, "maxspeed:type": null, "sidewalk": null, "lanes": null, "surface": null, "source:name": null, "lit": "yes", "ref": "A58", "source": null, "access": null, "foot": null }, "geometry": { "type": "Polygon", "coordinates": [ [ [ 425781.334945823298767, 431447.935704799427185 ], [ 425781.320596892328467, 431447.929414982674643 ], [ 425744.176564517780207, 431431.682100138626993 ], [ 425698.758951395167969, 431411.809760559699498 ], [ 425565.014245817845222, 431338.115223475266248 ], [ 425463.393388379772659, 431281.233621548803058 ], [ 425446.722495722409803, 431270.792130569578148 ], [ 425446.565548233280424, 431270.695829941425472 ], [ 425437.469314240792301, 431265.229151646140963 ], [ 425313.520958538283594, 431190.672226160357241 ], [ 425281.479164339776617, 431171.39755789632909 ], [ 425206.901541366183665, 431126.482621812319849 ], [ 425155.818330228561535, 431095.723037608200684 ], [ 425149.735083512030542, 431092.059555284271482 ], [ 425136.437413631123491, 431081.410916069929954 ], [ 425099.484020599338692, 431051.579300181299914 ], [ 425096.037069791462272, 431047.099584599316586 ], [ 425095.359228182351217, 431046.307733141700737 ], [ 425094.602642309095245, 431045.590742350730579 ], [ 425082.504705318773631, 431035.26785332680447 ], [ 425081.958971433516126, 431034.834131267678458 ], [ 425052.976453619543463, 431013.405027628992684 ], [ 425050.830536988272797, 431010.789142832218204 ], [ 425050.087020991020836, 431009.978215742623433 ], [ 425049.258922497741878, 431009.253873511217535 ], [ 425031.551154212444089, 430995.407618067227304 ], [ 424974.907343186961953, 430951.138562973355874 ], [ 424941.848586371168494, 430925.032380593765993 ], [ 424929.464302160369698, 430915.254016282386146 ], [ 424919.200477048580069, 430907.145146098861005 ], [ 424891.993514611036517, 430885.670647796359845 ], [ 424883.771280314074829, 430879.175239411415532 ], [ 424883.746305681299418, 430879.155574312782846 ], [ 424865.919688931549899, 430865.164686938747764 ], [ 424865.807983112172224, 430865.078284331131727 ], [ 424837.528612495632842, 430843.522081189090386 ], [ 424837.413004314119462, 430843.43527186504798 ], [ 424785.613190155418124, 430805.121595389849972 ], [ 424785.229997116955929, 430804.851824990299065 ], [ 424726.45498467842117, 430765.500704091100488 ], [ 424725.734471828385722, 430765.061167662148364 ], [ 424719.248852051794529, 430761.471164382353891 ], [ 424660.41915114002768, 430725.094696289394051 ], [ 424660.224069086019881, 430724.97712011996191 ], [ 424630.784648326807655, 430707.687928326893598 ], [ 424551.193922758218832, 430660.018656348111108 ], [ 424551.15756835200591, 430659.996986999118235 ], [ 424540.447237802087329, 430653.643682760128286 ], [ 424451.706703849020414, 430601.021300225285813 ], [ 424444.973064130346756, 430597.033582254895009 ], [ 424348.085293531126808, 430539.718458256334998 ], [ 424347.702807662426494, 430539.503380302689038 ], [ 424289.695288163260557, 430508.539942056930158 ], [ 424195.125378638273105, 430452.098294822382741 ], [ 424177.659389545675367, 430441.672474286751822 ], [ 424177.568197263171896, 430441.618692350806668 ], [ 424165.739777745038737, 430434.726845918223262 ], [ 424159.365879695804324, 430431.011741720256396 ], [ 424159.315146629582159, 430430.982370217330754 ], [ 424141.373553473327775, 430420.665324541507289 ], [ 424140.85270518361358, 430420.385966530244332 ], [ 424074.89598020008998, 430387.481705033162143 ], [ 424074.413999325654004, 430387.257056459784508 ], [ 424025.895858717092779, 430366.194600391434506 ], [ 424018.670020176738035, 430363.046332518977579 ], [ 423998.562638551986311, 430354.13424535759259 ], [ 423913.853514580987394, 430311.942757622688077 ], [ 423881.743752507434692, 430294.349142180406488 ], [ 423881.538693676469848, 430294.239864329865668 ], [ 423815.499340080714319, 430260.025986474531237 ], [ 423815.357340202783234, 430259.953847248281818 ], [ 423780.913051997660659, 430242.799068770720623 ], [ 423739.822588912036736, 430220.540450044558384 ], [ 423717.408250323613174, 430205.693951949768234 ], [ 423687.707140551763587, 430180.757922538381536 ], [ 423662.97173946298426, 430156.76217128301505 ], [ 423618.45100356353214, 430105.662785293068737 ], [ 423547.552820244862232, 430023.275240472576115 ], [ 423499.048540397780016, 429966.910665444156621 ], [ 423488.799766057869419, 429954.941581159946509 ], [ 423488.691987166006584, 429954.817782215191983 ], [ 423463.973750066477805, 429926.891611893544905 ], [ 423454.555185008328408, 429916.24281830037944 ], [ 423409.748457908048294, 429865.605566511570942 ], [ 423409.680605516245123, 429865.529666788759641 ], [ 423390.208935623348225, 429843.970526361255907 ], [ 423390.059858270571567, 429843.809069573064335 ], [ 423379.508500831434503, 429832.630501605919562 ], [ 423379.114614827907644, 429832.235848203185014 ], [ 423287.260532040789258, 429745.196853411966003 ], [ 423273.504028487426694, 429759.714381093508564 ], [ 423365.155664844263811, 429846.561541910050437 ], [ 423375.440156956086867, 429857.457381117739715 ], [ 423394.804055871791206, 429878.897196924197488 ], [ 423439.574905993649736, 429929.493902852467727 ], [ 423448.993974542769138, 429940.143265701364726 ], [ 423473.661469366867095, 429968.0121094341157 ], [ 423483.864866525866091, 429979.928199742222205 ], [ 423483.880897984141484, 429979.946875593625009 ], [ 423532.393202992388979, 430036.320776289794594 ], [ 423603.311351769953035, 430118.731522059359122 ], [ 423603.351428500493057, 430118.777806071273517 ], [ 423648.167903773894068, 430170.216631653078366 ], [ 423648.744696780107915, 430170.825147904572077 ], [ 423674.039103933784645, 430195.363189557217993 ], [ 423674.572073889721651, 430195.844309563341085 ], [ 423704.982968921307474, 430221.376250247063581 ], [ 423705.890783511626069, 430222.054577122617047 ], [ 423729.147734617756214, 430237.459193186776247 ], [ 423729.906845986028202, 430237.914983878319617 ], [ 423771.538061948842369, 430260.466527317825239 ], [ 423771.842980881396215, 430260.624986415437888 ], [ 423806.369802861358039, 430277.820870362047572 ], [ 423872.235279520275071, 430311.944665502232965 ], [ 423904.414792069233954, 430329.576498700189404 ], [ 423904.761630762950517, 430329.757806196284946 ], [ 423989.846940296818502, 430372.136662514589261 ], [ 423990.253215057833586, 430372.327757958672009 ], [ 424010.594724053633399, 430381.343616141937673 ], [ 424010.65249321423471, 430381.369003090192564 ], [ 424017.913349830952939, 430384.53252819320187 ], [ 424017.925540298281703, 430384.537829891196452 ], [ 424066.205799933173694, 430405.497018243710045 ], [ 424131.659968317602761, 430438.150566052994691 ], [ 424149.319857323192991, 430448.305621956591494 ], [ 424155.669111265742686, 430452.006362036452629 ], [ 424167.453830636746716, 430458.872746655717492 ], [ 424184.874672135221772, 430469.27161763177719 ], [ 424279.65065443108324, 430525.836254192341585 ], [ 424280.066576886107214, 430526.071199839585461 ], [ 424338.091261252644472, 430557.043800402840134 ], [ 424434.783972200879361, 430614.243533195462078 ], [ 424441.508071155054495, 430618.225599094410427 ], [ 424530.244178556487896, 430670.845356591220479 ], [ 424540.935664590564556, 430677.187482375768013 ], [ 424620.545203250600025, 430724.868022079113871 ], [ 424620.619327424559742, 430724.911984404316172 ], [ 424649.997694398334716, 430742.165320512081962 ], [ 424708.9357160385116, 430778.60876711178571 ], [ 424709.351979998522438, 430778.852479790104553 ], [ 424715.679132663062774, 430782.354766325559467 ], [ 424773.908413189463317, 430821.340508102497552 ], [ 424825.461674397054594, 430859.47182195429923 ], [ 424853.627396723837592, 430880.941395671165083 ], [ 424871.385962674103212, 430894.878874645626638 ], [ 424879.597367199370638, 430901.365727717289701 ], [ 424906.803874792647548, 430922.839866795111448 ], [ 424917.067030487873126, 430930.948208110348787 ], [ 424929.453876062878408, 430940.728595312335528 ], [ 424962.532153608975932, 430966.850193024904002 ], [ 424962.571815053699538, 430966.881351215706673 ], [ 425019.23258175002411, 431011.16365735407453 ], [ 425036.068731403152924, 431024.328367047302891 ], [ 425038.301309086440597, 431027.04989216820104 ], [ 425038.849341698049102, 431027.664491377421655 ], [ 425039.446082615526393, 431028.231917327386327 ], [ 425040.0874855061993, 431028.748322462139186 ], [ 425069.788121281424537, 431050.708388397295494 ], [ 425080.824581490363926, 431060.125543904490769 ], [ 425084.355597570829559, 431064.714512136823032 ], [ 425085.127920285391156, 431065.604400895012077 ], [ 425085.999554809881374, 431066.397267613443546 ], [ 425123.889913552382495, 431096.985274157719687 ], [ 425123.920618531294167, 431097.009961825970095 ], [ 425137.754170258820523, 431108.087729789724108 ], [ 425138.845914619858377, 431108.848559459496755 ], [ 425145.500646420521662, 431112.856204300827812 ], [ 425196.583549390954431, 431143.615602923673578 ], [ 425271.163055472658016, 431188.531673123768996 ], [ 425303.211647109477781, 431207.810431955498643 ], [ 425427.161979367607273, 431282.368546374433208 ], [ 425436.184333415701985, 431287.790825004631188 ], [ 425452.98598625510931, 431298.314215093269013 ], [ 425453.409753720567096, 431298.565318921231665 ], [ 425555.274712919315789, 431355.583555191522464 ], [ 425555.333070893597323, 431355.615965348493773 ], [ 425689.506528913741931, 431429.546748889668379 ], [ 425690.323950220947154, 431429.949739390576724 ], [ 425736.159977110510226, 431450.005154650716577 ], [ 425773.298368002113421, 431466.250001900014468 ], [ 425952.940446415508632, 431545.163461913878564 ], [ 425960.984196221630555, 431526.852315334312152 ], [ 425781.334945823298767, 431447.935704799427185 ] ] ] } },
{ "type": "Feature", "properties": { "highway": "unclassified", "maxspeed": null, "name": "Ashfield Close", "osm_type": "way", "osm_id": 182441470, "maxspeed:type": null, "sidewalk": null, "lanes": null, "surface": null, "source:name": "OS_OpenData_Locator", "lit": null, "ref": null, "source": "bing", "access": null, "foot": null }, "geometry": { "type": "Polygon", "coordinates": [ [ [ 425576.559141557780094, 431655.583366315579042 ], [ 425576.202876680647023, 431655.235757939168252 ], [ 425575.813815537956543, 431654.925294296699576 ], [ 425575.395813822862692, 431654.655052160494961 ], [ 425574.953014036698733, 431654.427709697571117 ], [ 425555.794314107566606, 431645.767639222554862 ], [ 425549.441885987820569, 431641.326947824505623 ], [ 425549.7042939888197, 431638.009493359073531 ], [ 425549.910949498123955, 431635.426426054094918 ], [ 425567.063815823348705, 431588.83466162258992 ], [ 425587.810092832893133, 431532.508846620679833 ], [ 425588.24647171824472, 431531.982516880554613 ], [ 425595.229614063864574, 431534.344421421177685 ], [ 425640.555692084948532, 431555.411577736027539 ], [ 425642.997235273534898, 431560.553738141607028 ], [ 425622.517288022325374, 431610.507858789991587 ], [ 425622.356924687570427, 431610.959585521777626 ], [ 425622.240555275813676, 431611.424592617782764 ], [ 425622.169249331112951, 431611.898606226837728 ], [ 425622.143662221904378, 431612.377269719436299 ], [ 425622.094048425205983, 431621.478249284264166 ], [ 425622.116953710326925, 431621.984325382043608 ], [ 425622.190950632153545, 431622.485486159042921 ], [ 425622.315279574890155, 431622.976586945878807 ], [ 425622.488664238771889, 431623.452586344152223 ], [ 425622.709324742492754, 431623.908597978763282 ], [ 425622.974995894124731, 431624.339940659294371 ], [ 425623.28295044467086, 431624.742186434450559 ], [ 425657.952921504387632, 431665.564286332228221 ], [ 425665.574968875618652, 431659.090926009346731 ], [ 425632.103996942285448, 431619.680585643509403 ], [ 425632.138220330758486, 431613.402768186409958 ], [ 425653.08816888864385, 431562.302233355934732 ], [ 425653.260135204065591, 431561.811496190319303 ], [ 425653.380204358894844, 431561.305552737554535 ], [ 425653.447077707329299, 431560.78987518849317 ], [ 425653.460031959635671, 431560.270041016221512 ], [ 425653.418927004968282, 431559.751672651036642 ], [ 425653.324207426980138, 431559.240376669331454 ], [ 425653.176897694997024, 431558.741683154017664 ], [ 425652.978591084014624, 431558.260985881963279 ], [ 425648.815504228754435, 431549.493063818605151 ], [ 425648.581635870272294, 431549.057495349901728 ], [ 425648.305895883822814, 431548.647151884099003 ], [ 425647.990980061236769, 431548.266045173688326 ], [ 425647.639967199706007, 431547.91790113580646 ], [ 425647.256289001787081, 431547.606123425823171 ], [ 425646.843696524971165, 431547.333760160836391 ], [ 425646.406223509286065, 431547.103474119969178 ], [ 425599.197286794427782, 431525.161181897681672 ], [ 425598.691840057261288, 431524.958937618357595 ], [ 425588.193692765722517, 431521.40815481467871 ], [ 425587.710923105361871, 431521.271444562065881 ], [ 425587.216882570122834, 431521.183807881898247 ], [ 425586.716546271520201, 431521.146127297484782 ], [ 425586.214952720911242, 431521.158782261714805 ], [ 425585.717153090517968, 431521.221645335899666 ], [ 425585.228160346799996, 431521.334083473193459 ], [ 425584.752898768696468, 431521.494964393554255 ], [ 425584.296154358889908, 431521.702667985926382 ], [ 425583.862526647630148, 431521.95510262332391 ], [ 425583.456382374104578, 431522.249726225971244 ], [ 425583.081811512529384, 431522.583571860624943 ], [ 425582.742586084874347, 431522.953277618449647 ], [ 425579.565168132539839, 431526.785657280182932 ], [ 425579.229569877090398, 431527.240490489057265 ], [ 425578.947452124964911, 431527.730295563465916 ], [ 425578.722420334641356, 431528.248812805511989 ], [ 425557.679963763221167, 431585.378750648582354 ], [ 425540.289503248059191, 431632.615884163184091 ], [ 425540.151974107138813, 431633.049296866171062 ], [ 425540.054388294869568, 431633.493411541625392 ], [ 425539.9975528884097, 431633.944555168738589 ], [ 425539.735965064901393, 431637.214242759859189 ], [ 425539.247376693936531, 431643.391123580979183 ], [ 425539.232414668018464, 431643.863274471310433 ], [ 425539.262077292078175, 431644.334730147034861 ], [ 425539.336099797219504, 431644.801282388682012 ], [ 425539.453821457456797, 431645.258766744867899 ], [ 425539.61419148783898, 431645.703099704231136 ], [ 425539.815778423333541, 431646.130315145070199 ], [ 425540.056782896339428, 431646.536599736777134 ], [ 425540.335053697752301, 431646.918326977756806 ], [ 425540.648106978915166, 431647.27208956569666 ], [ 425540.993148421985097, 431647.594729811127763 ], [ 425541.367098182672635, 431647.88336782308761 ], [ 425550.446200513571966, 431654.230152212199755 ], [ 425550.838187665736768, 431654.477933962305542 ], [ 425551.251445150875952, 431654.688333520491142 ], [ 425569.914379847992677, 431663.124309361504856 ], [ 425611.398240041511599, 431707.842068161582574 ], [ 425618.729425449448172, 431701.041059375042096 ], [ 425576.559141557780094, 431655.583366315579042 ] ] ] } },
{ "type": "Feature", "properties": { "highway": "unclassified", "maxspeed": null, "name": "Ashfield Close", "osm_type": "way", "osm_id": 182441473, "maxspeed:type": null, "sidewalk": null, "lanes": null, "surface": null, "source:name": null, "lit": null, "ref": null, "source": null, "access": null, "foot": null }, "geometry": { "type": "Polygon", "coordinates": [ [ [ 425664.844707511598244, 431560.482151773932856 ], [ 425661.837317121098749, 431550.945087076688651 ], [ 425646.958173788734712, 431555.637033089122269 ], [ 425649.965564179234207, 431565.174097786366474 ], [ 425664.844707511598244, 431560.482151773932856 ] ] ] } },
{ "type": "Feature", "properties": { "highway": "unclassified", "maxspeed": null, "name": "Ashfield Way", "osm_type": "way", "osm_id": 182441474, "maxspeed:type": null, "sidewalk": null, "lanes": null, "surface": null, "source:name": null, "lit": null, "ref": null, "source": null, "access": null, "foot": null }, "geometry": { "type": "Polygon", "coordinates": [ [ [ 425591.634176510677207, 431741.927474752650596 ], [ 425591.828492101223674, 431742.320357010059524 ], [ 425592.056468761176802, 431742.694712001248263 ], [ 425592.31635458098026, 431743.047662957629655 ], [ 425621.364590260782279, 431779.076872511708643 ], [ 425629.1495207590051, 431772.800340257410426 ], [ 425600.51647388539277, 431737.286099139542785 ], [ 425594.274187626724597, 431723.135885801515542 ], [ 425585.124900987895671, 431727.172041645855643 ], [ 425591.634176510677207, 431741.927474752650596 ] ] ] } },
{ "type": "Feature", "properties": { "highway": "residential", "maxspeed": null, "name": null, "osm_type": "way", "osm_id": 284169087, "maxspeed:type": null, "sidewalk": null, "lanes": null, "surface": null, "source:name": null, "lit": null, "ref": null, "source": null, "access": "private", "foot": null }, "geometry": { "type": "Polygon", "coordinates": [ [ [ 425136.439292559807654, 431012.86183824040927 ], [ 425142.742174690007232, 431015.356988763378467 ], [ 425147.29968439618824, 431017.161500385031104 ], [ 425162.433384873089381, 431023.150769101106562 ], [ 425162.836687522241846, 431023.290778034599498 ], [ 425190.93342467705952, 431031.71911852597259 ], [ 425191.222265574499033, 431031.796429592941422 ], [ 425193.684037267172243, 431032.377055695222225 ], [ 425202.198213440133259, 431034.383297099324409 ], [ 425212.710288770438638, 431039.653901014302392 ], [ 425217.192331517522689, 431030.714589362207334 ], [ 425206.156398982682731, 431025.181330952618737 ], [ 425205.620867954159621, 431024.95084819738986 ], [ 425205.062148002150934, 431024.784271493612323 ], [ 425195.979110654559918, 431022.643986373441294 ], [ 425193.663426553306635, 431022.097816053137649 ], [ 425165.914596137474291, 431013.77383915532846 ], [ 425150.98067356122192, 431007.863634020788595 ], [ 425146.423399525228888, 431006.059215710964054 ], [ 425139.386058241361752, 431003.27331150387181 ], [ 425138.891558980452828, 431003.106831991230138 ], [ 425138.382403047056869, 431002.992791723459959 ], [ 425137.864135046431329, 431002.932432576024439 ], [ 425117.888182518130634, 431001.657436571375001 ], [ 425117.251213215233292, 431011.637129457842093 ], [ 425136.439292559807654, 431012.86183824040927 ] ] ] } },
{ "type": "Feature", "properties": { "highway": "residential", "maxspeed": null, "name": null, "osm_type": "way", "osm_id": 454115175, "maxspeed:type": null, "sidewalk": null, "lanes": null, "surface": "unpaved", "source:name": null, "lit": null, "ref": null, "source": null, "access": "private", "foot": "yes" }, "geometry": { "type": "Polygon", "coordinates": [ [ [ 425097.642353791277856, 431028.23527591075981 ], [ 425097.58128794527147, 431028.332040790352039 ], [ 425096.280245990958065, 431030.446906291297637 ], [ 425083.857079754059669, 431050.571374879044015 ], [ 425092.366317107749637, 431055.824267383140977 ], [ 425104.791508227644954, 431035.696518657787237 ], [ 425104.795552963856608, 431035.689955214969814 ], [ 425106.068635487288702, 431033.620538237504661 ], [ 425121.767295433732215, 431009.363930703431834 ], [ 425113.372100299631711, 431003.930635325785261 ], [ 425097.642353791277856, 431028.23527591075981 ] ] ] } },
{ "type": "Feature", "properties": { "highway": "primary", "maxspeed": "30 mph", "name": "Whitehall Road", "osm_type": "way", "osm_id": 535139087, "maxspeed:type": null, "sidewalk": null, "lanes": null, "surface": null, "source:name": null, "lit": null, "ref": "A58", "source": null, "access": null, "foot": null }, "geometry": { "type": "Polygon", "coordinates": [ [ [ 426224.808476260688622, 431645.716332078329287 ], [ 426224.530470392201096, 431645.597707984736189 ], [ 426199.741491149819922, 431635.460393635265063 ], [ 426131.031860550574493, 431606.254166744067334 ], [ 426128.934647501446307, 431605.363528229994699 ], [ 426113.438817367830779, 431598.770788455847651 ], [ 426057.647520257160068, 431573.080226714606397 ], [ 426004.19036684371531, 431547.630246927787084 ], [ 425961.297353863425087, 431526.996368617168628 ], [ 425952.627288773714099, 431545.019408631022088 ], [ 425995.5385322595248, 431565.662056808941998 ], [ 425995.57502860785462, 431565.679522712249309 ], [ 426049.108229578763712, 431591.165707359905355 ], [ 426049.224140353733674, 431591.219983230694197 ], [ 426105.206544989312533, 431616.99854542943649 ], [ 426105.474237450165674, 431617.117093248351011 ], [ 426121.107804025581572, 431623.768433336925227 ], [ 426123.209518722374924, 431624.660985346417874 ], [ 426191.980828084808309, 431653.89342987164855 ], [ 426192.107593402615748, 431653.946288833627477 ], [ 426216.820237397099845, 431664.052386310650036 ], [ 426233.253710992750712, 431671.360003444598988 ], [ 426241.380056315567344, 431653.085362225305289 ], [ 426224.808476260688622, 431645.716332078329287 ] ] ] } },
{ "type": "Feature", "properties": { "highway": "residential", "maxspeed": "20 mph", "name": "Cobden Place", "osm_type": "way", "osm_id": 677178344, "maxspeed:type": null, "sidewalk": null, "lanes": null, "surface": null, "source:name": null, "lit": null, "ref": null, "source": null, "access": null, "foot": null }, "geometry": { "type": "Polygon", "coordinates": [ [ [ 426005.204799976199865, 431877.79344821482664 ], [ 425998.384008649853058, 431870.480664498463739 ], [ 425970.611429527285509, 431896.384748925862368 ], [ 425977.432220853632316, 431903.697532642225269 ], [ 426005.204799976199865, 431877.79344821482664 ] ] ] } }
]
}
