{
"type": "FeatureCollection",
"name": "se2530_rgb_250_05_osm_road_buffers",
"crs": { "type": "name", "properties": { "name": "urn:ogc:def:crs:EPSG::27700" } },
"features": [
{ "type": "Feature", "properties": { "highway": "primary", "lit": "yes", "maxspeed": "40 mph", "name": "Whitehall Road", "ref": "A58", "osm_type": "way", "osm_id": 181926182 }, "geometry": { "type": "Polygon", "coordinates": [ [ [ 425781.334945823298767, 431447.935704799427185 ], [ 425781.320596892328467, 431447.929414982674643 ], [ 425744.176564517780207, 431431.682100138626993 ], [ 425698.758951395167969, 431411.809760559699498 ], [ 425565.014245817845222, 431338.115223475266248 ], [ 425463.393388379772659, 431281.233621548803058 ], [ 425446.722495722409803, 431270.792130569578148 ], [ 425446.565548233280424, 431270.695829941425472 ], [ 425437.469314240792301, 431265.229151646140963 ], [ 425313.520958538283594, 431190.672226160357241 ], [ 425281.479164339776617, 431171.39755789632909 ], [ 425206.901541366183665, 431126.482621812319849 ], [ 425155.818330228561535, 431095.723037608200684 ], [ 425149.735083512030542, 431092.059555284271482 ], [ 425136.437413631123491, 431081.410916069929954 ], [ 425099.484020599338692, 431051.579300181299914 ], [ 425096.037069791462272, 431047.099584599316586 ], [ 425095.359228182351217, 431046.307733141700737 ], [ 425094.602642309095245, 431045.590742350730579 ], [ 425082.504705318773631, 431035.26785332680447 ], [ 425081.958971433516126, 431034.834131267678458 ], [ 425052.976453619543463, 431013.405027628992684 ], [ 425050.830536988272797, 431010.789142832218204 ], [ 425050.087020991020836, 431009.978215742623433 ], [ 425049.258922497741878, 431009.253873511217535 ], [ 425031.551154212444089, 430995.407618067227304 ], [ 424974.907343186961953, 430951.138562973355874 ], [ 424941.848586371168494, 430925.032380593765993 ], [ 424929.464302160369698, 430915.254016282386146 ], [ 424919.200477048580069, 430907.145146098861005 ], [ 424891.993514611036517, 430885.670647796359845 ], [ 424883.771280314074829, 430879.175239411415532 ], [ 424883.746305681299418, 430879.155574312782846 ], [ 424865.919688931549899, 430865.164686938747764 ], [ 424865.807983112172224, 430865.078284331131727 ], [ 424837.528612495632842, 430843.522081189090386 ], [ 424837.413004314119462, 430843.43527186504798 ], [ 424785.613190155418124, 430805.121595389849972 ], [ 424785.229997116955929, 430804.851824990299065 ], [ 424726.45498467842117, 430765.500704091100488 ], [ 424725.734471828385722, 430765.061167662148364 ], [ 424719.248852051794529, 430761.471164382353891 ], [ 424660.41915114002768, 430725.094696289394051 ], [ 424660.224069086019881, 430724.97712011996191 ], [ 424630.784648326807655, 430707.687928326893598 ], [ 424551.193922758218832, 430660.018656348111108 ], [ 424551.15756835200591, 430659.996986999118235 ], [ 424540.447237802087329, 430653.643682760128286 ], [ 424451.706703849020414, 430601.021300225285813 ], [ 424444.973064130346756, 430597.033582254895009 ], [ 424348.085293531126808, 430539.718458256334998 ], [ 424347.702807662426494, 430539.503380302689038 ], [ 424289.695288163260557, 430508.539942056930158 ], [ 424195.125378638273105, 430452.098294822382741 ], [ 424177.659389545675367, 430441.672474286751822 ], [ 424177.568197263171896, 430441.618692350806668 ], [ 424165.739777745038737, 430434.726845918223262 ], [ 424159.365879695804324, 430431.011741720256396 ], [ 424159.315146629582159, 430430.982370217330754 ], [ 424141.373553473327775, 430420.665324541507289 ], [ 424140.85270518361358, 430420.385966530244332 ], [ 424074.89598020008998, 430387.481705033162143 ], [ 424074.413999325654004, 430387.257056459784508 ], [ 424025.895858717092779, 430366.194600391434506 ], [ 424018.670020176738035, 430363.046332518977579 ], [ 423998.562638551986311, 430354.13424535759259 ], [ 423913.853514580987394, 430311.942757622688077 ], [ 423881.743752507434692, 430294.349142180406488 ], [ 423881.538693676469848, 430294.239864329865668 ], [ 423815.499340080714319, 430260.025986474531237 ], [ 423815.357340202783234, 430259.953847248281818 ], [ 423780.913051997660659, 430242.799068770720623 ], [ 423739.822588912036736, 430220.540450044558384 ], [ 423717.408250323613174, 430205.693951949768234 ], [ 423687.707140551763587, 430180.757922538381536 ], [ 423662.97173946298426, 430156.76217128301505 ], [ 423618.45100356353214, 430105.662785293068737 ], [ 423547.552820244862232, 430023.275240472576115 ], [ 423499.048540397780016, 429966.910665444156621 ], [ 423488.799766057869419, 429954.941581159946509 ], [ 423488.691987166006584, 429954.817782215191983 ], [ 423463.973750066477805, 429926.891611893544905 ], [ 423454.555185008328408, 429916.24281830037944 ], [ 423409.748457908048294, 429865.605566511570942 ], [ 423409.680605516245123, 429865.529666788759641 ], [ 423390.208935623348225, 429843.970526361255907 ], [ 423390.059858270571567, 429843.809069573064335 ], [ 423379.508500831434503, 429832.630501605919562 ], [ 423379.114614827907644, 429832.235848203185014 ], [ 423287.260532040789258, 429745.196853411966003 ], [ 423273.504028487426694, 429759.714381093508564 ], [ 423365.155664844263811, 429846.561541910050437 ], [ 423375.440156956086867, 429857.457381117739715 ], [ 423394.804055871791206, 429878.897196924197488 ], [ 423439.574905993649736, 429929.493902852467727 ], [ 423448.993974542769138, 429940.143265701364726 ], [ 423473.661469366867095, 429968.0121094341157 ], [ 423483.864866525866091, 429979.928199742222205 ], [ 423483.880897984141484, 429979.946875593625009 ], [ 423532.393202992388979, 430036.320776289794594 ], [ 423603.311351769953035, 430118.731522059359122 ], [ 423603.351428500493057, 430118.777806071273517 ], [ 423648.167903773894068, 430170.216631653078366 ], [ 423648.744696780107915, 430170.825147904572077 ], [ 423674.039103933784645, 430195.363189557217993 ], [ 423674.572073889721651, 430195.844309563341085 ], [ 423704.982968921307474, 430221.376250247063581 ], [ 423705.890783511626069, 430222.054577122617047 ], [ 423729.147734617756214, 430237.459193186776247 ], [ 423729.906845986028202, 430237.914983878319617 ], [ 423771.538061948842369, 430260.466527317825239 ], [ 423771.842980881396215, 430260.624986415437888 ], [ 423806.369802861358039, 430277.820870362047572 ], [ 423872.235279520275071, 430311.944665502232965 ], [ 423904.414792069233954, 430329.576498700189404 ], [ 423904.761630762950517, 430329.757806196284946 ], [ 423989.846940296818502, 430372.136662514589261 ], [ 423990.253215057833586, 430372.327757958672009 ], [ 424010.594724053633399, 430381.343616141937673 ], [ 424010.65249321423471, 430381.369003090192564 ], [ 424017.913349830952939, 430384.53252819320187 ], [ 424017.925540298281703, 430384.537829891196452 ], [ 424066.205799933173694, 430405.497018243710045 ], [ 424131.659968317602761, 430438.150566052994691 ], [ 424149.319857323192991, 430448.305621956591494 ], [ 424155.669111265742686, 430452.006362036452629 ], [ 424167.453830636746716, 430458.872746655717492 ], [ 424184.874672135221772, 430469.27161763177719 ], [ 424279.65065443108324, 430525.836254192341585 ], [ 424280.066576886107214, 430526.071199839585461 ], [ 424338.091261252644472, 430557.043800402840134 ], [ 424434.783972200879361, 430614.243533195462078 ], [ 424441.508071155054495, 430618.225599094410427 ], [ 424530.244178556487896, 430670.845356591220479 ], [ 424540.935664590564556, 430677.187482375768013 ], [ 424620.545203250600025, 430724.868022079113871 ], [ 424620.619327424559742, 430724.911984404316172 ], [ 424649.997694398334716, 430742.165320512081962 ], [ 424708.9357160385116, 430778.60876711178571 ], [ 424709.351979998522438, 430778.852479790104553 ], [ 424715.679132663062774, 430782.354766325559467 ], [ 424773.908413189463317, 430821.340508102497552 ], [ 424825.461674397054594, 430859.47182195429923 ], [ 424853.627396723837592, 430880.941395671165083 ], [ 424871.385962674103212, 430894.878874645626638 ], [ 424879.597367199370638, 430901.365727717289701 ], [ 424906.803874792647548, 430922.839866795111448 ], [ 424917.067030487873126, 430930.948208110348787 ], [ 424929.453876062878408, 430940.728595312335528 ], [ 424962.532153608975932, 430966.850193024904002 ], [ 424962.571815053699538, 430966.881351215706673 ], [ 425019.23258175002411, 431011.16365735407453 ], [ 425036.068731403152924, 431024.328367047302891 ], [ 425038.301309086440597, 431027.04989216820104 ], [ 425038.849341698049102, 431027.664491377421655 ], [ 425039.446082615526393, 431028.231917327386327 ], [ 425040.0874855061993, 431028.748322462139186 ], [ 425069.788121281424537, 431050.708388397295494 ], [ 425080.824581490363926, 431060.125543904490769 ], [ 425084.355597570829559, 431064.714512136823032 ], [ 425085.127920285391156, 431065.604400895012077 ], [ 425085.999554809881374, 431066.397267613443546 ], [ 425123.889913552382495, 431096.985274157719687 ], [ 425123.920618531294167, 431097.009961825970095 ], [ 425137.754170258820523, 431108.087729789724108 ], [ 425138.845914619858377, 431108.848559459496755 ], [ 425145.500646420521662, 431112.856204300827812 ], [ 425196.583549390954431, 431143.615602923673578 ], [ 425271.163055472658016, 431188.531673123768996 ], [ 425303.211647109477781, 431207.810431955498643 ], [ 425427.161979367607273, 431282.368546374433208 ], [ 425436.184333415701985, 431287.790825004631188 ], [ 425452.98598625510931, 431298.314215093269013 ], [ 425453.409753720567096, 431298.565318921231665 ], [ 425555.274712919315789, 431355.583555191522464 ], [ 425555.333070893597323, 431355.615965348493773 ], [ 425689.506528913741931, 431429.546748889668379 ], [ 425690.323950220947154, 431429.949739390576724 ], [ 425736.159977110510226, 431450.005154650716577 ], [ 425773.298368002113421, 431466.250001900014468 ], [ 425952.940446415508632, 431545.163461913878564 ], [ 425960.984196221630555, 431526.852315334312152 ], [ 425781.334945823298767, 431447.935704799427185 ] ] ] } }
]
}
