{
"type": "FeatureCollection",
"name": "se2634_rgb_250_03_osm_road_buffers",
"crs": { "type": "name", "properties": { "name": "urn:ogc:def:crs:EPSG::27700" } },
"features": [
{ "type": "Feature", "properties": { "highway": "residential", "name": "Burley Wood Crescent", "osm_type": "way", "osm_id": 6977164, "lit": null, "maxspeed": null, "sidewalk": null, "surface": null, "destination:ref": null, "lanes": null, "oneway": null, "ref": null, "bus": null, "busway:left": null, "turn:lanes:forward": null, "sidewalk:left": null, "sidewalk:right": null, "cycleway:left": null, "cycleway:right": null, "destination:backward": null, "destination:forward": null, "destination:symbol:backward": null, "lanes:backward": null, "lanes:forward": null, "lanes:psv:forward": null, "psv:lanes:forward": null, "cycleway": null, "lanes:psv:backward": null, "psv:lanes:backward": null, "sidewalk:both:surface": null, "smoothness": null }, "geometry": { "type": "Polygon", "coordinates": [ [ [ 427128.378917244903278, 434910.957363085180987 ], [ 427104.303354927920736, 434915.815099852159619 ], [ 427102.69667669624323, 434913.499976916238666 ], [ 427102.434524778393097, 434913.155142328178044 ], [ 427102.143510413763579, 434912.834291645267513 ], [ 427101.825817775970791, 434912.539832974085584 ], [ 427096.616155142197385, 434908.114873145939782 ], [ 427096.248617344419472, 434907.830992520437576 ], [ 427095.856326218345203, 434907.582436863216572 ], [ 427095.442666016228031, 434907.371350436471403 ], [ 427087.955152101523709, 434903.979127036756836 ], [ 427087.489273866347503, 434903.795586700143758 ], [ 427087.007374081935268, 434903.659563970402814 ], [ 427086.514285809767898, 434903.572423044301104 ], [ 427086.014954322425183, 434903.535037874302361 ], [ 427085.514387506991625, 434903.5477834030753 ], [ 427074.314714660402387, 434904.395538378274068 ], [ 427073.813568240380846, 434904.459063788526691 ], [ 427073.321389365650248, 434904.572831830068026 ], [ 427071.409706857928541, 434905.117785518523306 ], [ 427065.547035815368872, 434906.785969674179796 ], [ 427065.152914356498513, 434906.916022591583896 ], [ 427064.770936343586072, 434907.078313328674994 ], [ 427064.403733536193613, 434907.271723731479142 ], [ 427056.230520209704991, 434912.020047789148521 ], [ 427056.142744843557011, 434912.072248086100444 ], [ 427038.068987887934782, 434923.072167160105892 ], [ 427005.734488290152512, 434942.757724151713774 ], [ 426999.721583035483491, 434946.416705894458573 ], [ 426974.432110607100185, 434961.80355400335975 ], [ 426970.103158992424142, 434964.438228478946257 ], [ 426943.887863732059486, 434980.398993124428671 ], [ 426943.42816941026831, 434980.71532647224376 ], [ 426943.006586953473743, 434981.080913518730085 ], [ 426937.841488629463129, 434986.091486742778216 ], [ 426937.531904144620057, 434986.420218033425044 ], [ 426937.25324031180935, 434986.775539413210936 ], [ 426933.203806962817907, 434992.448971679084934 ], [ 426932.943546667054761, 434992.853424717555754 ], [ 426932.723350144282449, 434993.281012338062283 ], [ 426932.54525480850134, 434993.727778197615407 ], [ 426930.750519643712323, 434998.946844688500278 ], [ 426930.599012949562166, 434999.48282276710961 ], [ 426930.508059420157224, 435000.032326392771211 ], [ 426930.007525641645771, 435004.63574549293844 ], [ 426929.978559072886128, 435005.118776147894096 ], [ 426929.996420949173626, 435005.602344787388574 ], [ 426930.48393781267805, 435011.301810781529639 ], [ 426930.545463494141586, 435011.764961007924285 ], [ 426930.649951811530627, 435012.220346265996341 ], [ 426931.673324019531719, 435015.885457531490829 ], [ 426881.821583529526833, 435042.452018795826007 ], [ 426886.524566698761191, 435051.277093827200588 ], [ 426939.920727850869298, 435022.821670353820082 ], [ 426940.335666542698164, 435022.574089443602134 ], [ 426940.724770048458595, 435022.28761276579462 ], [ 426941.084404601657297, 435021.964915673714131 ], [ 426941.411211641039699, 435021.609011776396073 ], [ 426941.702139175438788, 435021.223224795248825 ], [ 426941.954470285912976, 435020.811157524294686 ], [ 426942.165848498349078, 435020.37665818433743 ], [ 426942.334299790265504, 435019.923784485203214 ], [ 426942.458251025935169, 435019.456765731563792 ], [ 426942.536544647475239, 435018.979963326011784 ], [ 426942.568449484999292, 435018.497830039006658 ], [ 426942.553667585132644, 435018.014868425088935 ], [ 426942.492336993280333, 435017.535588774306234 ], [ 426942.385030464676674, 435017.064466991752852 ], [ 426940.40760403953027, 435009.982500322221313 ], [ 426940.001423610781785, 435005.233922960935161 ], [ 426940.388978507602587, 435001.669572878978215 ], [ 426941.765404501813464, 434997.666944009601139 ], [ 426945.129482366435695, 434992.953724589198828 ], [ 426949.56706546631176, 434988.648901396139991 ], [ 426975.302477540448308, 434972.980305907316506 ], [ 426979.630210939329118, 434970.34637280361494 ], [ 427004.919534363783896, 434954.959615353029221 ], [ 427010.933320905605797, 434951.300097341532819 ], [ 427043.268247589527164, 434931.614280404697638 ], [ 427061.298076508275699, 434920.641096494393423 ], [ 427068.885890500328969, 434916.232867039914709 ], [ 427074.147664400283247, 434914.735664180188905 ], [ 427075.575154795893468, 434914.32873729954008 ], [ 427084.993614276056178, 434913.615810592484195 ], [ 427090.677028084697668, 434916.190685181238223 ], [ 427094.853908852790482, 434919.738425391085912 ], [ 427097.962170903338119, 434924.217236781143583 ], [ 427098.257354855944868, 434924.601409561175387 ], [ 427098.588334288564511, 434924.95521021966124 ], [ 427098.952001671132166, 434925.275316960702185 ], [ 427099.344942570081912, 434925.558724336675368 ], [ 427099.763467705750372, 434925.802771466493141 ], [ 427100.203647591173649, 434926.005167018040083 ], [ 427100.661349424917717, 434926.16401072149165 ], [ 427101.132275894226041, 434926.277811210486107 ], [ 427101.612005521485116, 434926.34550002461765 ], [ 427102.096034177113324, 434926.366441640886478 ], [ 427102.579817368648946, 434926.34043944068253 ], [ 427103.058812908013351, 434926.267737556016073 ], [ 427130.399306820996571, 434920.7512341090478 ], [ 427130.484239211538807, 434920.733328668575268 ], [ 427160.557403009326663, 434914.120161796396133 ], [ 427158.409692558518145, 434904.353517550800461 ], [ 427128.378917244903278, 434910.957363085180987 ] ] ] } },
{ "type": "Feature", "properties": { "highway": "residential", "name": "Burley Wood Mount", "osm_type": "way", "osm_id": 6977166, "lit": "yes", "maxspeed": "20 mph", "sidewalk": "both", "surface": "asphalt", "destination:ref": null, "lanes": null, "oneway": null, "ref": null, "bus": null, "busway:left": null, "turn:lanes:forward": null, "sidewalk:left": null, "sidewalk:right": null, "cycleway:left": null, "cycleway:right": null, "destination:backward": null, "destination:forward": null, "destination:symbol:backward": null, "lanes:backward": null, "lanes:forward": null, "lanes:psv:forward": null, "psv:lanes:forward": null, "cycleway": null, "lanes:psv:backward": null, "psv:lanes:backward": null, "sidewalk:both:surface": null, "smoothness": null }, "geometry": { "type": "Polygon", "coordinates": [ [ [ 426849.070909059781116, 435012.326425360632129 ], [ 426849.114913011435419, 435012.380294547067024 ], [ 426861.73002035159152, 435027.6061762276222 ], [ 426880.32235947123263, 435050.053911894967314 ], [ 426880.352701051684562, 435050.090194546501152 ], [ 426901.988911542401183, 435075.715640225098468 ], [ 426902.248843271809164, 435076.00045073532965 ], [ 426913.384031688212417, 435087.294219453237019 ], [ 426942.305373430077452, 435116.881552389939316 ], [ 426949.456466369738337, 435109.89142579829786 ], [ 426920.527589143894147, 435080.296383852954023 ], [ 426920.512485007115174, 435080.280998403555714 ], [ 426909.505188928567804, 435069.116943385160994 ], [ 426888.008705772517715, 435043.656987648806535 ], [ 426869.431186576955952, 435021.227145036042202 ], [ 426856.837472790793981, 435006.027084329223726 ], [ 426826.703110930917319, 434968.608664375497028 ], [ 426818.914732578734402, 434974.880917769856751 ], [ 426849.070909059781116, 435012.326425360632129 ] ] ] } },
{ "type": "Feature", "properties": { "highway": "primary_link", "name": null, "osm_type": "way", "osm_id": 7990636, "lit": null, "maxspeed": "40 mph", "sidewalk": null, "surface": "asphalt", "destination:ref": "A647", "lanes": "1", "oneway": "yes", "ref": null, "bus": null, "busway:left": null, "turn:lanes:forward": null, "sidewalk:left": null, "sidewalk:right": null, "cycleway:left": null, "cycleway:right": null, "destination:backward": null, "destination:forward": null, "destination:symbol:backward": null, "lanes:backward": null, "lanes:forward": null, "lanes:psv:forward": null, "psv:lanes:forward": null, "cycleway": null, "lanes:psv:backward": null, "psv:lanes:backward": null, "sidewalk:both:surface": null, "smoothness": null }, "geometry": { "type": "Polygon", "coordinates": [ [ [ 426270.844903793709818, 434009.386123235686682 ], [ 426270.339597973681521, 434009.689962080447003 ], [ 426269.861654793145135, 434010.035247949708719 ], [ 426269.414465229783673, 434010.419531061139423 ], [ 426264.389090726850554, 434015.120088351832237 ], [ 426263.901933820801787, 434015.623782947252039 ], [ 426263.467576995841227, 434016.173659519932698 ], [ 426263.090372951410245, 434016.764207744447049 ], [ 426261.540544343995862, 434019.481477306399029 ], [ 426261.213082733680494, 434020.132094215368852 ], [ 426260.955001410795376, 434020.813216450507753 ], [ 426258.42783179221442, 434028.698739298270084 ], [ 426271.759902520047035, 434032.971430500387214 ], [ 426274.063869780511595, 434025.782365572114941 ], [ 426274.726426383655053, 434024.620724289794452 ], [ 426278.32844859623583, 434021.251520310528576 ], [ 426297.056799659680109, 434011.038542461232282 ], [ 426290.354127476981375, 433998.747318534762599 ], [ 426270.844903793709818, 434009.386123235686682 ] ] ] } },
{ "type": "Feature", "properties": { "highway": "tertiary", "name": "Armley Ridge Road", "osm_type": "way", "osm_id": 7990638, "lit": null, "maxspeed": "30 mph", "sidewalk": null, "surface": "asphalt", "destination:ref": null, "lanes": "1", "oneway": "yes", "ref": null, "bus": null, "busway:left": null, "turn:lanes:forward": null, "sidewalk:left": null, "sidewalk:right": null, "cycleway:left": null, "cycleway:right": null, "destination:backward": null, "destination:forward": null, "destination:symbol:backward": null, "lanes:backward": null, "lanes:forward": null, "lanes:psv:forward": null, "psv:lanes:forward": null, "cycleway": null, "lanes:psv:backward": null, "psv:lanes:backward": null, "sidewalk:both:surface": null, "smoothness": null }, "geometry": { "type": "Polygon", "coordinates": [ [ [ 426269.840848015272059, 434049.158053363615181 ], [ 426272.157304625434335, 434046.331334978807718 ], [ 426279.099146110354923, 434037.871431504783686 ], [ 426279.378485651395749, 434037.507287351822015 ], [ 426285.014349250181112, 434029.639161948638503 ], [ 426273.632882768462878, 434021.48672545858426 ], [ 426268.130717068212107, 434029.168197687249631 ], [ 426261.333093058667146, 434037.452345790981781 ], [ 426259.017529275210109, 434040.277975727745797 ], [ 426252.792237178131472, 434047.862558835244272 ], [ 426263.61383382830536, 434056.744734578940552 ], [ 426269.840848015272059, 434049.158053363615181 ] ] ] } },
{ "type": "Feature", "properties": { "highway": "tertiary", "name": "Armley Ridge Road", "osm_type": "way", "osm_id": 7990639, "lit": null, "maxspeed": "30 mph", "sidewalk": null, "surface": "asphalt", "destination:ref": null, "lanes": "2", "oneway": null, "ref": null, "bus": null, "busway:left": null, "turn:lanes:forward": null, "sidewalk:left": null, "sidewalk:right": null, "cycleway:left": null, "cycleway:right": null, "destination:backward": null, "destination:forward": null, "destination:symbol:backward": null, "lanes:backward": null, "lanes:forward": null, "lanes:psv:forward": null, "psv:lanes:forward": null, "cycleway": null, "lanes:psv:backward": null, "psv:lanes:backward": null, "sidewalk:both:surface": null, "smoothness": null }, "geometry": { "type": "Polygon", "coordinates": [ [ [ 426187.735799465561286, 434135.867672905616928 ], [ 426183.461421993677504, 434141.652556070999708 ], [ 426183.129072195326444, 434142.144748148741201 ], [ 426169.099927774514072, 434164.950861028279178 ], [ 426165.944431785552297, 434170.071187150024343 ], [ 426165.614452811714727, 434170.670331612695009 ], [ 426165.34452450502431, 434171.298821007658262 ], [ 426143.641574317589402, 434229.524125346622895 ], [ 426137.424195832281839, 434246.209829334053211 ], [ 426131.657983170240186, 434260.450540832127444 ], [ 426131.486302113800775, 434260.922549372306094 ], [ 426117.433783118845895, 434304.348106360179372 ], [ 426117.273496662150137, 434304.927187071123626 ], [ 426114.779700651415624, 434315.718676142627373 ], [ 426106.751265763130505, 434348.579010717396159 ], [ 426095.74043308373075, 434380.696622058283538 ], [ 426042.01672072528163, 434516.547939989948645 ], [ 426038.553032031224575, 434525.163677282689605 ], [ 426016.205493332410697, 434570.854989507584833 ], [ 425977.108790991595015, 434642.494946494407486 ], [ 425962.785304665914737, 434666.164666366705205 ], [ 425954.324454844987486, 434671.422977890644688 ], [ 425943.882208584749606, 434675.288241840200499 ], [ 425948.742138687230181, 434688.417639366351068 ], [ 425959.848197598243132, 434684.306660936912522 ], [ 425960.496313649578951, 434684.028886439802591 ], [ 425961.113195778336376, 434683.687317227886524 ], [ 425971.60037743463181, 434677.169666008034255 ], [ 425972.142704062454868, 434676.796148590685334 ], [ 425972.647532107715961, 434676.373322294093668 ], [ 425973.110394012881443, 434675.904928988195024 ], [ 425973.527193606598303, 434675.395113795239013 ], [ 425973.894242353446316, 434674.848388407321181 ], [ 425989.167321756249294, 434649.609455452591646 ], [ 425989.323028290120419, 434649.338688828400336 ], [ 426028.56948402634589, 434577.424326938693412 ], [ 426028.713120432512369, 434577.146549289464019 ], [ 426051.24113080825191, 434531.086248432402499 ], [ 426051.447765359596815, 434530.621749468846247 ], [ 426055.013720458664466, 434521.751630054204725 ], [ 426055.028393235930707, 434521.71483178564813 ], [ 426108.819012703606859, 434385.694325639633462 ], [ 426108.931214081763756, 434385.39019027701579 ], [ 426120.097583758935798, 434352.818891464034095 ], [ 426120.275892249308527, 434352.21016359195346 ], [ 426128.390080090146512, 434318.998842710105237 ], [ 426128.410351797880139, 434318.913558065600228 ], [ 426130.846311430679634, 434308.372346337651834 ], [ 426144.72888096049428, 434265.471972783852834 ], [ 426150.437632554152515, 434251.373171850806102 ], [ 426150.508768796629738, 434251.190149765345268 ], [ 426156.760033193277195, 434234.413505355536472 ], [ 426178.223091673396993, 434176.831789447867777 ], [ 426181.019930766546167, 434172.293444820970763 ], [ 426194.897819716832601, 434149.733220860594884 ], [ 426198.994686378107872, 434144.188578249246348 ], [ 426263.832331054378301, 434056.464299492130522 ], [ 426252.573739952058531, 434048.142993922054302 ], [ 426187.735799465561286, 434135.867672905616928 ] ] ] } },
{ "type": "Feature", "properties": { "highway": "unclassified", "name": "Redcote Lane", "osm_type": "way", "osm_id": 27408143, "lit": null, "maxspeed": null, "sidewalk": null, "surface": "asphalt", "destination:ref": null, "lanes": null, "oneway": null, "ref": null, "bus": null, "busway:left": null, "turn:lanes:forward": null, "sidewalk:left": null, "sidewalk:right": null, "cycleway:left": null, "cycleway:right": null, "destination:backward": null, "destination:forward": null, "destination:symbol:backward": null, "lanes:backward": null, "lanes:forward": null, "lanes:psv:forward": null, "psv:lanes:forward": null, "cycleway": null, "lanes:psv:backward": null, "psv:lanes:backward": null, "sidewalk:both:surface": null, "smoothness": null }, "geometry": { "type": "Polygon", "coordinates": [ [ [ 427208.617386272409931, 434541.096859490324277 ], [ 427144.135917980805971, 434520.115277956123464 ], [ 427108.435282333521172, 434508.504357027122751 ], [ 427108.328703986422624, 434508.471005965140648 ], [ 427099.540087442146614, 434505.828214191424195 ], [ 427058.425570366613101, 434493.441558352787979 ], [ 427009.945651509915479, 434478.842716736136936 ], [ 427009.731159084069077, 434478.78329973021755 ], [ 426992.554143972927704, 434474.434281805821229 ], [ 426992.133650176867377, 434474.346845788881183 ], [ 426991.707204050384462, 434474.295818435028195 ], [ 426991.277952085190918, 434474.28157624474261 ], [ 426894.936295008694287, 434475.225283307489008 ], [ 426871.627883214212488, 434472.121527395385783 ], [ 426857.001055997738149, 434469.116528721235227 ], [ 426848.69427350780461, 434465.899747053685132 ], [ 426786.885414500313345, 434417.449239031237084 ], [ 426782.022377384302672, 434411.167878109728917 ], [ 426774.115169566532131, 434417.289647831581533 ], [ 426779.358398383017629, 434424.062084850855172 ], [ 426779.623692210763693, 434424.377050807932392 ], [ 426779.914005228027236, 434424.669117103796452 ], [ 426780.227368132851552, 434424.936302543210331 ], [ 426843.110417245246936, 434474.228842875047121 ], [ 426843.512163245119154, 434474.512995128636248 ], [ 426843.939894878887571, 434474.75628097099252 ], [ 426844.389469268848188, 434474.956344009842724 ], [ 426853.779750556277577, 434478.592707997420803 ], [ 426854.174532457487658, 434478.726941048167646 ], [ 426854.57912626338657, 434478.827812816773076 ], [ 426869.787557008152362, 434481.952298636373598 ], [ 426870.133787294325884, 434482.010841887269635 ], [ 426893.969269092893228, 434485.184782617434394 ], [ 426894.678219989058562, 434485.228291000705212 ], [ 426990.727909982437268, 434484.287443878361955 ], [ 427007.168817217752803, 434488.450087958073709 ], [ 427055.541227140347473, 434503.016555180831347 ], [ 427096.656678160419688, 434515.403492390876636 ], [ 427105.395545581006445, 434518.031324995739851 ], [ 427141.042051228927448, 434529.624641165777575 ], [ 427205.585090520675294, 434550.626257246243767 ], [ 427205.709420703526121, 434550.664930109051056 ], [ 427222.875088813365437, 434555.760141833918169 ], [ 427225.720637495513074, 434546.173544278135523 ], [ 427208.617386272409931, 434541.096859490324277 ] ] ] } },
{ "type": "Feature", "properties": { "highway": "residential", "name": "Lenhurst Avenue", "osm_type": "way", "osm_id": 27591200, "lit": null, "maxspeed": null, "sidewalk": null, "surface": null, "destination:ref": null, "lanes": null, "oneway": null, "ref": null, "bus": null, "busway:left": null, "turn:lanes:forward": null, "sidewalk:left": null, "sidewalk:right": null, "cycleway:left": null, "cycleway:right": null, "destination:backward": null, "destination:forward": null, "destination:symbol:backward": null, "lanes:backward": null, "lanes:forward": null, "lanes:psv:forward": null, "psv:lanes:forward": null, "cycleway": null, "lanes:psv:backward": null, "psv:lanes:backward": null, "sidewalk:both:surface": null, "smoothness": null }, "geometry": { "type": "Polygon", "coordinates": [ [ [ 425953.015884194290265, 435060.546688418660779 ], [ 425953.214103321777657, 435060.561437059601303 ], [ 425980.737434808223043, 435062.059933012642432 ], [ 425980.868290218291804, 435062.065339601947926 ], [ 425991.665898864506744, 435062.369877361459658 ], [ 425992.123251793091185, 435062.361844685394317 ], [ 425992.577956727938727, 435062.312048627703916 ], [ 426001.389631592261139, 435060.936670493392739 ], [ 426001.829389316902962, 435060.847655719146132 ], [ 426002.259396763634868, 435060.719577297335491 ], [ 426002.676191332226153, 435060.553466569224838 ], [ 426003.07641681790119, 435060.350661127944477 ], [ 426010.43504587537609, 435056.196804984938353 ], [ 426010.88638388417894, 435055.909135347639676 ], [ 426011.304386950854678, 435055.574870101816487 ], [ 426011.684265432239044, 435055.197839389787987 ], [ 426012.021666531392839, 435054.782363377686124 ], [ 426012.31272417405853, 435054.333202752692159 ], [ 426016.887282765004784, 435046.369869029789697 ], [ 426017.139072989928536, 435045.868329265329521 ], [ 426017.333073572488502, 435045.341732430271804 ], [ 426017.466840567474719, 435044.796712390496396 ], [ 426019.068429994571488, 435036.216091164853424 ], [ 426019.137577315210365, 435035.695079375582282 ], [ 426024.863804013875779, 434963.695222880982328 ], [ 426014.89528073737165, 434962.902415410091635 ], [ 426009.189917072944809, 435034.639946371491533 ], [ 426007.792626382433809, 435042.126023611286655 ], [ 426004.324834877799731, 435048.162711191864219 ], [ 425998.950877085968386, 435051.196244668215513 ], [ 425991.489146120555233, 435052.360915604454931 ], [ 425981.215683076472487, 435052.071160944818985 ], [ 425953.857000056304969, 435050.581629206775688 ], [ 425938.436776830698363, 435049.125558402913157 ], [ 425937.496698010363616, 435059.081272933341097 ], [ 425953.015884194290265, 435060.546688418660779 ] ] ] } },
{ "type": "Feature", "properties": { "highway": "residential", "name": "Gotts Park Avenue", "osm_type": "way", "osm_id": 27767439, "lit": null, "maxspeed": null, "sidewalk": null, "surface": null, "destination:ref": null, "lanes": null, "oneway": null, "ref": null, "bus": null, "busway:left": null, "turn:lanes:forward": null, "sidewalk:left": null, "sidewalk:right": null, "cycleway:left": null, "cycleway:right": null, "destination:backward": null, "destination:forward": null, "destination:symbol:backward": null, "lanes:backward": null, "lanes:forward": null, "lanes:psv:forward": null, "psv:lanes:forward": null, "cycleway": null, "lanes:psv:backward": null, "psv:lanes:backward": null, "sidewalk:both:surface": null, "smoothness": null }, "geometry": { "type": "Polygon", "coordinates": [ [ [ 426096.519073427538387, 434298.603561416501179 ], [ 426095.957268378813751, 434298.576839206449222 ], [ 426078.839425936806947, 434298.726532095170114 ], [ 426078.366784262820147, 434298.75307560141664 ], [ 426077.898771168547682, 434298.824198405665811 ], [ 426066.360413713846356, 434301.141164384025615 ], [ 426065.940509907435626, 434301.244557638943661 ], [ 426065.531110650394112, 434301.383847337332554 ], [ 426065.135278402478434, 434301.557991539943032 ], [ 426017.427850445325021, 434325.059162883087993 ], [ 426017.314249410119373, 434325.116934585617855 ], [ 425971.170829669747036, 434349.328194242669269 ], [ 425970.884105119679589, 434349.490911475964822 ], [ 425932.899841055623256, 434372.735183154582046 ], [ 425932.702880892378744, 434372.862149890570436 ], [ 425916.969556590658613, 434383.534398956049699 ], [ 425916.501575038186274, 434383.893923516501673 ], [ 425877.41693095525261, 434417.769586691749282 ], [ 425868.649395002867095, 434425.065688685514033 ], [ 425866.45803971629357, 434426.890628749330062 ], [ 425863.75092538195895, 434429.146397174859885 ], [ 425870.152501537173521, 434436.828833164123353 ], [ 425872.857971286575776, 434434.574434863752685 ], [ 425875.046673127857503, 434432.75170413084561 ], [ 425883.852079201838933, 434425.424087664694525 ], [ 425883.928570950054564, 434425.3591230858583 ], [ 425922.827771138981916, 434391.644188888429198 ], [ 425938.219485638313927, 434381.203661029750947 ], [ 425975.963102963694837, 434358.106651863898151 ], [ 426021.904044407478068, 434334.00163172360044 ], [ 426068.968935590004548, 434310.816980626492295 ], [ 426079.401837431942113, 434308.72199624782661 ], [ 426095.763058292912319, 434308.578919897961896 ], [ 426123.575674164632801, 434311.476361759821884 ], [ 426124.611839149787556, 434301.530188519624062 ], [ 426096.519073427538387, 434298.603561416501179 ] ] ] } },
{ "type": "Feature", "properties": { "highway": "residential", "name": "Gotts Park Crescent", "osm_type": "way", "osm_id": 27767440, "lit": null, "maxspeed": null, "sidewalk": null, "surface": null, "destination:ref": null, "lanes": null, "oneway": null, "ref": null, "bus": null, "busway:left": null, "turn:lanes:forward": null, "sidewalk:left": null, "sidewalk:right": null, "cycleway:left": null, "cycleway:right": null, "destination:backward": null, "destination:forward": null, "destination:symbol:backward": null, "lanes:backward": null, "lanes:forward": null, "lanes:psv:forward": null, "psv:lanes:forward": null, "cycleway": null, "lanes:psv:backward": null, "psv:lanes:backward": null, "sidewalk:both:surface": null, "smoothness": null }, "geometry": { "type": "Polygon", "coordinates": [ [ [ 425930.449325417401269, 434409.113339917385019 ], [ 425930.745083173911553, 434409.452466830378398 ], [ 425944.423761634912807, 434423.780782906687818 ], [ 425944.698672364407685, 434424.04750278335996 ], [ 425953.670125183591153, 434432.107999061467126 ], [ 425954.023630938143469, 434432.397540296195075 ], [ 425954.402093802113086, 434432.653599480167031 ], [ 425954.802352846949361, 434432.874038002511952 ], [ 425955.221065101970453, 434433.057014756777789 ], [ 425967.346185408998281, 434437.708073014684487 ], [ 425967.813377732178196, 434437.861387559503783 ], [ 425968.293369830935262, 434437.968072148854844 ], [ 425968.781519720621873, 434438.027095040306449 ], [ 425983.001272711437196, 434439.040354583179578 ], [ 425983.518582879041787, 434439.050377741164993 ], [ 425984.034159083326813, 434439.006886929098982 ], [ 425984.542480322532356, 434438.910347864555661 ], [ 425997.600036254676525, 434435.722610584984068 ], [ 425998.033863667456899, 434435.595668313268106 ], [ 425998.454453966405708, 434435.430065279302653 ], [ 425998.858369741588831, 434435.227154927270021 ], [ 426012.090828266576864, 434427.812437132757623 ], [ 426012.584237465751357, 434427.496618619363289 ], [ 426013.037320474337321, 434427.125256587634794 ], [ 426021.523734167101793, 434419.294860166381113 ], [ 426021.815314919862431, 434419.002631400246173 ], [ 426022.081795096106362, 434418.687345335201826 ], [ 426029.172646056336816, 434409.558582063822541 ], [ 426029.458771691541187, 434409.149612875306047 ], [ 426029.702697419561446, 434408.714154593239073 ], [ 426036.029924894333817, 434395.965128956304397 ], [ 426036.238853334216401, 434395.48177648964338 ], [ 426036.395789544098079, 434394.979131758213043 ], [ 426036.498992908629589, 434394.462769709294662 ], [ 426037.929917247034609, 434384.635072166798636 ], [ 426037.975049283180851, 434384.179883243690711 ], [ 426037.978393461205997, 434383.722474593960214 ], [ 426037.939921792654786, 434383.26667443261249 ], [ 426036.385707338631619, 434371.375195168133359 ], [ 426036.274004010076169, 434370.792320157284848 ], [ 426031.884776157035958, 434353.511137673864141 ], [ 426031.835975992900785, 434353.332878204470035 ], [ 426024.434692936774809, 434328.135355734208133 ], [ 426014.840033225424122, 434330.953600759443361 ], [ 426022.2152686350164, 434356.062444529903587 ], [ 426026.508565472846385, 434372.965929287020117 ], [ 426027.934740095166489, 434383.877760601579212 ], [ 426026.718150334258098, 434392.233391911024228 ], [ 426020.967895960784517, 434403.819847545644734 ], [ 426014.438263211632147, 434412.226098353916313 ], [ 426006.688804041536059, 434419.376508356188424 ], [ 425994.565411549643613, 434426.1697685708059 ], [ 425982.931262119964231, 434429.010010040656198 ], [ 425970.233668080822099, 434428.10521525691729 ], [ 425959.665713407739531, 434424.05146802746458 ], [ 425951.524557704979088, 434416.736960938782431 ], [ 425938.133739299722947, 434402.710176174645312 ], [ 425923.68868250050582, 434384.558788986527361 ], [ 425915.864027449395508, 434390.785728309419937 ], [ 425930.449325417401269, 434409.113339917385019 ] ] ] } },
{ "type": "Feature", "properties": { "highway": "residential", "name": "Gotts Park View", "osm_type": "way", "osm_id": 27767441, "lit": null, "maxspeed": "20 mph", "sidewalk": null, "surface": null, "destination:ref": null, "lanes": null, "oneway": null, "ref": null, "bus": null, "busway:left": null, "turn:lanes:forward": null, "sidewalk:left": null, "sidewalk:right": null, "cycleway:left": null, "cycleway:right": null, "destination:backward": null, "destination:forward": null, "destination:symbol:backward": null, "lanes:backward": null, "lanes:forward": null, "lanes:psv:forward": null, "psv:lanes:forward": null, "cycleway": null, "lanes:psv:backward": null, "psv:lanes:backward": null, "sidewalk:both:surface": null, "smoothness": null }, "geometry": { "type": "Polygon", "coordinates": [ [ [ 426029.227508367970586, 434508.453491584572475 ], [ 426028.729302252177149, 434508.338915912434459 ], [ 426028.222000972484238, 434508.275810206192546 ], [ 426027.710907591157593, 434508.264834139961749 ], [ 426003.06974623084534, 434508.996178117231466 ], [ 426002.615580036770552, 434509.030410679464694 ], [ 426002.166413115453906, 434509.105828694300726 ], [ 426001.725972452783026, 434509.221806376823224 ], [ 425982.739478916395456, 434515.158283896395005 ], [ 425985.723693526000716, 434524.702625841484405 ], [ 426004.053816768340766, 434518.971374604909215 ], [ 426027.234686729498208, 434518.283371739031281 ], [ 426047.150647567061242, 434523.949737625371199 ], [ 426049.887182067206595, 434514.331454050319735 ], [ 426029.227508367970586, 434508.453491584572475 ] ] ] } },
{ "type": "Feature", "properties": { "highway": "residential", "name": "The Courtyard", "osm_type": "way", "osm_id": 28501336, "lit": null, "maxspeed": null, "sidewalk": null, "surface": null, "destination:ref": null, "lanes": null, "oneway": null, "ref": null, "bus": null, "busway:left": null, "turn:lanes:forward": null, "sidewalk:left": null, "sidewalk:right": null, "cycleway:left": null, "cycleway:right": null, "destination:backward": null, "destination:forward": null, "destination:symbol:backward": null, "lanes:backward": null, "lanes:forward": null, "lanes:psv:forward": null, "psv:lanes:forward": null, "cycleway": null, "lanes:psv:backward": null, "psv:lanes:backward": null, "sidewalk:both:surface": null, "smoothness": null }, "geometry": { "type": "Polygon", "coordinates": [ [ [ 425986.365204096073285, 434141.326592867262661 ], [ 425995.969573145674076, 434165.491563231858891 ], [ 425962.926910822454374, 434178.582228961866349 ], [ 425966.610138677468058, 434187.879208717029542 ], [ 426004.306416017992888, 434172.944898608955555 ], [ 426004.753485994122457, 434172.741847516153939 ], [ 426005.178483782743569, 434172.495924378803466 ], [ 426005.577310682914685, 434172.209500892553478 ], [ 426005.946120387176052, 434171.885339340486098 ], [ 426006.281356075429358, 434171.526565953565296 ], [ 426006.579784717061557, 434171.136640761164017 ], [ 426006.838528250635136, 434170.719324222241994 ], [ 426007.055091339978389, 434170.27864095941186 ], [ 426007.227385439327918, 434169.818840945139527 ], [ 426007.35374893527478, 434169.34435851481976 ], [ 426007.432963171799202, 434168.859769601840526 ], [ 426007.464264202455524, 434168.36974760715384 ], [ 426007.447350158647168, 434167.879018328501843 ], [ 426007.382384160184301, 434167.392314384749625 ], [ 426007.269992742629256, 434166.914329574210569 ], [ 426007.111259814642835, 434166.449673607537989 ], [ 425995.659832131350413, 434137.63743414497003 ], [ 425993.815643246169202, 434132.989007732248865 ], [ 425984.52044495975133, 434136.676729090628214 ], [ 425986.365204096073285, 434141.326592867262661 ] ] ] } },
{ "type": "Feature", "properties": { "highway": "residential", "name": "Stanningley Road", "osm_type": "way", "osm_id": 30104420, "lit": null, "maxspeed": null, "sidewalk": null, "surface": null, "destination:ref": null, "lanes": null, "oneway": "yes", "ref": null, "bus": null, "busway:left": null, "turn:lanes:forward": null, "sidewalk:left": null, "sidewalk:right": null, "cycleway:left": null, "cycleway:right": null, "destination:backward": null, "destination:forward": null, "destination:symbol:backward": null, "lanes:backward": null, "lanes:forward": null, "lanes:psv:forward": null, "psv:lanes:forward": null, "cycleway": null, "lanes:psv:backward": null, "psv:lanes:backward": null, "sidewalk:both:surface": null, "smoothness": null }, "geometry": { "type": "Polygon", "coordinates": [ [ [ 426144.019064035033807, 434048.376270695356652 ], [ 426143.601899949309882, 434048.079096697154455 ], [ 426143.156522691715509, 434047.826159238407854 ], [ 426142.68760584195843, 434047.620112526114099 ], [ 426142.200069993268698, 434047.463118717656471 ], [ 426133.45318074314855, 434045.133558045257814 ], [ 426132.888093252084218, 434045.017497639695648 ], [ 426132.313398561673239, 434044.967299003445078 ], [ 426121.118423258070834, 434044.637994747085031 ], [ 426120.734295627858955, 434044.641458479803987 ], [ 426120.351567598991096, 434044.674402213946451 ], [ 426102.872412220283877, 434046.85811145597836 ], [ 426102.572531299258117, 434046.904859237431083 ], [ 426091.139908594195731, 434049.044336013088468 ], [ 426091.073945498967078, 434049.057139550917782 ], [ 426076.805152606917545, 434051.926356543903239 ], [ 426076.365517388447188, 434052.035694073187187 ], [ 426075.937583138467744, 434052.184375270095188 ], [ 426061.831322278478183, 434057.813853190105874 ], [ 426061.735161894059274, 434057.853392465563957 ], [ 426047.4685850716196, 434063.893695631821174 ], [ 426047.256373075884767, 434063.989429383247625 ], [ 426030.119309945614077, 434072.205740803910885 ], [ 426029.781258635630365, 434072.384016528492793 ], [ 426016.321890363004059, 434080.153458683053032 ], [ 426016.035220094083343, 434080.332113843294792 ], [ 425987.14577461668523, 434099.721024442580529 ], [ 425986.833780753077008, 434099.948363990581129 ], [ 425981.501951316837221, 434104.157972752524074 ], [ 425981.090841205848847, 434104.52086704375688 ], [ 425980.721943337819539, 434104.926598670484964 ], [ 425980.399694872321561, 434105.370287431287579 ], [ 425978.366877556312829, 434108.518902709358372 ], [ 425978.12295753863873, 434108.940438069344964 ], [ 425977.921205179241952, 434109.383704377803952 ], [ 425977.763534616038669, 434109.844496118428651 ], [ 425977.651441758207511, 434110.318441501294728 ], [ 425977.585990093532018, 434110.801043940533418 ], [ 425977.290418652526569, 434114.226300577924121 ], [ 425977.271953199466225, 434114.634506348811556 ], [ 425977.248196270840708, 434120.119626969390083 ], [ 425987.248102477460634, 434120.162938151450362 ], [ 425987.270973768667318, 434114.882298002485186 ], [ 425987.442126475158148, 434112.898879233107436 ], [ 425988.350446444877889, 434111.491989341157023 ], [ 425992.878862637444399, 434107.916694836691022 ], [ 426021.467603777244221, 434088.729599447862711 ], [ 426034.615001355239656, 434081.140242882480379 ], [ 426051.474638352869079, 434073.056942555122077 ], [ 426065.586119871062692, 434067.082304941897746 ], [ 426079.22203532687854, 434061.640530843171291 ], [ 426093.012379871564917, 434058.867521857318934 ], [ 426104.262747282104101, 434056.762151951086707 ], [ 426121.209226313512772, 434054.644991134176962 ], [ 426131.439841638086364, 434054.945928392233327 ], [ 426138.62206691747997, 434056.858771812636405 ], [ 426144.338674393016845, 434061.389819131349213 ], [ 426150.550253286492079, 434053.552964682574384 ], [ 426144.019064035033807, 434048.376270695356652 ] ] ] } },
{ "type": "Feature", "properties": { "highway": "primary", "name": "Stanningley Road", "osm_type": "way", "osm_id": 53809169, "lit": null, "maxspeed": "40 mph", "sidewalk": null, "surface": "asphalt", "destination:ref": null, "lanes": "2", "oneway": "yes", "ref": "A647", "bus": null, "busway:left": null, "turn:lanes:forward": null, "sidewalk:left": null, "sidewalk:right": null, "cycleway:left": null, "cycleway:right": null, "destination:backward": null, "destination:forward": null, "destination:symbol:backward": null, "lanes:backward": null, "lanes:forward": null, "lanes:psv:forward": null, "psv:lanes:forward": null, "cycleway": null, "lanes:psv:backward": null, "psv:lanes:backward": null, "sidewalk:both:surface": null, "smoothness": null }, "geometry": { "type": "Polygon", "coordinates": [ [ [ 426243.872139208368026, 434012.441065343678929 ], [ 426250.731150427367538, 434031.22813443641644 ], [ 426297.134969177830499, 434014.286465044366196 ], [ 426290.275957958830986, 433995.499395951628685 ], [ 426243.872139208368026, 434012.441065343678929 ] ] ] } },
{ "type": "Feature", "properties": { "highway": "primary", "name": "Stanningley Road", "osm_type": "way", "osm_id": 53809170, "lit": null, "maxspeed": "40 mph", "sidewalk": null, "surface": "asphalt", "destination:ref": null, "lanes": "3", "oneway": "yes", "ref": "A647", "bus": "yes", "busway:left": "lane", "turn:lanes:forward": "bus|through|right", "sidewalk:left": null, "sidewalk:right": null, "cycleway:left": null, "cycleway:right": null, "destination:backward": null, "destination:forward": null, "destination:symbol:backward": null, "lanes:backward": null, "lanes:forward": null, "lanes:psv:forward": null, "psv:lanes:forward": null, "cycleway": null, "lanes:psv:backward": null, "psv:lanes:backward": null, "sidewalk:both:surface": null, "smoothness": null }, "geometry": { "type": "Polygon", "coordinates": [ [ [ 426301.073086174787022, 434027.748237746127415 ], [ 426293.747316009132192, 434009.138211107754614 ], [ 426275.66073092649458, 434016.257930384424981 ], [ 426282.98650109214941, 434034.867957022797782 ], [ 426301.073086174787022, 434027.748237746127415 ] ] ] } },
{ "type": "Feature", "properties": { "highway": "primary", "name": "Stanningley Road", "osm_type": "way", "osm_id": 53809173, "lit": null, "maxspeed": "40 mph", "sidewalk": null, "surface": "asphalt", "destination:ref": null, "lanes": "2", "oneway": "yes", "ref": "A647", "bus": "yes", "busway:left": "lane", "turn:lanes:forward": null, "sidewalk:left": "separate", "sidewalk:right": "no", "cycleway:left": null, "cycleway:right": null, "destination:backward": null, "destination:forward": null, "destination:symbol:backward": null, "lanes:backward": null, "lanes:forward": null, "lanes:psv:forward": null, "psv:lanes:forward": null, "cycleway": null, "lanes:psv:backward": null, "psv:lanes:backward": null, "sidewalk:both:surface": null, "smoothness": null }, "geometry": { "type": "Polygon", "coordinates": [ [ [ 425702.630942206887994, 434231.241573098814115 ], [ 425723.733787179808132, 434225.722853876883164 ], [ 425723.947687758947723, 434225.664374228043016 ], [ 425853.634412382845767, 434188.658313411579002 ], [ 425853.971766464819666, 434188.555583283712622 ], [ 425916.52703297365224, 434168.29444673837861 ], [ 425929.488061516138259, 434164.092647828802001 ], [ 425931.233616416109726, 434163.526610103843268 ], [ 425968.697985873208381, 434151.753329538216349 ], [ 425992.168072770233266, 434144.372251410153694 ], [ 425992.64977928227745, 434144.207169459550641 ], [ 426108.91292169195367, 434101.025552941602655 ], [ 426108.990583733364474, 434100.996341054385994 ], [ 426177.455548793717753, 434074.919114592543337 ], [ 426239.499086275696754, 434051.288168538245372 ], [ 426247.617699694761541, 434048.195878261001781 ], [ 426268.654656692582648, 434040.179643630341161 ], [ 426261.533077619678807, 434021.490526168316137 ], [ 426240.498151257866994, 434029.505987127544358 ], [ 426232.380363368196413, 434032.597962970321532 ], [ 426170.336846835387405, 434056.228901045629755 ], [ 426101.910559713491239, 434082.291395689884666 ], [ 425985.92505997128319, 434125.369892173854169 ], [ 425962.701001871435437, 434132.673597254033666 ], [ 425925.194277949398383, 434144.460187826131005 ], [ 425925.107645281241275, 434144.487845825613476 ], [ 425923.319955685758032, 434145.067546761594713 ], [ 425910.363114674401004, 434149.267988502862863 ], [ 425847.976890881371219, 434169.474373502249364 ], [ 425718.566375203547068, 434206.401618194067851 ], [ 425697.337037105637137, 434211.95341731782537 ], [ 425696.872727270703763, 434212.086904075287748 ], [ 425635.022026886988897, 434231.498008128197398 ], [ 425641.010784026177134, 434250.580324233102147 ], [ 425702.630942206887994, 434231.241573098814115 ] ] ] } },
{ "type": "Feature", "properties": { "highway": "primary", "name": "Stanningley Road", "osm_type": "way", "osm_id": 157963449, "lit": null, "maxspeed": "40 mph", "sidewalk": null, "surface": "asphalt", "destination:ref": null, "lanes": "2", "oneway": "yes", "ref": "A647", "bus": "yes", "busway:left": "lane", "turn:lanes:forward": null, "sidewalk:left": null, "sidewalk:right": null, "cycleway:left": null, "cycleway:right": null, "destination:backward": null, "destination:forward": null, "destination:symbol:backward": null, "lanes:backward": null, "lanes:forward": null, "lanes:psv:forward": null, "psv:lanes:forward": null, "cycleway": null, "lanes:psv:backward": null, "psv:lanes:backward": null, "sidewalk:both:surface": null, "smoothness": null }, "geometry": { "type": "Polygon", "coordinates": [ [ [ 426319.877437053190079, 434020.982700203720015 ], [ 426319.887999774771743, 434020.97889060061425 ], [ 426323.405681107251439, 434019.707954039447941 ], [ 426343.361913892789744, 434012.485776835121214 ], [ 426412.53518964239629, 433987.450622748932801 ], [ 426412.740555084485095, 433987.37374008493498 ], [ 426576.192430756869726, 433924.130414162762463 ], [ 426578.507281454571057, 433923.233829747128766 ], [ 426588.389656783547252, 433919.499314027372748 ], [ 426588.47403235884849, 433919.466992416710127 ], [ 426606.098915820126422, 433912.623990034626331 ], [ 426606.140905518783256, 433912.60757818230195 ], [ 426610.163678067619912, 433911.024797939055134 ], [ 426755.262323863629717, 433857.613864679005928 ], [ 426748.353508718835656, 433838.845053494093008 ], [ 426603.15095886803465, 433892.294233923894353 ], [ 426602.944023073941935, 433892.373019453545567 ], [ 426598.839195126609411, 433893.988084809097927 ], [ 426581.277439803292509, 433900.80657718522707 ], [ 426571.398883450368885, 433904.539649727055803 ], [ 426571.322120509168599, 433904.569019247195683 ], [ 426568.973760048917029, 433905.478583256190177 ], [ 426405.625749694474507, 433968.681721275206655 ], [ 426336.555807121796533, 433993.679477076046169 ], [ 426316.607155932986643, 434000.898911997675896 ], [ 426313.097255803702865, 434002.167037213919684 ], [ 426294.022751692507882, 434009.034442010161001 ], [ 426300.797650491411332, 434027.852006843721028 ], [ 426319.877437053190079, 434020.982700203720015 ] ] ] } },
{ "type": "Feature", "properties": { "highway": "primary", "name": "Stanningley Road", "osm_type": "way", "osm_id": 236108795, "lit": null, "maxspeed": "40 mph", "sidewalk": null, "surface": "asphalt", "destination:ref": null, "lanes": "2", "oneway": "yes", "ref": "A647", "bus": null, "busway:left": null, "turn:lanes:forward": null, "sidewalk:left": null, "sidewalk:right": null, "cycleway:left": null, "cycleway:right": null, "destination:backward": null, "destination:forward": null, "destination:symbol:backward": null, "lanes:backward": null, "lanes:forward": null, "lanes:psv:forward": null, "psv:lanes:forward": null, "cycleway": null, "lanes:psv:backward": null, "psv:lanes:backward": null, "sidewalk:both:surface": null, "smoothness": null }, "geometry": { "type": "Polygon", "coordinates": [ [ [ 426239.663087038788944, 434013.929861408134457 ], [ 426239.637601030815858, 434013.938918128143996 ], [ 426201.881647505331784, 434027.413427457795478 ], [ 426144.097146817483008, 434048.048242426419165 ], [ 426098.511650351632852, 434064.155796711624134 ], [ 426098.199728695151862, 434064.271887884009629 ], [ 426004.105562179989647, 434101.086007588775828 ], [ 425978.91013185819611, 434110.711612572602462 ], [ 425969.894363919622265, 434113.654633498052135 ], [ 425969.875804921903182, 434113.660711778851692 ], [ 425962.15758621529676, 434116.196862857090309 ], [ 425905.100208603253122, 434133.527955282304902 ], [ 425844.054357768036425, 434152.06817812344525 ], [ 425740.985146266175434, 434182.173117944330443 ], [ 425740.900853956874926, 434182.19814115826739 ], [ 425713.767207082768437, 434190.383073799719568 ], [ 425703.964840051019564, 434193.346398065565154 ], [ 425709.752307674265467, 434212.490724079078063 ], [ 425719.54605955875013, 434209.530002353945747 ], [ 425746.634743182105012, 434201.358632989868056 ], [ 425849.713000080490019, 434171.251051147060934 ], [ 425849.815330452984199, 434171.220568156684749 ], [ 425910.912434474157635, 434152.664779220940545 ], [ 425968.078379558224697, 434135.300709596311208 ], [ 425968.293728431337513, 434135.23263215465704 ], [ 425976.109960628964473, 434132.664274549228139 ], [ 425985.351306496479083, 434129.647618125425652 ], [ 425985.816954917565454, 434129.482782814302482 ], [ 426011.28059608786134, 434119.754711166955531 ], [ 426011.355325976910535, 434119.725817935424857 ], [ 426105.331804816727526, 434082.957743254839443 ], [ 426150.776077615737449, 434066.900090101698879 ], [ 426150.807465514109936, 434066.888940406381153 ], [ 426208.604955587827135, 434046.249486741493456 ], [ 426246.347273579740431, 434032.779843720491044 ], [ 426250.637363525049295, 434031.261846609355416 ], [ 426243.965926110686269, 434012.407353170739952 ], [ 426239.663087038788944, 434013.929861408134457 ] ] ] } },
{ "type": "Feature", "properties": { "highway": "primary", "name": "Stanningley Road", "osm_type": "way", "osm_id": 236108797, "lit": null, "maxspeed": "40 mph", "sidewalk": null, "surface": "asphalt", "destination:ref": null, "lanes": "2", "oneway": "yes", "ref": "A647", "bus": null, "busway:left": null, "turn:lanes:forward": null, "sidewalk:left": null, "sidewalk:right": null, "cycleway:left": null, "cycleway:right": null, "destination:backward": null, "destination:forward": null, "destination:symbol:backward": null, "lanes:backward": null, "lanes:forward": null, "lanes:psv:forward": null, "psv:lanes:forward": null, "cycleway": null, "lanes:psv:backward": null, "psv:lanes:backward": null, "sidewalk:both:surface": null, "smoothness": null }, "geometry": { "type": "Polygon", "coordinates": [ [ [ 426366.670455820451025, 433966.799699380004313 ], [ 426330.484165692760143, 433980.391910020262003 ], [ 426330.463105508300941, 433980.399847652646713 ], [ 426328.996987952094059, 433980.954315783572383 ], [ 426320.389359114516992, 433984.183596874994691 ], [ 426309.625478030298837, 433988.230903758842032 ], [ 426290.189154823543504, 433995.531543164339382 ], [ 426297.221772313117981, 434014.254317831655499 ], [ 426316.659695528447628, 434006.953077433572616 ], [ 426327.417996951844543, 434002.907866254856344 ], [ 426336.03455912170466, 433999.675233689777087 ], [ 426336.059333931480069, 433999.665901619242504 ], [ 426337.527307097217999, 433999.110731719003525 ], [ 426373.706579421588685, 433985.521157089853659 ], [ 426377.673863600706682, 433984.027575769519899 ], [ 426370.627191863255575, 433965.310086156183388 ], [ 426366.670455820451025, 433966.799699380004313 ] ] ] } },
{ "type": "Feature", "properties": { "highway": "primary", "name": "Kirkstall Road", "osm_type": "way", "osm_id": 534810150, "lit": "yes", "maxspeed": "30 mph", "sidewalk": null, "surface": "asphalt", "destination:ref": null, "lanes": "3", "oneway": null, "ref": "A65", "bus": null, "busway:left": "lane", "turn:lanes:forward": null, "sidewalk:left": null, "sidewalk:right": null, "cycleway:left": "share_busway", "cycleway:right": "lane", "destination:backward": "Ilkley;Horsforth;Airport", "destination:forward": "City Centre", "destination:symbol:backward": ";;airport", "lanes:backward": "1", "lanes:forward": "2", "lanes:psv:forward": "1", "psv:lanes:forward": "designated|yes", "cycleway": null, "lanes:psv:backward": null, "psv:lanes:backward": null, "sidewalk:both:surface": null, "smoothness": null }, "geometry": { "type": "Polygon", "coordinates": [ [ [ 426793.237406098516658, 435000.929871810600162 ], [ 426814.869435365661047, 434988.091637941310182 ], [ 426827.915725377679337, 434980.342497555073351 ], [ 426827.948102760536131, 434980.323183613829315 ], [ 426876.743728626170196, 434951.090486181492452 ], [ 426902.918588792963419, 434935.648208560538478 ], [ 426932.80295586201828, 434918.029312543279957 ], [ 426958.819491926289629, 434902.678098736272659 ], [ 427014.674484081333503, 434869.729040470032487 ], [ 427039.326439392054453, 434855.581437651475426 ], [ 427039.49905805819435, 434855.480062655929942 ], [ 427051.770346808014438, 434848.107241579156835 ], [ 427061.652445653453469, 434842.165344964072574 ], [ 427064.037465929170139, 434840.728986052854452 ], [ 427053.719307764200494, 434823.596105031843763 ], [ 427051.343384276668075, 434825.02698839007644 ], [ 427041.468663327977993, 434830.964449498220347 ], [ 427029.284625185362529, 434838.284848769195378 ], [ 427004.667619900254067, 434852.412393986887764 ], [ 427004.564246255380567, 434852.472544091404416 ], [ 426948.657259850646369, 434885.452273950213566 ], [ 426922.643930935882963, 434900.801596043049358 ], [ 426892.759851565526333, 434918.420322442019824 ], [ 426866.552173020783812, 434933.881961286533624 ], [ 426866.494263428612612, 434933.916389469290152 ], [ 426817.685911240056157, 434963.156711042916868 ], [ 426804.660502056882251, 434970.893449548922945 ], [ 426783.02931385760894, 434983.731184259057045 ], [ 426765.412520431214944, 434994.190419004007708 ], [ 426775.62276416469831, 435011.387829358514864 ], [ 426793.237406098516658, 435000.929871810600162 ] ] ] } },
{ "type": "Feature", "properties": { "highway": "primary", "name": "Kirkstall Road", "osm_type": "way", "osm_id": 534810152, "lit": "yes", "maxspeed": "30 mph", "sidewalk": "both", "surface": "asphalt", "destination:ref": null, "lanes": "4", "oneway": null, "ref": "A65", "bus": null, "busway:left": null, "turn:lanes:forward": null, "sidewalk:left": null, "sidewalk:right": null, "cycleway:left": null, "cycleway:right": null, "destination:backward": "Ilkley;Horsforth;Airport", "destination:forward": "City Centre", "destination:symbol:backward": ";;airport", "lanes:backward": "2", "lanes:forward": "2", "lanes:psv:forward": "1", "psv:lanes:forward": "designated|yes", "cycleway": "share_busway", "lanes:psv:backward": "1", "psv:lanes:backward": "designated|yes", "sidewalk:both:surface": "asphalt", "smoothness": "good" }, "geometry": { "type": "Polygon", "coordinates": [ [ [ 426478.697559805819765, 435300.614228128863033 ], [ 426482.235008484625723, 435294.107239340606611 ], [ 426484.773540125752334, 435289.430998395197093 ], [ 426500.936509052873589, 435259.646472596446984 ], [ 426520.124423100962304, 435224.284863770764787 ], [ 426528.471488769049756, 435209.507993015868124 ], [ 426557.00435675738845, 435173.194741144427098 ], [ 426557.342093095474411, 435172.7434848905541 ], [ 426566.082959142513573, 435160.474194685404655 ], [ 426584.905681473959703, 435140.897261761769187 ], [ 426597.11842305411119, 435129.280367957951967 ], [ 426597.164053494750988, 435129.236734562320635 ], [ 426608.96498266980052, 435117.892700748227071 ], [ 426638.575417097832542, 435096.224779720010702 ], [ 426684.299742318748031, 435067.831927983148489 ], [ 426749.472184291109443, 435029.213535000628326 ], [ 426758.008782653138041, 435024.155227856943384 ], [ 426764.127512262843084, 435020.529338016582187 ], [ 426776.638147568388376, 435013.110917399229947 ], [ 426764.397137027524877, 434992.467330963292625 ], [ 426751.89086146192858, 434999.883166942221578 ], [ 426745.774101054877974, 435003.507889863161836 ], [ 426737.237623833701946, 435008.566125225625001 ], [ 426671.957873802981339, 435047.248104358906858 ], [ 426671.744907671527471, 435047.377304045425262 ], [ 426625.526978342037182, 435076.076662837469485 ], [ 426624.770809362526052, 435076.587031041737646 ], [ 426594.142526297655422, 435098.999779503443278 ], [ 426592.912862224329729, 435100.032770309597254 ], [ 426580.55449801083887, 435111.912657007109374 ], [ 426568.170539796992671, 435123.692413951677736 ], [ 426567.790792926505674, 435124.070130540872924 ], [ 426548.171063502028119, 435144.476005958858877 ], [ 426547.047909854503814, 435145.830255783279426 ], [ 426537.958807393559255, 435158.588354946230538 ], [ 426509.036315684264991, 435195.397473700693808 ], [ 426508.501310580817517, 435196.13428002607543 ], [ 426508.023714112408925, 435196.909532007877715 ], [ 426499.177578844304662, 435212.569909287150949 ], [ 426499.078580796369351, 435212.748704767087474 ], [ 426479.84221667307429, 435248.199602760665584 ], [ 426463.680626677640248, 435277.981587795773521 ], [ 426461.147707351366989, 435282.647494839678984 ], [ 426457.609709097945597, 435289.155494547390845 ], [ 426441.709454194409773, 435318.458849980845116 ], [ 426462.804135122452863, 435329.905003768973984 ], [ 426478.697559805819765, 435300.614228128863033 ] ] ] } },
{ "type": "Feature", "properties": { "highway": "primary_link", "name": null, "osm_type": "way", "osm_id": 538575906, "lit": null, "maxspeed": "40 mph", "sidewalk": "no", "surface": "asphalt", "destination:ref": "A647", "lanes": "1", "oneway": "yes", "ref": null, "bus": null, "busway:left": null, "turn:lanes:forward": null, "sidewalk:left": null, "sidewalk:right": null, "cycleway:left": null, "cycleway:right": null, "destination:backward": null, "destination:forward": null, "destination:symbol:backward": null, "lanes:backward": null, "lanes:forward": null, "lanes:psv:forward": null, "psv:lanes:forward": null, "cycleway": null, "lanes:psv:backward": null, "psv:lanes:backward": null, "sidewalk:both:surface": null, "smoothness": null }, "geometry": { "type": "Polygon", "coordinates": [ [ [ 426188.188969272654504, 434062.248181485396344 ], [ 426208.659901737875771, 434055.070423785422463 ], [ 426209.260434511641506, 434054.828116274380591 ], [ 426209.836005515477154, 434054.531349426833913 ], [ 426210.381688888999633, 434054.182663037499879 ], [ 426210.892814556427766, 434053.785041239345446 ], [ 426211.365008194348775, 434053.341886965325102 ], [ 426211.794228667975403, 434052.856992825050838 ], [ 426212.176802616217174, 434052.334508646978065 ], [ 426212.509455888939556, 434051.778905963001307 ], [ 426214.113419742207043, 434048.79488783684792 ], [ 426214.412208496243693, 434048.165857184503693 ], [ 426214.647017797047738, 434047.510251454310492 ], [ 426214.815523730765563, 434046.834559193404857 ], [ 426214.91605858982075, 434046.145467745780479 ], [ 426214.947627378045581, 434045.44979706738377 ], [ 426214.909917658311315, 434044.75443222920876 ], [ 426214.803302644751966, 434044.066255275160074 ], [ 426214.628837508964352, 434043.392077110649552 ], [ 426213.451139566721395, 434039.624824643542524 ], [ 426211.923598636931274, 434034.741730541631114 ], [ 426198.562105804041494, 434038.921504372556228 ], [ 426199.930420345452148, 434043.295598684286233 ], [ 426182.256601146305911, 434049.492599825316574 ], [ 426181.626722523302305, 434049.748440242488869 ], [ 426181.024633038963657, 434050.064176923362538 ], [ 426180.456012011738494, 434050.436831624363549 ], [ 426179.926223062677309, 434050.862889212323353 ], [ 426169.249635486106854, 434060.338596270303242 ], [ 426178.542731657798868, 434070.809430217253976 ], [ 426188.188969272654504, 434062.248181485396344 ] ] ] } },
{ "type": "Feature", "properties": { "highway": "tertiary", "name": "Armley Ridge Road", "osm_type": "way", "osm_id": 936597706, "lit": null, "maxspeed": "30 mph", "sidewalk": null, "surface": "asphalt", "destination:ref": null, "lanes": "1", "oneway": "yes", "ref": null, "bus": null, "busway:left": null, "turn:lanes:forward": null, "sidewalk:left": null, "sidewalk:right": null, "cycleway:left": null, "cycleway:right": null, "destination:backward": null, "destination:forward": null, "destination:symbol:backward": null, "lanes:backward": null, "lanes:forward": null, "lanes:psv:forward": null, "psv:lanes:forward": null, "cycleway": null, "lanes:psv:backward": null, "psv:lanes:backward": null, "sidewalk:both:surface": null, "smoothness": null }, "geometry": { "type": "Polygon", "coordinates": [ [ [ 426318.306406942778267, 433991.242045055376366 ], [ 426317.704144414456096, 433989.221182442444842 ], [ 426317.457568421610631, 433988.127344760112464 ], [ 426318.234547660453245, 433983.365681251976639 ], [ 426304.417286552488804, 433981.111064771655947 ], [ 426303.421477440802846, 433987.213812015019357 ], [ 426303.34529407316586, 433987.880279197881464 ], [ 426303.333254448603839, 433988.550978429149836 ], [ 426303.385469130822457, 433989.21975046681473 ], [ 426303.501458615879528, 433989.880453766847495 ], [ 426304.099145165877417, 433992.531855725857895 ], [ 426304.219370426959358, 433992.991783541685436 ], [ 426304.943441285402514, 433995.421368080249522 ], [ 426305.060866737680044, 433995.779804059537128 ], [ 426306.552388118114322, 433999.949387406697497 ], [ 426319.734385449206457, 433995.23399279313162 ], [ 426318.306406942778267, 433991.242045055376366 ] ] ] } },
{ "type": "Feature", "properties": { "highway": "tertiary", "name": "Armley Ridge Road", "osm_type": "way", "osm_id": 936597707, "lit": null, "maxspeed": "30 mph", "sidewalk": null, "surface": "asphalt", "destination:ref": null, "lanes": "1", "oneway": "yes", "ref": null, "bus": null, "busway:left": null, "turn:lanes:forward": null, "sidewalk:left": null, "sidewalk:right": null, "cycleway:left": null, "cycleway:right": null, "destination:backward": null, "destination:forward": null, "destination:symbol:backward": null, "lanes:backward": null, "lanes:forward": null, "lanes:psv:forward": null, "psv:lanes:forward": null, "cycleway": null, "lanes:psv:backward": null, "psv:lanes:backward": null, "sidewalk:both:surface": null, "smoothness": null }, "geometry": { "type": "Polygon", "coordinates": [ [ [ 426299.397779544466175, 433985.638000757200643 ], [ 426297.970498990966007, 433987.356492259656079 ], [ 426296.379169829480816, 433989.272249472909607 ], [ 426296.091118069947697, 433989.643728820083197 ], [ 426292.646075346681755, 433994.408736602577846 ], [ 426288.032155306835193, 434000.792494744295254 ], [ 426299.378771829826292, 434008.993366251699626 ], [ 426303.991768191743176, 434002.610885963658802 ], [ 426307.29871709557483, 433998.036882524902467 ], [ 426308.739926540874876, 433996.301850290503353 ], [ 426310.165054465003777, 433994.585949830303434 ], [ 426316.709122542582918, 433986.712867310969159 ], [ 426305.942711670359131, 433977.763878712663427 ], [ 426299.397779544466175, 433985.638000757200643 ] ] ] } },
{ "type": "Feature", "properties": { "highway": "primary_link", "name": null, "osm_type": "way", "osm_id": 936597708, "lit": null, "maxspeed": "40 mph", "sidewalk": null, "surface": "asphalt", "destination:ref": "A647", "lanes": "1", "oneway": "yes", "ref": null, "bus": null, "busway:left": null, "turn:lanes:forward": null, "sidewalk:left": null, "sidewalk:right": null, "cycleway:left": null, "cycleway:right": null, "destination:backward": null, "destination:forward": null, "destination:symbol:backward": null, "lanes:backward": null, "lanes:forward": null, "lanes:psv:forward": null, "psv:lanes:forward": null, "cycleway": null, "lanes:psv:backward": null, "psv:lanes:backward": null, "sidewalk:both:surface": null, "smoothness": null }, "geometry": { "type": "Polygon", "coordinates": [ [ [ 426306.014430108421948, 434019.181580679723993 ], [ 426306.065300545888022, 434019.121874890523031 ], [ 426309.022470085590612, 434015.611441062821541 ], [ 426311.429308984079398, 434012.754380217578728 ], [ 426311.908737912308425, 434012.114375036966521 ], [ 426318.976369633106515, 434001.461614011030179 ], [ 426307.310403934214264, 433993.721766188798938 ], [ 426300.464178659603931, 434004.040810058242641 ], [ 426298.315329938195646, 434006.591621227271389 ], [ 426295.38333684252575, 434010.072168285667431 ], [ 426292.107455699238926, 434013.873663036618382 ], [ 426302.712946484680288, 434023.012785817263648 ], [ 426306.014430108421948, 434019.181580679723993 ] ] ] } },
{ "type": "Feature", "properties": { "highway": "tertiary", "name": "Armley Ridge Road", "osm_type": "way", "osm_id": 936597709, "lit": null, "maxspeed": "30 mph", "sidewalk": null, "surface": "asphalt", "destination:ref": null, "lanes": "1", "oneway": "yes", "ref": null, "bus": null, "busway:left": null, "turn:lanes:forward": null, "sidewalk:left": null, "sidewalk:right": null, "cycleway:left": null, "cycleway:right": null, "destination:backward": null, "destination:forward": null, "destination:symbol:backward": null, "lanes:backward": null, "lanes:forward": null, "lanes:psv:forward": null, "psv:lanes:forward": null, "cycleway": null, "lanes:psv:backward": null, "psv:lanes:backward": null, "sidewalk:both:surface": null, "smoothness": null }, "geometry": { "type": "Polygon", "coordinates": [ [ [ 426256.136384417244699, 434035.83690517389914 ], [ 426254.969376787135843, 434039.481696674891282 ], [ 426251.53842136397725, 434050.162871526204981 ], [ 426264.867649642459583, 434054.444421887979843 ], [ 426268.29960544523783, 434043.76013267680537 ], [ 426269.467199915263336, 434040.113511898496654 ], [ 426271.758872858714312, 434032.974640690663364 ], [ 426258.428861453547142, 434028.695529107993934 ], [ 426256.136384417244699, 434035.83690517389914 ] ] ] } },
{ "type": "Feature", "properties": { "highway": "primary_link", "name": null, "osm_type": "way", "osm_id": 936597710, "lit": null, "maxspeed": "40 mph", "sidewalk": null, "surface": "asphalt", "destination:ref": "A647", "lanes": "1", "oneway": "yes", "ref": null, "bus": null, "busway:left": null, "turn:lanes:forward": null, "sidewalk:left": null, "sidewalk:right": null, "cycleway:left": null, "cycleway:right": null, "destination:backward": null, "destination:forward": null, "destination:symbol:backward": null, "lanes:backward": null, "lanes:forward": null, "lanes:psv:forward": null, "psv:lanes:forward": null, "cycleway": null, "lanes:psv:backward": null, "psv:lanes:backward": null, "sidewalk:both:surface": null, "smoothness": null }, "geometry": { "type": "Polygon", "coordinates": [ [ [ 425971.417194197245408, 434136.854083165351767 ], [ 425977.14742134133121, 434134.923143808438908 ], [ 426001.248640666890424, 434126.788565371592995 ], [ 426001.920336481882259, 434126.522507026791573 ], [ 426002.561031468852889, 434126.188632432953455 ], [ 426003.163900757674128, 434125.790498119778931 ], [ 426003.722522408585064, 434125.332345130154863 ], [ 426004.230945820570923, 434124.819053843617439 ], [ 426012.932649422378745, 434115.076110502006486 ], [ 426002.490931666514371, 434105.750311324140057 ], [ 425995.020375205145683, 434114.114789323415607 ], [ 425972.675164808460977, 434121.656685184629168 ], [ 425964.652961371175479, 434124.359961679030675 ], [ 425964.636938573850784, 434124.36538251611637 ], [ 425962.960886462475173, 434124.934682648454327 ], [ 425962.369061104254797, 434125.166171016986482 ], [ 425961.800668330164626, 434125.450378289446235 ], [ 425961.260392672382295, 434125.784962110046763 ], [ 425960.752686929889023, 434126.16716493369313 ], [ 425959.482324817276094, 434127.217137996049132 ], [ 425959.013473836996127, 434127.641726462694351 ], [ 425958.584864353179, 434128.106904405110981 ], [ 425958.19999606377678, 434128.608873535180464 ], [ 425957.862011509598233, 434129.143535156094003 ], [ 425957.573670414567459, 434129.706523629021831 ], [ 425956.920305020466913, 434131.138200916931964 ], [ 425956.656624312337954, 434131.804278782452457 ], [ 425956.462400639313273, 434132.493818051589187 ], [ 425956.339668146567419, 434133.199597035418265 ], [ 425956.289712237077765, 434133.91422396316193 ], [ 425956.313056109531317, 434134.630214397795498 ], [ 425956.409455278713722, 434135.340069621743169 ], [ 425956.577900135889649, 434136.036355172982439 ], [ 425957.00251742702676, 434137.466837812273297 ], [ 425957.640429382387083, 434139.632828931324184 ], [ 425958.986094997439068, 434144.194058733410202 ], [ 425972.413917497324292, 434140.232546028331853 ], [ 425971.417194197245408, 434136.854083165351767 ] ] ] } },
{ "type": "Feature", "properties": { "highway": "primary", "name": "Stanningley Road", "osm_type": "way", "osm_id": 954709349, "lit": null, "maxspeed": "40 mph", "sidewalk": null, "surface": "asphalt", "destination:ref": null, "lanes": "3", "oneway": "yes", "ref": "A647", "bus": "yes", "busway:left": "lane", "turn:lanes:forward": "bus|through|right", "sidewalk:left": null, "sidewalk:right": null, "cycleway:left": null, "cycleway:right": null, "destination:backward": null, "destination:forward": null, "destination:symbol:backward": null, "lanes:backward": null, "lanes:forward": null, "lanes:psv:forward": null, "psv:lanes:forward": null, "cycleway": null, "lanes:psv:backward": null, "psv:lanes:backward": null, "sidewalk:both:surface": null, "smoothness": null }, "geometry": { "type": "Polygon", "coordinates": [ [ [ 426282.797839617240243, 434034.940031221718527 ], [ 426275.849392401403747, 434016.185856185504235 ], [ 426261.61964354821248, 434021.457997381221503 ], [ 426268.568090764048975, 434040.212172417435795 ], [ 426282.797839617240243, 434034.940031221718527 ] ] ] } }
]
}
