{
"type": "FeatureCollection",
"name": "se2630_rgb_250_05_osm_road_buffers",
"crs": { "type": "name", "properties": { "name": "urn:ogc:def:crs:EPSG::27700" } },
"features": [
{ "type": "Feature", "properties": { "highway": "primary", "lanes": "2", "lit": "yes", "maxspeed": "40 mph", "motorcar": "yes", "name": "Gelderd Road", "ref": "A62", "sidewalk": "right", "surface": "asphalt", "osm_type": "way", "osm_id": 27440394, "carriageway_ref": null, "national_highways:area": null, "oneway": null, "operator": null, "operator:wikidata": null, "bridge": null, "layer": null }, "geometry": { "type": "Polygon", "coordinates": [ [ [ 427058.994714457192458, 430744.337245616770815 ], [ 427057.867784516012762, 430742.689174056460615 ], [ 427039.862219374917913, 430716.385431074886583 ], [ 427037.801127504149918, 430713.364617973566055 ], [ 427037.383867896045558, 430712.797086558537558 ], [ 426983.601562773808837, 430644.800455157295801 ], [ 426950.482222547347192, 430601.834946889372077 ], [ 426950.47353676892817, 430601.823695431288797 ], [ 426933.357695621205494, 430579.684576659172308 ], [ 426917.534880039049312, 430591.917258583067451 ], [ 426934.646374293894041, 430614.050754705560394 ], [ 426967.799528489704244, 430657.060129619727377 ], [ 426967.876449822855648, 430657.158639818546362 ], [ 427021.478893003833946, 430724.927872894273605 ], [ 427023.345635094097815, 430727.663839710294269 ], [ 427023.354203442751896, 430727.676377343246713 ], [ 427041.359799951023888, 430753.980163911997806 ], [ 427042.672122322954237, 430755.899361459363718 ], [ 427043.063399317907169, 430756.432812352897599 ], [ 427102.441081633325666, 430832.010479456512257 ], [ 427118.167930640047416, 430819.654662190238014 ], [ 427058.994714457192458, 430744.337245616770815 ] ] ] } },
{ "type": "Feature", "properties": { "highway": "motorway", "lanes": "3", "lit": "yes", "maxspeed": "70 mph", "motorcar": null, "name": null, "ref": "M621", "sidewalk": null, "surface": "asphalt", "osm_type": "way", "osm_id": 34650973, "carriageway_ref": "B", "national_highways:area": "12", "oneway": "yes", "operator": "National Highways", "operator:wikidata": "Q5760006", "bridge": null, "layer": null }, "geometry": { "type": "Polygon", "coordinates": [ [ [ 426946.637357519997749, 430194.539257848169655 ], [ 426825.412058195099235, 429990.40276787080802 ], [ 426810.065837339148857, 429964.577003121608868 ], [ 426784.900591900164727, 429922.231382363534067 ], [ 426784.502379673358519, 429921.600242093030829 ], [ 426725.345630069437902, 429833.155329318426084 ], [ 426724.927561769727618, 429832.563970390299801 ], [ 426679.227530256670434, 429771.344080184411723 ], [ 426679.116989456466399, 429771.198002925259061 ], [ 426637.73222952458309, 429717.246166942641139 ], [ 426637.189238203514833, 429716.581512209435459 ], [ 426594.281027347955387, 429667.227693970140535 ], [ 426593.508983870444354, 429666.408637422719039 ], [ 426543.241698343714233, 429617.202847727807239 ], [ 426523.655102375370916, 429637.211977103492245 ], [ 426573.519890268042218, 429686.023768719402142 ], [ 426615.776868317741901, 429734.628526932909153 ], [ 426656.844575629220344, 429788.167032718483824 ], [ 426702.273130204586778, 429849.023251658363733 ], [ 426761.020976132364012, 429936.856814921542536 ], [ 426785.995047534350306, 429978.880746627110057 ], [ 426801.3381186343031, 430004.701209667953663 ], [ 426922.62166861386504, 430208.935790425399318 ], [ 426922.741807764046825, 430209.134331186360214 ], [ 426998.853325897653122, 430332.593633696611505 ], [ 427022.687983312585857, 430317.899787844915409 ], [ 426946.637357519997749, 430194.539257848169655 ] ] ] } },
{ "type": "Feature", "properties": { "highway": "motorway", "lanes": "2", "lit": "yes", "maxspeed": "70 mph", "motorcar": null, "name": null, "ref": "M621", "sidewalk": null, "surface": "asphalt", "osm_type": "way", "osm_id": 34650975, "carriageway_ref": "A", "national_highways:area": "12", "oneway": "yes", "operator": "National Highways", "operator:wikidata": "Q5760006", "bridge": "yes", "layer": "1" }, "geometry": { "type": "Polygon", "coordinates": [ [ [ 426998.108165275014471, 430356.510388661350589 ], [ 427021.61887018912239, 430341.303589049319271 ], [ 427011.62902612023754, 430325.858637972560246 ], [ 426988.118321206129622, 430341.065437584591564 ], [ 426998.108165275014471, 430356.510388661350589 ] ] ] } },
{ "type": "Feature", "properties": { "highway": "motorway", "lanes": "2", "lit": "yes", "maxspeed": "70 mph", "motorcar": null, "name": null, "ref": "M621", "sidewalk": null, "surface": "asphalt", "osm_type": "way", "osm_id": 146708829, "carriageway_ref": "A", "national_highways:area": "12", "oneway": "yes", "operator": "National Highways", "operator:wikidata": "Q5760006", "bridge": null, "layer": null }, "geometry": { "type": "Polygon", "coordinates": [ [ [ 426561.724812857399229, 429702.918538088153582 ], [ 426597.612866789510008, 429743.630873619636986 ], [ 426644.601357856707182, 429800.765554389276076 ], [ 426687.333600772137288, 429858.373833282792475 ], [ 426729.527833157742862, 429919.437935639463831 ], [ 426782.131041144486517, 430001.880794843600597 ], [ 426914.67416435474297, 430222.014185964770149 ], [ 426914.752708801359404, 430222.14305893908022 ], [ 426987.958462778420653, 430340.812394883658271 ], [ 427011.788884547946509, 430326.111680673493538 ], [ 426938.622750115639064, 430207.506569531047717 ], [ 426806.02478140918538, 429987.282088621344883 ], [ 426805.833228421979584, 429986.973100002796855 ], [ 426752.993981348525267, 429904.160306379490066 ], [ 426752.709607751574367, 429903.732159842154942 ], [ 426710.23567462945357, 429842.263270540977828 ], [ 426709.962094625225291, 429841.881214183173142 ], [ 426666.881103106949013, 429783.802779608522542 ], [ 426666.449781764065847, 429783.250727828824893 ], [ 426619.086460346181411, 429725.660279871430248 ], [ 426618.775689070229419, 429725.295323095750064 ], [ 426582.59095696528675, 429684.246428180485964 ], [ 426582.310004625294823, 429683.937138292239979 ], [ 426531.753453628625721, 429629.923318917164579 ], [ 426511.311046060291119, 429649.057267093332484 ], [ 426561.724812857399229, 429702.918538088153582 ] ] ] } },
{ "type": "Feature", "properties": { "highway": "primary", "lanes": "2", "lit": "yes", "maxspeed": "50 mph", "motorcar": "yes", "name": "Gelderd Road", "ref": "A62", "sidewalk": "right", "surface": "asphalt", "osm_type": "way", "osm_id": 247806802, "carriageway_ref": null, "national_highways:area": null, "oneway": null, "operator": null, "operator:wikidata": null, "bridge": null, "layer": null }, "geometry": { "type": "Polygon", "coordinates": [ [ [ 426918.254035836609546, 430562.315237492031883 ], [ 426917.956286253291182, 430561.988225117209367 ], [ 426853.845283325470518, 430494.630681742331944 ], [ 426839.358332267904188, 430508.41938179184217 ], [ 426903.316843926149886, 430575.616711836191826 ], [ 426917.905062718025874, 430592.368255271052476 ], [ 426932.987512942228932, 430579.233579971187282 ], [ 426918.254035836609546, 430562.315237492031883 ] ] ] } },
{ "type": "Feature", "properties": { "highway": "primary", "lanes": "2", "lit": "yes", "maxspeed": "50 mph", "motorcar": "yes", "name": "Gelderd Road", "ref": "A62", "sidewalk": "right", "surface": "asphalt", "osm_type": "way", "osm_id": 267283975, "carriageway_ref": null, "national_highways:area": null, "oneway": null, "operator": null, "operator:wikidata": null, "bridge": null, "layer": null }, "geometry": { "type": "Polygon", "coordinates": [ [ [ 426329.395740362117067, 430084.842377348104492 ], [ 426328.950719799322542, 430084.654890759498812 ], [ 426264.55708729440812, 430059.338779487647116 ], [ 426264.085806148126721, 430059.167014874285087 ], [ 426209.04773322341498, 430040.657716083806008 ], [ 426161.700947921082843, 430024.728617174667306 ], [ 426161.350995732238516, 430024.617987369885668 ], [ 426036.629013072815724, 429987.693255785095971 ], [ 426013.446227022970561, 429978.44727284059627 ], [ 425995.1503302094643, 429967.015724594995845 ], [ 425964.270699911925476, 429945.79579238925362 ], [ 425944.38375132298097, 429924.999001998803578 ], [ 425944.019707503612153, 429924.637352994817775 ], [ 425927.146118002885487, 429908.71383656305261 ], [ 425885.679163303168025, 429866.342938163841609 ], [ 425855.17056616890477, 429830.630381267983466 ], [ 425826.726133011165075, 429796.265151200990658 ], [ 425811.319180927239358, 429809.01763438998023 ], [ 425839.813236854271963, 429843.442816359514836 ], [ 425839.913409470871557, 429843.561940576299094 ], [ 425870.692319214576855, 429879.590918263304047 ], [ 425871.148729650478344, 429880.089973128342535 ], [ 425912.99133550550323, 429922.844711552781519 ], [ 425913.274875887436792, 429923.123143891978543 ], [ 425930.106339390622452, 429939.006906244496349 ], [ 425950.529194945120253, 429960.364121718797833 ], [ 425951.27690154168522, 429961.069584937940817 ], [ 425952.093081839790102, 429961.694559520576149 ], [ 425984.003029420680832, 429983.6225074211834 ], [ 425984.36767865793081, 429983.861554234055802 ], [ 426003.609429171308875, 429995.884085928788409 ], [ 426004.38850852282485, 429996.323687669122592 ], [ 426005.203755808935966, 429996.691907968022861 ], [ 426029.645946915610693, 430006.44017901760526 ], [ 426030.511712649138644, 430006.740276002674364 ], [ 426155.497468528221361, 430043.74309931701282 ], [ 426202.670866597327404, 430059.61386475386098 ], [ 426257.472865251940675, 430078.043771866650786 ], [ 426321.408237434108742, 430103.179719838604797 ], [ 426385.928652379312553, 430132.215844540623948 ], [ 426394.136401486815885, 430113.977619446348399 ], [ 426329.395740362117067, 430084.842377348104492 ] ] ] } },
{ "type": "Feature", "properties": { "highway": "primary", "lanes": "2", "lit": "yes", "maxspeed": "50 mph", "motorcar": "yes", "name": "Gelderd Road", "ref": "A62", "sidewalk": "right", "surface": "asphalt", "osm_type": "way", "osm_id": 267283976, "carriageway_ref": null, "national_highways:area": null, "oneway": null, "operator": null, "operator:wikidata": null, "bridge": null, "layer": null }, "geometry": { "type": "Polygon", "coordinates": [ [ [ 426820.557293071877211, 430461.955328337440733 ], [ 426806.548886364209466, 430476.229940118908416 ], [ 426839.597604442853481, 430508.662337657820899 ], [ 426853.606011150521226, 430494.387725876353215 ], [ 426820.557293071877211, 430461.955328337440733 ] ] ] } },
{ "type": "Feature", "properties": { "highway": "primary", "lanes": null, "lit": "yes", "maxspeed": "50 mph", "motorcar": "yes", "name": "Gelderd Road", "ref": "A62", "sidewalk": "right", "surface": null, "osm_type": "way", "osm_id": 267283978, "carriageway_ref": null, "national_highways:area": null, "oneway": null, "operator": null, "operator:wikidata": null, "bridge": null, "layer": null }, "geometry": { "type": "Polygon", "coordinates": [ [ [ 426796.037340017675888, 430437.49520349066006 ], [ 426795.800717766222078, 430437.266801645397209 ], [ 426759.627935501514003, 430403.481897465419024 ], [ 426759.526827269408386, 430403.388756645319518 ], [ 426634.33933884446742, 430289.646860669192392 ], [ 426620.89008587092394, 430304.449481871386524 ], [ 426746.026700070127845, 430418.145154930476565 ], [ 426782.029059068590868, 430451.770886015088763 ], [ 426806.490732747712173, 430476.172402163909283 ], [ 426820.615446688374504, 430462.012866292439867 ], [ 426796.037340017675888, 430437.49520349066006 ] ] ] } },
{ "type": "Feature", "properties": { "highway": "primary", "lanes": "2", "lit": "yes", "maxspeed": "50 mph", "motorcar": "yes", "name": "Gelderd Road", "ref": "A62", "sidewalk": null, "surface": "asphalt", "osm_type": "way", "osm_id": 267283979, "carriageway_ref": null, "national_highways:area": null, "oneway": null, "operator": null, "operator:wikidata": null, "bridge": null, "layer": null }, "geometry": { "type": "Polygon", "coordinates": [ [ [ 426576.000223554030526, 430240.620003077783622 ], [ 426575.836637579603121, 430240.485485976270866 ], [ 426511.437610575289, 430188.663301794033032 ], [ 426511.216633251286112, 430188.490529985399917 ], [ 426488.198562138597481, 430171.008361732237972 ], [ 426459.65095006179763, 430148.412108243559487 ], [ 426458.923204284918029, 430147.887404816108756 ], [ 426458.151359595474787, 430147.430039122176822 ], [ 426437.954645959485788, 430136.655837373575196 ], [ 426416.142290826246608, 430124.771497961366549 ], [ 426415.760272365994751, 430124.573890454368666 ], [ 426394.434899938292801, 430114.117917376686819 ], [ 426385.630153927835636, 430132.075546610285528 ], [ 426406.762391854310408, 430142.436824547126889 ], [ 426428.424579602607992, 430154.239346101530828 ], [ 426428.502197255147621, 430154.281192900321912 ], [ 426447.94382872415008, 430164.652586164826062 ], [ 426475.864254818705376, 430186.752403965569101 ], [ 426476.022323120909277, 430186.874968372867443 ], [ 426499.00834094703896, 430204.332792233908549 ], [ 426563.215585713274777, 430256.000648394052405 ], [ 426621.181853082205635, 430304.704431554651819 ], [ 426634.047571633185726, 430289.391910985927097 ], [ 426576.000223554030526, 430240.620003077783622 ] ] ] } },
{ "type": "Feature", "properties": { "highway": "residential", "lanes": null, "lit": null, "maxspeed": null, "motorcar": null, "name": "New Village Way", "ref": null, "sidewalk": null, "surface": null, "osm_type": "way", "osm_id": 723709290, "carriageway_ref": null, "national_highways:area": null, "oneway": null, "operator": null, "operator:wikidata": null, "bridge": null, "layer": null }, "geometry": { "type": "Polygon", "coordinates": [ [ [ 427059.93241073389072, 430125.847515601431951 ], [ 427059.621167912147939, 430125.630134633684065 ], [ 427059.29432885121787, 430125.436995286319871 ], [ 427030.160700122592971, 430109.681570747459773 ], [ 427011.632352939457633, 430098.737096224504057 ], [ 427006.241908565512858, 430091.739898238040041 ], [ 427001.342506559682079, 430079.991613013611641 ], [ 426998.751061420072801, 430069.806915825232863 ], [ 426997.638955992995761, 430057.796899508975912 ], [ 426997.565222972247284, 430057.287716607796028 ], [ 426997.439555409771856, 430056.788806346361525 ], [ 426997.263283892651089, 430056.305451262101997 ], [ 426997.038274810474832, 430055.842769191833213 ], [ 426996.766910593491048, 430055.405659083335195 ], [ 426996.452064487093594, 430054.998749124642927 ], [ 426996.097070129471831, 430054.626347740006167 ], [ 426995.705686254659668, 430054.292397971672472 ], [ 426991.341246902069543, 430050.9406057689921 ], [ 426990.971145599789452, 430050.682074410608038 ], [ 426981.922612565685995, 430044.951128590095323 ], [ 426977.259018578042742, 430041.126865764905233 ], [ 426973.484564100392163, 430034.396552344434895 ], [ 426968.632675728411414, 430020.024419337103609 ], [ 426959.921886773547158, 429988.88135160447564 ], [ 426950.291502656065859, 429991.574992588139139 ], [ 426959.037885576370172, 430022.845316908205859 ], [ 426959.115745436458383, 430023.097772389999591 ], [ 426964.158684517489746, 430038.035830660141073 ], [ 426964.327198446844704, 430038.46778574725613 ], [ 426964.535000949632376, 430038.882273698225617 ], [ 426968.998294281889684, 430046.840870944899507 ], [ 426969.244871929753572, 430047.236172694771085 ], [ 426969.527173435082659, 430047.606807110307273 ], [ 426969.842747697955929, 430047.949556135805324 ], [ 426970.1888547258568, 430048.2614438321325 ], [ 426975.818317324796226, 430052.877742892422248 ], [ 426976.313442863000091, 430053.235502430819906 ], [ 426985.429593634326011, 430059.009274374344386 ], [ 426987.88290200359188, 430060.893360553251114 ], [ 426988.829883177706506, 430071.120142183208372 ], [ 426988.881292861653492, 430071.508712960872799 ], [ 426988.96298177546123, 430071.892062835337128 ], [ 426991.741432142618578, 430082.811713500472251 ], [ 426991.97224729595473, 430083.503284702368546 ], [ 426997.265222341113258, 430096.19531945331255 ], [ 426997.450137134932447, 430096.589479276211932 ], [ 426997.668640185554978, 430096.966058436315507 ], [ 426997.919074755220208, 430097.322201628412586 ], [ 427004.29865574563155, 430105.603372560522985 ], [ 427004.606679212360177, 430105.966103569197003 ], [ 427004.947791076090652, 430106.297909140470438 ], [ 427005.318901514925528, 430106.595783749769907 ], [ 427005.716648977366276, 430106.857029222184792 ], [ 427025.156177443859633, 430118.339727702317759 ], [ 427025.320655547664501, 430118.432736247486901 ], [ 427054.202742478868458, 430134.052127343893517 ], [ 427064.466256183572114, 430141.816406266065314 ], [ 427070.499346597352996, 430133.841331341071054 ], [ 427059.93241073389072, 430125.847515601431951 ] ] ] } },
{ "type": "Feature", "properties": { "highway": "residential", "lanes": null, "lit": null, "maxspeed": null, "motorcar": null, "name": null, "ref": null, "sidewalk": null, "surface": null, "osm_type": "way", "osm_id": 734296236, "carriageway_ref": null, "national_highways:area": null, "oneway": null, "operator": null, "operator:wikidata": null, "bridge": null, "layer": null }, "geometry": { "type": "Polygon", "coordinates": [ [ [ 427004.458005557709839, 430060.93652202951489 ], [ 427004.949824540468398, 430060.809033447352704 ], [ 427018.580318396736402, 430056.525848129123915 ], [ 427018.724243304634001, 430056.478212655871175 ], [ 427036.406405714806169, 430050.326901118503883 ], [ 427047.630020496319048, 430046.418917161296122 ], [ 427044.341723263729364, 430036.975024885847233 ], [ 427033.120071339071728, 430040.882325593323912 ], [ 427015.510164667735808, 430047.008500637253746 ], [ 427002.194661011220887, 430051.192704846442211 ], [ 426991.653159075707663, 430053.360392403847072 ], [ 426993.667351260373835, 430063.155443697411101 ], [ 427004.458005557709839, 430060.93652202951489 ] ] ] } }
]
}
