{
"type": "FeatureCollection",
"name": "se2630_rgb_250_05_osm_buildings",
"crs": { "type": "name", "properties": { "name": "urn:ogc:def:crs:EPSG::27700" } },
"features": [
{ "type": "Feature", "properties": { "building": "commercial", "ref:GB:uprn": "72575497", "source": "Bing", "osm_type": "way", "osm_id": 150591351, "addr:city": null, "addr:country": null, "addr:postcode": null, "source:addr:postcode": null, "addr:housenumber": null, "addr:street": null, "addr:suburb": null, "amenity": null, "fhrs:id": null, "name": null }, "geometry": { "type": "Polygon", "coordinates": [ [ [ 426738.726430086418986, 430575.889952902798541 ], [ 426792.701101424812805, 430598.071386998519301 ], [ 426828.542442887439393, 430512.90421576728113 ], [ 426773.85966769978404, 430491.074385398300365 ], [ 426738.726430086418986, 430575.889952902798541 ] ] ] } },
{ "type": "Feature", "properties": { "building": "industrial", "ref:GB:uprn": null, "source": null, "osm_type": "way", "osm_id": 170647730, "addr:city": null, "addr:country": null, "addr:postcode": null, "source:addr:postcode": null, "addr:housenumber": null, "addr:street": null, "addr:suburb": null, "amenity": null, "fhrs:id": null, "name": null }, "geometry": { "type": "Polygon", "coordinates": [ [ [ 426998.343742790049873, 430931.566204137867317 ], [ 427023.001474726304878, 430930.127957040211186 ], [ 427024.178020513209049, 430945.589067207183689 ], [ 427036.189610857574735, 430945.023938353755511 ], [ 427035.043881353398319, 430924.211280827061273 ], [ 427023.0286562438705, 430925.399461575900204 ], [ 427020.749782650149427, 430881.560107222176157 ], [ 427008.419892350852024, 430882.434983003884554 ], [ 427006.135422478138935, 430839.541338049457408 ], [ 426992.544816776993684, 430840.720548943500035 ], [ 426998.343742790049873, 430931.566204137867317 ] ] ] } },
{ "type": "Feature", "properties": { "building": "industrial", "ref:GB:uprn": null, "source": null, "osm_type": "way", "osm_id": 170647732, "addr:city": null, "addr:country": null, "addr:postcode": null, "source:addr:postcode": null, "addr:housenumber": null, "addr:street": null, "addr:suburb": null, "amenity": null, "fhrs:id": null, "name": null }, "geometry": { "type": "Polygon", "coordinates": [ [ [ 426565.677418523875531, 430524.93001556629315 ], [ 426653.4752037251601, 430418.893302112352103 ], [ 426604.712453109619673, 430377.939675116213039 ], [ 426598.350337307085283, 430385.15797844552435 ], [ 426578.845230404869653, 430368.970295087550767 ], [ 426559.748405490012374, 430392.505607286584564 ], [ 426543.074636057193857, 430379.171253328211606 ], [ 426522.705351015843917, 430403.96792135911528 ], [ 426517.356540199194569, 430399.843304980080575 ], [ 426475.176925198466051, 430450.285555024282075 ], [ 426565.677418523875531, 430524.93001556629315 ] ] ] } },
{ "type": "Feature", "properties": { "building": "industrial", "ref:GB:uprn": null, "source": null, "osm_type": "way", "osm_id": 170647733, "addr:city": null, "addr:country": null, "addr:postcode": null, "source:addr:postcode": null, "addr:housenumber": null, "addr:street": null, "addr:suburb": null, "amenity": null, "fhrs:id": null, "name": null }, "geometry": { "type": "Polygon", "coordinates": [ [ [ 426974.974569721787702, 430762.424509537522681 ], [ 427003.568612325878348, 430764.32435874955263 ], [ 427002.698923398333136, 430778.038012655917555 ], [ 427013.121868619229645, 430778.732087338925339 ], [ 427012.921722433122341, 430780.299736655200832 ], [ 427019.735290632641409, 430780.561417214223184 ], [ 427020.228928438795265, 430772.65350010432303 ], [ 427023.240271720744204, 430772.782071320805699 ], [ 427028.429112211510073, 430764.45609691448044 ], [ 427014.355673622048926, 430763.596369134378619 ], [ 427016.061226122779772, 430738.6277697798796 ], [ 427010.928255867329426, 430738.375750712701119 ], [ 427010.95964243717026, 430732.91294925333932 ], [ 427005.818796627398115, 430732.883415314252488 ], [ 427006.185031551052816, 430727.645062144496478 ], [ 426977.14156715181889, 430725.920639850897714 ], [ 426974.974569721787702, 430762.424509537522681 ] ] ] } },
{ "type": "Feature", "properties": { "building": "yes", "ref:GB:uprn": null, "source": null, "osm_type": "way", "osm_id": 170647745, "addr:city": null, "addr:country": null, "addr:postcode": null, "source:addr:postcode": null, "addr:housenumber": null, "addr:street": null, "addr:suburb": null, "amenity": null, "fhrs:id": null, "name": null }, "geometry": { "type": "Polygon", "coordinates": [ [ [ 426982.822600961546414, 430708.774335860973224 ], [ 426997.743199587392155, 430698.723995575914159 ], [ 426993.09470110811526, 430690.997948873555288 ], [ 426977.506430920562707, 430701.389385906164534 ], [ 426982.822600961546414, 430708.774335860973224 ] ] ] } },
{ "type": "Feature", "properties": { "building": "industrial", "ref:GB:uprn": null, "source": null, "osm_type": "way", "osm_id": 170647760, "addr:city": null, "addr:country": null, "addr:postcode": null, "source:addr:postcode": null, "addr:housenumber": null, "addr:street": null, "addr:suburb": null, "amenity": null, "fhrs:id": null, "name": null }, "geometry": { "type": "Polygon", "coordinates": [ [ [ 426653.665186451631598, 430495.84334217524156 ], [ 426718.309421117708553, 430522.0564627177082 ], [ 426745.229706262296531, 430456.943074733950198 ], [ 426678.691321004007477, 430431.019251916091889 ], [ 426663.934609785326757, 430469.098493705620058 ], [ 426655.736831157933921, 430465.269096096046269 ], [ 426648.044926619739272, 430483.828542359173298 ], [ 426656.560884162550792, 430487.337070187204517 ], [ 426653.665186451631598, 430495.84334217524156 ] ] ] } },
{ "type": "Feature", "properties": { "building": "farm", "ref:GB:uprn": "72076574", "source": null, "osm_type": "way", "osm_id": 284172887, "addr:city": null, "addr:country": null, "addr:postcode": null, "source:addr:postcode": null, "addr:housenumber": null, "addr:street": null, "addr:suburb": null, "amenity": null, "fhrs:id": null, "name": null }, "geometry": { "type": "Polygon", "coordinates": [ [ [ 426348.498287357913796, 430574.599316699430346 ], [ 426360.461039430927485, 430574.6663676869357 ], [ 426360.402282621071208, 430585.146937295794487 ], [ 426348.439557330100797, 430585.079886377672665 ], [ 426348.498287357913796, 430574.599316699430346 ] ] ] } },
{ "type": "Feature", "properties": { "building": "farm", "ref:GB:uprn": null, "source": null, "osm_type": "way", "osm_id": 284172889, "addr:city": null, "addr:country": null, "addr:postcode": null, "source:addr:postcode": null, "addr:housenumber": null, "addr:street": null, "addr:suburb": null, "amenity": null, "fhrs:id": null, "name": null }, "geometry": { "type": "Polygon", "coordinates": [ [ [ 426320.241900723078288, 430595.736644816002809 ], [ 426328.312969866616186, 430596.304763554013334 ], [ 426328.835231906326953, 430588.964383194688708 ], [ 426320.770741179934703, 430588.396300493739545 ], [ 426320.241900723078288, 430595.736644816002809 ] ] ] } },
{ "type": "Feature", "properties": { "building": "industrial", "ref:GB:uprn": null, "source": null, "osm_type": "way", "osm_id": 284172891, "addr:city": null, "addr:country": null, "addr:postcode": null, "source:addr:postcode": null, "addr:housenumber": null, "addr:street": null, "addr:suburb": null, "amenity": null, "fhrs:id": null, "name": null }, "geometry": { "type": "Polygon", "coordinates": [ [ [ 426269.555860507593025, 430600.370982135995291 ], [ 426270.625024559965823, 430594.224156878422946 ], [ 426269.108714708825573, 430593.103063529590145 ], [ 426269.638289805210661, 430589.156214751536027 ], [ 426271.380310195090715, 430588.809908564784564 ], [ 426271.489434274320956, 430588.154071402037516 ], [ 426288.998992515611462, 430591.111373060266487 ], [ 426286.860804081545211, 430603.37163795158267 ], [ 426269.555860507593025, 430600.370982135995291 ] ] ] } },
{ "type": "Feature", "properties": { "building": "yes", "ref:GB:uprn": null, "source": null, "osm_type": "way", "osm_id": 564436640, "addr:city": null, "addr:country": null, "addr:postcode": null, "source:addr:postcode": null, "addr:housenumber": null, "addr:street": null, "addr:suburb": null, "amenity": null, "fhrs:id": null, "name": null }, "geometry": { "type": "Polygon", "coordinates": [ [ [ 425976.439556979108602, 430900.730274683795869 ], [ 425980.782090284454171, 430908.030814697500318 ], [ 425995.269963240483776, 430899.443569954833947 ], [ 425990.927444260683842, 430892.143016552436166 ], [ 425976.439556979108602, 430900.730274683795869 ] ] ] } },
{ "type": "Feature", "properties": { "building": "yes", "ref:GB:uprn": null, "source": null, "osm_type": "way", "osm_id": 570707133, "addr:city": null, "addr:country": null, "addr:postcode": null, "source:addr:postcode": null, "addr:housenumber": null, "addr:street": null, "addr:suburb": null, "amenity": null, "fhrs:id": null, "name": null }, "geometry": { "type": "Polygon", "coordinates": [ [ [ 426021.607316266163252, 430001.214502072194591 ], [ 426008.824508753838018, 429996.593177414732054 ], [ 426007.110845197981689, 430001.312337186769582 ], [ 426014.038405297789723, 430003.820666967425495 ], [ 426011.079765567788854, 430011.948683611350134 ], [ 426016.941523061424959, 430014.072832556557842 ], [ 426021.607316266163252, 430001.214502072194591 ] ] ] } },
{ "type": "Feature", "properties": { "building": "industrial", "ref:GB:uprn": null, "source": null, "osm_type": "way", "osm_id": 574694565, "addr:city": null, "addr:country": null, "addr:postcode": null, "source:addr:postcode": null, "addr:housenumber": null, "addr:street": null, "addr:suburb": null, "amenity": null, "fhrs:id": null, "name": null }, "geometry": { "type": "Polygon", "coordinates": [ [ [ 426273.616945069225039, 430344.22367155412212 ], [ 426282.947342314524576, 430347.168628133484162 ], [ 426285.268877293623518, 430339.860555458581075 ], [ 426275.938529008883052, 430336.90446845756378 ], [ 426273.616945069225039, 430344.22367155412212 ] ] ] } },
{ "type": "Feature", "properties": { "building": "industrial", "ref:GB:uprn": null, "source": null, "osm_type": "way", "osm_id": 574694566, "addr:city": null, "addr:country": null, "addr:postcode": null, "source:addr:postcode": null, "addr:housenumber": null, "addr:street": null, "addr:suburb": null, "amenity": null, "fhrs:id": null, "name": null }, "geometry": { "type": "Polygon", "coordinates": [ [ [ 426263.287334263906814, 430328.989813035586849 ], [ 426262.750515786872711, 430330.689125578734092 ], [ 426272.79816472280072, 430333.860591725213453 ], [ 426276.622647481155582, 430321.821145268389955 ], [ 426266.574975113500841, 430318.649671040242538 ], [ 426265.548405862296931, 430321.881665121996775 ], [ 426260.5936532728374, 430320.318575431127101 ], [ 426258.339179891394451, 430327.426762505667284 ], [ 426263.287334263906814, 430328.989813035586849 ] ] ] } },
{ "type": "Feature", "properties": { "building": "industrial", "ref:GB:uprn": null, "source": null, "osm_type": "way", "osm_id": 574694567, "addr:city": null, "addr:country": null, "addr:postcode": null, "source:addr:postcode": null, "addr:housenumber": null, "addr:street": null, "addr:suburb": null, "amenity": null, "fhrs:id": null, "name": null }, "geometry": { "type": "Polygon", "coordinates": [ [ [ 426172.579100897419266, 430332.767673256690614 ], [ 426165.82829361432232, 430345.981423451798037 ], [ 426173.413493129250128, 430349.839926386252046 ], [ 426179.137908835022245, 430338.656569580314681 ], [ 426186.177574360102881, 430342.233900826890022 ], [ 426206.396844808885362, 430302.68159085069783 ], [ 426199.363726011419203, 430299.104266269714572 ], [ 426193.459201359131839, 430310.653760260320269 ], [ 426185.867424675438087, 430306.784062643535435 ], [ 426183.934786808560602, 430310.56733935023658 ], [ 426176.7767976076575, 430306.922596147051081 ], [ 426165.421137189492583, 430329.122947218012996 ], [ 426172.579100897419266, 430332.767673256690614 ] ] ] } },
{ "type": "Feature", "properties": { "building": "industrial", "ref:GB:uprn": null, "source": null, "osm_type": "way", "osm_id": 574694568, "addr:city": null, "addr:country": null, "addr:postcode": null, "source:addr:postcode": null, "addr:housenumber": null, "addr:street": null, "addr:suburb": null, "amenity": null, "fhrs:id": null, "name": null }, "geometry": { "type": "Polygon", "coordinates": [ [ [ 426223.570932716073003, 430326.987969369394705 ], [ 426228.660040653310716, 430331.644856409984641 ], [ 426243.157421238371171, 430315.848634291789494 ], [ 426238.068310192844365, 430311.191731609520502 ], [ 426223.570932716073003, 430326.987969369394705 ] ] ] } },
{ "type": "Feature", "properties": { "building": "industrial", "ref:GB:uprn": "72556734", "source": null, "osm_type": "way", "osm_id": 574694569, "addr:city": null, "addr:country": null, "addr:postcode": null, "source:addr:postcode": null, "addr:housenumber": null, "addr:street": null, "addr:suburb": null, "amenity": null, "fhrs:id": null, "name": null }, "geometry": { "type": "Polygon", "coordinates": [ [ [ 426236.604499460721854, 430334.904650213080458 ], [ 426229.351133174437564, 430353.100049953907728 ], [ 426231.357153350603767, 430353.890074585564435 ], [ 426229.131015903898515, 430359.474142403108999 ], [ 426244.231722283060662, 430365.477541335392743 ], [ 426253.717827150830999, 430341.70926968078129 ], [ 426236.604499460721854, 430334.904650213080458 ] ] ] } },
{ "type": "Feature", "properties": { "building": "farm_auxiliary", "ref:GB:uprn": null, "source": null, "osm_type": "way", "osm_id": 574694570, "addr:city": null, "addr:country": null, "addr:postcode": null, "source:addr:postcode": null, "addr:housenumber": null, "addr:street": null, "addr:suburb": null, "amenity": null, "fhrs:id": null, "name": null }, "geometry": { "type": "Polygon", "coordinates": [ [ [ 426260.819441742205527, 430558.431971174082719 ], [ 426265.634593193826731, 430558.981798224383965 ], [ 426267.401521821389906, 430543.559605065966025 ], [ 426262.586354674655013, 430543.00977625977248 ], [ 426260.819441742205527, 430558.431971174082719 ] ] ] } },
{ "type": "Feature", "properties": { "building": "farm_auxiliary", "ref:GB:uprn": null, "source": null, "osm_type": "way", "osm_id": 574694571, "addr:city": null, "addr:country": null, "addr:postcode": null, "source:addr:postcode": null, "addr:housenumber": null, "addr:street": null, "addr:suburb": null, "amenity": null, "fhrs:id": null, "name": null }, "geometry": { "type": "Polygon", "coordinates": [ [ [ 426272.555634127056692, 430545.969410958467051 ], [ 426271.39096832764335, 430564.488055801950395 ], [ 426281.584107349452097, 430565.123581473715603 ], [ 426282.409306159766857, 430551.921373364981264 ], [ 426285.690606481744908, 430552.128861189819872 ], [ 426286.023526317963842, 430546.812390227802098 ], [ 426272.555634127056692, 430545.969410958467051 ] ] ] } },
{ "type": "Feature", "properties": { "building": "farm_auxiliary", "ref:GB:uprn": null, "source": null, "osm_type": "way", "osm_id": 574694572, "addr:city": null, "addr:country": null, "addr:postcode": null, "source:addr:postcode": null, "addr:housenumber": null, "addr:street": null, "addr:suburb": null, "amenity": null, "fhrs:id": null, "name": null }, "geometry": { "type": "Polygon", "coordinates": [ [ [ 426316.63896220352035, 430567.033085708622821 ], [ 426320.195518093649298, 430567.520293875248171 ], [ 426321.273910935909953, 430559.737977377488278 ], [ 426317.717349227576051, 430559.250768415746279 ], [ 426316.63896220352035, 430567.033085708622821 ] ] ] } },
{ "type": "Feature", "properties": { "building": "farm_auxiliary", "ref:GB:uprn": "72724609", "source": null, "osm_type": "way", "osm_id": 574694573, "addr:city": null, "addr:country": null, "addr:postcode": null, "source:addr:postcode": null, "addr:housenumber": null, "addr:street": null, "addr:suburb": null, "amenity": null, "fhrs:id": null, "name": null }, "geometry": { "type": "Polygon", "coordinates": [ [ [ 426312.475428395322524, 430554.871080405428074 ], [ 426310.682753920555115, 430567.800841030897573 ], [ 426315.80679821310332, 430568.508215337875299 ], [ 426317.599486612656619, 430555.578456621267833 ], [ 426312.475428395322524, 430554.871080405428074 ] ] ] } },
{ "type": "Feature", "properties": { "building": "farm_auxiliary", "ref:GB:uprn": null, "source": null, "osm_type": "way", "osm_id": 574694574, "addr:city": null, "addr:country": null, "addr:postcode": null, "source:addr:postcode": null, "addr:housenumber": null, "addr:street": null, "addr:suburb": null, "amenity": null, "fhrs:id": null, "name": null }, "geometry": { "type": "Polygon", "coordinates": [ [ [ 426293.199024307657965, 430553.138822063920088 ], [ 426312.019834810984321, 430555.013171777594835 ], [ 426312.369000400009099, 430551.510366905480623 ], [ 426314.951334046083502, 430551.769595010322519 ], [ 426315.47486828075489, 430546.554328602156602 ], [ 426310.079569178866223, 430546.02345658140257 ], [ 426294.071624284435529, 430544.431872993940488 ], [ 426293.199024307657965, 430553.138822063920088 ] ] ] } },
{ "type": "Feature", "properties": { "building": "farm_auxiliary", "ref:GB:uprn": null, "source": null, "osm_type": "way", "osm_id": 574694575, "addr:city": null, "addr:country": null, "addr:postcode": null, "source:addr:postcode": null, "addr:housenumber": null, "addr:street": null, "addr:suburb": null, "amenity": null, "fhrs:id": null, "name": null }, "geometry": { "type": "Polygon", "coordinates": [ [ [ 426298.92954544472741, 430578.583152320585214 ], [ 426314.800392177363392, 430579.918083308264613 ], [ 426315.266160790575668, 430574.424337925971486 ], [ 426299.395295531663578, 430573.089405427337624 ], [ 426298.92954544472741, 430578.583152320585214 ] ] ] } },
{ "type": "Feature", "properties": { "building": "farm_auxiliary", "ref:GB:uprn": null, "source": null, "osm_type": "way", "osm_id": 574694576, "addr:city": null, "addr:country": null, "addr:postcode": null, "source:addr:postcode": null, "addr:housenumber": null, "addr:street": null, "addr:suburb": null, "amenity": null, "fhrs:id": null, "name": null }, "geometry": { "type": "Polygon", "coordinates": [ [ [ 426272.012476584757678, 430579.47854375152383 ], [ 426297.546034378290642, 430582.002289671567269 ], [ 426298.439842202235013, 430573.039556598640047 ], [ 426272.906235899194144, 430570.515805984265171 ], [ 426272.012476584757678, 430579.47854375152383 ] ] ] } },
{ "type": "Feature", "properties": { "building": "farm_auxiliary", "ref:GB:uprn": null, "source": null, "osm_type": "way", "osm_id": 574694577, "addr:city": null, "addr:country": null, "addr:postcode": null, "source:addr:postcode": null, "addr:housenumber": null, "addr:street": null, "addr:suburb": null, "amenity": null, "fhrs:id": null, "name": null }, "geometry": { "type": "Polygon", "coordinates": [ [ [ 426226.124946263909806, 430566.349344918737188 ], [ 426225.310864884871989, 430575.223525462090038 ], [ 426250.048381260887254, 430577.486669135629199 ], [ 426250.862571346980985, 430568.601366853574291 ], [ 426226.124946263909806, 430566.349344918737188 ] ] ] } },
{ "type": "Feature", "properties": { "building": "yes", "ref:GB:uprn": null, "source": null, "osm_type": "way", "osm_id": 574697392, "addr:city": null, "addr:country": null, "addr:postcode": null, "source:addr:postcode": null, "addr:housenumber": null, "addr:street": null, "addr:suburb": null, "amenity": null, "fhrs:id": null, "name": null }, "geometry": { "type": "Polygon", "coordinates": [ [ [ 426235.87196145800408, 430166.1048061408801 ], [ 426241.444946234696545, 430167.949472849373706 ], [ 426245.293298374861479, 430156.366311179008335 ], [ 426239.71370958496118, 430154.521603180328384 ], [ 426235.87196145800408, 430166.1048061408801 ] ] ] } },
{ "type": "Feature", "properties": { "building": "yes", "ref:GB:uprn": "72568277", "source": null, "osm_type": "way", "osm_id": 574697393, "addr:city": null, "addr:country": null, "addr:postcode": null, "source:addr:postcode": null, "addr:housenumber": null, "addr:street": null, "addr:suburb": null, "amenity": null, "fhrs:id": null, "name": null }, "geometry": { "type": "Polygon", "coordinates": [ [ [ 426199.221579587261658, 430222.86667593929451 ], [ 426204.327317166142166, 430224.564055248978548 ], [ 426206.137413255462889, 430219.122298757894896 ], [ 426201.025078803882934, 430217.424880775040947 ], [ 426199.221579587261658, 430222.86667593929451 ] ] ] } },
{ "type": "Feature", "properties": { "building": "yes", "ref:GB:uprn": null, "source": null, "osm_type": "way", "osm_id": 574697394, "addr:city": null, "addr:country": null, "addr:postcode": null, "source:addr:postcode": null, "addr:housenumber": null, "addr:street": null, "addr:suburb": null, "amenity": null, "fhrs:id": null, "name": null }, "geometry": { "type": "Polygon", "coordinates": [ [ [ 426217.543907312210649, 430202.073765048291534 ], [ 426214.185030098306015, 430212.191018101526424 ], [ 426219.336852943757549, 430213.899796806857921 ], [ 426222.702393756539095, 430203.771458284114487 ], [ 426217.543907312210649, 430202.073765048291534 ] ] ] } },
{ "type": "Feature", "properties": { "building": "yes", "ref:GB:uprn": null, "source": null, "osm_type": "way", "osm_id": 574697395, "addr:city": null, "addr:country": null, "addr:postcode": null, "source:addr:postcode": null, "addr:housenumber": null, "addr:street": null, "addr:suburb": null, "amenity": null, "fhrs:id": null, "name": null }, "geometry": { "type": "Polygon", "coordinates": [ [ [ 426227.59480997256469, 430191.715676990803331 ], [ 426233.062488148978446, 430193.526368081453256 ], [ 426236.662751318421215, 430182.687271416303702 ], [ 426231.195061781792901, 430180.87657618499361 ], [ 426227.59480997256469, 430191.715676990803331 ] ] ] } },
{ "type": "Feature", "properties": { "building": "yes", "ref:GB:uprn": null, "source": null, "osm_type": "way", "osm_id": 574697396, "addr:city": null, "addr:country": null, "addr:postcode": null, "source:addr:postcode": null, "addr:housenumber": null, "addr:street": null, "addr:suburb": null, "amenity": null, "fhrs:id": null, "name": null }, "geometry": { "type": "Polygon", "coordinates": [ [ [ 426266.033600430819206, 430212.591589316609316 ], [ 426278.159831783385016, 430216.598014169023372 ], [ 426280.050421279389411, 430210.923084906185977 ], [ 426267.924176736734807, 430206.916655228356831 ], [ 426266.033600430819206, 430212.591589316609316 ] ] ] } },
{ "type": "Feature", "properties": { "building": "yes", "ref:GB:uprn": null, "source": null, "osm_type": "way", "osm_id": 574697397, "addr:city": null, "addr:country": null, "addr:postcode": null, "source:addr:postcode": null, "addr:housenumber": null, "addr:street": null, "addr:suburb": null, "amenity": null, "fhrs:id": null, "name": null }, "geometry": { "type": "Polygon", "coordinates": [ [ [ 426245.867102968739346, 430220.089322842890397 ], [ 426251.394002763612662, 430221.911492497194558 ], [ 426255.423353016551118, 430209.784164406126365 ], [ 426249.896440367156174, 430207.961990065174177 ], [ 426245.867102968739346, 430220.089322842890397 ] ] ] } },
{ "type": "Feature", "properties": { "building": "yes", "ref:GB:uprn": "72568276", "source": null, "osm_type": "way", "osm_id": 574697398, "addr:city": null, "addr:country": null, "addr:postcode": null, "source:addr:postcode": null, "addr:housenumber": null, "addr:street": null, "addr:suburb": null, "amenity": null, "fhrs:id": null, "name": null }, "geometry": { "type": "Polygon", "coordinates": [ [ [ 426240.272708204574883, 430236.268993105273694 ], [ 426246.135137560835574, 430238.204291116213426 ], [ 426248.045889070723206, 430232.451578197069466 ], [ 426242.190044779214077, 430230.516314613749273 ], [ 426240.272708204574883, 430236.268993105273694 ] ] ] } },
{ "type": "Feature", "properties": { "building": "yes", "ref:GB:uprn": "72568271", "source": null, "osm_type": "way", "osm_id": 574697399, "addr:city": null, "addr:country": null, "addr:postcode": null, "source:addr:postcode": null, "addr:housenumber": null, "addr:street": null, "addr:suburb": null, "amenity": null, "fhrs:id": null, "name": null }, "geometry": { "type": "Polygon", "coordinates": [ [ [ 426262.483875889913179, 430243.880924009718001 ], [ 426268.681832270987798, 430245.929386390838772 ], [ 426270.505489263974596, 430240.432098728953861 ], [ 426264.314117870118935, 430238.383670783950947 ], [ 426262.483875889913179, 430243.880924009718001 ] ] ] } },
{ "type": "Feature", "properties": { "building": "yes", "ref:GB:uprn": null, "source": null, "osm_type": "way", "osm_id": 574697400, "addr:city": null, "addr:country": null, "addr:postcode": null, "source:addr:postcode": null, "addr:housenumber": null, "addr:street": null, "addr:suburb": null, "amenity": null, "fhrs:id": null, "name": null }, "geometry": { "type": "Polygon", "coordinates": [ [ [ 426297.769816049141809, 430239.082449630601332 ], [ 426303.69794719631318, 430241.051566013135016 ], [ 426307.063714568619616, 430230.912161368294619 ], [ 426301.135571902384982, 430228.94304078980349 ], [ 426297.769816049141809, 430239.082449630601332 ] ] ] } },
{ "type": "Feature", "properties": { "building": "yes", "ref:GB:uprn": "72673296", "source": null, "osm_type": "way", "osm_id": 574697401, "addr:city": null, "addr:country": null, "addr:postcode": null, "source:addr:postcode": null, "addr:housenumber": null, "addr:street": null, "addr:suburb": null, "amenity": null, "fhrs:id": null, "name": null }, "geometry": { "type": "Polygon", "coordinates": [ [ [ 426282.723664744175039, 430181.976495818467811 ], [ 426288.553249512449838, 430183.900536568718962 ], [ 426290.524456352402922, 430177.959033184451982 ], [ 426284.694864941178821, 430176.034990018233657 ], [ 426282.723664744175039, 430181.976495818467811 ] ] ] } },
{ "type": "Feature", "properties": { "building": "yes", "ref:GB:uprn": null, "source": null, "osm_type": "way", "osm_id": 574697402, "addr:city": null, "addr:country": null, "addr:postcode": null, "source:addr:postcode": null, "addr:housenumber": null, "addr:street": null, "addr:suburb": null, "amenity": null, "fhrs:id": null, "name": null }, "geometry": { "type": "Polygon", "coordinates": [ [ [ 426314.843988530745264, 430208.169208709266968 ], [ 426311.605544591438957, 430217.931028858525679 ], [ 426317.079751914541703, 430219.741855201311409 ], [ 426320.318206100375392, 430209.980038782814518 ], [ 426314.843988530745264, 430208.169208709266968 ] ] ] } },
{ "type": "Feature", "properties": { "building": "yes", "ref:GB:uprn": null, "source": null, "osm_type": "way", "osm_id": 574697403, "addr:city": null, "addr:country": null, "addr:postcode": null, "source:addr:postcode": null, "addr:housenumber": null, "addr:street": null, "addr:suburb": null, "amenity": null, "fhrs:id": null, "name": null }, "geometry": { "type": "Polygon", "coordinates": [ [ [ 426330.850838307349477, 430191.324712065630592 ], [ 426328.973487234150525, 430196.977442936738953 ], [ 426340.606273507932201, 430200.814373640925623 ], [ 426342.483574868412688, 430195.172773229540326 ], [ 426330.850838307349477, 430191.324712065630592 ] ] ] } },
{ "type": "Feature", "properties": { "building": "yes", "ref:GB:uprn": null, "source": null, "osm_type": "way", "osm_id": 574697404, "addr:city": null, "addr:country": null, "addr:postcode": null, "source:addr:postcode": null, "addr:housenumber": null, "addr:street": null, "addr:suburb": null, "amenity": null, "fhrs:id": null, "name": null }, "geometry": { "type": "Polygon", "coordinates": [ [ [ 426312.005848845816217, 430193.511232322780415 ], [ 426317.914319650619291, 430195.469129909644835 ], [ 426321.508124498999678, 430184.64118685061112 ], [ 426315.606233029859141, 430182.683321684831753 ], [ 426312.005848845816217, 430193.511232322780415 ] ] ] } },
{ "type": "Feature", "properties": { "building": "yes", "ref:GB:uprn": null, "source": null, "osm_type": "way", "osm_id": 574697407, "addr:city": null, "addr:country": null, "addr:postcode": null, "source:addr:postcode": null, "addr:housenumber": null, "addr:street": null, "addr:suburb": null, "amenity": null, "fhrs:id": null, "name": null }, "geometry": { "type": "Polygon", "coordinates": [ [ [ 426412.091931566363201, 430285.70781171717681 ], [ 426418.629404770559631, 430285.967059976654127 ], [ 426418.837815042294096, 430280.549763699062169 ], [ 426412.306925741722807, 430280.290552197373472 ], [ 426412.091931566363201, 430285.70781171717681 ] ] ] } },
{ "type": "Feature", "properties": { "building": "yes", "ref:GB:uprn": null, "source": null, "osm_type": "way", "osm_id": 574697408, "addr:city": null, "addr:country": null, "addr:postcode": null, "source:addr:postcode": null, "addr:housenumber": null, "addr:street": null, "addr:suburb": null, "amenity": null, "fhrs:id": null, "name": null }, "geometry": { "type": "Polygon", "coordinates": [ [ [ 426448.207951338030398, 430261.043712196871638 ], [ 426453.961257950519212, 430261.265220428118482 ], [ 426454.161490951955784, 430256.137161186779849 ], [ 426448.408178042212967, 430255.915652728872374 ], [ 426448.207951338030398, 430261.043712196871638 ] ] ] } },
{ "type": "Feature", "properties": { "building": "yes", "ref:GB:uprn": null, "source": null, "osm_type": "way", "osm_id": 574697409, "addr:city": null, "addr:country": null, "addr:postcode": null, "source:addr:postcode": null, "addr:housenumber": null, "addr:street": null, "addr:suburb": null, "amenity": null, "fhrs:id": null, "name": null }, "geometry": { "type": "Polygon", "coordinates": [ [ [ 426426.995036187930964, 430261.191479057190008 ], [ 426432.992165959847625, 430261.425457999110222 ], [ 426433.208623475919012, 430255.752304684370756 ], [ 426427.21807793964399, 430255.518362532253377 ], [ 426426.995036187930964, 430261.191479057190008 ] ] ] } },
{ "type": "Feature", "properties": { "building": "yes", "ref:GB:uprn": "72568243", "source": null, "osm_type": "way", "osm_id": 574697410, "addr:city": null, "addr:country": null, "addr:postcode": null, "source:addr:postcode": null, "addr:housenumber": null, "addr:street": null, "addr:suburb": null, "amenity": null, "fhrs:id": null, "name": null }, "geometry": { "type": "Polygon", "coordinates": [ [ [ 426387.028061290562619, 430262.635971849202178 ], [ 426386.797727816854604, 430268.442563591175713 ], [ 426390.086313982843421, 430268.561153988004662 ], [ 426390.316589093417861, 430262.765688257175498 ], [ 426387.028061290562619, 430262.635971849202178 ] ] ] } },
{ "type": "Feature", "properties": { "building": "yes", "ref:GB:uprn": null, "source": null, "osm_type": "way", "osm_id": 574697411, "addr:city": null, "addr:country": null, "addr:postcode": null, "source:addr:postcode": null, "addr:housenumber": null, "addr:street": null, "addr:suburb": null, "amenity": null, "fhrs:id": null, "name": null }, "geometry": { "type": "Polygon", "coordinates": [ [ [ 426398.038671207381412, 430253.974816630827263 ], [ 426397.800295805442147, 430260.037265681778081 ], [ 426403.659069356741384, 430260.259304129169323 ], [ 426403.897452339704614, 430254.19685535505414 ], [ 426398.038671207381412, 430253.974816630827263 ] ] ] } },
{ "type": "Feature", "properties": { "building": "yes", "ref:GB:uprn": null, "source": null, "osm_type": "way", "osm_id": 574697412, "addr:city": null, "addr:country": null, "addr:postcode": null, "source:addr:postcode": null, "addr:housenumber": null, "addr:street": null, "addr:suburb": null, "amenity": null, "fhrs:id": null, "name": null }, "geometry": { "type": "Polygon", "coordinates": [ [ [ 426366.545382089854684, 430241.881953412899747 ], [ 426372.707264466967899, 430242.127904870198108 ], [ 426372.945420757634565, 430236.098832393414341 ], [ 426366.783468069101218, 430235.864006513962522 ], [ 426366.545382089854684, 430241.881953412899747 ] ] ] } },
{ "type": "Feature", "properties": { "building": "yes", "ref:GB:uprn": null, "source": null, "osm_type": "way", "osm_id": 574697413, "addr:city": null, "addr:country": null, "addr:postcode": null, "source:addr:postcode": null, "addr:housenumber": null, "addr:street": null, "addr:suburb": null, "amenity": null, "fhrs:id": null, "name": null }, "geometry": { "type": "Polygon", "coordinates": [ [ [ 426399.620181002013851, 430227.058255141368136 ], [ 426405.604172506718896, 430227.292124844272621 ], [ 426405.797012206166983, 430222.297537300852127 ], [ 426399.813014322367962, 430222.063667370704934 ], [ 426399.620181002013851, 430227.058255141368136 ] ] ] } },
{ "type": "Feature", "properties": { "building": "yes", "ref:GB:uprn": null, "source": null, "osm_type": "way", "osm_id": 574697414, "addr:city": null, "addr:country": null, "addr:postcode": null, "source:addr:postcode": null, "addr:housenumber": null, "addr:street": null, "addr:suburb": null, "amenity": null, "fhrs:id": null, "name": null }, "geometry": { "type": "Polygon", "coordinates": [ [ [ 426418.756738198921084, 430222.236813300289214 ], [ 426418.786587713402696, 430228.656807028222829 ], [ 426424.719282109464984, 430228.634510049480014 ], [ 426424.696032272884622, 430222.214553298894316 ], [ 426418.756738198921084, 430222.236813300289214 ] ] ] } },
{ "type": "Feature", "properties": { "building": "yes", "ref:GB:uprn": null, "source": null, "osm_type": "way", "osm_id": 574697415, "addr:city": null, "addr:country": null, "addr:postcode": null, "source:addr:postcode": null, "addr:housenumber": null, "addr:street": null, "addr:suburb": null, "amenity": null, "fhrs:id": null, "name": null }, "geometry": { "type": "Polygon", "coordinates": [ [ [ 426448.130996111955028, 430223.158514432027005 ], [ 426448.154902128386311, 430229.456086901947856 ], [ 426453.744836184720043, 430229.431898916023783 ], [ 426453.71434614242753, 430223.13428931357339 ], [ 426448.130996111955028, 430223.158514432027005 ] ] ] } },
{ "type": "Feature", "properties": { "building": "house", "ref:GB:uprn": "72356754", "source": null, "osm_type": "way", "osm_id": 574698618, "addr:city": null, "addr:country": null, "addr:postcode": null, "source:addr:postcode": null, "addr:housenumber": null, "addr:street": null, "addr:suburb": null, "amenity": null, "fhrs:id": null, "name": null }, "geometry": { "type": "Polygon", "coordinates": [ [ [ 426399.54255406698212, 430111.723488982417621 ], [ 426405.262402274296619, 430114.414767142035998 ], [ 426408.304390806530137, 430107.989771610475145 ], [ 426402.584536414477043, 430105.298489780980162 ], [ 426399.54255406698212, 430111.723488982417621 ] ] ] } },
{ "type": "Feature", "properties": { "building": "yes", "ref:GB:uprn": null, "source": null, "osm_type": "way", "osm_id": 574698619, "addr:city": null, "addr:country": null, "addr:postcode": null, "source:addr:postcode": null, "addr:housenumber": null, "addr:street": null, "addr:suburb": null, "amenity": null, "fhrs:id": null, "name": null }, "geometry": { "type": "Polygon", "coordinates": [ [ [ 426456.101117399928626, 430124.613958054920658 ], [ 426458.771180248586461, 430116.351076985825785 ], [ 426452.553044525964651, 430114.357881706091575 ], [ 426448.359960000903811, 430127.363093508873135 ], [ 426455.716374410490971, 430129.729852028773166 ], [ 426457.24600442108931, 430124.98756422707811 ], [ 426456.101117399928626, 430124.613958054920658 ] ] ] } },
{ "type": "Feature", "properties": { "building": "yes", "ref:GB:uprn": "72533053", "source": null, "osm_type": "way", "osm_id": 574698620, "addr:city": "Leeds", "addr:country": "GB", "addr:postcode": "LS27 7NQ", "source:addr:postcode": "ONSUD;OS Open UPRN", "addr:housenumber": null, "addr:street": null, "addr:suburb": null, "amenity": null, "fhrs:id": null, "name": null }, "geometry": { "type": "Polygon", "coordinates": [ [ [ 426422.611524681327865, 430126.283747863955796 ], [ 426433.206793325196486, 430131.772883795201778 ], [ 426437.745010321901646, 430123.030938828713261 ], [ 426427.149664458353072, 430117.55291860376019 ], [ 426422.611524681327865, 430126.283747863955796 ] ] ] } },
{ "type": "Feature", "properties": { "building": "greenhouse", "ref:GB:uprn": null, "source": null, "osm_type": "way", "osm_id": 651499017, "addr:city": null, "addr:country": null, "addr:postcode": null, "source:addr:postcode": null, "addr:housenumber": null, "addr:street": null, "addr:suburb": null, "amenity": null, "fhrs:id": null, "name": null }, "geometry": { "type": "Polygon", "coordinates": [ [ [ 426248.554254380520433, 430095.312745728879236 ], [ 426237.462459923757706, 430091.334424717235379 ], [ 426235.186080458690412, 430097.63028563070111 ], [ 426246.284453527478036, 430101.608638114528731 ], [ 426248.554254380520433, 430095.312745728879236 ] ] ] } },
{ "type": "Feature", "properties": { "building": "greenhouse", "ref:GB:uprn": null, "source": null, "osm_type": "way", "osm_id": 651499018, "addr:city": null, "addr:country": null, "addr:postcode": null, "source:addr:postcode": null, "addr:housenumber": null, "addr:street": null, "addr:suburb": null, "amenity": null, "fhrs:id": null, "name": null }, "geometry": { "type": "Polygon", "coordinates": [ [ [ 426250.593776588735636, 430087.758307414129376 ], [ 426238.462395457085222, 430083.42926899867598 ], [ 426236.306275901268236, 430089.436518871574663 ], [ 426248.444235060596839, 430093.765588570851833 ], [ 426250.593776588735636, 430087.758307414129376 ] ] ] } },
{ "type": "Feature", "properties": { "building": "house", "ref:GB:uprn": "72356745", "source": null, "osm_type": "way", "osm_id": 651499019, "addr:city": null, "addr:country": null, "addr:postcode": null, "source:addr:postcode": null, "addr:housenumber": null, "addr:street": null, "addr:suburb": null, "amenity": null, "fhrs:id": null, "name": null }, "geometry": { "type": "Polygon", "coordinates": [ [ [ 426210.759942330827471, 430068.61044831876643 ], [ 426217.873973876703531, 430070.741829890292138 ], [ 426220.815441480604932, 430061.022796934470534 ], [ 426215.399345116748009, 430059.390428732149303 ], [ 426215.238165666232817, 430059.923588252975605 ], [ 426212.000346783781424, 430058.948686932679266 ], [ 426210.952745433314703, 430062.403098807670176 ], [ 426214.151073542307131, 430063.366653094184585 ], [ 426213.761495242477395, 430064.666247915592976 ], [ 426212.103098880383186, 430064.167451174696907 ], [ 426210.759942330827471, 430068.61044831876643 ] ] ] } },
{ "type": "Feature", "properties": { "building": "yes", "ref:GB:uprn": "72760625", "source": null, "osm_type": "way", "osm_id": 651499020, "addr:city": "Leeds", "addr:country": null, "addr:postcode": "LS27 7ND", "source:addr:postcode": null, "addr:housenumber": "104", "addr:street": "Gelderd Road", "addr:suburb": "Gildersome", "amenity": "cafe", "fhrs:id": "877774", "name": "The Workshop Cafe" }, "geometry": { "type": "Polygon", "coordinates": [ [ [ 426194.345486505073495, 430056.85872791276779 ], [ 426186.804878211230971, 430054.380094689433463 ], [ 426183.09040835860651, 430065.608008851413615 ], [ 426190.624346681463066, 430068.097725335974246 ], [ 426194.345486505073495, 430056.85872791276779 ] ] ] } },
{ "type": "Feature", "properties": { "building": "house", "ref:GB:uprn": "72076431", "source": null, "osm_type": "way", "osm_id": 1000367680, "addr:city": null, "addr:country": null, "addr:postcode": null, "source:addr:postcode": null, "addr:housenumber": null, "addr:street": null, "addr:suburb": null, "amenity": null, "fhrs:id": null, "name": null }, "geometry": { "type": "Polygon", "coordinates": [ [ [ 426880.324719893047586, 430472.444601563038304 ], [ 426868.964531896461267, 430462.621965637081303 ], [ 426862.024298615928274, 430470.604320177459158 ], [ 426864.411797303240746, 430472.665187048609369 ], [ 426864.869641081488226, 430472.133744099526666 ], [ 426874.321128905867226, 430480.309904515510425 ], [ 426877.346679014153779, 430476.833563255378976 ], [ 426878.566661213175394, 430477.88640292128548 ], [ 426880.570493683742825, 430475.572476946865208 ], [ 426878.878298918658402, 430474.105266731581651 ], [ 426880.324719893047586, 430472.444601563038304 ] ] ] } }
]
}
