{
"type": "FeatureCollection",
"name": "se3230_rgb_250_05_osm_road_buffers",
"crs": { "type": "name", "properties": { "name": "urn:ogc:def:crs:EPSG::27700" } },
"features": [
{ "type": "Feature", "properties": { "highway": "unclassified", "lit": "yes", "maxspeed": "30 mph", "maxspeed:type": "sign", "name": "Skelton Grange Road", "source:name": "OS_Locator", "surface": "asphalt", "osm_type": "way", "osm_id": 3999926, "lane_markings": null, "lanes": null, "source": null, "national_highways:area": null, "oneway": null, "operator": null, "operator:wikidata": null, "ref": null, "destination:lanes": null, "source:ref": null, "junction": null, "carriageway_ref": null, "bridge": null, "layer": null, "note": null, "cycleway:left": null, "busway:left": null, "maxheight": null, "lanes:backward": null, "lanes:forward": null, "bus": null, "bus:lanes": null, "turn:lanes:forward": null, "turn:lanes:backward": null, "turn:lanes": null, "busway:right": null }, "geometry": { "type": "Polygon", "coordinates": [ [ [ 432481.167985431500711, 430716.497127127309795 ], [ 432483.896391497342847, 430718.989385038847104 ], [ 432484.009144176845439, 430719.089304563589394 ], [ 432544.865707185294013, 430771.403900816105306 ], [ 432544.899940277566202, 430771.433062193042133 ], [ 432573.089929502166342, 430795.228708982409444 ], [ 432580.209812607383355, 430801.94101228681393 ], [ 432596.597695378528442, 430818.599719177174848 ], [ 432614.701511933351867, 430836.995569730992429 ], [ 432615.167874483915512, 430837.413541408081073 ], [ 432649.791787043854129, 430864.73566189192934 ], [ 432650.250964694016147, 430865.057917025173083 ], [ 432684.435703910654411, 430886.291118925320916 ], [ 432684.864574253035244, 430886.529179802222643 ], [ 432685.314707113953773, 430886.724072488665115 ], [ 432727.268377988075372, 430902.492970558290835 ], [ 432727.375139826268423, 430902.531720474886242 ], [ 432771.11125363886822, 430917.846125568205025 ], [ 432774.416058454778977, 430908.407997304166202 ], [ 432730.733545630064327, 430893.112360847822856 ], [ 432689.293851132038981, 430877.536648282955866 ], [ 432655.765941520861816, 430856.711423624888994 ], [ 432621.608859525236767, 430829.75768441229593 ], [ 432603.726132343697827, 430811.58648977347184 ], [ 432587.272568951069843, 430794.861016831768211 ], [ 432587.138047302549239, 430794.729325464577414 ], [ 432579.849822829361074, 430787.85831754328683 ], [ 432579.645129313867074, 430787.675684211484622 ], [ 432551.367469456396066, 430763.806033157801721 ], [ 432490.585086522682104, 430711.555204894626513 ], [ 432487.917823748546652, 430709.118801510427147 ], [ 432478.206372204294894, 430700.23012565105455 ], [ 432471.454695094318595, 430707.606768261583056 ], [ 432481.167985431500711, 430716.497127127309795 ] ] ] } },
{ "type": "Feature", "properties": { "highway": "unclassified", "lit": null, "maxspeed": "30 mph", "maxspeed:type": "sign", "name": "Lockside Road", "source:name": null, "surface": "concrete", "osm_type": "way", "osm_id": 3999928, "lane_markings": "no", "lanes": null, "source": null, "national_highways:area": null, "oneway": null, "operator": null, "operator:wikidata": null, "ref": null, "destination:lanes": null, "source:ref": null, "junction": null, "carriageway_ref": null, "bridge": null, "layer": null, "note": null, "cycleway:left": null, "busway:left": null, "maxheight": null, "lanes:backward": null, "lanes:forward": null, "bus": null, "bus:lanes": null, "turn:lanes:forward": null, "turn:lanes:backward": null, "turn:lanes": null, "busway:right": null }, "geometry": { "type": "Polygon", "coordinates": [ [ [ 432518.830995427328162, 430784.89060152892489 ], [ 432498.177634974243119, 430794.429658070032019 ], [ 432497.833462561946362, 430794.605055715539493 ], [ 432477.632790771138389, 430805.903246983420104 ], [ 432477.22531479067402, 430806.15758327615913 ], [ 432476.844124319672119, 430806.449845913681202 ], [ 432476.492737344000489, 430806.777337620151229 ], [ 432450.006661634077318, 430833.954014378483407 ], [ 432365.916568577347789, 430920.259964641940314 ], [ 432298.324616684636567, 430989.62362359353574 ], [ 432277.588077400869224, 431010.911074348492548 ], [ 432277.524354326305911, 431010.977708628808614 ], [ 432265.456459714914672, 431023.832135419244878 ], [ 432263.07543652120512, 431026.361102959606797 ], [ 432263.070282900182065, 431026.36658505856758 ], [ 432261.826364760054275, 431027.691783785936423 ], [ 432232.489271261089016, 431053.700931876664981 ], [ 432221.137032184400596, 431063.697972280089743 ], [ 432220.72058175021084, 431064.110492466716096 ], [ 432220.355272034008522, 431064.568916593212634 ], [ 432217.965971963247284, 431067.957193213165738 ], [ 432217.727829210925847, 431068.328693631396163 ], [ 432217.523368811351247, 431068.71974410925759 ], [ 432217.354183302784804, 431069.127298761915881 ], [ 432216.064486746559851, 431072.667761510645505 ], [ 432215.921328822791111, 431073.128863873833325 ], [ 432214.587540939217433, 431078.29347327951109 ], [ 432224.269867021474056, 431080.793985554308165 ], [ 432225.543220278981607, 431075.863387299817987 ], [ 432226.522231382783502, 431073.175815307127777 ], [ 432228.188142528000753, 431070.813379607512616 ], [ 432239.104441354982555, 431061.200238121324219 ], [ 432239.116937921731733, 431061.189196305524092 ], [ 432268.631902971013915, 431035.022354082844686 ], [ 432268.960515636252239, 431034.702953623782378 ], [ 432270.35883921617642, 431033.213260235846974 ], [ 432272.7397284944891, 431030.684434931608848 ], [ 432272.74461473012343, 431030.679237667296547 ], [ 432284.783396290673409, 431017.855821388075128 ], [ 432305.486861055193003, 430996.602323742117733 ], [ 432373.078629124909639, 430927.238853431830648 ], [ 432457.168371040374041, 430840.933263513899874 ], [ 432483.147628025966696, 430814.276620330871083 ], [ 432502.546134098549373, 430803.427078583510593 ], [ 432523.589267765055411, 430793.70799958409043 ], [ 432523.956598411255982, 430793.519568677758798 ], [ 432524.307131764478981, 430793.301476086431649 ], [ 432524.638478056353051, 430793.055208660720382 ], [ 432551.270835441478994, 430771.498738332476933 ], [ 432544.979392177599948, 430763.725853304553311 ], [ 432518.830995427328162, 430784.89060152892489 ] ] ] } },
{ "type": "Feature", "properties": { "highway": "tertiary", "lit": "yes", "maxspeed": null, "maxspeed:type": null, "name": "Queen Street", "source:name": null, "surface": "asphalt", "osm_type": "way", "osm_id": 3999934, "lane_markings": null, "lanes": "2", "source": "survey", "national_highways:area": null, "oneway": null, "operator": null, "operator:wikidata": null, "ref": null, "destination:lanes": null, "source:ref": null, "junction": null, "carriageway_ref": null, "bridge": null, "layer": null, "note": null, "cycleway:left": null, "busway:left": null, "maxheight": null, "lanes:backward": null, "lanes:forward": null, "bus": null, "bus:lanes": null, "turn:lanes:forward": null, "turn:lanes:backward": null, "turn:lanes": null, "busway:right": null }, "geometry": { "type": "Polygon", "coordinates": [ [ [ 431971.96069436572725, 430733.093928593210876 ], [ 431981.217263271973934, 430733.32796754152514 ], [ 431997.998116604692768, 430735.139851289393846 ], [ 432044.072813375329133, 430741.324438894167542 ], [ 432073.83845522115007, 430745.584559346083552 ], [ 432120.155345656326972, 430752.199791854596697 ], [ 432124.021044397377409, 430752.836983834393322 ], [ 432178.707797718117945, 430761.911470999475569 ], [ 432178.895003938348964, 430761.939938996452838 ], [ 432209.461205359490123, 430766.165910510753747 ], [ 432285.442073420155793, 430776.689827689377125 ], [ 432315.046494353271555, 430780.798603177943733 ], [ 432315.109510958951432, 430780.807057682715822 ], [ 432317.79896586178802, 430781.155456748441793 ], [ 432371.36296355020022, 430790.024921059201006 ], [ 432373.868109083152376, 430790.943313447060063 ], [ 432376.237661909777671, 430791.916051096806768 ], [ 432378.792982975544874, 430793.300009269616567 ], [ 432381.142576584185008, 430794.908404238522053 ], [ 432384.753075650602113, 430797.813663532666396 ], [ 432393.529828326951247, 430786.906390158517752 ], [ 432389.708424640295561, 430783.831422301416751 ], [ 432389.274138856388163, 430783.508800001174677 ], [ 432386.400800635805354, 430781.541879968310241 ], [ 432385.780367933097295, 430781.162919598922599 ], [ 432382.575877960131038, 430779.427372490114067 ], [ 432381.900549391924869, 430779.107000335527118 ], [ 432379.06123033631593, 430777.941416469227988 ], [ 432378.812311325338669, 430777.84473728161538 ], [ 432375.564515676291194, 430776.654087571951095 ], [ 432374.939394937595353, 430776.457583576731849 ], [ 432374.298638369247783, 430776.320394735084847 ], [ 432319.964225184987299, 430767.323360171169043 ], [ 432319.719976457883604, 430767.287329191050958 ], [ 432316.939606938045472, 430766.927152806601953 ], [ 432287.365716715110466, 430762.822614652512129 ], [ 432211.381118688499555, 430752.298180575715378 ], [ 432180.906150358903687, 430748.084822401346173 ], [ 432126.309099069912918, 430739.025220009731129 ], [ 432126.301681298064068, 430739.02399322920246 ], [ 432122.358031596522778, 430738.373952413967345 ], [ 432122.209302246570587, 430738.351076249382459 ], [ 432075.820945418206975, 430731.725636817456689 ], [ 432046.026082072814461, 430727.461334123858251 ], [ 432045.965588596940506, 430727.452945303462911 ], [ 431999.770862776320428, 430721.252246248710435 ], [ 431999.591053064155858, 430721.230474732816219 ], [ 431982.433681999100372, 430719.377937130979262 ], [ 431981.859164945955854, 430719.339723004959524 ], [ 431972.224537780624814, 430719.096125400741585 ], [ 431972.04448254685849, 430719.09388976811897 ], [ 431964.372341678652447, 430719.09731692133937 ], [ 431964.378595492395107, 430733.097315524588339 ], [ 431971.96069436572725, 430733.093928593210876 ] ] ] } },
{ "type": "Feature", "properties": { "highway": "motorway_link", "lit": "yes", "maxspeed": "70 mph", "maxspeed:type": null, "name": null, "source:name": null, "surface": "asphalt", "osm_type": "way", "osm_id": 3999942, "lane_markings": null, "lanes": "2", "source": null, "national_highways:area": "12", "oneway": "yes", "operator": "National Highways", "operator:wikidata": "Q5760006", "ref": "M621", "destination:lanes": null, "source:ref": null, "junction": null, "carriageway_ref": null, "bridge": null, "layer": null, "note": null, "cycleway:left": null, "busway:left": null, "maxheight": null, "lanes:backward": null, "lanes:forward": null, "bus": null, "bus:lanes": null, "turn:lanes:forward": null, "turn:lanes:backward": null, "turn:lanes": null, "busway:right": null }, "geometry": { "type": "Polygon", "coordinates": [ [ [ 432164.736978692933917, 430172.023896892322227 ], [ 432164.894240399939008, 430171.305625409586355 ], [ 432175.524085606215522, 430111.073597122100182 ], [ 432175.645612074062228, 430110.036359053628985 ], [ 432178.533879137190524, 430060.788684658764396 ], [ 432178.548949117655866, 430060.18034656427335 ], [ 432178.064882929029409, 430006.670539038954303 ], [ 432177.61498914367985, 429956.832663812383544 ], [ 432159.615722503163852, 429956.995145823631901 ], [ 432160.065617073036265, 430006.833107960468624 ], [ 432160.546931681048591, 430060.038749514846131 ], [ 432157.7071114743012, 430108.460359367774799 ], [ 432147.232117959531024, 430167.814949528547004 ], [ 432128.177276249451097, 430240.494870616588742 ], [ 432145.588823462894652, 430245.059739030199125 ], [ 432164.736978692933917, 430172.023896892322227 ] ] ] } },
{ "type": "Feature", "properties": { "highway": "primary", "lit": "yes", "maxspeed": "30 mph", "maxspeed:type": null, "name": "Wakefield Road", "source:name": null, "surface": "asphalt", "osm_type": "way", "osm_id": 4371951, "lane_markings": null, "lanes": "2", "source": null, "national_highways:area": null, "oneway": "yes", "operator": null, "operator:wikidata": null, "ref": "A639", "destination:lanes": null, "source:ref": null, "junction": null, "carriageway_ref": null, "bridge": null, "layer": null, "note": null, "cycleway:left": null, "busway:left": null, "maxheight": null, "lanes:backward": null, "lanes:forward": null, "bus": null, "bus:lanes": null, "turn:lanes:forward": null, "turn:lanes:backward": null, "turn:lanes": null, "busway:right": null }, "geometry": { "type": "Polygon", "coordinates": [ [ [ 432002.649766524264123, 430926.597751433902886 ], [ 432006.078626044094563, 430939.017850075149909 ], [ 432006.134735487401485, 430939.213320640497841 ], [ 432011.192907535471022, 430956.182105695828795 ], [ 432011.210486302268691, 430956.240428201446775 ], [ 432015.922972097760066, 430971.704805064422544 ], [ 432015.957396074256394, 430971.815466161642689 ], [ 432017.08629031147575, 430975.371681660180911 ], [ 432019.247514721588232, 430982.183831203263253 ], [ 432019.257704948598985, 430982.215764881344512 ], [ 432020.811654110206291, 430987.057427502819337 ], [ 432025.865679458715022, 431003.571969586308114 ], [ 432044.990147428121418, 430997.719215970369987 ], [ 432039.916246358421631, 430981.139727945555933 ], [ 432039.875614573713392, 430981.010112026939169 ], [ 432038.306031224841718, 430976.119737734494265 ], [ 432036.149624722078443, 430969.322774169035256 ], [ 432035.037511516304221, 430965.819421419058926 ], [ 432030.350795287988149, 430950.439609330554958 ], [ 432025.330372370954137, 430933.597462294797879 ], [ 432021.9293926282553, 430921.278351247427054 ], [ 432018.983802133996505, 430910.600220938387793 ], [ 431999.703903195157181, 430915.918632064771373 ], [ 432002.649766524264123, 430926.597751433902886 ] ] ] } },
{ "type": "Feature", "properties": { "highway": "primary", "lit": "yes", "maxspeed": "50 mph", "maxspeed:type": null, "name": "Wakefield Road", "source:name": "OS_OpenData_StreetView", "surface": "asphalt", "osm_type": "way", "osm_id": 29359290, "lane_markings": null, "lanes": "3", "source": null, "national_highways:area": null, "oneway": "yes", "operator": null, "operator:wikidata": null, "ref": "A61", "destination:lanes": "A639|Wakefield Road|M621", "source:ref": "OS_OpenData_StreetView", "junction": null, "carriageway_ref": null, "bridge": null, "layer": null, "note": null, "cycleway:left": null, "busway:left": null, "maxheight": null, "lanes:backward": null, "lanes:forward": null, "bus": null, "bus:lanes": null, "turn:lanes:forward": null, "turn:lanes:backward": null, "turn:lanes": null, "busway:right": null }, "geometry": { "type": "Polygon", "coordinates": [ [ [ 432059.606032500683796, 430417.077764248591848 ], [ 432060.126290076470468, 430416.472316854284145 ], [ 432060.596597504860256, 430415.827301028650254 ], [ 432066.723301943566184, 430406.678737981594168 ], [ 432067.29721988691017, 430405.707364354981109 ], [ 432073.282307765330188, 430394.132299447082914 ], [ 432073.372114387108013, 430393.954287249711342 ], [ 432089.573780614358839, 430361.027585767267738 ], [ 432101.732685864903033, 430338.295848321751691 ], [ 432101.915208925376646, 430337.937463974987622 ], [ 432145.883408213499933, 430247.135463774146046 ], [ 432127.882691498845816, 430238.41914587264182 ], [ 432084.002149577892851, 430329.040118321601767 ], [ 432071.858165148238186, 430351.743960477528162 ], [ 432071.703386575332843, 430352.045506567345001 ], [ 432055.470902599394321, 430385.034839065454435 ], [ 432049.791121849382762, 430396.019444835663307 ], [ 432044.424071420973632, 430404.033671686600428 ], [ 432036.19762177427765, 430412.867888062610291 ], [ 432050.834270375198685, 430426.497580565861426 ], [ 432059.606032500683796, 430417.077764248591848 ] ] ] } },
{ "type": "Feature", "properties": { "highway": "primary", "lit": "yes", "maxspeed": "50 mph", "maxspeed:type": null, "name": "Stourton Interchange", "source:name": null, "surface": "asphalt", "osm_type": "way", "osm_id": 57038048, "lane_markings": null, "lanes": "4", "source": null, "national_highways:area": null, "oneway": "yes", "operator": null, "operator:wikidata": null, "ref": "A61", "destination:lanes": null, "source:ref": null, "junction": "circular", "carriageway_ref": null, "bridge": null, "layer": null, "note": null, "cycleway:left": null, "busway:left": null, "maxheight": null, "lanes:backward": null, "lanes:forward": null, "bus": null, "bus:lanes": null, "turn:lanes:forward": null, "turn:lanes:backward": null, "turn:lanes": null, "busway:right": null }, "geometry": { "type": "Polygon", "coordinates": [ [ [ 432048.442861314979382, 430431.559805081749801 ], [ 432049.135254385240842, 430430.940566606353968 ], [ 432051.855741518724244, 430428.311048862989992 ], [ 432035.17615063075209, 430411.054419765481725 ], [ 432032.789867427782156, 430413.360908903297968 ], [ 431980.063699452090077, 430456.963602619303856 ], [ 431995.358504199539311, 430475.458708667603787 ], [ 432048.442861314979382, 430431.559805081749801 ] ] ] } },
{ "type": "Feature", "properties": { "highway": "motorway", "lit": "yes", "maxspeed": "50 mph", "maxspeed:type": null, "name": null, "source:name": null, "surface": "asphalt", "osm_type": "way", "osm_id": 146393607, "lane_markings": null, "lanes": "3", "source": null, "national_highways:area": "12", "oneway": "yes", "operator": "National Highways", "operator:wikidata": "Q5760006", "ref": "M621", "destination:lanes": null, "source:ref": null, "junction": null, "carriageway_ref": "B", "bridge": null, "layer": null, "note": null, "cycleway:left": null, "busway:left": null, "maxheight": null, "lanes:backward": null, "lanes:forward": null, "bus": null, "bus:lanes": null, "turn:lanes:forward": null, "turn:lanes:backward": null, "turn:lanes": null, "busway:right": null }, "geometry": { "type": "Polygon", "coordinates": [ [ [ 432126.412359936337452, 429951.282492718775757 ], [ 432120.610211876395624, 430039.537182259955443 ], [ 432113.316225506830961, 430097.345470800530165 ], [ 432108.118841193092521, 430122.38263870368246 ], [ 432101.404239086492453, 430150.035640816087835 ], [ 432092.04248516674852, 430180.810204423032701 ], [ 432081.309620614629239, 430210.536022173124366 ], [ 432070.602218596846797, 430235.551638665026985 ], [ 432059.3943055353011, 430255.900132128444966 ], [ 432033.261798073595855, 430295.461004855518695 ], [ 432056.624796612828504, 430310.89377191971289 ], [ 432083.067323268041946, 430270.863574544957373 ], [ 432083.648711319605354, 430269.901566968357656 ], [ 432095.462684754282236, 430248.452742384106386 ], [ 432096.070355592179112, 430247.207334814302158 ], [ 432107.210370160173625, 430221.181009130028542 ], [ 432107.507772982935421, 430220.426491667574737 ], [ 432118.500114377005957, 430189.982025016506668 ], [ 432118.726123159343842, 430189.302077002299484 ], [ 432128.308543773833662, 430157.802123549568933 ], [ 432128.519253007252701, 430157.031059662636835 ], [ 432135.383580779889598, 430128.761436625558417 ], [ 432135.486667541321367, 430128.303548146854155 ], [ 432140.844453552563209, 430102.493683057953604 ], [ 432141.026559321209788, 430101.400693196686916 ], [ 432148.442427751026116, 430042.626431736862287 ], [ 432148.522398744593374, 430041.792293578269891 ], [ 432154.364309623138979, 429952.932784033124335 ], [ 432154.383852937375195, 429952.559415586118121 ], [ 432157.902101913758088, 429862.259857217723038 ], [ 432129.923330242803786, 429861.169749064662028 ], [ 432126.412359936337452, 429951.282492718775757 ] ] ] } },
{ "type": "Feature", "properties": { "highway": "motorway", "lit": "yes", "maxspeed": "50 mph", "maxspeed:type": null, "name": null, "source:name": null, "surface": "asphalt", "osm_type": "way", "osm_id": 146394330, "lane_markings": null, "lanes": "3", "source": null, "national_highways:area": "12", "oneway": "yes", "operator": "National Highways", "operator:wikidata": "Q5760006", "ref": "M621", "destination:lanes": null, "source:ref": null, "junction": null, "carriageway_ref": "A", "bridge": "yes", "layer": "1", "note": null, "cycleway:left": null, "busway:left": null, "maxheight": null, "lanes:backward": null, "lanes:forward": null, "bus": null, "bus:lanes": null, "turn:lanes:forward": null, "turn:lanes:backward": null, "turn:lanes": null, "busway:right": null }, "geometry": { "type": "Polygon", "coordinates": [ [ [ 432068.156616323278286, 430321.874531630834099 ], [ 432045.994314124924131, 430304.762186342442874 ], [ 432017.270979892113246, 430341.96195076283766 ], [ 432039.433282090467401, 430359.074296051228885 ], [ 432068.156616323278286, 430321.874531630834099 ] ] ] } },
{ "type": "Feature", "properties": { "highway": "motorway", "lit": "yes", "maxspeed": "70 mph", "maxspeed:type": "GB:motorway", "name": null, "source:name": null, "surface": "asphalt", "osm_type": "way", "osm_id": 146394332, "lane_markings": null, "lanes": "3", "source": null, "national_highways:area": "12", "oneway": "yes", "operator": "National Highways", "operator:wikidata": "Q5760006", "ref": "M621", "destination:lanes": null, "source:ref": null, "junction": null, "carriageway_ref": "A", "bridge": null, "layer": null, "note": null, "cycleway:left": null, "busway:left": null, "maxheight": null, "lanes:backward": null, "lanes:forward": null, "bus": null, "bus:lanes": null, "turn:lanes:forward": null, "turn:lanes:backward": null, "turn:lanes": null, "busway:right": null }, "geometry": { "type": "Polygon", "coordinates": [ [ [ 432120.68769674381474, 430224.463458126876503 ], [ 432120.868125082866754, 430224.004491126397625 ], [ 432132.216417662857566, 430193.573614392778836 ], [ 432132.427778799843509, 430192.964331715891603 ], [ 432141.224022328504361, 430165.58690333616687 ], [ 432141.431072966370266, 430164.878958391607739 ], [ 432151.05406869208673, 430128.439231410971843 ], [ 432151.310744029819034, 430127.265282876498532 ], [ 432155.3591323136352, 430104.005537151300814 ], [ 432155.446513344300911, 430103.433828917739447 ], [ 432163.331295517564286, 430043.594667563738767 ], [ 432163.40800581505755, 430042.865556891949382 ], [ 432170.381552077189554, 429954.370178917655721 ], [ 432173.016384047456086, 429920.953886448172852 ], [ 432173.043384719407186, 429920.529155055468436 ], [ 432176.153791135642678, 429856.162315370340366 ], [ 432148.186425725230947, 429854.810845059750136 ], [ 432145.086291398736648, 429918.965113824349828 ], [ 432142.468162066244986, 429952.169574862113222 ], [ 432135.523344517918304, 430040.300380827568006 ], [ 432127.724250924424268, 430099.489234710927121 ], [ 432123.828581964946352, 430121.871541711909231 ], [ 432114.453335837053601, 430157.37310681847157 ], [ 432105.868607669021003, 430184.09221478929976 ], [ 432094.719185783469584, 430213.989812217187136 ], [ 432085.282366219034884, 430236.806216575787403 ], [ 432111.156620536872651, 430247.507756815175526 ], [ 432120.68769674381474, 430224.463458126876503 ] ] ] } },
{ "type": "Feature", "properties": { "highway": "motorway", "lit": "yes", "maxspeed": "50 mph", "maxspeed:type": null, "name": null, "source:name": null, "surface": "asphalt", "osm_type": "way", "osm_id": 146394334, "lane_markings": null, "lanes": "3", "source": null, "national_highways:area": "12", "oneway": "yes", "operator": "National Highways", "operator:wikidata": "Q5760006", "ref": "M621", "destination:lanes": null, "source:ref": null, "junction": null, "carriageway_ref": "A", "bridge": null, "layer": null, "note": null, "cycleway:left": null, "busway:left": null, "maxheight": null, "lanes:backward": null, "lanes:forward": null, "bus": null, "bus:lanes": null, "turn:lanes:forward": null, "turn:lanes:backward": null, "turn:lanes": null, "busway:right": null }, "geometry": { "type": "Polygon", "coordinates": [ [ [ 431915.133640577143524, 430467.067624948220327 ], [ 431915.664423502283171, 430466.703873017104343 ], [ 431929.985363222600427, 430456.398015685146675 ], [ 431930.151805547182448, 430456.276367784361355 ], [ 431957.691919148084708, 430435.83531269361265 ], [ 431957.784200303198304, 430435.766227965883445 ], [ 431986.042549736157525, 430414.4289872245281 ], [ 431987.085836877289694, 430413.558612703403924 ], [ 432009.147820357116871, 430393.258592129161116 ], [ 432010.156053800717928, 430392.230219565797597 ], [ 432038.839913500647526, 430359.792087933397852 ], [ 432017.864348481933121, 430341.244158880668692 ], [ 431989.658123494475149, 430373.142140831798315 ], [ 431968.627240325906314, 430392.493409107672051 ], [ 431940.95767481951043, 430413.386072418361437 ], [ 431913.546617322659586, 430433.73133840051014 ], [ 431899.570557305589318, 430443.789008037536405 ], [ 431887.512103749613743, 430451.65176098793745 ], [ 431902.805614789191168, 430475.106153328903019 ], [ 431915.133640577143524, 430467.067624948220327 ] ] ] } },
{ "type": "Feature", "properties": { "highway": "motorway", "lit": "yes", "maxspeed": "50 mph", "maxspeed:type": null, "name": null, "source:name": null, "surface": "asphalt", "osm_type": "way", "osm_id": 146394338, "lane_markings": null, "lanes": "3", "source": null, "national_highways:area": "12", "oneway": "yes", "operator": "National Highways", "operator:wikidata": "Q5760006", "ref": "M621", "destination:lanes": null, "source:ref": null, "junction": null, "carriageway_ref": "B", "bridge": null, "layer": null, "note": null, "cycleway:left": null, "busway:left": null, "maxheight": null, "lanes:backward": null, "lanes:forward": null, "bus": null, "bus:lanes": null, "turn:lanes:forward": null, "turn:lanes:backward": null, "turn:lanes": null, "busway:right": null }, "geometry": { "type": "Polygon", "coordinates": [ [ [ 431979.449079818208702, 430363.517619480378926 ], [ 431957.951046552276239, 430382.181005567486864 ], [ 431927.497534834081307, 430406.317544870136771 ], [ 431909.931364493619185, 430418.220593493257184 ], [ 431891.491058074287139, 430430.502609492454212 ], [ 431885.141650575620588, 430433.89703291276237 ], [ 431898.342557132651564, 430458.589867218921427 ], [ 431905.288904653803911, 430454.876316826033872 ], [ 431906.449213202577084, 430454.18196283193538 ], [ 431925.499333647079766, 430441.493785164726432 ], [ 431925.591976567346137, 430441.431546589010395 ], [ 431943.637147442612331, 430429.203921433538198 ], [ 431944.479675166716333, 430428.585913402144797 ], [ 431975.588390193064697, 430403.930079623823985 ], [ 431976.070400344498921, 430403.530177241424099 ], [ 431998.654997003264725, 430383.923497790819965 ], [ 431999.472770238120575, 430383.153913165268023 ], [ 432000.226233609544579, 430382.32126287400024 ], [ 432028.032820791238919, 430348.998110400571022 ], [ 432006.534462332492694, 430331.058751895267051 ], [ 431979.449079818208702, 430363.517619480378926 ] ] ] } },
{ "type": "Feature", "properties": { "highway": "motorway", "lit": "yes", "maxspeed": "50 mph", "maxspeed:type": null, "name": null, "source:name": null, "surface": "asphalt", "osm_type": "way", "osm_id": 146394343, "lane_markings": null, "lanes": "3", "source": null, "national_highways:area": "12", "oneway": "yes", "operator": "National Highways", "operator:wikidata": "Q5760006", "ref": "M621", "destination:lanes": null, "source:ref": null, "junction": null, "carriageway_ref": "B", "bridge": "yes", "layer": "1", "note": null, "cycleway:left": null, "busway:left": null, "maxheight": null, "lanes:backward": null, "lanes:forward": null, "bus": null, "bus:lanes": null, "turn:lanes:forward": null, "turn:lanes:backward": null, "turn:lanes": null, "busway:right": null }, "geometry": { "type": "Polygon", "coordinates": [ [ [ 432006.086759560508654, 430331.6242754230625 ], [ 432028.48052356322296, 430348.432586872775573 ], [ 432056.140179344569333, 430311.581544112472329 ], [ 432033.746415341855027, 430294.773232662759256 ], [ 432006.086759560508654, 430331.6242754230625 ] ] ] } },
{ "type": "Feature", "properties": { "highway": "secondary", "lit": "yes", "maxspeed": "40 mph", "maxspeed:type": "sign", "name": "Pontefract Road", "source:name": "OS_OpenData_StreetView", "surface": "asphalt", "osm_type": "way", "osm_id": 151467618, "lane_markings": null, "lanes": "2", "source": null, "national_highways:area": null, "oneway": null, "operator": null, "operator:wikidata": null, "ref": "B6481", "destination:lanes": null, "source:ref": "OS_OpenData_StreetView", "junction": null, "carriageway_ref": null, "bridge": null, "layer": null, "note": "license remap", "cycleway:left": null, "busway:left": null, "maxheight": null, "lanes:backward": null, "lanes:forward": null, "bus": null, "bus:lanes": null, "turn:lanes:forward": null, "turn:lanes:backward": null, "turn:lanes": null, "busway:right": null }, "geometry": { "type": "Polygon", "coordinates": [ [ [ 432700.310851708753034, 430429.656387198192533 ], [ 432699.892316575394943, 430430.128281208511908 ], [ 432691.748393841146026, 430440.074194966524374 ], [ 432691.56222997844452, 430440.310477733553853 ], [ 432679.474918930209242, 430456.259868414024822 ], [ 432659.638014465279412, 430480.293015091563575 ], [ 432659.533403760637157, 430480.422474836290348 ], [ 432654.30447503272444, 430487.032978092436679 ], [ 432644.984756463847589, 430498.26722856273409 ], [ 432644.958729590056464, 430498.298765756946523 ], [ 432625.122047659766395, 430522.460719633381814 ], [ 432608.962040315382183, 430542.141727817244828 ], [ 432583.383309282653499, 430573.285971889737993 ], [ 432559.250214842788409, 430600.837858472659718 ], [ 432549.550600576214492, 430611.907582713174634 ], [ 432537.742983328877017, 430625.390452228661161 ], [ 432536.530642267665826, 430626.776465678529348 ], [ 432535.44943916174816, 430628.013102701632306 ], [ 432527.021353960677516, 430637.631317541352473 ], [ 432539.055046338180546, 430648.175996188190766 ], [ 432547.486048075952567, 430638.554452967713587 ], [ 432547.49187746969983, 430638.547792976372875 ], [ 432548.574265144532546, 430637.309800799295772 ], [ 432549.781311733473558, 430635.929838118085172 ], [ 432561.585210141085554, 430622.451214620610699 ], [ 432571.28457856667228, 430611.381770947133191 ], [ 432595.502777489542495, 430583.732723827066366 ], [ 432595.667095236422028, 430583.539007454761304 ], [ 432621.326754126988817, 430552.296226947684772 ], [ 432637.48784517950844, 430532.613899025542196 ], [ 432657.312046401901171, 430508.467147228249814 ], [ 432666.678191156184766, 430497.176933330367319 ], [ 432666.795465250557754, 430497.032170157355722 ], [ 432672.030556200188585, 430490.413876512669958 ], [ 432691.920237862330396, 430466.316788300056942 ], [ 432692.126339263923001, 430466.056253689050209 ], [ 432704.223135356034618, 430450.09434734901879 ], [ 432712.071795896452386, 430440.50902791536646 ], [ 432722.251081540307496, 430429.905278471240308 ], [ 432710.708713746804278, 430418.824946990760509 ], [ 432700.310851708753034, 430429.656387198192533 ] ] ] } },
{ "type": "Feature", "properties": { "highway": "secondary", "lit": "yes", "maxspeed": "40 mph", "maxspeed:type": "sign", "name": "Pontefract Road", "source:name": null, "surface": "asphalt", "osm_type": "way", "osm_id": 151468332, "lane_markings": null, "lanes": "1", "source": null, "national_highways:area": null, "oneway": "yes", "operator": null, "operator:wikidata": null, "ref": "B6481", "destination:lanes": null, "source:ref": null, "junction": null, "carriageway_ref": null, "bridge": null, "layer": null, "note": null, "cycleway:left": "no", "busway:left": null, "maxheight": null, "lanes:backward": null, "lanes:forward": null, "bus": null, "bus:lanes": null, "turn:lanes:forward": null, "turn:lanes:backward": null, "turn:lanes": null, "busway:right": null }, "geometry": { "type": "Polygon", "coordinates": [ [ [ 432734.388583395048045, 430423.22642934974283 ], [ 432744.273378746875096, 430420.088713598495815 ], [ 432753.84220148489112, 430419.837013236421626 ], [ 432753.421479585173074, 430403.84254565910669 ], [ 432742.721305987099186, 430404.124005316465627 ], [ 432741.97406229225453, 430404.178758803347591 ], [ 432741.235218152985908, 430404.303179146081675 ], [ 432740.511254283890594, 430404.496175001200754 ], [ 432728.712516045256052, 430408.241430770081934 ], [ 432727.89663194026798, 430408.550322152324952 ], [ 432727.119233510165941, 430408.946216632728465 ], [ 432712.466202455398161, 430417.444834489724599 ], [ 432720.493592831713613, 430431.285390972276218 ], [ 432734.388583395048045, 430423.22642934974283 ] ] ] } },
{ "type": "Feature", "properties": { "highway": "unclassified", "lit": "yes", "maxspeed": "40 mph", "maxspeed:type": "sign", "name": "Intermezzo Drive", "source:name": "OS_OpenData_Locator", "surface": "asphalt", "osm_type": "way", "osm_id": 151468337, "lane_markings": null, "lanes": null, "source": "OS_OpenData_StreetView;Bing", "national_highways:area": null, "oneway": null, "operator": null, "operator:wikidata": null, "ref": null, "destination:lanes": null, "source:ref": null, "junction": null, "carriageway_ref": null, "bridge": null, "layer": null, "note": null, "cycleway:left": null, "busway:left": null, "maxheight": null, "lanes:backward": null, "lanes:forward": null, "bus": null, "bus:lanes": null, "turn:lanes:forward": null, "turn:lanes:backward": null, "turn:lanes": null, "busway:right": null }, "geometry": { "type": "Polygon", "coordinates": [ [ [ 432767.881349948525894, 430441.179499204794411 ], [ 432766.704318782838527, 430447.742842157487758 ], [ 432762.753579435171559, 430459.941724577860441 ], [ 432762.659235749044456, 430460.271143497142475 ], [ 432761.106389482214581, 430466.491077394981403 ], [ 432761.029061910696328, 430466.859240736521315 ], [ 432760.979633956158068, 430467.232175954384729 ], [ 432760.431605701334774, 430473.036316176177934 ], [ 432760.409543387999292, 430473.478450623631943 ], [ 432760.426674388640095, 430473.920803586952388 ], [ 432761.059164098754991, 430481.524521759245545 ], [ 432761.118765596591402, 430481.983086994325276 ], [ 432761.220476990449242, 430482.434184772719163 ], [ 432763.283953118603677, 430489.947746428137179 ], [ 432763.379343272885308, 430490.255810690810904 ], [ 432770.628592878812924, 430511.246197483153082 ], [ 432770.709139506216161, 430511.463031902094372 ], [ 432777.374925043899566, 430528.210214524762705 ], [ 432777.581801843596622, 430528.662969890458044 ], [ 432777.832672102318611, 430529.092911217478104 ], [ 432780.552220302284695, 430533.262023036950268 ], [ 432780.801608409208711, 430533.61070260591805 ], [ 432781.079947248799726, 430533.936738432268612 ], [ 432781.385190787143074, 430534.237733867426869 ], [ 432784.706089328799862, 430537.242775758553762 ], [ 432785.173193847818766, 430537.617127919045743 ], [ 432785.681688186596148, 430537.932975476025604 ], [ 432790.265216379950289, 430540.412767322035506 ], [ 432790.873337428958621, 430540.690930683747865 ], [ 432796.619074446323793, 430542.867302456172183 ], [ 432797.083847686473746, 430543.017827393719926 ], [ 432811.261623247119132, 430546.855288048973307 ], [ 432813.874285100551788, 430537.202620125608519 ], [ 432799.932577433180995, 430533.42905533668818 ], [ 432794.728927819174714, 430531.458015572919976 ], [ 432790.969477248028852, 430529.424068255815655 ], [ 432788.574433003668673, 430527.25682098971447 ], [ 432786.481237759930082, 430524.047918484779075 ], [ 432780.043004537932575, 430507.87244045198895 ], [ 432772.884184879309032, 430487.143895874323789 ], [ 432770.986290561791975, 430480.23325330595253 ], [ 432770.429061736096628, 430473.534312784788199 ], [ 432770.899915362126194, 430468.547525250876788 ], [ 432772.319920100155286, 430462.859688795928378 ], [ 432776.322567084454931, 430450.500528741336893 ], [ 432776.487293306039646, 430449.84259099123301 ], [ 432777.776663055992685, 430442.652827365382109 ], [ 432777.846481061598752, 430442.064981707837433 ], [ 432778.160412120050751, 430436.748769520316273 ], [ 432768.1778021347709, 430436.159280010033399 ], [ 432767.881349948525894, 430441.179499204794411 ] ] ] } },
{ "type": "Feature", "properties": { "highway": "secondary", "lit": "yes", "maxspeed": "40 mph", "maxspeed:type": "sign", "name": "Pontefract Road", "source:name": null, "surface": "asphalt", "osm_type": "way", "osm_id": 151468338, "lane_markings": null, "lanes": "1", "source": null, "national_highways:area": null, "oneway": "yes", "operator": null, "operator:wikidata": null, "ref": "B6481", "destination:lanes": null, "source:ref": null, "junction": null, "carriageway_ref": null, "bridge": null, "layer": null, "note": null, "cycleway:left": null, "busway:left": null, "maxheight": null, "lanes:backward": null, "lanes:forward": null, "bus": null, "bus:lanes": null, "turn:lanes:forward": null, "turn:lanes:backward": null, "turn:lanes": null, "busway:right": null }, "geometry": { "type": "Polygon", "coordinates": [ [ [ 432776.775532842439134, 430363.450789882685058 ], [ 432773.454315527982544, 430366.124460673658177 ], [ 432769.156774800561834, 430368.359333011088893 ], [ 432760.41387672489509, 430372.017270701646339 ], [ 432766.589385205996223, 430386.777456845447887 ], [ 432775.639800213684794, 430382.990857266529929 ], [ 432776.243064376118127, 430382.708396415924653 ], [ 432781.542225400800817, 430379.952646293560974 ], [ 432782.22651432006387, 430379.55252747918712 ], [ 432782.867846855486277, 430379.086653065227438 ], [ 432787.567750499874819, 430375.303102064237464 ], [ 432788.284326608059928, 430374.650910596712492 ], [ 432788.916800466540735, 430373.916872554516885 ], [ 432795.243503652396612, 430365.605123004585039 ], [ 432782.512124003726058, 430355.914304038102273 ], [ 432776.775532842439134, 430363.450789882685058 ] ] ] } },
{ "type": "Feature", "properties": { "highway": "secondary", "lit": "yes", "maxspeed": null, "maxspeed:type": null, "name": "Pontefract Road", "source:name": "OS_OpenData_StreetView", "surface": "asphalt", "osm_type": "way", "osm_id": 151468343, "lane_markings": null, "lanes": "2", "source": null, "national_highways:area": null, "oneway": null, "operator": null, "operator:wikidata": null, "ref": "B6481", "destination:lanes": null, "source:ref": "OS_OpenData_StreetView", "junction": null, "carriageway_ref": null, "bridge": null, "layer": null, "note": "license remap", "cycleway:left": null, "busway:left": null, "maxheight": null, "lanes:backward": null, "lanes:forward": null, "bus": null, "bus:lanes": null, "turn:lanes:forward": null, "turn:lanes:backward": null, "turn:lanes": null, "busway:right": null }, "geometry": { "type": "Polygon", "coordinates": [ [ [ 433498.748595405253582, 429840.460152770392597 ], [ 433498.699175162648316, 429840.491685984539799 ], [ 433438.939456425490789, 429878.930958643264603 ], [ 433402.466066325840075, 429901.625985549588222 ], [ 433392.615427379612811, 429907.751880676485598 ], [ 433315.259554627293255, 429955.811735193245113 ], [ 433215.186782174336258, 430017.9103156447527 ], [ 433163.525584280956537, 430049.966603375331033 ], [ 433083.211387412855402, 430098.600592250993941 ], [ 433082.927510459092446, 430098.780752623919398 ], [ 433045.633252896775957, 430123.563721959595568 ], [ 433045.289605089696124, 430123.805326872097794 ], [ 433000.135820450261235, 430157.356581226864364 ], [ 432999.872024081938434, 430157.561274564883206 ], [ 432939.416397499095183, 430206.526919866504613 ], [ 432939.268182193627581, 430206.649950144870672 ], [ 432916.38309063721681, 430226.116447160427924 ], [ 432926.749845363257919, 430238.303751885017846 ], [ 432949.561569902522024, 430218.899662258860189 ], [ 433009.812586313171778, 430170.099739648110699 ], [ 433054.663685322506353, 430136.773394072253723 ], [ 433091.642901086888742, 430112.199777911242563 ], [ 433171.850479842454661, 430063.630351271189284 ], [ 433171.924659969925415, 430063.584878605382983 ], [ 433223.62288347777212, 430031.50561611232115 ], [ 433323.697670672554523, 429969.405785445938818 ], [ 433401.060508469701745, 429921.341605042049196 ], [ 433410.916399064066354, 429915.212444899778347 ], [ 433447.443333693314344, 429892.484101015317719 ], [ 433447.544693062314764, 429892.419972660951316 ], [ 433507.330198759445921, 429853.964113043562975 ], [ 433509.113326681370381, 429852.835537403938361 ], [ 433500.556491219846066, 429839.31590105954092 ], [ 433498.748595405253582, 429840.460152770392597 ] ] ] } },
{ "type": "Feature", "properties": { "highway": "secondary", "lit": "yes", "maxspeed": "40 mph", "maxspeed:type": "sign", "name": null, "source:name": null, "surface": "asphalt", "osm_type": "way", "osm_id": 151468344, "lane_markings": null, "lanes": "1", "source": null, "national_highways:area": null, "oneway": null, "operator": null, "operator:wikidata": null, "ref": "B6481", "destination:lanes": null, "source:ref": "OS_OpenData_StreetView", "junction": "roundabout", "carriageway_ref": null, "bridge": null, "layer": null, "note": null, "cycleway:left": null, "busway:left": null, "maxheight": null, "lanes:backward": null, "lanes:forward": null, "bus": null, "bus:lanes": null, "turn:lanes:forward": null, "turn:lanes:backward": null, "turn:lanes": null, "busway:right": null }, "geometry": { "type": "Polygon", "coordinates": [ [ [ 432763.96729314501863, 430421.868788910564035 ], [ 432764.765091240114998, 430421.849938900384586 ], [ 432765.557042061118409, 430421.751699292915873 ], [ 432766.335265238012653, 430421.575047629186884 ], [ 432771.334893478895538, 430420.174615548807196 ], [ 432772.091195841203444, 430419.921485406928696 ], [ 432772.818536154634785, 430419.594309306936339 ], [ 432773.509685700526461, 430419.196338909503538 ], [ 432777.866556370689068, 430416.389506554754917 ], [ 432778.514832672779448, 430415.924548687180504 ], [ 432779.113576674717478, 430415.397335634799674 ], [ 432779.656834167020861, 430414.813110267743468 ], [ 432782.98686837014975, 430410.853102685301565 ], [ 432783.484985914081335, 430410.194539813499432 ], [ 432783.912566486920696, 430409.488139786990359 ], [ 432784.265054844727274, 430408.741428262146655 ], [ 432786.363921327807475, 430403.626817677461077 ], [ 432786.654270609957166, 430402.79016575863352 ], [ 432786.850365356018301, 430401.926547793613281 ], [ 432786.949802519520745, 430401.046547004196327 ], [ 432787.287630521284882, 430395.140804914582986 ], [ 432787.297354925947729, 430394.453040360473096 ], [ 432787.247964634618256, 430393.766982604051009 ], [ 432787.139824760844931, 430393.087703270022757 ], [ 432786.97373471967876, 430392.420223873923533 ], [ 432785.299497017636895, 430386.745224109617993 ], [ 432784.990558478748426, 430385.883241423405707 ], [ 432784.585143535863608, 430385.062207991606556 ], [ 432784.088563486875501, 430384.29288008552976 ], [ 432780.595414393814281, 430379.506427708198316 ], [ 432780.014758272329345, 430378.799516858533025 ], [ 432779.35719432780752, 430378.16351832106011 ], [ 432778.631321076711174, 430377.606748616322875 ], [ 432773.737146036233753, 430374.279206862673163 ], [ 432772.955886883777566, 430373.810745868133381 ], [ 432772.126436344929971, 430373.434138154203538 ], [ 432771.259549043723382, 430373.154266802128404 ], [ 432765.522054483182728, 430371.656699150335044 ], [ 432764.758680054394063, 430371.49674179876456 ], [ 432763.983357239048928, 430371.411880707542878 ], [ 432763.203455563692842, 430371.402922490378842 ], [ 432758.930939767276868, 430371.562278106226586 ], [ 432758.269793445128016, 430371.61444629979087 ], [ 432757.615240001236089, 430371.721197266248055 ], [ 432756.971777813043445, 430371.881797366251703 ], [ 432752.869937640905846, 430373.088224874052685 ], [ 432751.956572760769632, 430373.418308755382895 ], [ 432751.089935647672974, 430373.856636129843537 ], [ 432747.403351603716146, 430376.011702751216944 ], [ 432746.841060647042468, 430376.372726443572901 ], [ 432746.310859961726237, 430376.779416079225484 ], [ 432745.816448602476157, 430377.228934303857386 ], [ 432742.776517314196099, 430380.234114687656984 ], [ 432742.258241538133007, 430380.798018690256868 ], [ 432741.796265540237073, 430381.408899760164786 ], [ 432740.411074815376196, 430383.435369108745363 ], [ 432739.934849816549104, 430384.226502309844363 ], [ 432739.552962344023399, 430385.067242430115584 ], [ 432737.572691961075179, 430390.193819853768218 ], [ 432737.309243638534099, 430391.000850301003084 ], [ 432737.13279831915861, 430391.831253944255877 ], [ 432737.045342951430939, 430392.675679618958384 ], [ 432736.769749106490053, 430398.170182028901763 ], [ 432736.772614069690462, 430399.025237122492399 ], [ 432736.866722485690843, 430399.875102421850897 ], [ 432737.050999272672925, 430400.710069179767743 ], [ 432738.523501202231273, 430406.016480830381624 ], [ 432738.794144549814519, 430406.82272946863668 ], [ 432739.148847841483075, 430407.595691474969499 ], [ 432739.583602460683323, 430408.326631355797872 ], [ 432742.643211743386928, 430412.898639977211133 ], [ 432743.151044314261526, 430413.576830961043015 ], [ 432743.727753020182718, 430414.197511232225224 ], [ 432744.366869379824493, 430414.753719115513377 ], [ 432748.706893990689423, 430418.144135206704959 ], [ 432749.278920209733769, 430418.551864417560864 ], [ 432749.884508607850876, 430418.907841659383848 ], [ 432750.331088671053294, 430419.1446086372016 ], [ 432750.914751585805789, 430419.424416755151469 ], [ 432751.519124420767184, 430419.656124453176744 ], [ 432756.43150483968202, 430421.314823180553503 ], [ 432757.199329686700366, 430421.532079797354527 ], [ 432757.984978425956797, 430421.671763338847086 ], [ 432758.780634399619885, 430421.732484051026404 ], [ 432763.96729314501863, 430421.868788910564035 ] ], [ [ 432757.676443527801894, 430404.847701564955059 ], [ 432755.227262973145116, 430402.934407999331597 ], [ 432753.596717840759084, 430400.497866037825588 ], [ 432752.81449946842622, 430397.679008825623896 ], [ 432752.960887313180137, 430394.760480780270882 ], [ 432754.143773151852656, 430391.698193989752326 ], [ 432754.571557279268745, 430391.072365786822047 ], [ 432756.348159343586303, 430389.316072908055503 ], [ 432758.321514555602334, 430388.162508551788051 ], [ 432760.52684651321033, 430387.51387939369306 ], [ 432762.62180966156302, 430387.435741790803149 ], [ 432765.882833556795958, 430388.286915390344802 ], [ 432768.488601261633448, 430390.058572669920977 ], [ 432770.346137456130236, 430392.603842939599417 ], [ 432771.234371359343641, 430395.61460251401877 ], [ 432771.052526066487189, 430398.793532010691706 ], [ 432769.937162067857571, 430401.511500285065267 ], [ 432768.187383590091486, 430403.592300546297338 ], [ 432765.85816024360247, 430405.09285907674348 ], [ 432763.181489424954634, 430405.842613959044684 ], [ 432760.407025995955337, 430405.769701344834175 ], [ 432757.676443527801894, 430404.847701564955059 ] ] ] } },
{ "type": "Feature", "properties": { "highway": "secondary", "lit": "yes", "maxspeed": "40 mph", "maxspeed:type": "sign", "name": "Pontefract Road", "source:name": null, "surface": "asphalt", "osm_type": "way", "osm_id": 151468346, "lane_markings": null, "lanes": "1", "source": null, "national_highways:area": null, "oneway": "yes", "operator": null, "operator:wikidata": null, "ref": "B6481", "destination:lanes": null, "source:ref": null, "junction": null, "carriageway_ref": null, "bridge": null, "layer": null, "note": null, "cycleway:left": "no", "busway:left": null, "maxheight": null, "lanes:backward": null, "lanes:forward": null, "bus": null, "bus:lanes": null, "turn:lanes:forward": null, "turn:lanes:backward": null, "turn:lanes": null, "busway:right": null }, "geometry": { "type": "Polygon", "coordinates": [ [ [ 432710.349855526699685, 430419.224822501302697 ], [ 432722.60993976041209, 430429.50540296069812 ], [ 432753.145611056650523, 430393.090153480647132 ], [ 432740.885526822938118, 430382.809573021251708 ], [ 432710.349855526699685, 430419.224822501302697 ] ] ] } },
{ "type": "Feature", "properties": { "highway": "secondary", "lit": "yes", "maxspeed": "40 mph", "maxspeed:type": "sign", "name": "Pontefract Road", "source:name": null, "surface": "asphalt", "osm_type": "way", "osm_id": 151468347, "lane_markings": null, "lanes": "1", "source": null, "national_highways:area": null, "oneway": "yes", "operator": null, "operator:wikidata": null, "ref": "B6481", "destination:lanes": null, "source:ref": null, "junction": null, "carriageway_ref": null, "bridge": null, "layer": null, "note": null, "cycleway:left": null, "busway:left": null, "maxheight": null, "lanes:backward": null, "lanes:forward": null, "bus": null, "bus:lanes": null, "turn:lanes:forward": null, "turn:lanes:backward": null, "turn:lanes": null, "busway:right": null }, "geometry": { "type": "Polygon", "coordinates": [ [ [ 432790.698853612411767, 430388.124385161849204 ], [ 432790.738010360859334, 430387.976914731552824 ], [ 432794.268763463653158, 430374.149230056675151 ], [ 432794.351597022614442, 430373.79059932573 ], [ 432796.711951392295305, 430362.380296325485688 ], [ 432781.043676263827365, 430359.139130717201624 ], [ 432778.720612514996901, 430370.369165327108931 ], [ 432775.25427753321128, 430383.944565733138006 ], [ 432771.250712102977559, 430398.462983444856945 ], [ 432786.675006616627797, 430402.716351375624072 ], [ 432790.698853612411767, 430388.124385161849204 ] ] ] } },
{ "type": "Feature", "properties": { "highway": "unclassified", "lit": null, "maxspeed": null, "maxspeed:type": null, "name": "Intermezzo Drive", "source:name": "OS_OpenData_Locator", "surface": "asphalt", "osm_type": "way", "osm_id": 151468348, "lane_markings": null, "lanes": null, "source": "OS_OpenData_StreetView;Bing", "national_highways:area": null, "oneway": null, "operator": null, "operator:wikidata": null, "ref": null, "destination:lanes": null, "source:ref": null, "junction": null, "carriageway_ref": null, "bridge": null, "layer": null, "note": null, "cycleway:left": null, "busway:left": null, "maxheight": null, "lanes:backward": null, "lanes:forward": null, "bus": null, "bus:lanes": null, "turn:lanes:forward": null, "turn:lanes:backward": null, "turn:lanes": null, "busway:right": null }, "geometry": { "type": "Polygon", "coordinates": [ [ [ 432957.91301524679875, 430371.830567299737595 ], [ 432943.884810930467211, 430374.903040627890732 ], [ 432943.433096719556488, 430375.0243708336493 ], [ 432900.147594104346354, 430388.851526227779686 ], [ 432837.042709962639492, 430409.016194966621697 ], [ 432836.629431479785126, 430409.168624786427245 ], [ 432823.618952829972841, 430414.629760519950651 ], [ 432823.16158437350532, 430414.849672035488766 ], [ 432822.728863649943378, 430415.114813045074698 ], [ 432818.057244882860687, 430418.314257384743541 ], [ 432811.353287376405206, 430422.790455743321218 ], [ 432810.972600500739645, 430423.071566120022908 ], [ 432810.620194787392393, 430423.387407463800628 ], [ 432810.299227024021093, 430423.735150524240453 ], [ 432810.012572382460348, 430424.111680280941073 ], [ 432803.053823178051971, 430434.21032722532982 ], [ 432802.791923301178031, 430434.634145414514933 ], [ 432802.573501231498085, 430435.081923487305176 ], [ 432802.40072558040265, 430435.549215662875213 ], [ 432802.27531175717013, 430436.031382414046675 ], [ 432802.19850493746344, 430436.52363653073553 ], [ 432800.956013208022341, 430448.320033736876212 ], [ 432800.929430034884717, 430448.939854477066547 ], [ 432801.064807880378794, 430455.983788983547129 ], [ 432801.162018184782937, 430460.948629185790196 ], [ 432801.188492500630673, 430461.37379008566495 ], [ 432801.251060233742464, 430461.79515448724851 ], [ 432801.349267235840671, 430462.209663914050907 ], [ 432804.784220202476718, 430474.372515689698048 ], [ 432804.828972118266392, 430474.522017452400178 ], [ 432815.600029082095716, 430508.561726858140901 ], [ 432815.826284755836241, 430513.681212573952507 ], [ 432814.926483169023413, 430518.982281419448555 ], [ 432812.976903842121828, 430526.53748309443472 ], [ 432807.879575315513648, 430540.291397273540497 ], [ 432817.256333032157272, 430543.766510901041329 ], [ 432822.442684952693526, 430529.772388519952074 ], [ 432822.5957159899408, 430529.284131599357352 ], [ 432824.662053815089166, 430521.276455901213922 ], [ 432824.750135041133035, 430520.863886120961979 ], [ 432825.774422436428722, 430514.829424657975323 ], [ 432825.835328907356597, 430514.302423245913815 ], [ 432825.840055461099837, 430513.771935030934401 ], [ 432825.561158568307292, 430507.461336781037971 ], [ 432825.522802592720836, 430507.026009942637756 ], [ 432825.446580747375265, 430506.595695095893461 ], [ 432825.33307530824095, 430506.173679512809031 ], [ 432814.386596523807384, 430471.579585535742808 ], [ 432811.147520856698975, 430460.110317219106946 ], [ 432811.062944206001703, 430455.79073244339088 ], [ 432810.933555750409141, 430449.058435856481083 ], [ 432812.010200269287452, 430438.836616190616041 ], [ 432817.703177724324632, 430430.574877235572785 ], [ 432823.634666737285443, 430426.614452164503746 ], [ 432823.683474306308199, 430426.581446169235278 ], [ 432827.959066572657321, 430423.653227888280526 ], [ 432840.29651032370748, 430418.474597897613421 ], [ 432903.190737668075599, 430398.377242857241072 ], [ 432946.253005002101418, 430384.621397918905132 ], [ 432960.053178537636995, 430381.598868152766954 ], [ 432970.181739319756161, 430379.377600190695375 ], [ 432968.039575026661623, 430369.609737981343642 ], [ 432957.91301524679875, 430371.830567299737595 ] ] ] } },
{ "type": "Feature", "properties": { "highway": "unclassified", "lit": "yes", "maxspeed": null, "maxspeed:type": null, "name": "Ida Street", "source:name": "OS_OpenData_Locator", "surface": "asphalt", "osm_type": "way", "osm_id": 183494662, "lane_markings": "no", "lanes": null, "source": null, "national_highways:area": null, "oneway": null, "operator": null, "operator:wikidata": null, "ref": null, "destination:lanes": null, "source:ref": null, "junction": null, "carriageway_ref": null, "bridge": null, "layer": null, "note": null, "cycleway:left": null, "busway:left": null, "maxheight": null, "lanes:backward": null, "lanes:forward": null, "bus": null, "bus:lanes": null, "turn:lanes:forward": null, "turn:lanes:backward": null, "turn:lanes": null, "busway:right": null }, "geometry": { "type": "Polygon", "coordinates": [ [ [ 432386.099820300994907, 430817.963610414881259 ], [ 432404.685769123956561, 430835.655310082482174 ], [ 432425.128185460576788, 430855.12250435014721 ], [ 432432.024407701566815, 430847.880811260663904 ], [ 432411.581603405065835, 430828.413247541058809 ], [ 432392.977807935560122, 430810.70455974660581 ], [ 432392.944296386849601, 430810.672953543602489 ], [ 432381.333142898452934, 430799.822596329730004 ], [ 432374.505495387886185, 430807.128979119472206 ], [ 432386.099820300994907, 430817.963610414881259 ] ] ] } },
{ "type": "Feature", "properties": { "highway": "unclassified", "lit": null, "maxspeed": null, "maxspeed:type": null, "name": "Nijinsky Way", "source:name": null, "surface": "asphalt", "osm_type": "way", "osm_id": 183494672, "lane_markings": null, "lanes": null, "source": null, "national_highways:area": null, "oneway": null, "operator": null, "operator:wikidata": null, "ref": null, "destination:lanes": null, "source:ref": null, "junction": null, "carriageway_ref": null, "bridge": null, "layer": null, "note": null, "cycleway:left": null, "busway:left": null, "maxheight": null, "lanes:backward": null, "lanes:forward": null, "bus": null, "bus:lanes": null, "turn:lanes:forward": null, "turn:lanes:backward": null, "turn:lanes": null, "busway:right": null }, "geometry": { "type": "Polygon", "coordinates": [ [ [ 432674.718797556124628, 430497.959743241721299 ], [ 432675.106582834327128, 430498.212457519141026 ], [ 432675.516075846739113, 430498.428229159559123 ], [ 432675.943767370423302, 430498.605209069675766 ], [ 432679.908504262624774, 430500.034708986408077 ], [ 432680.426225683302619, 430500.190309027035255 ], [ 432680.957719886733685, 430500.289105554344133 ], [ 432681.496773772756569, 430500.329943649412598 ], [ 432686.077186199487187, 430500.428566787333693 ], [ 432686.640937041549478, 430500.408877544105053 ], [ 432687.198882361000869, 430500.325813118950464 ], [ 432687.743920570064802, 430500.180430764739867 ], [ 432736.698234083829448, 430484.114446048508398 ], [ 432751.788575342507102, 430479.718982333841268 ], [ 432758.74430550908437, 430478.638377181254327 ], [ 432765.507781469088513, 430478.505360167357139 ], [ 432765.311149888846558, 430468.507293553208001 ], [ 432758.211086159280967, 430468.646930225426331 ], [ 432757.54183601384284, 430468.705230536812451 ], [ 432749.933549595763907, 430469.887213349400554 ], [ 432749.302841209573671, 430470.027443358849268 ], [ 432733.820852427743375, 430474.536984843376558 ], [ 432733.660024918906856, 430474.586782462836709 ], [ 432685.437874039518647, 430490.412483681051526 ], [ 432682.530338241776917, 430490.349880081776064 ], [ 432679.993177293683402, 430489.435097723500803 ], [ 432668.728667820920236, 430481.327397767046932 ], [ 432662.886924092075787, 430489.443679563875776 ], [ 432674.718797556124628, 430497.959743241721299 ] ] ] } },
{ "type": "Feature", "properties": { "highway": "primary", "lit": "yes", "maxspeed": "70 mph", "maxspeed:type": null, "name": "Wakefield Road", "source:name": "OS_OpenData_StreetView", "surface": "asphalt", "osm_type": "way", "osm_id": 197207318, "lane_markings": null, "lanes": "2", "source": null, "national_highways:area": null, "oneway": "yes", "operator": null, "operator:wikidata": null, "ref": "A61", "destination:lanes": null, "source:ref": "OS_OpenData_StreetView", "junction": null, "carriageway_ref": null, "bridge": null, "layer": null, "note": null, "cycleway:left": "share_busway", "busway:left": "lane", "maxheight": null, "lanes:backward": null, "lanes:forward": null, "bus": null, "bus:lanes": null, "turn:lanes:forward": null, "turn:lanes:backward": null, "turn:lanes": null, "busway:right": null }, "geometry": { "type": "Polygon", "coordinates": [ [ [ 432300.17711206106469, 429989.183444842346944 ], [ 432445.276969155587722, 429801.668810930743348 ], [ 432429.459524424921256, 429789.429185029875953 ], [ 432284.162938946741633, 429977.198053863423411 ], [ 432283.786216818727553, 429977.718633871059865 ], [ 432232.885093944671098, 430053.039384504314512 ], [ 432249.455982931365725, 430064.237850389908999 ], [ 432300.17711206106469, 429989.183444842346944 ] ] ] } },
{ "type": "Feature", "properties": { "highway": "primary", "lit": "yes", "maxspeed": "50 mph", "maxspeed:type": null, "name": "Wakefield Road", "source:name": "OS_OpenData_StreetView", "surface": "asphalt", "osm_type": "way", "osm_id": 648548322, "lane_markings": null, "lanes": "2", "source": null, "national_highways:area": null, "oneway": "yes", "operator": null, "operator:wikidata": null, "ref": "A61", "destination:lanes": null, "source:ref": "OS_OpenData_StreetView", "junction": null, "carriageway_ref": null, "bridge": null, "layer": null, "note": null, "cycleway:left": null, "busway:left": null, "maxheight": null, "lanes:backward": null, "lanes:forward": null, "bus": null, "bus:lanes": null, "turn:lanes:forward": null, "turn:lanes:backward": null, "turn:lanes": null, "busway:right": null }, "geometry": { "type": "Polygon", "coordinates": [ [ [ 432249.959642852365505, 430063.408485746535007 ], [ 432232.381434023671318, 430053.868749147688504 ], [ 432198.511889887740836, 430116.277801387768704 ], [ 432216.090098716435023, 430125.817537986615207 ], [ 432249.959642852365505, 430063.408485746535007 ] ] ] } },
{ "type": "Feature", "properties": { "highway": "primary", "lit": "yes", "maxspeed": "50 mph", "maxspeed:type": null, "name": "Stourton Interchange", "source:name": null, "surface": "asphalt", "osm_type": "way", "osm_id": 648549174, "lane_markings": null, "lanes": "2", "source": null, "national_highways:area": null, "oneway": "yes", "operator": null, "operator:wikidata": null, "ref": "A61", "destination:lanes": null, "source:ref": null, "junction": "circular", "carriageway_ref": null, "bridge": null, "layer": null, "note": null, "cycleway:left": null, "busway:left": null, "maxheight": "default", "lanes:backward": null, "lanes:forward": null, "bus": null, "bus:lanes": null, "turn:lanes:forward": null, "turn:lanes:backward": null, "turn:lanes": null, "busway:right": null }, "geometry": { "type": "Polygon", "coordinates": [ [ [ 432047.199867411516607, 430326.950095167383552 ], [ 432046.483413526730146, 430326.119687377475202 ], [ 432045.680329905066174, 430325.37273358827224 ], [ 432031.843731503933668, 430313.85165111819515 ], [ 432031.262082969362382, 430313.402478803414851 ], [ 432020.392538781103212, 430305.62897784402594 ], [ 432019.673102400905918, 430305.159810568089597 ], [ 432018.916060154675506, 430304.754109107190743 ], [ 432008.305209623009432, 430299.641591737396084 ], [ 432007.331362155731767, 430299.234219429490622 ], [ 432006.319997584854718, 430298.931774737720843 ], [ 431997.014612839615438, 430296.676514256338123 ], [ 431995.936176195391454, 430296.477025657426566 ], [ 431994.842379748704843, 430296.396834448212758 ], [ 431987.111212265270296, 430296.25518744206056 ], [ 431985.9816741917748, 430296.298389403906185 ], [ 431978.554549815948121, 430297.004426439001691 ], [ 431980.447256359737366, 430316.914666566590313 ], [ 431987.310834501811769, 430316.262201343663037 ], [ 431993.374487330322154, 430316.373296889243647 ], [ 432000.578933575307019, 430318.119372237182688 ], [ 432009.458885502303019, 430322.397908470826223 ], [ 432019.32878364820499, 430329.45649909588974 ], [ 432032.036155141657218, 430340.037327613856178 ], [ 432042.673523822217248, 430353.828713056631386 ], [ 432058.510113018448465, 430341.613867882406339 ], [ 432047.199867411516607, 430326.950095167383552 ] ] ] } },
{ "type": "Feature", "properties": { "highway": "secondary", "lit": "yes", "maxspeed": null, "maxspeed:type": null, "name": "Pontefract Road", "source:name": "OS_OpenData_StreetView", "surface": "asphalt", "osm_type": "way", "osm_id": 660133162, "lane_markings": null, "lanes": "2", "source": null, "national_highways:area": null, "oneway": null, "operator": null, "operator:wikidata": null, "ref": "B6481", "destination:lanes": null, "source:ref": "OS_OpenData_StreetView", "junction": null, "carriageway_ref": null, "bridge": null, "layer": null, "note": "license remap", "cycleway:left": null, "busway:left": null, "maxheight": null, "lanes:backward": "1", "lanes:forward": "1", "bus": null, "bus:lanes": null, "turn:lanes:forward": null, "turn:lanes:backward": null, "turn:lanes": null, "busway:right": null }, "geometry": { "type": "Polygon", "coordinates": [ [ [ 432372.289466390677262, 430797.792060251755174 ], [ 432372.247490613663103, 430797.833947498933412 ], [ 432361.058111090562306, 430809.082802388176788 ], [ 432299.561153284856118, 430870.877433369518258 ], [ 432299.488632888882421, 430870.951253609266132 ], [ 432281.127904728346039, 430889.884480977896601 ], [ 432280.968727131199557, 430890.053460041061044 ], [ 432223.459600068628788, 430952.90643608267419 ], [ 432179.648176619550213, 430997.831998455978464 ], [ 432156.423560302995611, 431021.650651207135525 ], [ 432149.182229432219174, 431029.077976997592486 ], [ 432140.786334566888399, 431037.687631363747641 ], [ 432133.749743357650004, 431044.906073987018317 ], [ 432145.206848716945387, 431056.074544642586261 ], [ 432152.241873469436541, 431048.857708758790977 ], [ 432160.637552751926705, 431040.248275464167818 ], [ 432167.87936481932411, 431032.820456170826219 ], [ 432191.103232645487878, 431009.002571025223006 ], [ 432235.003309783933219, 430963.986100470006932 ], [ 432235.178075744479429, 430963.801091871690005 ], [ 432292.694751388276927, 430900.939865821506828 ], [ 432310.938643285422586, 430882.127117745403666 ], [ 432372.399768787552603, 430820.36849251226522 ], [ 432383.570237405772787, 430809.138649362372234 ], [ 432394.771304741268978, 430798.043754318438005 ], [ 432383.511599236284383, 430786.676299372746143 ], [ 432372.289466390677262, 430797.792060251755174 ] ] ] } },
{ "type": "Feature", "properties": { "highway": "primary", "lit": "yes", "maxspeed": "30 mph", "maxspeed:type": null, "name": "Wakefield Road", "source:name": null, "surface": "asphalt", "osm_type": "way", "osm_id": 660208914, "lane_markings": null, "lanes": "3", "source": null, "national_highways:area": null, "oneway": null, "operator": null, "operator:wikidata": null, "ref": "A639", "destination:lanes": null, "source:ref": null, "junction": null, "carriageway_ref": null, "bridge": null, "layer": null, "note": null, "cycleway:left": null, "busway:left": null, "maxheight": null, "lanes:backward": "1", "lanes:forward": "2", "bus": null, "bus:lanes": null, "turn:lanes:forward": null, "turn:lanes:backward": null, "turn:lanes": null, "busway:right": null }, "geometry": { "type": "Polygon", "coordinates": [ [ [ 431987.676251852710266, 430859.889941056258976 ], [ 431987.715770233247895, 430860.055985179613344 ], [ 431988.883142292033881, 430864.781509462627582 ], [ 432008.299460306181572, 430859.984990436001681 ], [ 432007.15255598234944, 430855.342319582414348 ], [ 431998.959556832094677, 430819.564986932557076 ], [ 431979.464202056871727, 430824.029417712474242 ], [ 431987.676251852710266, 430859.889941056258976 ] ] ] } },
{ "type": "Feature", "properties": { "highway": "primary", "lit": "yes", "maxspeed": "30 mph", "maxspeed:type": null, "name": "Wakefield Road", "source:name": null, "surface": "asphalt", "osm_type": "way", "osm_id": 660208915, "lane_markings": null, "lanes": "2", "source": null, "national_highways:area": null, "oneway": "yes", "operator": null, "operator:wikidata": null, "ref": "A639", "destination:lanes": null, "source:ref": null, "junction": null, "carriageway_ref": null, "bridge": null, "layer": null, "note": null, "cycleway:left": null, "busway:left": null, "maxheight": null, "lanes:backward": null, "lanes:forward": null, "bus": null, "bus:lanes": null, "turn:lanes:forward": null, "turn:lanes:backward": null, "turn:lanes": null, "busway:right": null }, "geometry": { "type": "Polygon", "coordinates": [ [ [ 432045.565764603321441, 430969.557544152834453 ], [ 432045.361938040761743, 430968.843248678022064 ], [ 432042.941021568665747, 430961.41658786276821 ], [ 432039.577157513296697, 430951.120767319458537 ], [ 432034.54498660354875, 430935.43485339457402 ], [ 432034.23321160429623, 430934.594508998619858 ], [ 432032.722926541639026, 430931.023320638691075 ], [ 432030.321270349028055, 430924.226138367142994 ], [ 432011.463772780552972, 430930.889079568849411 ], [ 432013.966167100239545, 430937.971371513267513 ], [ 432014.184686034626793, 430938.534983211022336 ], [ 432015.638015113421716, 430941.971494647033978 ], [ 432020.541322662786115, 430957.255725160182919 ], [ 432020.55780862714164, 430957.306645115662832 ], [ 432023.92684897739673, 430967.61830149742309 ], [ 432026.231534908816684, 430974.688401145976968 ], [ 432027.91922440903727, 430981.560583871440031 ], [ 432047.342093622079119, 430976.790662327664904 ], [ 432045.565764603321441, 430969.557544152834453 ] ] ] } },
{ "type": "Feature", "properties": { "highway": "primary", "lit": "yes", "maxspeed": "50 mph", "maxspeed:type": null, "name": null, "source:name": null, "surface": "asphalt", "osm_type": "way", "osm_id": 660423841, "lane_markings": null, "lanes": "4", "source": null, "national_highways:area": null, "oneway": "yes", "operator": null, "operator:wikidata": null, "ref": "A61", "destination:lanes": null, "source:ref": null, "junction": null, "carriageway_ref": null, "bridge": null, "layer": null, "note": null, "cycleway:left": "share_busway", "busway:left": "lane", "maxheight": null, "lanes:backward": null, "lanes:forward": null, "bus": "designated", "bus:lanes": "designated|yes|yes|yes", "turn:lanes:forward": null, "turn:lanes:backward": null, "turn:lanes": null, "busway:right": null }, "geometry": { "type": "Polygon", "coordinates": [ [ [ 432065.10645998182008, 429885.682250055193435 ], [ 432064.107447510759812, 429886.674858482496347 ], [ 432037.223353974928614, 429916.721710107580293 ], [ 432036.390194489969872, 429917.764169155154377 ], [ 432022.226161187631078, 429937.661629515467212 ], [ 432021.951091953553259, 429938.065180444333237 ], [ 432012.031568640726618, 429953.274037180992309 ], [ 432011.617411134357098, 429953.957772616762668 ], [ 431999.011621083598584, 429976.424976116046309 ], [ 431998.4945721856202, 429977.460600993596017 ], [ 431986.84397005639039, 430003.917570641031489 ], [ 432008.808611595770344, 430013.589929301058874 ], [ 432020.225692522362806, 429987.663255281455349 ], [ 432032.352269314054865, 429966.050149920221884 ], [ 432041.919892892241478, 429951.380834498268086 ], [ 432055.554732332122512, 429932.226779189077206 ], [ 432081.522885469021276, 429903.203623052453622 ], [ 432102.483006981550716, 429884.691101239819545 ], [ 432086.595260631060228, 429866.702785145665985 ], [ 432065.10645998182008, 429885.682250055193435 ] ] ] } },
{ "type": "Feature", "properties": { "highway": "primary_link", "lit": "yes", "maxspeed": "70 mph", "maxspeed:type": null, "name": null, "source:name": null, "surface": "asphalt", "osm_type": "way", "osm_id": 660423848, "lane_markings": null, "lanes": "2", "source": null, "national_highways:area": "12", "oneway": "yes", "operator": "National Highways", "operator:wikidata": "Q5760006", "ref": null, "destination:lanes": null, "source:ref": null, "junction": null, "carriageway_ref": null, "bridge": null, "layer": null, "note": null, "cycleway:left": null, "busway:left": null, "maxheight": null, "lanes:backward": null, "lanes:forward": null, "bus": null, "bus:lanes": null, "turn:lanes:forward": null, "turn:lanes:backward": null, "turn:lanes": null, "busway:right": null }, "geometry": { "type": "Polygon", "coordinates": [ [ [ 431991.039899744617287, 430007.037680016364902 ], [ 432004.612681907543447, 430010.46981992572546 ], [ 432020.675476187549066, 429946.947698610369116 ], [ 432007.102694024622906, 429943.515558701008558 ], [ 431991.039899744617287, 430007.037680016364902 ] ] ] } },
{ "type": "Feature", "properties": { "highway": "secondary", "lit": "yes", "maxspeed": "30 mph", "maxspeed:type": "sign", "name": "Pontefract Road", "source:name": "OS_OpenData_StreetView", "surface": "asphalt", "osm_type": "way", "osm_id": 671061551, "lane_markings": null, "lanes": null, "source": null, "national_highways:area": null, "oneway": null, "operator": null, "operator:wikidata": null, "ref": "B6481", "destination:lanes": null, "source:ref": "OS_OpenData_StreetView", "junction": null, "carriageway_ref": null, "bridge": null, "layer": null, "note": "license remap", "cycleway:left": null, "busway:left": null, "maxheight": null, "lanes:backward": "1", "lanes:forward": "2", "bus": null, "bus:lanes": null, "turn:lanes:forward": "through|right", "turn:lanes:backward": null, "turn:lanes": null, "busway:right": null }, "geometry": { "type": "Polygon", "coordinates": [ [ [ 432498.164356698514894, 430668.378378175897524 ], [ 432488.356115472095553, 430678.645778684585821 ], [ 432477.835503191512544, 430689.346555665077176 ], [ 432477.802733199670911, 430689.380082783405669 ], [ 432469.093089602072723, 430698.343347333488055 ], [ 432480.567977696540765, 430709.493546579149552 ], [ 432489.26128541585058, 430700.547093600907829 ], [ 432499.805784443276934, 430689.822020814812277 ], [ 432499.885832358675543, 430689.739422640413977 ], [ 432509.758508079859894, 430679.404571224935353 ], [ 432509.807690692541655, 430679.352623157319613 ], [ 432538.872104732901789, 430648.377737363916822 ], [ 432527.204295565956272, 430637.429576365626417 ], [ 432498.164356698514894, 430668.378378175897524 ] ] ] } },
{ "type": "Feature", "properties": { "highway": "secondary", "lit": "yes", "maxspeed": "30 mph", "maxspeed:type": "sign", "name": "Pontefract Road", "source:name": "OS_OpenData_StreetView", "surface": "asphalt", "osm_type": "way", "osm_id": 671061552, "lane_markings": null, "lanes": null, "source": null, "national_highways:area": null, "oneway": null, "operator": null, "operator:wikidata": null, "ref": "B6481", "destination:lanes": null, "source:ref": "OS_OpenData_StreetView", "junction": null, "carriageway_ref": null, "bridge": null, "layer": null, "note": "license remap", "cycleway:left": null, "busway:left": null, "maxheight": null, "lanes:backward": "2", "lanes:forward": "1", "bus": null, "bus:lanes": null, "turn:lanes:forward": null, "turn:lanes:backward": "left|through", "turn:lanes": null, "busway:right": null }, "geometry": { "type": "Polygon", "coordinates": [ [ [ 432416.167800876311958, 430752.596217172977049 ], [ 432416.128455891855992, 430752.636983355507255 ], [ 432383.365512643998954, 430786.824819109169766 ], [ 432394.917391333554406, 430797.895234582014382 ], [ 432427.660734267381486, 430763.727851579256821 ], [ 432444.077394511783496, 430746.838296150497627 ], [ 432432.604205791139975, 430735.6863483125926 ], [ 432416.167800876311958, 430752.596217172977049 ] ] ] } },
{ "type": "Feature", "properties": { "highway": "primary", "lit": "yes", "maxspeed": "50 mph", "maxspeed:type": null, "name": null, "source:name": null, "surface": "asphalt", "osm_type": "way", "osm_id": 671064796, "lane_markings": null, "lanes": "2", "source": "OS_OpenData_StreetView;Bing;GPS", "national_highways:area": null, "oneway": "yes", "operator": null, "operator:wikidata": null, "ref": "A639", "destination:lanes": null, "source:ref": "OS_OpenData_StreetView", "junction": null, "carriageway_ref": null, "bridge": null, "layer": null, "note": "license remap", "cycleway:left": null, "busway:left": null, "maxheight": null, "lanes:backward": null, "lanes:forward": null, "bus": null, "bus:lanes": null, "turn:lanes:forward": null, "turn:lanes:backward": null, "turn:lanes": null, "busway:right": null }, "geometry": { "type": "Polygon", "coordinates": [ [ [ 432259.135912596131675, 430075.801913830975536 ], [ 432270.893209359201137, 430062.143521946214605 ], [ 432271.143340381910093, 430061.841143430501688 ], [ 432279.436496916343458, 430051.405372049892321 ], [ 432336.548446032160427, 429994.168216855498031 ], [ 432389.362489450024441, 429946.353761916339863 ], [ 432459.6798937592539, 429894.486631788720842 ], [ 432531.933787686284631, 429850.811150155263022 ], [ 432587.369829828676302, 429821.076807751203887 ], [ 432577.916395299660508, 429803.452036104281433 ], [ 432522.253906957106665, 429833.307837916188873 ], [ 432521.807551415753551, 429833.562226442038082 ], [ 432448.940550305647776, 429877.608314420096576 ], [ 432448.177605357312132, 429878.118722437531687 ], [ 432377.086818001698703, 429930.556311038439162 ], [ 432376.311362622946035, 429931.190660245250911 ], [ 432322.937393852858804, 429979.512035764404573 ], [ 432322.570060980913695, 429979.86195469647646 ], [ 432264.880050917214248, 430037.678438117261976 ], [ 432264.129914106801152, 430038.52021167014027 ], [ 432255.607553159992676, 430049.244404574856162 ], [ 432243.967113087710459, 430062.767044635897037 ], [ 432243.944805796432775, 430062.793048866617028 ], [ 432199.699875218211673, 430114.549747813784052 ], [ 432214.902113385964185, 430127.54559156059986 ], [ 432259.135912596131675, 430075.801913830975536 ] ] ] } },
{ "type": "Feature", "properties": { "highway": "primary", "lit": "yes", "maxspeed": "50 mph", "maxspeed:type": null, "name": "Wakefield Road", "source:name": "OS_OpenData_StreetView", "surface": "asphalt", "osm_type": "way", "osm_id": 671064797, "lane_markings": null, "lanes": "2", "source": null, "national_highways:area": null, "oneway": "yes", "operator": null, "operator:wikidata": null, "ref": "A61", "destination:lanes": "A639|Wakefield Road", "source:ref": "OS_OpenData_StreetView", "junction": null, "carriageway_ref": null, "bridge": null, "layer": null, "note": null, "cycleway:left": null, "busway:left": null, "maxheight": null, "lanes:backward": null, "lanes:forward": null, "bus": null, "bus:lanes": null, "turn:lanes:forward": null, "turn:lanes:backward": null, "turn:lanes": null, "busway:right": null }, "geometry": { "type": "Polygon", "coordinates": [ [ [ 432215.957017439766787, 430126.054990671516862 ], [ 432198.644971164409071, 430116.04034870286705 ], [ 432128.227026718494017, 430237.769983839069027 ], [ 432145.539072993851732, 430247.784625807718839 ], [ 432215.957017439766787, 430126.054990671516862 ] ] ] } },
{ "type": "Feature", "properties": { "highway": "primary", "lit": "yes", "maxspeed": "50 mph", "maxspeed:type": null, "name": "Wakefield Road", "source:name": null, "surface": "asphalt", "osm_type": "way", "osm_id": 760237715, "lane_markings": null, "lanes": "2", "source": null, "national_highways:area": null, "oneway": "yes", "operator": null, "operator:wikidata": null, "ref": "A61", "destination:lanes": null, "source:ref": null, "junction": null, "carriageway_ref": null, "bridge": null, "layer": null, "note": null, "cycleway:left": null, "busway:left": null, "maxheight": "default", "lanes:backward": null, "lanes:forward": null, "bus": null, "bus:lanes": null, "turn:lanes:forward": null, "turn:lanes:backward": null, "turn:lanes": null, "busway:right": null }, "geometry": { "type": "Polygon", "coordinates": [ [ [ 431987.855483436898794, 430269.417709819739684 ], [ 431988.313430059119128, 430270.692532151821069 ], [ 431993.330844624782912, 430282.153454975457862 ], [ 431993.700032474996988, 430282.908663144276943 ], [ 432000.867526684422046, 430296.131074094155338 ], [ 432001.327831976988818, 430296.896529027086217 ], [ 432001.854603152372874, 430297.617857208650094 ], [ 432009.894112070091069, 430307.652961285959464 ], [ 432010.838616908877157, 430308.676753938372713 ], [ 432021.57473111897707, 430318.798590361780953 ], [ 432050.323699948843569, 430346.777788631792646 ], [ 432051.136949343723245, 430347.487932832562365 ], [ 432052.022018875984941, 430348.106262265180703 ], [ 432052.968591472774278, 430348.625569190946408 ], [ 432060.793672385741957, 430352.384035927825607 ], [ 432061.636793280602433, 430352.742440542031545 ], [ 432062.509176291350741, 430353.022180766973179 ], [ 432063.403499448730145, 430353.220908724295441 ], [ 432070.566741311107762, 430354.471443424990866 ], [ 432071.558092313993257, 430354.593867414572742 ], [ 432072.55671108874958, 430354.616780005977489 ], [ 432073.552633772313129, 430354.53995258564828 ], [ 432074.535923402232584, 430354.364151710178703 ], [ 432075.496769064222462, 430354.091131458233576 ], [ 432085.149592291330919, 430350.819126216170844 ], [ 432086.046148660767358, 430350.466209228092339 ], [ 432086.904578733141534, 430350.028646049788222 ], [ 432087.716913154989015, 430349.5104988591047 ], [ 432098.692442603700329, 430341.741377694183029 ], [ 432087.137258532398846, 430325.417232354287989 ], [ 432077.350121846131515, 430332.34513967105886 ], [ 432071.49272138311062, 430334.330615274317097 ], [ 432068.205813122796826, 430333.756797872018069 ], [ 432063.101225189631805, 430331.305011856544297 ], [ 432035.46680303174071, 430304.410517615440767 ], [ 432035.352174707455561, 430304.300716464233119 ], [ 432025.066301463812124, 430294.603360008564778 ], [ 432018.023443731828593, 430285.812299377168529 ], [ 432011.483367782726418, 430273.747333670035005 ], [ 432006.906905953772366, 430263.293647784506902 ], [ 431997.172081367287319, 430229.064736096188426 ], [ 431977.934956121433061, 430234.535843139281496 ], [ 431987.855483436898794, 430269.417709819739684 ] ] ] } },
{ "type": "Feature", "properties": { "highway": "secondary", "lit": "yes", "maxspeed": null, "maxspeed:type": null, "name": "Pontefract Road", "source:name": "OS_OpenData_StreetView", "surface": "asphalt", "osm_type": "way", "osm_id": 934139881, "lane_markings": null, "lanes": "2", "source": null, "national_highways:area": null, "oneway": null, "operator": null, "operator:wikidata": null, "ref": "B6481", "destination:lanes": null, "source:ref": "OS_OpenData_StreetView", "junction": null, "carriageway_ref": null, "bridge": null, "layer": null, "note": "license remap", "cycleway:left": null, "busway:left": null, "maxheight": null, "lanes:backward": null, "lanes:forward": null, "bus": null, "bus:lanes": null, "turn:lanes:forward": null, "turn:lanes:backward": null, "turn:lanes": null, "busway:right": null }, "geometry": { "type": "Polygon", "coordinates": [ [ [ 432847.13201984972693, 430285.035413811507169 ], [ 432847.077298412797973, 430285.082388401438948 ], [ 432817.1871644530911, 430310.975931139488239 ], [ 432816.957626102841459, 430311.182669092493597 ], [ 432800.502479272545315, 430326.589019341801759 ], [ 432799.841656216711272, 430327.286799015768338 ], [ 432799.269273607060313, 430328.058784593828022 ], [ 432788.275232230313122, 430344.916356301517226 ], [ 432787.751216251868755, 430345.851270782120991 ], [ 432786.168927418824751, 430349.179117886291351 ], [ 432781.888076802249998, 430356.868238696828485 ], [ 432795.867550853872672, 430364.651188345858827 ], [ 432800.27330811979482, 430356.737714386195876 ], [ 432800.508476781251375, 430356.281459759862628 ], [ 432801.970402587205172, 430353.206758442160208 ], [ 432812.143212028138805, 430337.608412143250462 ], [ 432827.780221149791032, 430322.968054213619325 ], [ 432857.526334950467572, 430297.199274788727053 ], [ 432889.037238461198285, 430270.395079035370145 ], [ 432878.670389948878437, 430258.207854087871965 ], [ 432847.13201984972693, 430285.035413811507169 ] ] ] } },
{ "type": "Feature", "properties": { "highway": "secondary", "lit": "yes", "maxspeed": null, "maxspeed:type": null, "name": "Pontefract Road", "source:name": "OS_OpenData_StreetView", "surface": "asphalt", "osm_type": "way", "osm_id": 934139882, "lane_markings": null, "lanes": "2", "source": null, "national_highways:area": null, "oneway": null, "operator": null, "operator:wikidata": null, "ref": "B6481", "destination:lanes": null, "source:ref": "OS_OpenData_StreetView", "junction": null, "carriageway_ref": null, "bridge": null, "layer": null, "note": "license remap", "cycleway:left": null, "busway:left": null, "maxheight": "4.7", "lanes:backward": null, "lanes:forward": null, "bus": null, "bus:lanes": null, "turn:lanes:forward": null, "turn:lanes:backward": null, "turn:lanes": null, "busway:right": null }, "geometry": { "type": "Polygon", "coordinates": [ [ [ 432878.669287597644143, 430258.208791955432389 ], [ 432889.03834081243258, 430270.394141167809721 ], [ 432926.750994607631583, 430238.302774128911551 ], [ 432916.381941392843146, 430226.117424916534219 ], [ 432878.669287597644143, 430258.208791955432389 ] ] ] } },
{ "type": "Feature", "properties": { "highway": "primary", "lit": "yes", "maxspeed": "30 mph", "maxspeed:type": null, "name": "Wakefield Road", "source:name": null, "surface": "asphalt", "osm_type": "way", "osm_id": 975259751, "lane_markings": null, "lanes": "1", "source": null, "national_highways:area": null, "oneway": "yes", "operator": null, "operator:wikidata": null, "ref": "A639", "destination:lanes": null, "source:ref": null, "junction": null, "carriageway_ref": null, "bridge": null, "layer": null, "note": null, "cycleway:left": null, "busway:left": null, "maxheight": null, "lanes:backward": null, "lanes:forward": null, "bus": null, "bus:lanes": null, "turn:lanes:forward": null, "turn:lanes:backward": null, "turn:lanes": null, "busway:right": null }, "geometry": { "type": "Polygon", "coordinates": [ [ [ 432013.15343546756776, 430864.022145871538669 ], [ 432012.851197590760421, 430863.126288344385102 ], [ 432012.465704873786308, 430862.262978545855731 ], [ 432012.00040326861199, 430861.439933675108477 ], [ 432011.459452145500109, 430860.66451099968981 ], [ 432010.847687112342101, 430859.943642088444903 ], [ 432010.170576788310427, 430859.283770849346183 ], [ 432005.224256266374141, 430854.899674039217643 ], [ 431991.958346331841312, 430869.86682585941162 ], [ 431994.722348303243052, 430872.31665744073689 ], [ 432011.276707918266766, 430930.302809855900705 ], [ 432030.508335211314261, 430924.8124080800917 ], [ 432013.15343546756776, 430864.022145871538669 ] ] ] } },
{ "type": "Feature", "properties": { "highway": "primary", "lit": "yes", "maxspeed": "30 mph", "maxspeed:type": null, "name": "Wakefield Road", "source:name": null, "surface": "asphalt", "osm_type": "way", "osm_id": 975259752, "lane_markings": null, "lanes": "3", "source": null, "national_highways:area": null, "oneway": "yes", "operator": null, "operator:wikidata": null, "ref": "A639", "destination:lanes": null, "source:ref": null, "junction": null, "carriageway_ref": null, "bridge": null, "layer": null, "note": null, "cycleway:left": null, "busway:left": null, "maxheight": null, "lanes:backward": null, "lanes:forward": null, "bus": null, "bus:lanes": null, "turn:lanes:forward": null, "turn:lanes:backward": null, "turn:lanes": "through|through|right", "busway:right": null }, "geometry": { "type": "Polygon", "coordinates": [ [ [ 432049.683261036290787, 430989.334944132482633 ], [ 432049.071704662695993, 430986.715212515322492 ], [ 432047.486406449461356, 430977.483215784770437 ], [ 432027.774911581655033, 430980.868030414334498 ], [ 432029.410384145390708, 430990.39221787347924 ], [ 432029.527954512275755, 430990.973113752668723 ], [ 432030.360436032991856, 430994.539225160609931 ], [ 432030.754529843688942, 430995.827959038200788 ], [ 432035.908572455227841, 431009.348257199279033 ], [ 432054.596738967869896, 431002.224183056154288 ], [ 432049.683261036290787, 430989.334944132482633 ] ] ] } },
{ "type": "Feature", "properties": { "highway": "primary", "lit": "yes", "maxspeed": "30 mph", "maxspeed:type": null, "name": "Wakefield Road", "source:name": null, "surface": "asphalt", "osm_type": "way", "osm_id": 975259764, "lane_markings": null, "lanes": "2", "source": null, "national_highways:area": null, "oneway": "yes", "operator": null, "operator:wikidata": null, "ref": "A639", "destination:lanes": null, "source:ref": null, "junction": null, "carriageway_ref": null, "bridge": null, "layer": null, "note": null, "cycleway:left": null, "busway:left": "lane", "maxheight": null, "lanes:backward": null, "lanes:forward": null, "bus": "designated|yes", "bus:lanes": "designated|yes", "turn:lanes:forward": null, "turn:lanes:backward": null, "turn:lanes": null, "busway:right": "no" }, "geometry": { "type": "Polygon", "coordinates": [ [ [ 431999.703713022230659, 430915.917942568077706 ], [ 432018.983992306923028, 430910.60091043508146 ], [ 432006.788828402350191, 430866.379592955461703 ], [ 431987.508549117657822, 430871.696625088457949 ], [ 431999.703713022230659, 430915.917942568077706 ] ] ] } },
{ "type": "Feature", "properties": { "highway": "primary", "lit": "yes", "maxspeed": "30 mph", "maxspeed:type": null, "name": "Wakefield Road", "source:name": null, "surface": "asphalt", "osm_type": "way", "osm_id": 975259765, "lane_markings": null, "lanes": "2", "source": null, "national_highways:area": null, "oneway": "yes", "operator": null, "operator:wikidata": null, "ref": "A639", "destination:lanes": null, "source:ref": null, "junction": null, "carriageway_ref": null, "bridge": null, "layer": null, "note": null, "cycleway:left": null, "busway:left": null, "maxheight": null, "lanes:backward": null, "lanes:forward": null, "bus": null, "bus:lanes": null, "turn:lanes:forward": null, "turn:lanes:backward": null, "turn:lanes": null, "busway:right": null }, "geometry": { "type": "Polygon", "coordinates": [ [ [ 431987.375678181706462, 430866.919556630193256 ], [ 432006.921699338301551, 430871.156661413726397 ], [ 432008.364311877405271, 430864.501802341081202 ], [ 431988.818290720810182, 430860.264697557548061 ], [ 431987.375678181706462, 430866.919556630193256 ] ] ] } },
{ "type": "Feature", "properties": { "highway": "primary", "lit": "yes", "maxspeed": "50 mph", "maxspeed:type": null, "name": "Stourton Interchange", "source:name": null, "surface": "asphalt", "osm_type": "way", "osm_id": 975312514, "lane_markings": null, "lanes": "1", "source": null, "national_highways:area": null, "oneway": "yes", "operator": null, "operator:wikidata": null, "ref": "A61", "destination:lanes": null, "source:ref": null, "junction": "circular", "carriageway_ref": null, "bridge": null, "layer": null, "note": null, "cycleway:left": null, "busway:left": null, "maxheight": null, "lanes:backward": null, "lanes:forward": null, "bus": null, "bus:lanes": null, "turn:lanes:forward": null, "turn:lanes:backward": null, "turn:lanes": null, "busway:right": null }, "geometry": { "type": "Polygon", "coordinates": [ [ [ 432056.172535771387629, 430410.315864009549841 ], [ 432059.383591768098995, 430403.561628911702428 ], [ 432059.69917456357507, 430402.822627381887287 ], [ 432063.189431266044267, 430393.644948978326283 ], [ 432063.485355179174803, 430392.739063633256592 ], [ 432063.693702956545167, 430391.809122546692379 ], [ 432065.593888964853249, 430380.918267616303638 ], [ 432065.735399695695378, 430379.581726403557695 ], [ 432066.1204785782611, 430369.515011272858828 ], [ 432066.076933610835113, 430368.125550160068087 ], [ 432065.057974288822152, 430358.06038273696322 ], [ 432064.922099915624131, 430357.144139780662954 ], [ 432064.70203129661968, 430356.244399371906184 ], [ 432064.399656539142597, 430355.368880950438324 ], [ 432059.882647383259609, 430344.02257485705195 ], [ 432041.300989457406104, 430351.420006081985775 ], [ 432045.300581135903485, 430361.466607686481439 ], [ 432046.108461879310198, 430369.446764267981052 ], [ 432045.775761776661966, 430378.144195648725145 ], [ 432044.155701019160915, 430387.429521722660866 ], [ 432041.148289563483559, 430395.337551853503101 ], [ 432037.682900180516299, 430402.626759709732141 ], [ 432037.302342396636959, 430403.541554642550182 ], [ 432037.014178632991388, 430404.489518587710336 ], [ 432033.815898064000066, 430417.251876731170341 ], [ 432053.215994085476268, 430422.113591897301376 ], [ 432056.172535771387629, 430410.315864009549841 ] ] ] } },
{ "type": "Feature", "properties": { "highway": "motorway", "lit": "yes", "maxspeed": "50 mph", "maxspeed:type": null, "name": null, "source:name": null, "surface": "asphalt", "osm_type": "way", "osm_id": 1074264775, "lane_markings": null, "lanes": "3", "source": null, "national_highways:area": "12", "oneway": "yes", "operator": "National Highways", "operator:wikidata": "Q5760006", "ref": "M621", "destination:lanes": null, "source:ref": null, "junction": null, "carriageway_ref": "A", "bridge": null, "layer": null, "note": null, "cycleway:left": null, "busway:left": null, "maxheight": null, "lanes:backward": null, "lanes:forward": null, "bus": null, "bus:lanes": null, "turn:lanes:forward": null, "turn:lanes:backward": null, "turn:lanes": null, "busway:right": null }, "geometry": { "type": "Polygon", "coordinates": [ [ [ 432075.746332879236434, 430309.835344400024042 ], [ 432075.850492169440258, 430309.6656335114385 ], [ 432098.558781193976756, 430272.068961924233008 ], [ 432099.028757531719748, 430271.226574745262042 ], [ 432110.673185418592766, 430248.552731730858795 ], [ 432085.76580133731477, 430235.761241660104133 ], [ 432074.34184256370645, 430258.005790757073555 ], [ 432051.934536933316849, 430295.104143258708064 ], [ 432045.195908811409026, 430305.910515883704647 ], [ 432068.95502163679339, 430320.726202089572325 ], [ 432075.746332879236434, 430309.835344400024042 ] ] ] } },
{ "type": "Feature", "properties": { "highway": "unclassified", "lit": "yes", "maxspeed": "40 mph", "maxspeed:type": "sign", "name": "Intermezzo Drive", "source:name": "OS_OpenData_Locator", "surface": "asphalt", "osm_type": "way", "osm_id": 1228755316, "lane_markings": null, "lanes": null, "source": "OS_OpenData_StreetView;Bing", "national_highways:area": null, "oneway": "yes", "operator": null, "operator:wikidata": null, "ref": null, "destination:lanes": null, "source:ref": null, "junction": null, "carriageway_ref": null, "bridge": null, "layer": null, "note": null, "cycleway:left": null, "busway:left": null, "maxheight": null, "lanes:backward": null, "lanes:forward": null, "bus": null, "bus:lanes": null, "turn:lanes:forward": null, "turn:lanes:backward": null, "turn:lanes": null, "busway:right": null }, "geometry": { "type": "Polygon", "coordinates": [ [ [ 432755.308485170768108, 430420.006035111553501 ], [ 432759.429583337740041, 430424.384421069349628 ], [ 432761.151799752784427, 430426.493595305073541 ], [ 432762.481171556399204, 430428.127957683173008 ], [ 432765.655606250162236, 430432.899291503301356 ], [ 432768.742144705087412, 430438.778245862922631 ], [ 432777.596069549734239, 430434.129803667427041 ], [ 432774.389020688075107, 430428.021312177064829 ], [ 432774.124907008721493, 430427.575932158506475 ], [ 432770.674122864787932, 430422.389231318724342 ], [ 432770.390156585373916, 430422.003793475858402 ], [ 432768.906581315270159, 430420.179849564854521 ], [ 432768.900607656512875, 430420.172519571846351 ], [ 432767.064049630367663, 430417.923312772298232 ], [ 432766.832031088066287, 430417.658741675899364 ], [ 432762.467754014593083, 430413.021994702052325 ], [ 432762.213748925132677, 430412.770754653785843 ], [ 432757.465305771271233, 430408.398366328736302 ], [ 432750.691535425197799, 430415.754726522427518 ], [ 432755.308485170768108, 430420.006035111553501 ] ] ] } },
{ "type": "Feature", "properties": { "highway": "unclassified", "lit": "yes", "maxspeed": "40 mph", "maxspeed:type": "sign", "name": "Intermezzo Drive", "source:name": "OS_OpenData_Locator", "surface": "asphalt", "osm_type": "way", "osm_id": 1228755317, "lane_markings": null, "lanes": null, "source": "OS_OpenData_StreetView;Bing", "national_highways:area": null, "oneway": "yes", "operator": null, "operator:wikidata": null, "ref": null, "destination:lanes": null, "source:ref": null, "junction": null, "carriageway_ref": null, "bridge": null, "layer": null, "note": null, "cycleway:left": null, "busway:left": null, "maxheight": null, "lanes:backward": null, "lanes:forward": null, "bus": null, "bus:lanes": null, "turn:lanes:forward": null, "turn:lanes:backward": null, "turn:lanes": null, "busway:right": null }, "geometry": { "type": "Polygon", "coordinates": [ [ [ 432778.978396508784499, 430429.254493875196204 ], [ 432779.00482955831103, 430428.87891602772288 ], [ 432779.227955995011143, 430422.037860737415031 ], [ 432779.344598914671224, 430420.436396460921969 ], [ 432779.667629987292457, 430415.98274100915296 ], [ 432781.741048688068986, 430406.806242882215884 ], [ 432771.986937065375969, 430404.602313107636292 ], [ 432769.830819571798202, 430414.144818021857645 ], [ 432769.76202873402508, 430414.512888554716483 ], [ 432769.720975806063507, 430414.885075004829559 ], [ 432769.370963819150347, 430419.710721911804285 ], [ 432769.247091859753709, 430421.411438237701077 ], [ 432769.236539345467463, 430421.611659646383487 ], [ 432769.016285393794533, 430428.364644562650938 ], [ 432768.198197531688493, 430435.915454629226588 ], [ 432778.140016723133158, 430436.992594901123084 ], [ 432778.978396508784499, 430429.254493875196204 ] ] ] } },
{ "type": "Feature", "properties": { "highway": "secondary", "lit": "yes", "maxspeed": "30 mph", "maxspeed:type": "sign", "name": "Pontefract Road", "source:name": "OS_OpenData_StreetView", "surface": "asphalt", "osm_type": "way", "osm_id": 1228755318, "lane_markings": null, "lanes": null, "source": null, "national_highways:area": null, "oneway": "yes", "operator": null, "operator:wikidata": null, "ref": "B6481", "destination:lanes": null, "source:ref": "OS_OpenData_StreetView", "junction": null, "carriageway_ref": null, "bridge": null, "layer": null, "note": null, "cycleway:left": null, "busway:left": null, "maxheight": null, "lanes:backward": "1", "lanes:forward": "2", "bus": null, "bus:lanes": null, "turn:lanes:forward": "left|through", "turn:lanes:backward": null, "turn:lanes": null, "busway:right": null }, "geometry": { "type": "Polygon", "coordinates": [ [ [ 432458.407278455561027, 430737.862081327941269 ], [ 432459.083891944610514, 430737.374990225362126 ], [ 432459.706138986744918, 430736.820127923216205 ], [ 432463.385859040950891, 430733.177411269803997 ], [ 432466.269141346274409, 430730.33028784050839 ], [ 432466.277122669969685, 430730.322395543160383 ], [ 432469.323318953916896, 430727.305948004301172 ], [ 432469.918975538166706, 430726.64666983432835 ], [ 432470.437849219422787, 430725.925403881527018 ], [ 432470.873539573454764, 430725.151047124469187 ], [ 432477.137539496412501, 430712.410148213326465 ], [ 432462.779040449066088, 430705.350863185303751 ], [ 432457.108877535676584, 430716.883904912276193 ], [ 432455.02305275015533, 430718.949359812191688 ], [ 432452.140187516517472, 430721.796071400225628 ], [ 432452.133039212087169, 430721.803138934366871 ], [ 432449.044662619940937, 430724.860458697425202 ], [ 432434.011464797775261, 430734.535000669769943 ], [ 432442.67013550514821, 430747.989643793320283 ], [ 432458.407278455561027, 430737.862081327941269 ] ] ] } },
{ "type": "Feature", "properties": { "highway": "secondary", "lit": "yes", "maxspeed": "30 mph", "maxspeed:type": "sign", "name": "Pontefract Road", "source:name": "OS_OpenData_StreetView", "surface": "asphalt", "osm_type": "way", "osm_id": 1228755319, "lane_markings": null, "lanes": null, "source": null, "national_highways:area": null, "oneway": null, "operator": null, "operator:wikidata": null, "ref": "B6481", "destination:lanes": null, "source:ref": "OS_OpenData_StreetView", "junction": null, "carriageway_ref": null, "bridge": null, "layer": null, "note": "license remap", "cycleway:left": null, "busway:left": null, "maxheight": null, "lanes:backward": "2", "lanes:forward": "1", "bus": null, "bus:lanes": null, "turn:lanes:forward": null, "turn:lanes:backward": "left|through", "turn:lanes": null, "busway:right": null }, "geometry": { "type": "Polygon", "coordinates": [ [ [ 432464.250010658928659, 430703.275548315432388 ], [ 432475.66656928654993, 430714.485463083197828 ], [ 432480.53881296311738, 430709.523404340201523 ], [ 432469.122254335496109, 430698.313489572436083 ], [ 432464.250010658928659, 430703.275548315432388 ] ] ] } },
{ "type": "Feature", "properties": { "highway": "secondary", "lit": "yes", "maxspeed": "30 mph", "maxspeed:type": "sign", "name": "Pontefract Road", "source:name": "OS_OpenData_StreetView", "surface": "asphalt", "osm_type": "way", "osm_id": 1228755320, "lane_markings": null, "lanes": null, "source": null, "national_highways:area": null, "oneway": "yes", "operator": null, "operator:wikidata": null, "ref": "B6481", "destination:lanes": null, "source:ref": "OS_OpenData_StreetView", "junction": null, "carriageway_ref": null, "bridge": null, "layer": null, "note": null, "cycleway:left": null, "busway:left": null, "maxheight": null, "lanes:backward": "1", "lanes:forward": "2", "bus": null, "bus:lanes": null, "turn:lanes:forward": "left|through", "turn:lanes:backward": null, "turn:lanes": null, "busway:right": null }, "geometry": { "type": "Polygon", "coordinates": [ [ [ 432453.132665835437365, 430708.900306633207947 ], [ 432452.388578173005953, 430709.357832376321312 ], [ 432451.698807343491353, 430709.893754439486656 ], [ 432451.071576668182388, 430710.501683658163529 ], [ 432445.161514377221465, 430716.891631507023703 ], [ 432442.226535046880599, 430720.064363967510872 ], [ 432441.732274144131225, 430720.653042770980392 ], [ 432441.296791050466709, 430721.28643920988543 ], [ 432431.538446841819678, 430737.051860326842871 ], [ 432445.143153461103793, 430745.472784136247355 ], [ 432454.495539766328875, 430730.363221960782539 ], [ 432456.906972401426174, 430727.756447010557167 ], [ 432461.919598590407986, 430722.336805374710821 ], [ 432473.77028929523658, 430715.913901832420379 ], [ 432466.146290650242008, 430701.847109566209838 ], [ 432453.132665835437365, 430708.900306633207947 ] ] ] } }
]
}
