{
"type": "FeatureCollection",
"name": "se3231_rgb_250_04_osm_road_buffers",
"crs": { "type": "name", "properties": { "name": "urn:ogc:def:crs:EPSG::27700" } },
"features": [
{ "type": "Feature", "properties": { "highway": "unclassified", "lane_markings": "no", "maxspeed": "30 mph", "maxspeed:type": "sign", "name": "Lockside Road", "surface": "concrete", "osm_type": "way", "osm_id": 3999928, "lanes": null, "lit": null, "oneway": null, "ref": null, "turn:lanes": null, "layer": null, "source": null, "lanes:backward": null, "lanes:forward": null, "turn:lanes:forward": null, "bicycle": null, "foot": null, "source:ref": null, "cycleway:both": null, "note": null, "source:name": null, "junction": null, "bus": null, "bus:lanes": null, "busway:left": null, "busway:right": null }, "geometry": { "type": "Polygon", "coordinates": [ [ [ 432518.830995427328162, 430784.89060152892489 ], [ 432498.177634974243119, 430794.429658070032019 ], [ 432497.833462561946362, 430794.605055715539493 ], [ 432477.632790771138389, 430805.903246983420104 ], [ 432477.22531479067402, 430806.15758327615913 ], [ 432476.844124319672119, 430806.449845913681202 ], [ 432476.492737344000489, 430806.777337620151229 ], [ 432450.006661634077318, 430833.954014378483407 ], [ 432365.916568577347789, 430920.259964641940314 ], [ 432298.324616684636567, 430989.62362359353574 ], [ 432277.588077400869224, 431010.911074348492548 ], [ 432277.524354326305911, 431010.977708628808614 ], [ 432265.456459714914672, 431023.832135419244878 ], [ 432263.07543652120512, 431026.361102959606797 ], [ 432263.070282900182065, 431026.36658505856758 ], [ 432261.826364760054275, 431027.691783785936423 ], [ 432232.489271261089016, 431053.700931876664981 ], [ 432221.137032184400596, 431063.697972280089743 ], [ 432220.72058175021084, 431064.110492466716096 ], [ 432220.355272034008522, 431064.568916593212634 ], [ 432217.965971963247284, 431067.957193213165738 ], [ 432217.727829210925847, 431068.328693631396163 ], [ 432217.523368811351247, 431068.71974410925759 ], [ 432217.354183302784804, 431069.127298761915881 ], [ 432216.064486746559851, 431072.667761510645505 ], [ 432215.921328822791111, 431073.128863873833325 ], [ 432214.587540939217433, 431078.29347327951109 ], [ 432224.269867021474056, 431080.793985554308165 ], [ 432225.543220278981607, 431075.863387299817987 ], [ 432226.522231382783502, 431073.175815307127777 ], [ 432228.188142528000753, 431070.813379607512616 ], [ 432239.104441354982555, 431061.200238121324219 ], [ 432239.116937921731733, 431061.189196305524092 ], [ 432268.631902971013915, 431035.022354082844686 ], [ 432268.960515636252239, 431034.702953623782378 ], [ 432270.35883921617642, 431033.213260235846974 ], [ 432272.7397284944891, 431030.684434931608848 ], [ 432272.74461473012343, 431030.679237667296547 ], [ 432284.783396290673409, 431017.855821388075128 ], [ 432305.486861055193003, 430996.602323742117733 ], [ 432373.078629124909639, 430927.238853431830648 ], [ 432457.168371040374041, 430840.933263513899874 ], [ 432483.147628025966696, 430814.276620330871083 ], [ 432502.546134098549373, 430803.427078583510593 ], [ 432523.589267765055411, 430793.70799958409043 ], [ 432523.956598411255982, 430793.519568677758798 ], [ 432524.307131764478981, 430793.301476086431649 ], [ 432524.638478056353051, 430793.055208660720382 ], [ 432551.270835441478994, 430771.498738332476933 ], [ 432544.979392177599948, 430763.725853304553311 ], [ 432518.830995427328162, 430784.89060152892489 ] ] ] } },
{ "type": "Feature", "properties": { "highway": "primary", "lane_markings": null, "maxspeed": "30 mph", "maxspeed:type": null, "name": "Wakefield Road", "surface": "asphalt", "osm_type": "way", "osm_id": 4371951, "lanes": "2", "lit": "yes", "oneway": "yes", "ref": "A639", "turn:lanes": null, "layer": null, "source": null, "lanes:backward": null, "lanes:forward": null, "turn:lanes:forward": null, "bicycle": null, "foot": null, "source:ref": null, "cycleway:both": null, "note": null, "source:name": null, "junction": null, "bus": null, "bus:lanes": null, "busway:left": null, "busway:right": null }, "geometry": { "type": "Polygon", "coordinates": [ [ [ 432002.649766524264123, 430926.597751433902886 ], [ 432006.078626044094563, 430939.017850075149909 ], [ 432006.134735487401485, 430939.213320640497841 ], [ 432011.192907535471022, 430956.182105695828795 ], [ 432011.210486302268691, 430956.240428201446775 ], [ 432015.922972097760066, 430971.704805064422544 ], [ 432015.957396074256394, 430971.815466161642689 ], [ 432017.08629031147575, 430975.371681660180911 ], [ 432019.247514721588232, 430982.183831203263253 ], [ 432019.257704948598985, 430982.215764881344512 ], [ 432020.811654110206291, 430987.057427502819337 ], [ 432025.865679458715022, 431003.571969586308114 ], [ 432044.990147428121418, 430997.719215970369987 ], [ 432039.916246358421631, 430981.139727945555933 ], [ 432039.875614573713392, 430981.010112026939169 ], [ 432038.306031224841718, 430976.119737734494265 ], [ 432036.149624722078443, 430969.322774169035256 ], [ 432035.037511516304221, 430965.819421419058926 ], [ 432030.350795287988149, 430950.439609330554958 ], [ 432025.330372370954137, 430933.597462294797879 ], [ 432021.9293926282553, 430921.278351247427054 ], [ 432018.983802133996505, 430910.600220938387793 ], [ 431999.703903195157181, 430915.918632064771373 ], [ 432002.649766524264123, 430926.597751433902886 ] ] ] } },
{ "type": "Feature", "properties": { "highway": "primary", "lane_markings": null, "maxspeed": "30 mph", "maxspeed:type": null, "name": "Thwaite Gate", "surface": "asphalt", "osm_type": "way", "osm_id": 4821590, "lanes": "3", "lit": "yes", "oneway": "yes", "ref": "A639", "turn:lanes": "left;through|through|right", "layer": null, "source": null, "lanes:backward": null, "lanes:forward": null, "turn:lanes:forward": null, "bicycle": null, "foot": null, "source:ref": null, "cycleway:both": null, "note": null, "source:name": null, "junction": null, "bus": null, "bus:lanes": null, "busway:left": null, "busway:right": null }, "geometry": { "type": "Polygon", "coordinates": [ [ [ 432005.522116820560768, 431191.103980014391709 ], [ 431978.124583728669677, 431210.485442214470822 ], [ 431978.114987201814074, 431210.492239424318541 ], [ 431974.981501885515172, 431212.714451737992931 ], [ 431957.298807039798703, 431225.218543040391523 ], [ 431968.84614356275415, 431241.548240503238048 ], [ 431986.534398833813611, 431229.040217217232566 ], [ 431986.545514370605815, 431229.032345646934118 ], [ 431989.679758525802754, 431226.809595178172458 ], [ 432017.263873510353733, 431207.296141901111696 ], [ 432017.640083344187587, 431207.016548759245779 ], [ 432038.690103278204333, 431190.592898931296077 ], [ 432026.387309067707974, 431174.824536473082844 ], [ 432005.522116820560768, 431191.103980014391709 ] ] ] } },
{ "type": "Feature", "properties": { "highway": "unclassified", "lane_markings": null, "maxspeed": null, "maxspeed:type": null, "name": "Cross Green Way", "surface": null, "osm_type": "way", "osm_id": 25024584, "lanes": null, "lit": null, "oneway": null, "ref": null, "turn:lanes": null, "layer": null, "source": null, "lanes:backward": null, "lanes:forward": null, "turn:lanes:forward": null, "bicycle": null, "foot": null, "source:ref": null, "cycleway:both": null, "note": null, "source:name": null, "junction": null, "bus": null, "bus:lanes": null, "busway:left": null, "busway:right": null }, "geometry": { "type": "Polygon", "coordinates": [ [ [ 432246.412494937248994, 432219.163613246171735 ], [ 432261.827446111536119, 432207.230591305589769 ], [ 432298.182088383415248, 432179.08585679938551 ], [ 432298.317888963792939, 432178.976889975077938 ], [ 432312.784023866988719, 432166.949240250163712 ], [ 432366.409754072374199, 432122.396279976062942 ], [ 432418.433176210673992, 432081.835997785557993 ], [ 432505.131143776874524, 432014.249778877652716 ], [ 432517.230537855997682, 432004.917778332019225 ], [ 432541.789165195194073, 431985.984364937001374 ], [ 432550.033813316957094, 431984.52700108080171 ], [ 432557.986360915820114, 431985.066092887602281 ], [ 432564.306729798030574, 431989.225945931684691 ], [ 432582.879985562467482, 432012.470546817872673 ], [ 432585.930820017121732, 432016.291940232040361 ], [ 432635.676167626981623, 432079.619633045978844 ], [ 432636.002230191195849, 432079.994734778592829 ], [ 432636.363921607960947, 432080.335612212074921 ], [ 432644.231008649861906, 432087.043882995261811 ], [ 432644.63047521020053, 432087.351131245144643 ], [ 432645.05884145462187, 432087.616607007745188 ], [ 432645.511755610117689, 432087.837613314681221 ], [ 432645.984616521338467, 432088.01190496259369 ], [ 432646.472620393964462, 432088.137711322517134 ], [ 432654.013193515711464, 432089.681080400012434 ], [ 432654.510816015477758, 432089.757065910089295 ], [ 432655.013556922262069, 432089.782630156376399 ], [ 432663.559814089094289, 432089.78643883485347 ], [ 432664.019119234231766, 432089.765503574046306 ], [ 432664.47455934638856, 432089.702465445268899 ], [ 432664.922283233201597, 432089.597857497690711 ], [ 432665.358504950243514, 432089.452564294100739 ], [ 432665.779535815527197, 432089.267814430815633 ], [ 432666.18181560037192, 432089.045170149067417 ], [ 432666.561942634929437, 432088.786514124483801 ], [ 432731.586323733325116, 432040.020761303661857 ], [ 432791.684967045090161, 431996.594920183939394 ], [ 432785.828176788054407, 431988.489489418978337 ], [ 432725.693547191331163, 432031.941333366848994 ], [ 432725.622042046568822, 432031.993973956210539 ], [ 432661.896435375965666, 432079.785696549515706 ], [ 432655.523326613882091, 432079.782856344478205 ], [ 432649.739475898677483, 432078.59904495527735 ], [ 432643.231922744191252, 432073.050049696466886 ], [ 432593.782554405799601, 432010.099149593501352 ], [ 432593.758071644813754, 432010.068233879748732 ], [ 432590.694288503960706, 432006.230621288530529 ], [ 432571.624123123823665, 431982.364132747694384 ], [ 432571.276016061368864, 431981.972461007535458 ], [ 432570.888829202973284, 431981.619372327986639 ], [ 432570.466815181076527, 431981.308744827168994 ], [ 432562.385543506592512, 431975.989925118745305 ], [ 432561.942073036683723, 431975.729698725393973 ], [ 432561.474222113087308, 431975.516392966441344 ], [ 432560.986938424699474, 431975.352263625711203 ], [ 432560.485375168616883, 431975.239046428992879 ], [ 432559.974836553563364, 431975.177938688080758 ], [ 432550.101942419889383, 431974.508669341332279 ], [ 432549.495722930238117, 431974.504410957393702 ], [ 432548.893444032641128, 431974.573550909524783 ], [ 432538.838858855480794, 431976.350847988738678 ], [ 432538.369170248799492, 431976.457428713154513 ], [ 432537.911915252567269, 431976.608705633087084 ], [ 432537.471336586633697, 431976.803275099315215 ], [ 432537.051522236608434, 431977.039331765263341 ], [ 432536.656367522722576, 431977.314685338293202 ], [ 432511.124481159087736, 431996.998430386418477 ], [ 432499.013617381453514, 432006.339277126186062 ], [ 432498.993183000828139, 432006.355122161272448 ], [ 432412.284902245097328, 432073.949380813457537 ], [ 432360.19993290072307, 432114.557648533722386 ], [ 432360.079045838967431, 432114.654952238779515 ], [ 432306.392920000711456, 432159.258089997107163 ], [ 432291.991615504084621, 432171.231837018334772 ], [ 432255.706013573158998, 432199.323122451081872 ], [ 432240.291415816696826, 432211.255870811408386 ], [ 432180.150236754096113, 432257.807667668559588 ], [ 432186.271219216519967, 432265.715484920772724 ], [ 432246.412494937248994, 432219.163613246171735 ] ] ] } },
{ "type": "Feature", "properties": { "highway": "unclassified", "lane_markings": null, "maxspeed": null, "maxspeed:type": null, "name": "Knowsthorpe Way", "surface": null, "osm_type": "way", "osm_id": 25024586, "lanes": null, "lit": null, "oneway": null, "ref": null, "turn:lanes": null, "layer": "1", "source": "survey", "lanes:backward": null, "lanes:forward": null, "turn:lanes:forward": null, "bicycle": null, "foot": null, "source:ref": null, "cycleway:both": null, "note": null, "source:name": null, "junction": null, "bus": null, "bus:lanes": null, "busway:left": null, "busway:right": null }, "geometry": { "type": "Polygon", "coordinates": [ [ [ 432710.164270419976674, 431822.065970868105069 ], [ 432730.802874688873999, 431805.976580435759388 ], [ 432737.508045235823374, 431800.749416959937662 ], [ 432738.027508215687703, 431800.282613558752928 ], [ 432754.428836796258111, 431783.329091913125012 ], [ 432754.883613229787443, 431782.786993892048486 ], [ 432759.167928952665534, 431776.876334868080448 ], [ 432769.01470837823581, 431763.305026143207215 ], [ 432769.222945408604573, 431762.994187214702833 ], [ 432789.227698316331953, 431730.571733122691512 ], [ 432803.112806485092733, 431709.669018613582011 ], [ 432812.841536042804364, 431699.813380084582604 ], [ 432826.340931382146664, 431686.133156518044416 ], [ 432841.409910485905129, 431670.871392997680232 ], [ 432868.102047482680064, 431647.535052415914834 ], [ 432905.129126980900764, 431636.751651161233895 ], [ 432977.297978108399548, 431624.112161380180623 ], [ 432999.324500001035631, 431623.060196175298188 ], [ 433046.6626683260547, 431620.800621429749299 ], [ 433055.697295942984056, 431620.363333905756008 ], [ 433089.431096292741131, 431618.720455706643406 ], [ 433089.503825984953437, 431618.716382430458907 ], [ 433119.072931317437906, 431616.844182723027188 ], [ 433118.441035905794706, 431606.864167282765266 ], [ 433088.908280584262684, 431608.734065450145863 ], [ 433055.21310091012856, 431610.375062997860368 ], [ 433046.184218752779998, 431610.812073547916953 ], [ 432998.847650227602571, 431613.071571930835489 ], [ 432976.506734351161867, 431614.138552284042817 ], [ 432975.882697715831455, 431614.207822608877905 ], [ 432903.132825980137568, 431626.949071028502658 ], [ 432902.597317296429537, 431627.073545217106584 ], [ 432864.244932710425928, 431638.242915247625206 ], [ 432863.73212542332476, 431638.423028673278168 ], [ 432863.24189797474537, 431638.657739577407483 ], [ 432862.780043130740523, 431638.944274501816835 ], [ 432862.352018392819446, 431639.279247610480525 ], [ 432834.689860948303249, 431663.463655454223044 ], [ 432834.422909688146319, 431663.714895170240197 ], [ 432819.224541458534077, 431679.107703151355963 ], [ 432805.724492532084696, 431692.788588852563407 ], [ 432795.656803838675842, 431702.987608158844523 ], [ 432795.3355949074612, 431703.345974968746305 ], [ 432795.050326696538832, 431703.733562372741289 ], [ 432780.851637943531387, 431725.108342734631151 ], [ 432780.761270217539277, 431725.249457561469171 ], [ 432760.810815463599283, 431757.583908597007394 ], [ 432751.073287628707476, 431771.004641483654268 ], [ 432746.995075811399147, 431776.630957809393294 ], [ 432731.08375403174432, 431793.077975310268812 ], [ 432724.654643284447957, 431798.089930285117589 ], [ 432704.015747921774164, 431814.179547647596337 ], [ 432670.880594711692538, 431840.018442240834702 ], [ 432677.029947198054288, 431847.904218296462204 ], [ 432710.164270419976674, 431822.065970868105069 ] ] ] } },
{ "type": "Feature", "properties": { "highway": "primary", "lane_markings": null, "maxspeed": "30 mph", "maxspeed:type": null, "name": "Wakefield Road", "surface": "asphalt", "osm_type": "way", "osm_id": 38933259, "lanes": "2", "lit": "yes", "oneway": "yes", "ref": "A639", "turn:lanes": "through|right", "layer": null, "source": null, "lanes:backward": null, "lanes:forward": null, "turn:lanes:forward": null, "bicycle": null, "foot": null, "source:ref": null, "cycleway:both": null, "note": null, "source:name": null, "junction": null, "bus": null, "bus:lanes": null, "busway:left": null, "busway:right": null }, "geometry": { "type": "Polygon", "coordinates": [ [ [ 432054.581693156098481, 431002.184961964492686 ], [ 432035.923618266999256, 431009.387478290940635 ], [ 432046.797311617468949, 431037.555715009570122 ], [ 432065.455386506568175, 431030.353198683122173 ], [ 432054.581693156098481, 431002.184961964492686 ] ] ] } },
{ "type": "Feature", "properties": { "highway": "unclassified", "lane_markings": null, "maxspeed": "30 mph", "maxspeed:type": "sign", "name": "Knowsthorpe Gate", "surface": "asphalt", "osm_type": "way", "osm_id": 39597631, "lanes": null, "lit": null, "oneway": null, "ref": null, "turn:lanes": null, "layer": null, "source": "survey", "lanes:backward": null, "lanes:forward": null, "turn:lanes:forward": null, "bicycle": null, "foot": null, "source:ref": null, "cycleway:both": null, "note": null, "source:name": null, "junction": null, "bus": null, "bus:lanes": null, "busway:left": null, "busway:right": null }, "geometry": { "type": "Polygon", "coordinates": [ [ [ 432810.991870981059037, 432027.317934356222395 ], [ 432844.919081488798838, 432068.408537849609274 ], [ 432847.548401819134597, 432071.717282059486024 ], [ 432847.551730723469518, 432071.7214665664942 ], [ 432859.198102165653836, 432086.345158637908753 ], [ 432893.190941321488936, 432128.998328677436803 ], [ 432903.076431224995758, 432141.397833469847683 ], [ 432920.941827481961809, 432165.133471958746668 ], [ 432950.051177861634642, 432203.81238985148957 ], [ 432957.414796200057026, 432213.599416807410307 ], [ 432957.464794844156131, 432213.664744645066094 ], [ 432965.607953296799678, 432224.125100248202216 ], [ 432965.742221168009564, 432224.290202789823525 ], [ 432975.047363760590088, 432235.247419457999058 ], [ 432999.970160504686646, 432264.622655153623782 ], [ 433001.986642084957566, 432267.457004921801854 ], [ 433001.990173111553304, 432267.46196171437623 ], [ 433019.880864760605618, 432292.54428105574334 ], [ 433028.022074090084061, 432286.737327409151476 ], [ 433010.133149457396939, 432261.657485382282175 ], [ 433007.994857209094334, 432258.651919550320599 ], [ 433007.733372563612647, 432258.315676529018674 ], [ 432982.671917435131036, 432228.777011232625227 ], [ 432973.433419625274837, 432217.898270914622117 ], [ 432965.380906004167628, 432207.55435381346615 ], [ 432958.041822426661383, 432197.799936147639528 ], [ 432928.931795895157848, 432159.120119750616141 ], [ 432911.024266101361718, 432135.328503401193302 ], [ 432910.939000911486801, 432135.218444776081014 ], [ 432901.010939806583337, 432122.765542471432127 ], [ 432867.019963062019087, 432080.114709790737834 ], [ 432855.375785982352681, 432065.49377305660164 ], [ 432852.719008148938883, 432062.150476246490143 ], [ 432852.660085537994746, 432062.077736380393617 ], [ 432818.702888970379718, 432020.950815568910912 ], [ 432792.611804362852126, 431989.358310521638487 ], [ 432784.901339470292442, 431995.726099081279244 ], [ 432810.991870981059037, 432027.317934356222395 ] ] ] } },
{ "type": "Feature", "properties": { "highway": "unclassified", "lane_markings": null, "maxspeed": null, "maxspeed:type": null, "name": "George Mann Road", "surface": "asphalt", "osm_type": "way", "osm_id": 39655093, "lanes": null, "lit": "yes", "oneway": null, "ref": null, "turn:lanes": null, "layer": null, "source": "survey", "lanes:backward": "1", "lanes:forward": "2", "turn:lanes:forward": "left;through|right", "bicycle": null, "foot": null, "source:ref": null, "cycleway:both": null, "note": null, "source:name": null, "junction": null, "bus": null, "bus:lanes": null, "busway:left": null, "busway:right": null }, "geometry": { "type": "Polygon", "coordinates": [ [ [ 432010.20388974796515, 431268.970169296197128 ], [ 431988.751543990685605, 431257.901892621943261 ], [ 431976.543215959041845, 431245.688883521244861 ], [ 431975.195300142746419, 431243.628729603718966 ], [ 431966.827264100429602, 431249.103761365637183 ], [ 431968.45790877082618, 431251.596037934534252 ], [ 431968.761279428668786, 431252.011389961000532 ], [ 431969.105715261714067, 431252.393378205306362 ], [ 431982.230125213682186, 431265.522820481855888 ], [ 431982.612657308694907, 431265.867952219210565 ], [ 431983.02867475815583, 431266.171886754280422 ], [ 431983.473760343389586, 431266.431396950036287 ], [ 432006.354313785617705, 431278.236553310300224 ], [ 432006.853020710346755, 431278.460243176843505 ], [ 432007.373164070595521, 431278.628161722503137 ], [ 432007.908528241561726, 431278.738302349229343 ], [ 432011.812660507741384, 431279.321225867723115 ], [ 432013.289384396979585, 431269.430862550041638 ], [ 432010.20388974796515, 431268.970169296197128 ] ] ] } },
{ "type": "Feature", "properties": { "highway": "unclassified", "lane_markings": null, "maxspeed": null, "maxspeed:type": null, "name": "Knowsthorpe Lane", "surface": null, "osm_type": "way", "osm_id": 39655863, "lanes": null, "lit": null, "oneway": null, "ref": null, "turn:lanes": null, "layer": null, "source": "survey", "lanes:backward": null, "lanes:forward": null, "turn:lanes:forward": null, "bicycle": "yes", "foot": "yes", "source:ref": "GPS", "cycleway:both": null, "note": null, "source:name": null, "junction": null, "bus": null, "bus:lanes": null, "busway:left": null, "busway:right": null }, "geometry": { "type": "Polygon", "coordinates": [ [ [ 432501.180854008242022, 431723.727916489704512 ], [ 432455.079168740368914, 431776.135296995111275 ], [ 432430.749517899937928, 431800.118226073565893 ], [ 432367.621177455119323, 431838.993985311069991 ], [ 432320.71823621582007, 431863.319064367853571 ], [ 432320.694947496522218, 431863.331220242544077 ], [ 432266.569389405020047, 431891.763994483859278 ], [ 432189.98632292606635, 431929.168932377826422 ], [ 432189.583040628232993, 431929.389414777397178 ], [ 432174.85351242532488, 431938.345336005091667 ], [ 432174.444202364888042, 431938.622825673839543 ], [ 432174.064304551808164, 431938.939389874984045 ], [ 432173.717534922296181, 431939.29193216440035 ], [ 432173.407285372028127, 431939.67700418154709 ], [ 432173.136590579117183, 431940.090839379292447 ], [ 432172.908098320069257, 431940.529389865987469 ], [ 432172.724043571390212, 431940.988365999714006 ], [ 432172.586226647952572, 431941.463278346811421 ], [ 432172.495995593490079, 431941.949481595074758 ], [ 432172.454232994990889, 431942.44221999135334 ], [ 432172.461347349511925, 431942.936673859599978 ], [ 432172.517269068630412, 431943.428006743837614 ], [ 432172.621451159066055, 431943.911412715911865 ], [ 432172.772874573129229, 431944.382163383997977 ], [ 432172.970058176433668, 431944.835654142894782 ], [ 432183.486182062071748, 431966.081212980207056 ], [ 432192.44837811763864, 431961.645106369396672 ], [ 432183.965930836042389, 431944.508152224996593 ], [ 432194.581759286462329, 431938.053463245276362 ], [ 432271.024043329409324, 431900.717286743572913 ], [ 432271.154931931872852, 431900.650961548555642 ], [ 432325.333819271414541, 431872.190172843751498 ], [ 432372.38836788496701, 431847.786466279474553 ], [ 432372.708241160027683, 431847.60535041987896 ], [ 432436.476878058922011, 431808.335283164517023 ], [ 432436.940718970203307, 431808.012107120943256 ], [ 432437.365113698120695, 431807.638636558433063 ], [ 432462.225950741500128, 431783.132091209641658 ], [ 432462.470045171154197, 431782.873736565001309 ], [ 432508.903955804882571, 431730.0886895803269 ], [ 432509.300069302378688, 431729.574631693947595 ], [ 432515.379167624108959, 431720.52645965985721 ], [ 432507.078611212840769, 431714.949653829971794 ], [ 432501.180854008242022, 431723.727916489704512 ] ] ] } },
{ "type": "Feature", "properties": { "highway": "unclassified", "lane_markings": null, "maxspeed": null, "maxspeed:type": null, "name": "Knowsthorpe Lane", "surface": null, "osm_type": "way", "osm_id": 39655865, "lanes": null, "lit": null, "oneway": null, "ref": null, "turn:lanes": null, "layer": null, "source": "survey", "lanes:backward": null, "lanes:forward": null, "turn:lanes:forward": null, "bicycle": "yes", "foot": "yes", "source:ref": "GPS", "cycleway:both": null, "note": null, "source:name": null, "junction": null, "bus": null, "bus:lanes": null, "busway:left": null, "busway:right": null }, "geometry": { "type": "Polygon", "coordinates": [ [ [ 432142.644902351952624, 431991.291326428938191 ], [ 432071.010984535387252, 432044.497223213198595 ], [ 432052.043754080194049, 432058.575610521773342 ], [ 432051.952044104691595, 432058.645334934059065 ], [ 432034.655539172759745, 432072.112603231274989 ], [ 432040.799046319734771, 432080.002934018673841 ], [ 432058.050097920175176, 432066.571056236047298 ], [ 432076.971717864042148, 432052.52652323449729 ], [ 432148.60696941963397, 431999.319636110507417 ], [ 432190.948212855088059, 431967.877389345492702 ], [ 432184.986347324622329, 431959.848930004111025 ], [ 432142.644902351952624, 431991.291326428938191 ] ] ] } },
{ "type": "Feature", "properties": { "highway": "unclassified", "lane_markings": null, "maxspeed": "30 mph", "maxspeed:type": "sign", "name": "Knowsthorpe Gate", "surface": "asphalt", "osm_type": "way", "osm_id": 39657187, "lanes": null, "lit": null, "oneway": null, "ref": null, "turn:lanes": null, "layer": null, "source": "survey and extrapolation", "lanes:backward": null, "lanes:forward": null, "turn:lanes:forward": null, "bicycle": null, "foot": null, "source:ref": null, "cycleway:both": "no", "note": null, "source:name": null, "junction": null, "bus": null, "bus:lanes": null, "busway:left": null, "busway:right": null }, "geometry": { "type": "Polygon", "coordinates": [ [ [ 432589.099673813092522, 431783.637709738803096 ], [ 432598.63646954257274, 431786.580392938747536 ], [ 432636.035380373476073, 431815.48085888219066 ], [ 432653.105999537976459, 431831.376958457462024 ], [ 432670.267032541858498, 431847.358970105880871 ], [ 432693.937805202556774, 431877.368221567769069 ], [ 432714.060046117927413, 431904.679910589125939 ], [ 432714.139285538869444, 431904.784556617261842 ], [ 432784.810380013776012, 431995.612639537197538 ], [ 432792.702763819368556, 431989.471770065720193 ], [ 432722.0719759161002, 431898.695490059792064 ], [ 432701.939893959846813, 431871.370443905470893 ], [ 432701.840195749944542, 431871.239682997926138 ], [ 432677.881004068709444, 431840.864780653500929 ], [ 432677.63270921522053, 431840.573639633192215 ], [ 432677.362877308041789, 431840.302338748879265 ], [ 432659.921114201075397, 431824.058884110592771 ], [ 432642.681988280266523, 431808.005871636036318 ], [ 432642.331902340170927, 431807.708687877922785 ], [ 432604.034004762768745, 431778.113518926489633 ], [ 432603.667495189642068, 431777.8556727989926 ], [ 432603.279371498851106, 431777.631677501543891 ], [ 432602.872751315473579, 431777.443332288879901 ], [ 432602.450900838884991, 431777.292150054359809 ], [ 432592.048360355547629, 431774.082331793324556 ], [ 432567.041332201042678, 431766.365193729405291 ], [ 432564.092562285310123, 431775.920545945991762 ], [ 432589.099673813092522, 431783.637709738803096 ] ] ] } },
{ "type": "Feature", "properties": { "highway": "unclassified", "lane_markings": null, "maxspeed": null, "maxspeed:type": null, "name": "Lockside Road", "surface": null, "osm_type": "way", "osm_id": 173306259, "lanes": null, "lit": null, "oneway": null, "ref": null, "turn:lanes": null, "layer": null, "source": null, "lanes:backward": null, "lanes:forward": null, "turn:lanes:forward": null, "bicycle": null, "foot": null, "source:ref": null, "cycleway:both": null, "note": null, "source:name": null, "junction": null, "bus": null, "bus:lanes": null, "busway:left": null, "busway:right": null }, "geometry": { "type": "Polygon", "coordinates": [ [ [ 432295.094938846305013, 431067.627823409799021 ], [ 432340.951722102588974, 431112.793658038368449 ], [ 432347.968911582953297, 431105.669119330821559 ], [ 432302.112061155436095, 431060.503218543133698 ], [ 432268.82341228792211, 431027.718587634386495 ], [ 432261.806487907597329, 431034.843387437984347 ], [ 432295.094938846305013, 431067.627823409799021 ] ] ] } },
{ "type": "Feature", "properties": { "highway": "primary", "lane_markings": null, "maxspeed": "30 mph", "maxspeed:type": null, "name": "Thwaite Gate", "surface": "asphalt", "osm_type": "way", "osm_id": 660014812, "lanes": "2", "lit": "yes", "oneway": "yes", "ref": "A639", "turn:lanes": null, "layer": null, "source": null, "lanes:backward": null, "lanes:forward": null, "turn:lanes:forward": null, "bicycle": null, "foot": null, "source:ref": null, "cycleway:both": null, "note": null, "source:name": null, "junction": null, "bus": null, "bus:lanes": null, "busway:left": null, "busway:right": null }, "geometry": { "type": "Polygon", "coordinates": [ [ [ 432008.610767707054038, 431226.058556283358485 ], [ 432009.541946683370043, 431225.103289566235617 ], [ 432040.149121981987264, 431189.195748703670688 ], [ 432024.928290363925043, 431176.221686700708233 ], [ 431994.754774648346938, 431211.6204694355838 ], [ 431964.332045288872905, 431238.923947766073979 ], [ 431977.690518954303116, 431253.80854320328217 ], [ 432008.610767707054038, 431226.058556283358485 ] ] ] } },
{ "type": "Feature", "properties": { "highway": "primary", "lane_markings": null, "maxspeed": "30 mph", "maxspeed:type": null, "name": "Thwaite Gate", "surface": "asphalt", "osm_type": "way", "osm_id": 660014814, "lanes": null, "lit": "yes", "oneway": null, "ref": "A639", "turn:lanes": null, "layer": null, "source": null, "lanes:backward": "2", "lanes:forward": "2", "turn:lanes:forward": "through|right", "bicycle": null, "foot": null, "source:ref": null, "cycleway:both": null, "note": null, "source:name": null, "junction": null, "bus": null, "bus:lanes": null, "busway:left": null, "busway:right": null }, "geometry": { "type": "Polygon", "coordinates": [ [ [ 432042.90730925288517, 431184.904847238853108 ], [ 432062.97469341714168, 431151.954531038354617 ], [ 432045.893179453967605, 431141.551556428952608 ], [ 432025.824230823665857, 431174.504441457043868 ], [ 432023.994821901840623, 431177.512368833762594 ], [ 432041.082590444071684, 431187.905066570616327 ], [ 432042.90730925288517, 431184.904847238853108 ] ] ] } },
{ "type": "Feature", "properties": { "highway": "primary", "lane_markings": null, "maxspeed": "30 mph", "maxspeed:type": null, "name": "Wakefield Road", "surface": "asphalt", "osm_type": "way", "osm_id": 660133159, "lanes": "3", "lit": "yes", "oneway": "yes", "ref": "A639", "turn:lanes": "left|left|through;right", "layer": null, "source": null, "lanes:backward": null, "lanes:forward": null, "turn:lanes:forward": null, "bicycle": null, "foot": null, "source:ref": null, "cycleway:both": null, "note": null, "source:name": null, "junction": null, "bus": null, "bus:lanes": null, "busway:left": null, "busway:right": null }, "geometry": { "type": "Polygon", "coordinates": [ [ [ 432043.422359264979605, 431053.0816556540085 ], [ 432048.849747585540172, 431071.460939978598617 ], [ 432049.141087657248136, 431072.30636191891972 ], [ 432049.506786073849071, 431073.122377827239688 ], [ 432049.943918647593819, 431073.902462699217722 ], [ 432050.448989990865812, 431074.640378841315396 ], [ 432051.017961465753615, 431075.330225748417433 ], [ 432060.175681753549725, 431085.473211017379072 ], [ 432075.020417543128133, 431072.070456847606692 ], [ 432067.386803509492893, 431063.615554070624057 ], [ 432062.529580463364255, 431047.167074964381754 ], [ 432062.368730248359498, 431046.670478443847969 ], [ 432053.620546247169841, 431021.888032374088652 ], [ 432034.761083127174061, 431028.545408045290969 ], [ 432043.422359264979605, 431053.0816556540085 ] ] ] } },
{ "type": "Feature", "properties": { "highway": "secondary", "lane_markings": null, "maxspeed": null, "maxspeed:type": null, "name": "Pontefract Road", "surface": "asphalt", "osm_type": "way", "osm_id": 660133162, "lanes": "2", "lit": "yes", "oneway": null, "ref": "B6481", "turn:lanes": null, "layer": null, "source": null, "lanes:backward": "1", "lanes:forward": "1", "turn:lanes:forward": null, "bicycle": null, "foot": null, "source:ref": "OS_OpenData_StreetView", "cycleway:both": null, "note": "license remap", "source:name": "OS_OpenData_StreetView", "junction": null, "bus": null, "bus:lanes": null, "busway:left": null, "busway:right": null }, "geometry": { "type": "Polygon", "coordinates": [ [ [ 432372.289466390677262, 430797.792060251755174 ], [ 432372.247490613663103, 430797.833947498933412 ], [ 432361.058111090562306, 430809.082802388176788 ], [ 432299.561153284856118, 430870.877433369518258 ], [ 432299.488632888882421, 430870.951253609266132 ], [ 432281.127904728346039, 430889.884480977896601 ], [ 432280.968727131199557, 430890.053460041061044 ], [ 432223.459600068628788, 430952.90643608267419 ], [ 432179.648176619550213, 430997.831998455978464 ], [ 432156.423560302995611, 431021.650651207135525 ], [ 432149.182229432219174, 431029.077976997592486 ], [ 432140.786334566888399, 431037.687631363747641 ], [ 432133.749743357650004, 431044.906073987018317 ], [ 432145.206848716945387, 431056.074544642586261 ], [ 432152.241873469436541, 431048.857708758790977 ], [ 432160.637552751926705, 431040.248275464167818 ], [ 432167.87936481932411, 431032.820456170826219 ], [ 432191.103232645487878, 431009.002571025223006 ], [ 432235.003309783933219, 430963.986100470006932 ], [ 432235.178075744479429, 430963.801091871690005 ], [ 432292.694751388276927, 430900.939865821506828 ], [ 432310.938643285422586, 430882.127117745403666 ], [ 432372.399768787552603, 430820.36849251226522 ], [ 432383.570237405772787, 430809.138649362372234 ], [ 432394.771304741268978, 430798.043754318438005 ], [ 432383.511599236284383, 430786.676299372746143 ], [ 432372.289466390677262, 430797.792060251755174 ] ] ] } },
{ "type": "Feature", "properties": { "highway": "unclassified", "lane_markings": null, "maxspeed": null, "maxspeed:type": null, "name": "George Mann Road", "surface": null, "osm_type": "way", "osm_id": 660133164, "lanes": "2", "lit": null, "oneway": null, "ref": null, "turn:lanes": null, "layer": null, "source": "survey", "lanes:backward": null, "lanes:forward": null, "turn:lanes:forward": null, "bicycle": null, "foot": null, "source:ref": null, "cycleway:both": null, "note": null, "source:name": null, "junction": null, "bus": null, "bus:lanes": null, "busway:left": null, "busway:right": null }, "geometry": { "type": "Polygon", "coordinates": [ [ [ 432073.762251445325091, 431270.964408744126558 ], [ 432073.743363321234938, 431270.965987418370787 ], [ 432041.814916540810373, 431273.685365243058186 ], [ 432038.130337789421901, 431273.998207822849508 ], [ 432013.871957088354975, 431268.523255840293132 ], [ 432011.230087816365995, 431280.228832577471621 ], [ 432036.393026786798146, 431285.907937225885689 ], [ 432036.997186271182727, 431286.012181120284367 ], [ 432037.608829594450071, 431286.054227728163823 ], [ 432038.221570597554091, 431286.033638041524682 ], [ 432042.830921579559799, 431285.642276816943195 ], [ 432074.752285565482453, 431282.923502449470107 ], [ 432111.946695045160595, 431279.873935275361873 ], [ 432110.966106248146389, 431267.914067148580216 ], [ 432073.762251445325091, 431270.964408744126558 ] ] ] } },
{ "type": "Feature", "properties": { "highway": "secondary", "lane_markings": null, "maxspeed": null, "maxspeed:type": null, "name": "Pontefract Road", "surface": "asphalt", "osm_type": "way", "osm_id": 934142473, "lanes": "2", "lit": "yes", "oneway": "yes", "ref": "B6481", "turn:lanes": "left;through|through;right", "layer": null, "source": null, "lanes:backward": null, "lanes:forward": null, "turn:lanes:forward": null, "bicycle": null, "foot": null, "source:ref": null, "cycleway:both": null, "note": null, "source:name": null, "junction": null, "bus": null, "bus:lanes": null, "busway:left": null, "busway:right": null }, "geometry": { "type": "Polygon", "coordinates": [ [ [ 432111.967692792299204, 431051.414999988628551 ], [ 432107.535095130093396, 431051.97792936116457 ], [ 432107.332306700700428, 431052.006324648333248 ], [ 432100.134137906075921, 431053.108346632216126 ], [ 432086.986262334161438, 431053.135564002033789 ], [ 432087.019383805454709, 431069.135529719700571 ], [ 432100.767773613682948, 431069.107069227553438 ], [ 432101.36655665532453, 431069.083385763515253 ], [ 432101.9618870219565, 431069.01494752819417 ], [ 432109.652442488761153, 431067.837542352732271 ], [ 432114.788429410196841, 431067.185284215258434 ], [ 432115.584140809020028, 431067.04306635283865 ], [ 432116.361439100350253, 431066.821278352814261 ], [ 432142.059191441978328, 431058.062559899000917 ], [ 432136.897400632617064, 431042.918058730603661 ], [ 432111.967692792299204, 431051.414999988628551 ] ] ] } },
{ "type": "Feature", "properties": { "highway": "primary", "lane_markings": null, "maxspeed": null, "maxspeed:type": null, "name": null, "surface": "asphalt", "osm_type": "way", "osm_id": 934142474, "lanes": "2", "lit": "yes", "oneway": "yes", "ref": null, "turn:lanes": null, "layer": null, "source": null, "lanes:backward": null, "lanes:forward": null, "turn:lanes:forward": null, "bicycle": null, "foot": null, "source:ref": null, "cycleway:both": null, "note": null, "source:name": null, "junction": "circular", "bus": null, "bus:lanes": null, "busway:left": null, "busway:right": null }, "geometry": { "type": "Polygon", "coordinates": [ [ [ 432082.772830810921732, 431050.660338904766832 ], [ 432081.642331977374852, 431050.611129063821863 ], [ 432080.513511360506527, 431050.689953146793414 ], [ 432079.400822935102042, 431050.895801851293072 ], [ 432074.304304599470925, 431052.140529317432083 ], [ 432073.225848750444129, 431052.469349248800427 ], [ 432072.191262029227801, 431052.91747856256552 ], [ 432071.213695994287264, 431053.479220685723703 ], [ 432066.824518298555631, 431056.342104724200908 ], [ 432065.913475394947454, 431057.012737074226607 ], [ 432065.084006442513783, 431057.781975774501916 ], [ 432064.346726544608828, 431058.63997651648242 ], [ 432061.161373710492626, 431062.801740119350143 ], [ 432060.522265666455496, 431063.743285563075915 ], [ 432059.994266847206745, 431064.751345165248495 ], [ 432059.584214662783779, 431065.812864887469914 ], [ 432057.981678997224662, 431070.786533058329951 ], [ 432057.701425211387686, 431071.855411047872622 ], [ 432057.540813878527842, 431072.94868427113397 ], [ 432057.501806131040212, 431074.05300339916721 ], [ 432057.600043651764281, 431078.971523923915811 ], [ 432077.596055644913577, 431078.572143941069953 ], [ 432077.531240791955497, 431075.327017412986606 ], [ 432078.091561652021483, 431073.587992137530819 ], [ 432079.186740678618662, 431072.157106314552948 ], [ 432080.709109997202177, 431071.164126051531639 ], [ 432082.480154777877033, 431070.731582119187806 ], [ 432086.003388917539269, 431071.085478085500654 ], [ 432088.002257222076878, 431051.185615636233706 ], [ 432082.772830810921732, 431050.660338904766832 ] ] ] } },
{ "type": "Feature", "properties": { "highway": "primary", "lane_markings": null, "maxspeed": "30 mph", "maxspeed:type": null, "name": "Wakefield Road", "surface": "asphalt", "osm_type": "way", "osm_id": 975259752, "lanes": "3", "lit": "yes", "oneway": "yes", "ref": "A639", "turn:lanes": "through|through|right", "layer": null, "source": null, "lanes:backward": null, "lanes:forward": null, "turn:lanes:forward": null, "bicycle": null, "foot": null, "source:ref": null, "cycleway:both": null, "note": null, "source:name": null, "junction": null, "bus": null, "bus:lanes": null, "busway:left": null, "busway:right": null }, "geometry": { "type": "Polygon", "coordinates": [ [ [ 432049.683261036290787, 430989.334944132482633 ], [ 432049.071704662695993, 430986.715212515322492 ], [ 432047.486406449461356, 430977.483215784770437 ], [ 432027.774911581655033, 430980.868030414334498 ], [ 432029.410384145390708, 430990.39221787347924 ], [ 432029.527954512275755, 430990.973113752668723 ], [ 432030.360436032991856, 430994.539225160609931 ], [ 432030.754529843688942, 430995.827959038200788 ], [ 432035.908572455227841, 431009.348257199279033 ], [ 432054.596738967869896, 431002.224183056154288 ], [ 432049.683261036290787, 430989.334944132482633 ] ] ] } },
{ "type": "Feature", "properties": { "highway": "primary", "lane_markings": null, "maxspeed": "30 mph", "maxspeed:type": null, "name": "Wakefield Road", "surface": "asphalt", "osm_type": "way", "osm_id": 975259753, "lanes": "2", "lit": "yes", "oneway": "yes", "ref": "A639", "turn:lanes": null, "layer": null, "source": null, "lanes:backward": null, "lanes:forward": null, "turn:lanes:forward": null, "bicycle": null, "foot": null, "source:ref": null, "cycleway:both": null, "note": null, "source:name": null, "junction": null, "bus": "designated|yes", "bus:lanes": "designated|yes", "busway:left": "lane", "busway:right": "no" }, "geometry": { "type": "Polygon", "coordinates": [ [ [ 432034.771878635918256, 431028.575833733018953 ], [ 432053.609750738425646, 431021.857606686360668 ], [ 432044.846849494671915, 430997.286479255009908 ], [ 432026.008977392164525, 431004.004706301668193 ], [ 432034.771878635918256, 431028.575833733018953 ] ] ] } },
{ "type": "Feature", "properties": { "highway": "primary", "lane_markings": null, "maxspeed": "30 mph", "maxspeed:type": null, "name": "Thwaite Gate", "surface": "asphalt", "osm_type": "way", "osm_id": 975259754, "lanes": "2", "lit": "yes", "oneway": "yes", "ref": "A639", "turn:lanes": "left|left", "layer": null, "source": null, "lanes:backward": null, "lanes:forward": null, "turn:lanes:forward": null, "bicycle": null, "foot": null, "source:ref": null, "cycleway:both": null, "note": null, "source:name": null, "junction": null, "bus": null, "bus:lanes": null, "busway:left": null, "busway:right": null }, "geometry": { "type": "Polygon", "coordinates": [ [ [ 432054.954002307262272, 431087.464737496105954 ], [ 432054.777765752049163, 431088.260787812236231 ], [ 432054.666965014243033, 431089.06854930287227 ], [ 432054.021222457813565, 431095.806714232894592 ], [ 432054.016279080649838, 431095.859786246146541 ], [ 432052.537190793838818, 431112.211044258438051 ], [ 432051.816164941934403, 431114.963758181373123 ], [ 432051.479572958312929, 431116.240305496728979 ], [ 432047.88855064677773, 431127.850761513982434 ], [ 432044.540883340523578, 431136.193074381153565 ], [ 432044.231746536272112, 431137.08246632036753 ], [ 432044.007631122192834, 431137.996991260675713 ], [ 432043.870524068770465, 431138.928541174042039 ], [ 432043.821640944632236, 431139.868857091933023 ], [ 432043.861415139574092, 431140.80960232776124 ], [ 432044.473827874637209, 431147.645365119213238 ], [ 432064.394044996472076, 431145.860722348093987 ], [ 432063.995731339906342, 431141.414737611135934 ], [ 432066.60196826455649, 431134.920052852423396 ], [ 432066.87481186905643, 431134.150663399195764 ], [ 432070.648828245932236, 431121.948552871646825 ], [ 432070.764860958559439, 431121.543333228444681 ], [ 432071.157274339988362, 431120.055079577141441 ], [ 432071.161413600551896, 431120.039329148188699 ], [ 432072.095252759987488, 431116.474142062186729 ], [ 432072.271989521686919, 431115.663595252437517 ], [ 432072.380933712411206, 431114.84118831116939 ], [ 432073.932551893987693, 431097.68811540142633 ], [ 432074.497778320685029, 431091.790116504067555 ], [ 432077.265405868238304, 431081.329611037159339 ], [ 432057.930693428439554, 431076.214056827826425 ], [ 432054.954002307262272, 431087.464737496105954 ] ] ] } },
{ "type": "Feature", "properties": { "highway": "primary", "lane_markings": null, "maxspeed": "30 mph", "maxspeed:type": null, "name": "Thwaite Gate", "surface": "asphalt", "osm_type": "way", "osm_id": 975259756, "lanes": "2", "lit": "yes", "oneway": "yes", "ref": "A639", "turn:lanes": null, "layer": null, "source": null, "lanes:backward": null, "lanes:forward": null, "turn:lanes:forward": "through|through", "bicycle": null, "foot": null, "source:ref": null, "cycleway:both": null, "note": null, "source:name": null, "junction": null, "bus": null, "bus:lanes": null, "busway:left": null, "busway:right": null }, "geometry": { "type": "Polygon", "coordinates": [ [ [ 432064.533502027741633, 431151.810640662733931 ], [ 432065.353874844266102, 431151.153272514231503 ], [ 432066.100703654577956, 431150.413413629925344 ], [ 432066.765734921675175, 431149.599240519106388 ], [ 432067.341619089478627, 431148.719750970543828 ], [ 432074.057084679894615, 431137.183047891303431 ], [ 432074.103147455258295, 431137.103068601631094 ], [ 432078.371144444623496, 431129.612785777077079 ], [ 432078.788170107873157, 431128.881690299022011 ], [ 432082.409660865319893, 431124.503704199625645 ], [ 432082.974359653249849, 431123.751665094983764 ], [ 432083.465913872641977, 431122.949903294036631 ], [ 432084.880684858595487, 431120.378248560416978 ], [ 432067.357405159913469, 431110.737985669693444 ], [ 432066.397453659272287, 431112.482906823162921 ], [ 432062.825535779062193, 431116.800964737718459 ], [ 432062.304451399715617, 431117.489374136086553 ], [ 432061.844690133817494, 431118.220165493839886 ], [ 432060.997543580480851, 431119.705313936749008 ], [ 432056.74898766289698, 431127.161475793516729 ], [ 432051.130833325325511, 431136.813074416597374 ], [ 432048.599612955353223, 431138.631426312902477 ], [ 432060.268259915756062, 431154.874661154404748 ], [ 432064.533502027741633, 431151.810640662733931 ] ] ] } },
{ "type": "Feature", "properties": { "highway": "primary", "lane_markings": null, "maxspeed": null, "maxspeed:type": null, "name": "Thwaite Gate", "surface": "asphalt", "osm_type": "way", "osm_id": 975259757, "lanes": "3", "lit": "yes", "oneway": "yes", "ref": "A639", "turn:lanes": null, "layer": null, "source": null, "lanes:backward": null, "lanes:forward": null, "turn:lanes:forward": null, "bicycle": null, "foot": null, "source:ref": null, "cycleway:both": null, "note": null, "source:name": null, "junction": null, "bus": null, "bus:lanes": null, "busway:left": null, "busway:right": null }, "geometry": { "type": "Polygon", "coordinates": [ [ [ 432085.845612045901362, 431118.630352259671781 ], [ 432093.885728783963714, 431110.3658154324512 ], [ 432095.867150118690915, 431108.355432807118632 ], [ 432095.877709066902753, 431108.344703383452725 ], [ 432102.328666692832485, 431101.779717645782512 ], [ 432088.063184202299453, 431087.762014220759738 ], [ 432081.617502011533361, 431094.321631273895036 ], [ 432079.61852153565269, 431096.349829692160711 ], [ 432079.572987551568076, 431096.396330926800147 ], [ 432070.572908249741886, 431105.647625312325545 ], [ 432069.981021121377125, 431106.312888243817724 ], [ 432069.450660287344363, 431107.028166180360131 ], [ 432068.986031005973928, 431107.787787646404468 ], [ 432067.364451484347228, 431110.725199547596276 ], [ 432084.873638534161728, 431120.391034682514146 ], [ 432085.845612045901362, 431118.630352259671781 ] ] ] } },
{ "type": "Feature", "properties": { "highway": "primary", "lane_markings": null, "maxspeed": null, "maxspeed:type": null, "name": "Wakefield Road", "surface": "asphalt", "osm_type": "way", "osm_id": 975259758, "lanes": "2", "lit": "yes", "oneway": "yes", "ref": "A639", "turn:lanes": null, "layer": null, "source": null, "lanes:backward": null, "lanes:forward": null, "turn:lanes:forward": null, "bicycle": null, "foot": null, "source:ref": null, "cycleway:both": null, "note": null, "source:name": null, "junction": null, "bus": null, "bus:lanes": null, "busway:left": null, "busway:right": null }, "geometry": { "type": "Polygon", "coordinates": [ [ [ 432079.845619760395493, 431047.527536042209249 ], [ 432074.198286647966597, 431043.061441527039278 ], [ 432069.747021557064727, 431036.187404401774984 ], [ 432069.616256394656375, 431035.99060114583699 ], [ 432064.389414380362723, 431028.32225021434715 ], [ 432047.863283743674401, 431039.586663478345145 ], [ 432053.023580550274346, 431047.157385286176577 ], [ 432058.307377851975616, 431055.317092262150254 ], [ 432058.948523220489733, 431056.198006923543289 ], [ 432059.681699010252487, 431057.003941961622331 ], [ 432060.498201852606144, 431057.725330298591871 ], [ 432068.587461581046227, 431064.12257972342195 ], [ 432069.375199937203433, 431064.685773098492064 ], [ 432070.213718264130875, 431065.170134028885514 ], [ 432071.095153620350175, 431065.571120572567452 ], [ 432083.307508628990036, 431070.427729122515302 ], [ 432090.698137510626111, 431051.843364599219058 ], [ 432079.845619760395493, 431047.527536042209249 ] ] ] } },
{ "type": "Feature", "properties": { "highway": "primary", "lane_markings": null, "maxspeed": null, "maxspeed:type": null, "name": null, "surface": "asphalt", "osm_type": "way", "osm_id": 975259759, "lanes": "2", "lit": "yes", "oneway": "yes", "ref": null, "turn:lanes": null, "layer": null, "source": null, "lanes:backward": null, "lanes:forward": null, "turn:lanes:forward": null, "bicycle": null, "foot": null, "source:ref": null, "cycleway:both": null, "note": null, "source:name": null, "junction": "circular", "bus": null, "bus:lanes": null, "busway:left": null, "busway:right": null }, "geometry": { "type": "Polygon", "coordinates": [ [ [ 432063.613845792482607, 431090.595023180532735 ], [ 432064.213142149616033, 431091.376756199402735 ], [ 432064.886439881112892, 431092.095736589399166 ], [ 432065.627206230652519, 431092.744988352467772 ], [ 432066.428253819118254, 431093.318212041282095 ], [ 432067.281810381100513, 431093.80984588060528 ], [ 432072.214150327199604, 431096.335827542818151 ], [ 432073.13300810859073, 431096.749363300565165 ], [ 432074.088817303185351, 431097.068330742418766 ], [ 432078.838238033582456, 431098.391421778243966 ], [ 432079.566168036311865, 431098.565138830628712 ], [ 432082.685890943626873, 431099.187269202258904 ], [ 432082.730855609988794, 431099.196128903713543 ], [ 432084.093310242693406, 431099.461341069138143 ], [ 432085.144542671390809, 431099.608575630409177 ], [ 432086.205459445889574, 431099.643550374836195 ], [ 432087.264106499380432, 431099.565871218219399 ], [ 432088.308555339404847, 431099.37641342432471 ], [ 432089.327037454582751, 431099.077311742119491 ], [ 432091.616051930526737, 431098.27083971776301 ], [ 432094.407149133854546, 431097.289774510776624 ], [ 432095.288549718912691, 431096.932007160910871 ], [ 432096.131968686997425, 431096.492110682127532 ], [ 432096.929774239717517, 431095.974065541173331 ], [ 432097.674747317971196, 431095.382559344638139 ], [ 432103.177884140750393, 431090.569065090850927 ], [ 432103.941870458191261, 431089.825300779019017 ], [ 432104.622323950519785, 431089.004421074292623 ], [ 432105.211508810985833, 431088.115758233296219 ], [ 432107.638680779957213, 431083.993337682855781 ], [ 432090.404051523772068, 431073.846044723701198 ], [ 432088.795720943366177, 431076.577707383548841 ], [ 432085.957451853435487, 431079.0602900259546 ], [ 432085.257548071851488, 431079.306304836005438 ], [ 432083.844740219879895, 431079.02456485456787 ], [ 432080.430411264009308, 431078.07340295688482 ], [ 432078.636544717301149, 431077.154716481280047 ], [ 432075.824288607109338, 431073.085974930261727 ], [ 432059.37181068956852, 431084.457692934724037 ], [ 432063.613845792482607, 431090.595023180532735 ] ] ] } },
{ "type": "Feature", "properties": { "highway": "primary", "lane_markings": null, "maxspeed": null, "maxspeed:type": null, "name": null, "surface": "asphalt", "osm_type": "way", "osm_id": 975259760, "lanes": "2", "lit": "yes", "oneway": "yes", "ref": null, "turn:lanes": null, "layer": null, "source": null, "lanes:backward": null, "lanes:forward": null, "turn:lanes:forward": null, "bicycle": null, "foot": null, "source:ref": null, "cycleway:both": null, "note": null, "source:name": null, "junction": "circular", "bus": null, "bus:lanes": null, "busway:left": null, "busway:right": null }, "geometry": { "type": "Polygon", "coordinates": [ [ [ 432089.060997545311693, 431074.332626622694079 ], [ 432089.021746561978944, 431078.832467020314652 ], [ 432109.020985741750337, 431079.006915386242326 ], [ 432109.081833995354827, 431072.031104684865568 ], [ 432109.043150651676115, 431071.060846471751574 ], [ 432108.910545899067074, 431070.098914363537915 ], [ 432108.685270064219367, 431069.154378393082879 ], [ 432108.369447267090436, 431068.236144565569703 ], [ 432107.966055392695125, 431067.352870883827563 ], [ 432106.905710070743226, 431065.301047861168627 ], [ 432105.598285122599918, 431062.73579777154373 ], [ 432105.058409473916981, 431061.804185704386327 ], [ 432104.42149857111508, 431060.936020246939734 ], [ 432103.694936547370162, 431060.141366620955523 ], [ 432100.853638026979752, 431057.351490815461148 ], [ 432100.119773161073681, 431056.698523486556951 ], [ 432099.325384989439044, 431056.120707419933751 ], [ 432098.478138754027896, 431055.623618101351894 ], [ 432096.363483368302695, 431054.518788132350892 ], [ 432096.022921236755792, 431054.349025595234707 ], [ 432091.292965837579686, 431052.102569775073789 ], [ 432082.71268030203646, 431070.168523946660571 ], [ 432087.270739356114063, 431072.333338924101554 ], [ 432087.900700233178213, 431072.662470403825864 ], [ 432088.519394509552512, 431073.269967356522102 ], [ 432089.060997545311693, 431074.332626622694079 ] ] ] } },
{ "type": "Feature", "properties": { "highway": "secondary", "lane_markings": null, "maxspeed": null, "maxspeed:type": null, "name": "Pontefract Road", "surface": "asphalt", "osm_type": "way", "osm_id": 975259761, "lanes": "1", "lit": "yes", "oneway": "yes", "ref": "B6481", "turn:lanes": null, "layer": null, "source": null, "lanes:backward": null, "lanes:forward": null, "turn:lanes:forward": null, "bicycle": null, "foot": null, "source:ref": null, "cycleway:both": null, "note": null, "source:name": null, "junction": null, "bus": null, "bus:lanes": null, "busway:left": null, "busway:right": null }, "geometry": { "type": "Polygon", "coordinates": [ [ [ 432124.609466782887466, 431078.302732127544004 ], [ 432125.071695399528835, 431077.903883998515084 ], [ 432125.502162063086871, 431077.47094800369814 ], [ 432145.362407572334632, 431055.910386015661061 ], [ 432133.594184502260759, 431045.070232613943517 ], [ 432114.14847829984501, 431066.180764897260815 ], [ 432107.482888908591121, 431071.502497445151675 ], [ 432117.465721418266185, 431084.006219094560947 ], [ 432124.609466782887466, 431078.302732127544004 ] ] ] } },
{ "type": "Feature", "properties": { "highway": "secondary", "lane_markings": null, "maxspeed": null, "maxspeed:type": null, "name": "Pontefract Road", "surface": "asphalt", "osm_type": "way", "osm_id": 975259763, "lanes": "2", "lit": "yes", "oneway": "yes", "ref": "B6481", "turn:lanes": null, "layer": null, "source": null, "lanes:backward": null, "lanes:forward": null, "turn:lanes:forward": null, "bicycle": null, "foot": null, "source:ref": "OS_OpenData_StreetView", "cycleway:both": null, "note": null, "source:name": "OS_OpenData_StreetView", "junction": null, "bus": null, "bus:lanes": null, "busway:left": null, "busway:right": null }, "geometry": { "type": "Polygon", "coordinates": [ [ [ 432111.9139850276988, 431089.54551444912795 ], [ 432111.922024952305946, 431089.537593192595523 ], [ 432118.092965266609099, 431083.449150508793537 ], [ 432106.855645060248207, 431072.059566030919086 ], [ 432100.688721911050379, 431078.144045253982767 ], [ 432089.58530526899267, 431089.068152437801473 ], [ 432100.806545626139268, 431100.473579428740777 ], [ 432111.9139850276988, 431089.54551444912795 ] ] ] } },
{ "type": "Feature", "properties": { "highway": "secondary", "lane_markings": null, "maxspeed": null, "maxspeed:type": null, "name": "Pontefract Road", "surface": "asphalt", "osm_type": "way", "osm_id": 975259769, "lanes": "2", "lit": "yes", "oneway": "yes", "ref": "B6481", "turn:lanes": null, "layer": null, "source": null, "lanes:backward": null, "lanes:forward": null, "turn:lanes:forward": null, "bicycle": null, "foot": null, "source:ref": null, "cycleway:both": null, "note": null, "source:name": null, "junction": null, "bus": null, "bus:lanes": null, "busway:left": null, "busway:right": null }, "geometry": { "type": "Polygon", "coordinates": [ [ [ 432099.557225225667935, 431094.117850990558509 ], [ 432099.994757364213001, 431094.004151452798396 ], [ 432108.533423464104999, 431091.52569354523439 ], [ 432104.073306234146003, 431076.159908362082206 ], [ 432095.751799328252673, 431078.5753330141888 ], [ 432089.298530883679632, 431080.059013878169935 ], [ 432092.883583836548496, 431095.652198136842344 ], [ 432099.557225225667935, 431094.117850990558509 ] ] ] } },
{ "type": "Feature", "properties": { "highway": "primary", "lane_markings": null, "maxspeed": null, "maxspeed:type": null, "name": "Thwaite Gate", "surface": "asphalt", "osm_type": "way", "osm_id": 1369739355, "lanes": "2", "lit": "yes", "oneway": "yes", "ref": "A639", "turn:lanes": null, "layer": null, "source": null, "lanes:backward": null, "lanes:forward": null, "turn:lanes:forward": null, "bicycle": null, "foot": null, "source:ref": null, "cycleway:both": null, "note": null, "source:name": null, "junction": null, "bus": null, "bus:lanes": null, "busway:left": null, "busway:right": null }, "geometry": { "type": "Polygon", "coordinates": [ [ [ 432107.332334812788758, 431089.229925248946529 ], [ 432107.623608928639442, 431087.9951435867697 ], [ 432108.880276331270579, 431080.593575928825885 ], [ 432089.162455972458702, 431077.245806477731094 ], [ 432088.012183300917968, 431084.020726385526359 ], [ 432085.628289384010714, 431091.8621995455469 ], [ 432104.763561511121225, 431097.679532320995349 ], [ 432107.332334812788758, 431089.229925248946529 ] ] ] } }
]
}
