{
"type": "FeatureCollection",
"name": "se3230_rgb_250_05_osm_buildings",
"crs": { "type": "name", "properties": { "name": "urn:ogc:def:crs:EPSG::27700" } },
"features": [
{ "type": "Feature", "properties": { "addr:city": "Leeds", "addr:postcode": "LS10 1SF", "addr:street": "Queen Street", "building": "yes", "disused:amenity": "pub", "name": "The Queen", "wikidata": "Q61875792", "osm_type": "way", "osm_id": 84812654, "shop": null, "addr:place": null, "addr:unit": null, "old_name": null, "addr:housenumber": null, "amenity": null, "fhrs:id": null, "opening_hours": null, "source": null, "industrial": null, "ref:GB:uprn": null, "addr:housename": null, "addr:suburb": null, "operator": null, "operator:wikidata": null, "phone": null, "service:vehicle:car_parts": null, "service:vehicle:car_repair": null, "service:vehicle:diagnostics": null, "service:vehicle:inspection": null, "office": null, "automated": null, "self_service": null, "recycling_type": null, "area": null, "barrier": null, "layer": null }, "geometry": { "type": "Polygon", "coordinates": [ [ [ 431981.978510585380718, 430719.608062274055555 ], [ 431994.1031350659905, 430721.036902967724018 ], [ 431996.382911196385976, 430707.600672320346348 ], [ 431981.231063285202254, 430705.472511015716009 ], [ 431981.978510585380718, 430719.608062274055555 ] ] ] } },
{ "type": "Feature", "properties": { "addr:city": null, "addr:postcode": null, "addr:street": null, "building": "yes", "disused:amenity": null, "name": "Stourton Accident Repairs", "wikidata": null, "osm_type": "way", "osm_id": 84812656, "shop": "car_repair", "addr:place": null, "addr:unit": null, "old_name": null, "addr:housenumber": null, "amenity": null, "fhrs:id": null, "opening_hours": null, "source": null, "industrial": null, "ref:GB:uprn": null, "addr:housename": null, "addr:suburb": null, "operator": null, "operator:wikidata": null, "phone": null, "service:vehicle:car_parts": null, "service:vehicle:car_repair": null, "service:vehicle:diagnostics": null, "service:vehicle:inspection": null, "office": null, "automated": null, "self_service": null, "recycling_type": null, "area": null, "barrier": null, "layer": null }, "geometry": { "type": "Polygon", "coordinates": [ [ [ 432003.995273885433562, 430817.00229322409723 ], [ 432006.66712856059894, 430828.246984036290087 ], [ 432024.075669791840483, 430824.137604963267222 ], [ 432022.647041984193493, 430818.09738412220031 ], [ 432011.628840111254249, 430820.7037447639741 ], [ 432010.392307503614575, 430815.488186801318079 ], [ 432003.995273885433562, 430817.00229322409723 ] ] ] } },
{ "type": "Feature", "properties": { "addr:city": "Leeds", "addr:postcode": "LS10 1DS", "addr:street": "Wakefield Road", "building": "office", "disused:amenity": null, "name": "R C S", "wikidata": null, "osm_type": "way", "osm_id": 84812657, "shop": null, "addr:place": "Stourton Business Park", "addr:unit": "3", "old_name": "Accurate Laser Cutting", "addr:housenumber": null, "amenity": null, "fhrs:id": null, "opening_hours": null, "source": null, "industrial": null, "ref:GB:uprn": null, "addr:housename": null, "addr:suburb": null, "operator": null, "operator:wikidata": null, "phone": null, "service:vehicle:car_parts": null, "service:vehicle:car_repair": null, "service:vehicle:diagnostics": null, "service:vehicle:inspection": null, "office": null, "automated": null, "self_service": null, "recycling_type": null, "area": null, "barrier": null, "layer": null }, "geometry": { "type": "Polygon", "coordinates": [ [ [ 432001.603032110258937, 430801.475863773026504 ], [ 432032.367838557402138, 430794.075102122267708 ], [ 432027.906270239735022, 430775.619446150725707 ], [ 431997.147941161878407, 430783.020282218349166 ], [ 432001.603032110258937, 430801.475863773026504 ] ] ] } },
{ "type": "Feature", "properties": { "addr:city": null, "addr:postcode": null, "addr:street": null, "building": "yes", "disused:amenity": null, "name": "CPM", "wikidata": null, "osm_type": "way", "osm_id": 84812658, "shop": null, "addr:place": null, "addr:unit": null, "old_name": null, "addr:housenumber": null, "amenity": null, "fhrs:id": null, "opening_hours": null, "source": null, "industrial": null, "ref:GB:uprn": null, "addr:housename": null, "addr:suburb": null, "operator": null, "operator:wikidata": null, "phone": null, "service:vehicle:car_parts": null, "service:vehicle:car_repair": null, "service:vehicle:diagnostics": null, "service:vehicle:inspection": null, "office": null, "automated": null, "self_service": null, "recycling_type": null, "area": null, "barrier": null, "layer": null }, "geometry": { "type": "Polygon", "coordinates": [ [ [ 432056.886917714378797, 430726.416104993666522 ], [ 432066.644549923308659, 430727.95137356093619 ], [ 432069.510594012681395, 430709.76822587789502 ], [ 432072.216637376695871, 430710.198373209219426 ], [ 432074.979063818405848, 430692.715481782332063 ], [ 432065.122572794673033, 430691.168395593762398 ], [ 432062.366773293877486, 430708.651337647112086 ], [ 432059.759515567217022, 430708.232996486476623 ], [ 432056.886917714378797, 430726.416104993666522 ] ] ] } },
{ "type": "Feature", "properties": { "addr:city": "Leeds", "addr:postcode": "LS10 3DJ", "addr:street": "Wakefield Road", "building": "yes", "disused:amenity": null, "name": "Bangers & Baps", "wikidata": null, "osm_type": "way", "osm_id": 84812664, "shop": null, "addr:place": null, "addr:unit": null, "old_name": null, "addr:housenumber": "10", "amenity": "cafe", "fhrs:id": "322059", "opening_hours": "Mo-Fr 07:30-14:00; Sa 07:00-12:00", "source": null, "industrial": null, "ref:GB:uprn": null, "addr:housename": null, "addr:suburb": null, "operator": null, "operator:wikidata": null, "phone": null, "service:vehicle:car_parts": null, "service:vehicle:car_repair": null, "service:vehicle:diagnostics": null, "service:vehicle:inspection": null, "office": null, "automated": null, "self_service": null, "recycling_type": null, "area": null, "barrier": null, "layer": null }, "geometry": { "type": "Polygon", "coordinates": [ [ [ 432002.422930937609635, 430829.152684276341461 ], [ 432005.393679960514419, 430828.449709037668072 ], [ 432003.798445549036842, 430821.707398990518413 ], [ 432000.83435902610654, 430822.399294306407683 ], [ 432002.422930937609635, 430829.152684276341461 ] ] ] } },
{ "type": "Feature", "properties": { "addr:city": "Leeds", "addr:postcode": "LS10 1SD", "addr:street": "Valley Farm Road", "building": "warehouse", "disused:amenity": null, "name": "Associated Waste Management", "wikidata": null, "osm_type": "way", "osm_id": 151204599, "shop": null, "addr:place": null, "addr:unit": null, "old_name": null, "addr:housenumber": null, "amenity": null, "fhrs:id": null, "opening_hours": null, "source": "Bing", "industrial": null, "ref:GB:uprn": null, "addr:housename": null, "addr:suburb": null, "operator": null, "operator:wikidata": null, "phone": null, "service:vehicle:car_parts": null, "service:vehicle:car_repair": null, "service:vehicle:diagnostics": null, "service:vehicle:inspection": null, "office": null, "automated": null, "self_service": null, "recycling_type": null, "area": null, "barrier": null, "layer": null }, "geometry": { "type": "Polygon", "coordinates": [ [ [ 432779.353694018209353, 430240.639809480402619 ], [ 432890.843232477840502, 430192.440702593652532 ], [ 432867.306694594328292, 430138.257511901669204 ], [ 432755.809532666229643, 430186.457133266609162 ], [ 432779.353694018209353, 430240.639809480402619 ] ] ] } },
{ "type": "Feature", "properties": { "addr:city": "Leeds", "addr:postcode": null, "addr:street": null, "building": "warehouse", "disused:amenity": null, "name": null, "wikidata": null, "osm_type": "way", "osm_id": 151204620, "shop": null, "addr:place": null, "addr:unit": null, "old_name": null, "addr:housenumber": null, "amenity": null, "fhrs:id": null, "opening_hours": null, "source": "Bing", "industrial": null, "ref:GB:uprn": null, "addr:housename": null, "addr:suburb": null, "operator": null, "operator:wikidata": null, "phone": null, "service:vehicle:car_parts": null, "service:vehicle:car_repair": null, "service:vehicle:diagnostics": null, "service:vehicle:inspection": null, "office": null, "automated": null, "self_service": null, "recycling_type": null, "area": null, "barrier": null, "layer": null }, "geometry": { "type": "Polygon", "coordinates": [ [ [ 432886.919176631025039, 430174.811328842537478 ], [ 432943.144633722957224, 430150.938612388214096 ], [ 432927.067089579533786, 430113.263313292874955 ], [ 432870.84126758784987, 430137.13622284505982 ], [ 432886.919176631025039, 430174.811328842537478 ] ] ] } },
{ "type": "Feature", "properties": { "addr:city": null, "addr:postcode": null, "addr:street": null, "building": "yes", "disused:amenity": null, "name": null, "wikidata": null, "osm_type": "way", "osm_id": 151467617, "shop": null, "addr:place": null, "addr:unit": null, "old_name": null, "addr:housenumber": null, "amenity": null, "fhrs:id": null, "opening_hours": null, "source": "Bing", "industrial": null, "ref:GB:uprn": null, "addr:housename": null, "addr:suburb": null, "operator": null, "operator:wikidata": null, "phone": null, "service:vehicle:car_parts": null, "service:vehicle:car_repair": null, "service:vehicle:diagnostics": null, "service:vehicle:inspection": null, "office": null, "automated": null, "self_service": null, "recycling_type": null, "area": null, "barrier": null, "layer": null }, "geometry": { "type": "Polygon", "coordinates": [ [ [ 432025.177336841297802, 430810.459701961837709 ], [ 432091.727509016462136, 430853.828180192154832 ], [ 432122.399390700331423, 430806.973324231337756 ], [ 432055.848748566408176, 430763.615540227270685 ], [ 432025.177336841297802, 430810.459701961837709 ] ] ] } },
{ "type": "Feature", "properties": { "addr:city": null, "addr:postcode": null, "addr:street": null, "building": "industrial", "disused:amenity": null, "name": "Advanced", "wikidata": null, "osm_type": "way", "osm_id": 151467621, "shop": null, "addr:place": null, "addr:unit": null, "old_name": null, "addr:housenumber": null, "amenity": null, "fhrs:id": null, "opening_hours": null, "source": "Bing", "industrial": "warehouse", "ref:GB:uprn": null, "addr:housename": null, "addr:suburb": null, "operator": null, "operator:wikidata": null, "phone": null, "service:vehicle:car_parts": null, "service:vehicle:car_repair": null, "service:vehicle:diagnostics": null, "service:vehicle:inspection": null, "office": null, "automated": null, "self_service": null, "recycling_type": null, "area": null, "barrier": null, "layer": null }, "geometry": { "type": "Polygon", "coordinates": [ [ [ 432072.155625133425929, 430969.186084061278962 ], [ 432118.857190146110952, 430955.841991363326088 ], [ 432110.475555609038565, 430926.633639692212455 ], [ 432063.773801371629816, 430939.966690560802817 ], [ 432072.155625133425929, 430969.186084061278962 ] ] ] } },
{ "type": "Feature", "properties": { "addr:city": null, "addr:postcode": null, "addr:street": null, "building": "yes", "disused:amenity": null, "name": null, "wikidata": null, "osm_type": "way", "osm_id": 151468329, "shop": null, "addr:place": null, "addr:unit": null, "old_name": null, "addr:housenumber": null, "amenity": null, "fhrs:id": null, "opening_hours": null, "source": "Bing", "industrial": null, "ref:GB:uprn": null, "addr:housename": null, "addr:suburb": null, "operator": null, "operator:wikidata": null, "phone": null, "service:vehicle:car_parts": null, "service:vehicle:car_repair": null, "service:vehicle:diagnostics": null, "service:vehicle:inspection": null, "office": null, "automated": null, "self_service": null, "recycling_type": null, "area": null, "barrier": null, "layer": null }, "geometry": { "type": "Polygon", "coordinates": [ [ [ 432198.592732810473535, 430416.392498405068181 ], [ 432210.911785187723581, 430434.757529202499427 ], [ 432228.175058410328347, 430423.237749140476808 ], [ 432215.85611845360836, 430404.861547277192585 ], [ 432198.592732810473535, 430416.392498405068181 ] ] ] } },
{ "type": "Feature", "properties": { "addr:city": "Leeds", "addr:postcode": null, "addr:street": null, "building": "warehouse", "disused:amenity": null, "name": null, "wikidata": null, "osm_type": "way", "osm_id": 151468330, "shop": null, "addr:place": null, "addr:unit": null, "old_name": null, "addr:housenumber": null, "amenity": null, "fhrs:id": null, "opening_hours": null, "source": "Bing", "industrial": null, "ref:GB:uprn": null, "addr:housename": null, "addr:suburb": null, "operator": null, "operator:wikidata": null, "phone": null, "service:vehicle:car_parts": null, "service:vehicle:car_repair": null, "service:vehicle:diagnostics": null, "service:vehicle:inspection": null, "office": null, "automated": null, "self_service": null, "recycling_type": null, "area": null, "barrier": null, "layer": null }, "geometry": { "type": "Polygon", "coordinates": [ [ [ 432392.689300454920158, 430288.271537943976 ], [ 432337.145159643201623, 430128.559618054423481 ], [ 432284.342809929512441, 430146.83316641242709 ], [ 432289.47553000471089, 430161.577465334441513 ], [ 432287.850006820401177, 430162.144865422509611 ], [ 432338.263037909986451, 430307.11184103845153 ], [ 432392.689300454920158, 430288.271537943976 ] ] ] } },
{ "type": "Feature", "properties": { "addr:city": "Leeds", "addr:postcode": null, "addr:street": null, "building": "industrial", "disused:amenity": null, "name": "Kloeckner Metals", "wikidata": null, "osm_type": "way", "osm_id": 151468333, "shop": null, "addr:place": null, "addr:unit": null, "old_name": null, "addr:housenumber": null, "amenity": null, "fhrs:id": null, "opening_hours": null, "source": "Bing", "industrial": "warehouse", "ref:GB:uprn": "72401655", "addr:housename": null, "addr:suburb": null, "operator": null, "operator:wikidata": null, "phone": null, "service:vehicle:car_parts": null, "service:vehicle:car_repair": null, "service:vehicle:diagnostics": null, "service:vehicle:inspection": null, "office": null, "automated": null, "self_service": null, "recycling_type": null, "area": null, "barrier": null, "layer": null }, "geometry": { "type": "Polygon", "coordinates": [ [ [ 432280.282470564881805, 430327.174503762857057 ], [ 432338.263037909986451, 430307.11184103845153 ], [ 432287.850006820401177, 430162.144865422509611 ], [ 432229.867877893615514, 430182.20815385854803 ], [ 432280.282470564881805, 430327.174503762857057 ] ] ] } },
{ "type": "Feature", "properties": { "addr:city": null, "addr:postcode": null, "addr:street": null, "building": "yes", "disused:amenity": null, "name": null, "wikidata": null, "osm_type": "way", "osm_id": 151468334, "shop": null, "addr:place": null, "addr:unit": null, "old_name": null, "addr:housenumber": null, "amenity": null, "fhrs:id": null, "opening_hours": null, "source": "Bing", "industrial": null, "ref:GB:uprn": null, "addr:housename": null, "addr:suburb": null, "operator": null, "operator:wikidata": null, "phone": null, "service:vehicle:car_parts": null, "service:vehicle:car_repair": null, "service:vehicle:diagnostics": null, "service:vehicle:inspection": null, "office": null, "automated": null, "self_service": null, "recycling_type": null, "area": null, "barrier": null, "layer": null }, "geometry": { "type": "Polygon", "coordinates": [ [ [ 432727.971910179476254, 430248.893423995585181 ], [ 432737.593917200691067, 430245.411148467799649 ], [ 432734.612421692698263, 430237.179121727589518 ], [ 432727.032192543905694, 430216.297771373647265 ], [ 432717.410134169447701, 430219.780068647814915 ], [ 432727.971910179476254, 430248.893423995585181 ] ] ] } },
{ "type": "Feature", "properties": { "addr:city": "Leeds", "addr:postcode": null, "addr:street": null, "building": "warehouse", "disused:amenity": null, "name": null, "wikidata": null, "osm_type": "way", "osm_id": 151468341, "shop": null, "addr:place": null, "addr:unit": null, "old_name": null, "addr:housenumber": null, "amenity": null, "fhrs:id": null, "opening_hours": null, "source": "Bing", "industrial": null, "ref:GB:uprn": null, "addr:housename": null, "addr:suburb": null, "operator": null, "operator:wikidata": null, "phone": null, "service:vehicle:car_parts": null, "service:vehicle:car_repair": null, "service:vehicle:diagnostics": null, "service:vehicle:inspection": null, "office": null, "automated": null, "self_service": null, "recycling_type": null, "area": null, "barrier": null, "layer": null }, "geometry": { "type": "Polygon", "coordinates": [ [ [ 432656.695025657187216, 430199.452630535233766 ], [ 432614.719469501345884, 430082.378852718509734 ], [ 432464.414284118334763, 430135.667957153287716 ], [ 432467.898615246987902, 430142.757265138905495 ], [ 432438.830500113661401, 430153.838618716457859 ], [ 432479.075719053973444, 430265.246643640450202 ], [ 432510.5311200703145, 430254.883022179594263 ], [ 432509.230625335068908, 430251.346969633363187 ], [ 432656.695025657187216, 430199.452630535233766 ] ] ] } },
{ "type": "Feature", "properties": { "addr:city": "Leeds", "addr:postcode": "LS10 1AZ", "addr:street": "Leodis Way", "building": "warehouse", "disused:amenity": null, "name": "Leeds Mail Centre", "wikidata": null, "osm_type": "way", "osm_id": 151470651, "shop": null, "addr:place": null, "addr:unit": null, "old_name": null, "addr:housenumber": null, "amenity": "post_depot", "fhrs:id": "320984", "opening_hours": null, "source": "Bing", "industrial": null, "ref:GB:uprn": null, "addr:housename": "Leodis House", "addr:suburb": "Stourton", "operator": "Royal Mail", "operator:wikidata": "Q638098", "phone": null, "service:vehicle:car_parts": null, "service:vehicle:car_repair": null, "service:vehicle:diagnostics": null, "service:vehicle:inspection": null, "office": null, "automated": null, "self_service": null, "recycling_type": null, "area": null, "barrier": null, "layer": null }, "geometry": { "type": "Polygon", "coordinates": [ [ [ 433114.703204619232565, 429903.759623657097109 ], [ 432923.550539266259875, 430019.610337640508078 ], [ 432972.56562382041011, 430100.086102197295986 ], [ 433163.709682126296684, 429984.237336357473396 ], [ 433114.703204619232565, 429903.759623657097109 ] ] ] } },
{ "type": "Feature", "properties": { "addr:city": null, "addr:postcode": null, "addr:street": null, "building": "industrial", "disused:amenity": null, "name": null, "wikidata": null, "osm_type": "way", "osm_id": 173211288, "shop": null, "addr:place": null, "addr:unit": null, "old_name": null, "addr:housenumber": null, "amenity": null, "fhrs:id": null, "opening_hours": null, "source": null, "industrial": null, "ref:GB:uprn": null, "addr:housename": null, "addr:suburb": null, "operator": null, "operator:wikidata": null, "phone": null, "service:vehicle:car_parts": null, "service:vehicle:car_repair": null, "service:vehicle:diagnostics": null, "service:vehicle:inspection": null, "office": null, "automated": null, "self_service": null, "recycling_type": null, "area": null, "barrier": null, "layer": null }, "geometry": { "type": "Polygon", "coordinates": [ [ [ 432025.730367313488387, 430855.992504708701745 ], [ 432050.561014352948405, 430873.029392970376648 ], [ 432048.217802939994726, 430876.429197815363295 ], [ 432057.539917202375364, 430882.823696538223885 ], [ 432059.903132031729911, 430879.390653735143133 ], [ 432070.287970916018821, 430886.515643673948944 ], [ 432067.951342284446582, 430889.915483731776476 ], [ 432072.956826484936755, 430893.343192443135194 ], [ 432075.306714335922152, 430889.932319022133015 ], [ 432085.245395904465113, 430896.753884961945005 ], [ 432081.983548022049945, 430901.482561690383591 ], [ 432097.977197110885754, 430912.462260757107288 ], [ 432101.591929177870043, 430907.213067669421434 ], [ 432157.418438612017781, 430945.513506343588233 ], [ 432173.495249669649638, 430922.169223718694411 ], [ 432127.207019499444868, 430890.420481739449315 ], [ 432135.242050072585698, 430878.759385802433826 ], [ 432130.190688716073055, 430875.29791741759982 ], [ 432122.867938139475882, 430885.929141239146702 ], [ 432084.739974188443739, 430859.77755759365391 ], [ 432083.242180216126144, 430861.948093842715025 ], [ 432041.400685601052828, 430833.245827292324975 ], [ 432025.730367313488387, 430855.992504708701745 ] ] ] } },
{ "type": "Feature", "properties": { "addr:city": null, "addr:postcode": null, "addr:street": null, "building": "industrial", "disused:amenity": null, "name": null, "wikidata": null, "osm_type": "way", "osm_id": 173211291, "shop": null, "addr:place": null, "addr:unit": null, "old_name": null, "addr:housenumber": null, "amenity": null, "fhrs:id": null, "opening_hours": null, "source": null, "industrial": null, "ref:GB:uprn": null, "addr:housename": null, "addr:suburb": null, "operator": null, "operator:wikidata": null, "phone": null, "service:vehicle:car_parts": null, "service:vehicle:car_repair": null, "service:vehicle:diagnostics": null, "service:vehicle:inspection": null, "office": null, "automated": null, "self_service": null, "recycling_type": null, "area": null, "barrier": null, "layer": null }, "geometry": { "type": "Polygon", "coordinates": [ [ [ 432098.299300358106848, 430861.461251066997647 ], [ 432115.567910468729679, 430872.994911336922087 ], [ 432119.298993156000506, 430867.123451233608648 ], [ 432130.190688716073055, 430875.29791741759982 ], [ 432135.242050072585698, 430878.759385802433826 ], [ 432179.538536705076694, 430908.781103159999475 ], [ 432208.996804783935659, 430864.054752825875767 ], [ 432131.482101319241337, 430812.721003640093841 ], [ 432098.299300358106848, 430861.461251066997647 ] ] ] } },
{ "type": "Feature", "properties": { "addr:city": "Leeds", "addr:postcode": "LS10 1TB", "addr:street": "Pontefract Road", "building": "retail", "disused:amenity": null, "name": "Indepedent VW Audi Centre", "wikidata": null, "osm_type": "way", "osm_id": 173301830, "shop": "car_repair", "addr:place": null, "addr:unit": null, "old_name": null, "addr:housenumber": null, "amenity": null, "fhrs:id": null, "opening_hours": null, "source": "survey", "industrial": null, "ref:GB:uprn": null, "addr:housename": null, "addr:suburb": null, "operator": null, "operator:wikidata": null, "phone": "+44 113 2765951;+44 113 2765952", "service:vehicle:car_parts": "yes", "service:vehicle:car_repair": "yes", "service:vehicle:diagnostics": "yes", "service:vehicle:inspection": "yes", "office": null, "automated": null, "self_service": null, "recycling_type": null, "area": null, "barrier": null, "layer": null }, "geometry": { "type": "Polygon", "coordinates": [ [ [ 432264.403442073962651, 430858.83840040222276 ], [ 432282.711776206386276, 430876.310171786113642 ], [ 432291.086229149601422, 430868.067464060732163 ], [ 432280.320962310594041, 430856.878246348467655 ], [ 432281.516458805417642, 430855.55129817512352 ], [ 432274.73183624149533, 430848.23916932719294 ], [ 432264.403442073962651, 430858.83840040222276 ] ] ] } },
{ "type": "Feature", "properties": { "addr:city": null, "addr:postcode": null, "addr:street": null, "building": "commercial", "disused:amenity": null, "name": "Mayflower House", "wikidata": null, "osm_type": "way", "osm_id": 173301831, "shop": null, "addr:place": null, "addr:unit": null, "old_name": null, "addr:housenumber": null, "amenity": null, "fhrs:id": null, "opening_hours": null, "source": null, "industrial": null, "ref:GB:uprn": null, "addr:housename": null, "addr:suburb": null, "operator": null, "operator:wikidata": null, "phone": null, "service:vehicle:car_parts": null, "service:vehicle:car_repair": null, "service:vehicle:diagnostics": null, "service:vehicle:inspection": null, "office": null, "automated": null, "self_service": null, "recycling_type": null, "area": null, "barrier": null, "layer": null }, "geometry": { "type": "Polygon", "coordinates": [ [ [ 432230.857586634345353, 430897.895297467941418 ], [ 432240.895874929206911, 430907.454964126227424 ], [ 432273.666904945566785, 430873.733467426849529 ], [ 432262.740932132932357, 430863.86722296255175 ], [ 432230.857586634345353, 430897.895297467941418 ] ] ] } },
{ "type": "Feature", "properties": { "addr:city": null, "addr:postcode": null, "addr:street": null, "building": "industrial", "disused:amenity": null, "name": null, "wikidata": null, "osm_type": "way", "osm_id": 173306261, "shop": null, "addr:place": null, "addr:unit": null, "old_name": null, "addr:housenumber": null, "amenity": null, "fhrs:id": null, "opening_hours": null, "source": null, "industrial": null, "ref:GB:uprn": null, "addr:housename": null, "addr:suburb": null, "operator": null, "operator:wikidata": null, "phone": null, "service:vehicle:car_parts": null, "service:vehicle:car_repair": null, "service:vehicle:diagnostics": null, "service:vehicle:inspection": null, "office": null, "automated": null, "self_service": null, "recycling_type": null, "area": null, "barrier": null, "layer": null }, "geometry": { "type": "Polygon", "coordinates": [ [ [ 432378.035527222731616, 430556.126517476746812 ], [ 432386.30051353626186, 430545.702456068014726 ], [ 432382.335206548450515, 430541.480487302993424 ], [ 432386.573628561629448, 430536.680863910121843 ], [ 432394.099741544341668, 430542.607466414337978 ], [ 432408.704354724555742, 430527.609722032910213 ], [ 432419.350692067237105, 430537.95280079904478 ], [ 432429.292166629922576, 430528.174585276981816 ], [ 432468.745270822837483, 430566.810759322834201 ], [ 432445.458059414057061, 430591.595174687798135 ], [ 432449.627589270588942, 430595.818608843139373 ], [ 432447.724355723999906, 430597.485543791670352 ], [ 432502.838555867085233, 430650.282802816480398 ], [ 432489.722723441547714, 430662.553466469049454 ], [ 432378.035527222731616, 430556.126517476746812 ] ] ] } },
{ "type": "Feature", "properties": { "addr:city": "Leeds", "addr:postcode": "LS10 1SB", "addr:street": "Queen Street", "building": "commercial", "disused:amenity": null, "name": "One Subsea", "wikidata": null, "osm_type": "way", "osm_id": 173306263, "shop": null, "addr:place": null, "addr:unit": null, "old_name": null, "addr:housenumber": null, "amenity": null, "fhrs:id": "553193", "opening_hours": null, "source": null, "industrial": null, "ref:GB:uprn": null, "addr:housename": null, "addr:suburb": "Stourton", "operator": null, "operator:wikidata": null, "phone": null, "service:vehicle:car_parts": null, "service:vehicle:car_repair": null, "service:vehicle:diagnostics": null, "service:vehicle:inspection": null, "office": null, "automated": null, "self_service": null, "recycling_type": null, "area": null, "barrier": null, "layer": null }, "geometry": { "type": "Polygon", "coordinates": [ [ [ 432319.667861683352385, 430723.899508227128536 ], [ 432382.54065813717898, 430657.029121214174666 ], [ 432388.177891403087415, 430662.519896375131793 ], [ 432393.465555493137799, 430657.527238560956903 ], [ 432398.474417448393069, 430662.379491167259403 ], [ 432371.381709216686431, 430690.498187701101415 ], [ 432374.087270026851911, 430693.865864971536212 ], [ 432362.660546680563129, 430705.94824619742576 ], [ 432365.160944806935731, 430708.480028240242973 ], [ 432369.820941481331829, 430703.694420919171534 ], [ 432372.321337001107167, 430706.22620678821113 ], [ 432396.240326813596766, 430681.445789982797578 ], [ 432394.150863095361274, 430679.539901012089103 ], [ 432399.447185049939435, 430673.290031122858636 ], [ 432401.743262284144294, 430675.820423519820906 ], [ 432406.603350078803487, 430671.659308422938921 ], [ 432416.211458399891853, 430680.537671101046726 ], [ 432403.298176664044149, 430694.067250336054713 ], [ 432374.511913667549379, 430724.065728739835322 ], [ 432381.396425035549328, 430731.234046386787668 ], [ 432407.639495027600788, 430703.955150136258453 ], [ 432410.605888427002355, 430701.038255102816038 ], [ 432423.30972217785893, 430687.295849507441744 ], [ 432443.974584544252139, 430707.143298970186152 ], [ 432384.283791118243244, 430769.417362635955215 ], [ 432360.277866899210494, 430746.609800522448495 ], [ 432355.836031431797892, 430750.351041899062693 ], [ 432351.243288787547499, 430746.336176141863689 ], [ 432355.267678179952782, 430741.957852948107757 ], [ 432337.097260903392453, 430725.47699925408233 ], [ 432335.192664836533368, 430727.355370721779764 ], [ 432330.816532042284962, 430722.507539624697529 ], [ 432325.305162545875646, 430729.379082420375198 ], [ 432319.667861683352385, 430723.899508227128536 ] ] ] } },
{ "type": "Feature", "properties": { "addr:city": null, "addr:postcode": null, "addr:street": null, "building": "commercial", "disused:amenity": null, "name": null, "wikidata": null, "osm_type": "way", "osm_id": 173306265, "shop": null, "addr:place": null, "addr:unit": null, "old_name": null, "addr:housenumber": null, "amenity": null, "fhrs:id": null, "opening_hours": null, "source": null, "industrial": null, "ref:GB:uprn": null, "addr:housename": null, "addr:suburb": null, "operator": null, "operator:wikidata": null, "phone": null, "service:vehicle:car_parts": null, "service:vehicle:car_repair": null, "service:vehicle:diagnostics": null, "service:vehicle:inspection": null, "office": null, "automated": null, "self_service": null, "recycling_type": null, "area": null, "barrier": null, "layer": null }, "geometry": { "type": "Polygon", "coordinates": [ [ [ 432434.176064382132608, 430673.351643636240624 ], [ 432420.473967652302235, 430660.773291473742574 ], [ 432441.970905923517421, 430638.413063967949711 ], [ 432455.126250025874469, 430651.900062883272767 ], [ 432434.176064382132608, 430673.351643636240624 ] ] ] } },
{ "type": "Feature", "properties": { "addr:city": null, "addr:postcode": null, "addr:street": "Pontefract Road", "building": "commercial", "disused:amenity": null, "name": null, "wikidata": null, "osm_type": "way", "osm_id": 173306268, "shop": null, "addr:place": null, "addr:unit": null, "old_name": null, "addr:housenumber": null, "amenity": null, "fhrs:id": null, "opening_hours": null, "source": null, "industrial": null, "ref:GB:uprn": null, "addr:housename": "Southgate House", "addr:suburb": null, "operator": null, "operator:wikidata": null, "phone": null, "service:vehicle:car_parts": null, "service:vehicle:car_repair": null, "service:vehicle:diagnostics": null, "service:vehicle:inspection": null, "office": null, "automated": null, "self_service": null, "recycling_type": null, "area": null, "barrier": null, "layer": null }, "geometry": { "type": "Polygon", "coordinates": [ [ [ 432457.118149182002526, 430698.455388614442199 ], [ 432479.140263450040948, 430674.496762865572236 ], [ 432471.412174106168095, 430667.322470694081858 ], [ 432453.417515736306086, 430686.480112032266334 ], [ 432451.538909959897865, 430684.586780135869049 ], [ 432447.512998108228203, 430689.165285632247105 ], [ 432457.118149182002526, 430698.455388614442199 ] ] ] } },
{ "type": "Feature", "properties": { "addr:city": null, "addr:postcode": null, "addr:street": null, "building": "industrial", "disused:amenity": null, "name": null, "wikidata": null, "osm_type": "way", "osm_id": 173306269, "shop": null, "addr:place": null, "addr:unit": null, "old_name": null, "addr:housenumber": null, "amenity": null, "fhrs:id": null, "opening_hours": null, "source": null, "industrial": null, "ref:GB:uprn": null, "addr:housename": null, "addr:suburb": null, "operator": null, "operator:wikidata": null, "phone": null, "service:vehicle:car_parts": null, "service:vehicle:car_repair": null, "service:vehicle:diagnostics": null, "service:vehicle:inspection": null, "office": null, "automated": null, "self_service": null, "recycling_type": null, "area": null, "barrier": null, "layer": null }, "geometry": { "type": "Polygon", "coordinates": [ [ [ 432512.405471174570266, 430634.616326484829187 ], [ 432525.527944253175519, 430620.454290047753602 ], [ 432486.290345129324123, 430582.241916425176896 ], [ 432483.534821017819922, 430585.149095895700157 ], [ 432470.177405353402719, 430572.272572798538022 ], [ 432457.906484195555095, 430584.348890616674908 ], [ 432512.405471174570266, 430634.616326484829187 ] ] ] } },
{ "type": "Feature", "properties": { "addr:city": null, "addr:postcode": null, "addr:street": null, "building": "industrial", "disused:amenity": null, "name": null, "wikidata": null, "osm_type": "way", "osm_id": 173307118, "shop": null, "addr:place": null, "addr:unit": null, "old_name": null, "addr:housenumber": null, "amenity": null, "fhrs:id": null, "opening_hours": null, "source": null, "industrial": null, "ref:GB:uprn": null, "addr:housename": null, "addr:suburb": null, "operator": null, "operator:wikidata": null, "phone": null, "service:vehicle:car_parts": null, "service:vehicle:car_repair": null, "service:vehicle:diagnostics": null, "service:vehicle:inspection": null, "office": null, "automated": null, "self_service": null, "recycling_type": null, "area": null, "barrier": null, "layer": null }, "geometry": { "type": "Polygon", "coordinates": [ [ [ 432570.797702140524052, 430399.798407798167318 ], [ 432583.312532469397411, 430395.434639038285241 ], [ 432579.5158214479452, 430385.917526334756985 ], [ 432567.590102406858932, 430390.875085903564468 ], [ 432570.797702140524052, 430399.798407798167318 ] ] ] } },
{ "type": "Feature", "properties": { "addr:city": null, "addr:postcode": null, "addr:street": null, "building": "industrial", "disused:amenity": null, "name": null, "wikidata": null, "osm_type": "way", "osm_id": 173307119, "shop": null, "addr:place": null, "addr:unit": null, "old_name": null, "addr:housenumber": null, "amenity": null, "fhrs:id": null, "opening_hours": null, "source": null, "industrial": null, "ref:GB:uprn": null, "addr:housename": null, "addr:suburb": null, "operator": null, "operator:wikidata": null, "phone": null, "service:vehicle:car_parts": null, "service:vehicle:car_repair": null, "service:vehicle:diagnostics": null, "service:vehicle:inspection": null, "office": null, "automated": null, "self_service": null, "recycling_type": null, "area": null, "barrier": null, "layer": null }, "geometry": { "type": "Polygon", "coordinates": [ [ [ 432519.430681164260022, 430478.606627625180408 ], [ 432547.48956321424339, 430460.70946495665703 ], [ 432537.492415398184676, 430446.109195505501702 ], [ 432510.926752520143054, 430462.536945097730495 ], [ 432519.430681164260022, 430478.606627625180408 ] ] ] } },
{ "type": "Feature", "properties": { "addr:city": null, "addr:postcode": null, "addr:street": null, "building": "industrial", "disused:amenity": null, "name": null, "wikidata": null, "osm_type": "way", "osm_id": 173307123, "shop": null, "addr:place": null, "addr:unit": null, "old_name": null, "addr:housenumber": null, "amenity": null, "fhrs:id": null, "opening_hours": null, "source": null, "industrial": null, "ref:GB:uprn": null, "addr:housename": null, "addr:suburb": null, "operator": null, "operator:wikidata": null, "phone": null, "service:vehicle:car_parts": null, "service:vehicle:car_repair": null, "service:vehicle:diagnostics": null, "service:vehicle:inspection": null, "office": null, "automated": null, "self_service": null, "recycling_type": null, "area": null, "barrier": null, "layer": null }, "geometry": { "type": "Polygon", "coordinates": [ [ [ 432434.557734518428333, 430460.529306742129847 ], [ 432499.515320306469221, 430436.066274708020501 ], [ 432491.921535185538232, 430417.043314161011949 ], [ 432426.953592005185783, 430442.975060650147498 ], [ 432434.557734518428333, 430460.529306742129847 ] ] ] } },
{ "type": "Feature", "properties": { "addr:city": null, "addr:postcode": null, "addr:street": null, "building": "industrial", "disused:amenity": null, "name": null, "wikidata": null, "osm_type": "way", "osm_id": 173307124, "shop": null, "addr:place": null, "addr:unit": null, "old_name": null, "addr:housenumber": null, "amenity": null, "fhrs:id": null, "opening_hours": null, "source": null, "industrial": null, "ref:GB:uprn": null, "addr:housename": null, "addr:suburb": null, "operator": null, "operator:wikidata": null, "phone": null, "service:vehicle:car_parts": null, "service:vehicle:car_repair": null, "service:vehicle:diagnostics": null, "service:vehicle:inspection": null, "office": null, "automated": null, "self_service": null, "recycling_type": null, "area": null, "barrier": null, "layer": null }, "geometry": { "type": "Polygon", "coordinates": [ [ [ 432608.228648819611408, 430402.127547083422542 ], [ 432599.885698854806833, 430405.630085933371447 ], [ 432594.91653093212517, 430393.145213595940731 ], [ 432602.967395753483288, 430389.941050590015948 ], [ 432608.228648819611408, 430402.127547083422542 ] ] ] } },
{ "type": "Feature", "properties": { "addr:city": null, "addr:postcode": null, "addr:street": null, "building": "industrial", "disused:amenity": null, "name": null, "wikidata": null, "osm_type": "way", "osm_id": 173307126, "shop": null, "addr:place": null, "addr:unit": null, "old_name": null, "addr:housenumber": null, "amenity": null, "fhrs:id": null, "opening_hours": null, "source": null, "industrial": null, "ref:GB:uprn": null, "addr:housename": null, "addr:suburb": null, "operator": null, "operator:wikidata": null, "phone": null, "service:vehicle:car_parts": null, "service:vehicle:car_repair": null, "service:vehicle:diagnostics": null, "service:vehicle:inspection": null, "office": null, "automated": null, "self_service": null, "recycling_type": null, "area": null, "barrier": null, "layer": null }, "geometry": { "type": "Polygon", "coordinates": [ [ [ 432449.4002196356887, 430506.583648045663722 ], [ 432514.064726922137197, 430481.529100910644047 ], [ 432507.943867044814397, 430463.996110767940991 ], [ 432442.984623375697993, 430488.748297099606134 ], [ 432449.4002196356887, 430506.583648045663722 ] ] ] } },
{ "type": "Feature", "properties": { "addr:city": null, "addr:postcode": null, "addr:street": null, "building": "industrial", "disused:amenity": null, "name": "M & S Tyre Services Ltd", "wikidata": null, "osm_type": "way", "osm_id": 173307128, "shop": "car_repair", "addr:place": null, "addr:unit": null, "old_name": null, "addr:housenumber": null, "amenity": null, "fhrs:id": null, "opening_hours": null, "source": null, "industrial": null, "ref:GB:uprn": null, "addr:housename": null, "addr:suburb": null, "operator": null, "operator:wikidata": null, "phone": null, "service:vehicle:car_parts": null, "service:vehicle:car_repair": null, "service:vehicle:diagnostics": null, "service:vehicle:inspection": null, "office": null, "automated": null, "self_service": null, "recycling_type": null, "area": null, "barrier": null, "layer": null }, "geometry": { "type": "Polygon", "coordinates": [ [ [ 432661.451429874054156, 430443.575762835331261 ], [ 432677.327518435718957, 430437.377511237282306 ], [ 432673.745837508467957, 430428.25123736273963 ], [ 432657.869723087467719, 430434.449501115945168 ], [ 432660.350405603647232, 430440.764265714562498 ], [ 432661.451429874054156, 430443.575762835331261 ] ] ] } },
{ "type": "Feature", "properties": { "addr:city": null, "addr:postcode": null, "addr:street": null, "building": "industrial", "disused:amenity": null, "name": "Ant Hire Ltd", "wikidata": null, "osm_type": "way", "osm_id": 173307129, "shop": "tool_hire", "addr:place": null, "addr:unit": null, "old_name": null, "addr:housenumber": null, "amenity": null, "fhrs:id": null, "opening_hours": null, "source": null, "industrial": null, "ref:GB:uprn": null, "addr:housename": null, "addr:suburb": null, "operator": null, "operator:wikidata": null, "phone": null, "service:vehicle:car_parts": null, "service:vehicle:car_repair": null, "service:vehicle:diagnostics": null, "service:vehicle:inspection": null, "office": null, "automated": null, "self_service": null, "recycling_type": null, "area": null, "barrier": null, "layer": null }, "geometry": { "type": "Polygon", "coordinates": [ [ [ 432612.838419422390871, 430466.380893191788346 ], [ 432638.225359366333578, 430456.476703422842547 ], [ 432641.087252427765634, 430455.36169687716756 ], [ 432638.684410516987555, 430449.225505074602552 ], [ 432635.245198881137185, 430440.45629447104875 ], [ 432606.996213477454148, 430451.486651890678331 ], [ 432612.838419422390871, 430466.380893191788346 ] ] ] } },
{ "type": "Feature", "properties": { "addr:city": null, "addr:postcode": null, "addr:street": null, "building": "industrial", "disused:amenity": null, "name": "M & S Tyre Services Ltd", "wikidata": null, "osm_type": "way", "osm_id": 173307131, "shop": "car_repair", "addr:place": null, "addr:unit": null, "old_name": null, "addr:housenumber": null, "amenity": null, "fhrs:id": null, "opening_hours": null, "source": null, "industrial": null, "ref:GB:uprn": null, "addr:housename": null, "addr:suburb": null, "operator": null, "operator:wikidata": null, "phone": null, "service:vehicle:car_parts": null, "service:vehicle:car_repair": null, "service:vehicle:diagnostics": null, "service:vehicle:inspection": null, "office": null, "automated": null, "self_service": null, "recycling_type": null, "area": null, "barrier": null, "layer": null }, "geometry": { "type": "Polygon", "coordinates": [ [ [ 432660.350405603647232, 430440.764265714562498 ], [ 432657.869723087467719, 430434.449501115945168 ], [ 432656.911150545754936, 430432.006165001890622 ], [ 432635.245198881137185, 430440.45629447104875 ], [ 432638.684410516987555, 430449.225505074602552 ], [ 432642.14122172340285, 430447.869852145318873 ], [ 432645.855712491611484, 430446.42698135052342 ], [ 432660.350405603647232, 430440.764265714562498 ] ] ] } },
{ "type": "Feature", "properties": { "addr:city": null, "addr:postcode": null, "addr:street": null, "building": "industrial", "disused:amenity": null, "name": null, "wikidata": null, "osm_type": "way", "osm_id": 173307132, "shop": null, "addr:place": null, "addr:unit": null, "old_name": null, "addr:housenumber": null, "amenity": null, "fhrs:id": null, "opening_hours": null, "source": null, "industrial": null, "ref:GB:uprn": null, "addr:housename": null, "addr:suburb": null, "operator": null, "operator:wikidata": null, "phone": null, "service:vehicle:car_parts": null, "service:vehicle:car_repair": null, "service:vehicle:diagnostics": null, "service:vehicle:inspection": null, "office": null, "automated": null, "self_service": null, "recycling_type": null, "area": null, "barrier": null, "layer": null }, "geometry": { "type": "Polygon", "coordinates": [ [ [ 432642.14122172340285, 430447.869852145318873 ], [ 432638.684410516987555, 430449.225505074602552 ], [ 432641.087252427765634, 430455.36169687716756 ], [ 432638.225359366333578, 430456.476703422842547 ], [ 432641.211205883708317, 430464.085625221254304 ], [ 432647.529897788714152, 430461.614971554488875 ], [ 432642.14122172340285, 430447.869852145318873 ] ] ] } },
{ "type": "Feature", "properties": { "addr:city": null, "addr:postcode": null, "addr:street": null, "building": "industrial", "disused:amenity": null, "name": "HiQ", "wikidata": null, "osm_type": "way", "osm_id": 173307133, "shop": "car_repair", "addr:place": null, "addr:unit": null, "old_name": null, "addr:housenumber": null, "amenity": null, "fhrs:id": null, "opening_hours": null, "source": null, "industrial": null, "ref:GB:uprn": null, "addr:housename": null, "addr:suburb": null, "operator": null, "operator:wikidata": null, "phone": null, "service:vehicle:car_parts": null, "service:vehicle:car_repair": null, "service:vehicle:diagnostics": null, "service:vehicle:inspection": null, "office": null, "automated": null, "self_service": null, "recycling_type": null, "area": null, "barrier": null, "layer": null }, "geometry": { "type": "Polygon", "coordinates": [ [ [ 432651.140929961460643, 430459.882100697956048 ], [ 432652.938695933611598, 430459.182507865712978 ], [ 432655.095377615070902, 430464.693920117570087 ], [ 432667.792180102725979, 430459.741945371381007 ], [ 432661.451429874054156, 430443.575762835331261 ], [ 432660.350405603647232, 430440.764265714562498 ], [ 432645.855712491611484, 430446.42698135052342 ], [ 432651.140929961460643, 430459.882100697956048 ] ] ] } },
{ "type": "Feature", "properties": { "addr:city": "Leeds", "addr:postcode": "LS10 1DU", "addr:street": "Wakefield Road", "building": "yes", "disused:amenity": null, "name": null, "wikidata": null, "osm_type": "way", "osm_id": 194644434, "shop": null, "addr:place": null, "addr:unit": null, "old_name": null, "addr:housenumber": null, "amenity": null, "fhrs:id": null, "opening_hours": null, "source": "Bing Maps", "industrial": null, "ref:GB:uprn": null, "addr:housename": "Monarch House", "addr:suburb": null, "operator": null, "operator:wikidata": null, "phone": null, "service:vehicle:car_parts": null, "service:vehicle:car_repair": null, "service:vehicle:diagnostics": null, "service:vehicle:inspection": null, "office": "vacant", "automated": null, "self_service": null, "recycling_type": null, "area": null, "barrier": null, "layer": null }, "geometry": { "type": "Polygon", "coordinates": [ [ [ 431996.612351274234243, 430779.400570570491254 ], [ 432011.96784056496108, 430775.788975018425845 ], [ 432008.021234869491309, 430759.128190853400156 ], [ 432014.358879618463106, 430757.635937229846604 ], [ 432010.835359796474222, 430742.724871268379502 ], [ 431989.142033961368725, 430747.839875770616345 ], [ 431996.612351274234243, 430779.400570570491254 ] ] ] } },
{ "type": "Feature", "properties": { "addr:city": null, "addr:postcode": null, "addr:street": null, "building": "yes", "disused:amenity": null, "name": "Glossy Hand Car Wash", "wikidata": null, "osm_type": "way", "osm_id": 201505209, "shop": null, "addr:place": null, "addr:unit": null, "old_name": null, "addr:housenumber": null, "amenity": "car_wash", "fhrs:id": null, "opening_hours": null, "source": null, "industrial": null, "ref:GB:uprn": null, "addr:housename": null, "addr:suburb": null, "operator": null, "operator:wikidata": null, "phone": null, "service:vehicle:car_parts": null, "service:vehicle:car_repair": null, "service:vehicle:diagnostics": null, "service:vehicle:inspection": null, "office": null, "automated": "no", "self_service": "no", "recycling_type": null, "area": null, "barrier": null, "layer": null }, "geometry": { "type": "Polygon", "coordinates": [ [ [ 432038.633360413485207, 430949.085672145010903 ], [ 432044.339483132760506, 430967.672224527574144 ], [ 432047.51627897308208, 430966.703649704460986 ], [ 432050.666714050399605, 430965.734897175803781 ], [ 432044.953947432921268, 430947.159417930757627 ], [ 432042.140378000214696, 430948.019208505167626 ], [ 432038.633360413485207, 430949.085672145010903 ] ] ] } },
{ "type": "Feature", "properties": { "addr:city": null, "addr:postcode": null, "addr:street": null, "building": "yes", "disused:amenity": null, "name": "European Metal Recycling", "wikidata": null, "osm_type": "way", "osm_id": 203426733, "shop": null, "addr:place": null, "addr:unit": null, "old_name": null, "addr:housenumber": null, "amenity": "recycling", "fhrs:id": null, "opening_hours": null, "source": null, "industrial": null, "ref:GB:uprn": null, "addr:housename": null, "addr:suburb": null, "operator": null, "operator:wikidata": null, "phone": null, "service:vehicle:car_parts": null, "service:vehicle:car_repair": null, "service:vehicle:diagnostics": null, "service:vehicle:inspection": null, "office": null, "automated": null, "self_service": null, "recycling_type": "centre", "area": null, "barrier": null, "layer": null }, "geometry": { "type": "Polygon", "coordinates": [ [ [ 432279.68349470582325, 430934.302201781072654 ], [ 432307.403789748728741, 430961.273913331795484 ], [ 432369.087265597598162, 430898.178140751319006 ], [ 432341.360351438750513, 430871.206021166755818 ], [ 432279.68349470582325, 430934.302201781072654 ] ] ] } },
{ "type": "Feature", "properties": { "addr:city": "Leeds", "addr:postcode": "LS10 1DF", "addr:street": "Intermezzo Drive", "building": "industrial", "disused:amenity": null, "name": "Steeper", "wikidata": null, "osm_type": "way", "osm_id": 203426734, "shop": null, "addr:place": null, "addr:unit": "3", "old_name": null, "addr:housenumber": null, "amenity": null, "fhrs:id": "1028707", "opening_hours": null, "source": null, "industrial": "factory", "ref:GB:uprn": null, "addr:housename": null, "addr:suburb": null, "operator": null, "operator:wikidata": null, "phone": null, "service:vehicle:car_parts": null, "service:vehicle:car_repair": null, "service:vehicle:diagnostics": null, "service:vehicle:inspection": null, "office": null, "automated": null, "self_service": null, "recycling_type": null, "area": null, "barrier": null, "layer": null }, "geometry": { "type": "Polygon", "coordinates": [ [ [ 432824.389479794888757, 430350.070464848657139 ], [ 432825.633635080244858, 430354.084648311487399 ], [ 432840.923809067171533, 430403.492424506926909 ], [ 432926.054137666942552, 430377.262598205124959 ], [ 432909.514087050920352, 430323.84029057470616 ], [ 432824.389479794888757, 430350.070464848657139 ] ] ] } },
{ "type": "Feature", "properties": { "addr:city": null, "addr:postcode": null, "addr:street": null, "building": "yes", "disused:amenity": null, "name": null, "wikidata": null, "osm_type": "way", "osm_id": 203858624, "shop": null, "addr:place": null, "addr:unit": null, "old_name": null, "addr:housenumber": null, "amenity": null, "fhrs:id": null, "opening_hours": null, "source": null, "industrial": null, "ref:GB:uprn": null, "addr:housename": null, "addr:suburb": null, "operator": null, "operator:wikidata": null, "phone": null, "service:vehicle:car_parts": null, "service:vehicle:car_repair": null, "service:vehicle:diagnostics": null, "service:vehicle:inspection": null, "office": null, "automated": null, "self_service": null, "recycling_type": null, "area": null, "barrier": null, "layer": null }, "geometry": { "type": "Polygon", "coordinates": [ [ [ 432409.73206044518156, 430809.547619412536733 ], [ 432430.272843944490887, 430787.147365487297066 ], [ 432429.165914720273577, 430786.138351654401049 ], [ 432430.992204079055227, 430784.14821390225552 ], [ 432435.144719007774256, 430787.94871887518093 ], [ 432439.428190550010186, 430783.282970687025227 ], [ 432431.280256153317168, 430775.838810546440072 ], [ 432400.273265749798156, 430809.638142363168299 ], [ 432411.257322618039325, 430819.660878513474017 ], [ 432415.613777177582961, 430814.917727867956273 ], [ 432409.73206044518156, 430809.547619412536733 ] ] ] } },
{ "type": "Feature", "properties": { "addr:city": null, "addr:postcode": null, "addr:street": null, "building": "yes", "disused:amenity": null, "name": null, "wikidata": null, "osm_type": "way", "osm_id": 203858626, "shop": null, "addr:place": null, "addr:unit": null, "old_name": null, "addr:housenumber": null, "amenity": null, "fhrs:id": null, "opening_hours": null, "source": null, "industrial": null, "ref:GB:uprn": null, "addr:housename": null, "addr:suburb": null, "operator": null, "operator:wikidata": null, "phone": null, "service:vehicle:car_parts": null, "service:vehicle:car_repair": null, "service:vehicle:diagnostics": null, "service:vehicle:inspection": null, "office": null, "automated": null, "self_service": null, "recycling_type": null, "area": null, "barrier": null, "layer": null }, "geometry": { "type": "Polygon", "coordinates": [ [ [ 432435.184725118160713, 430759.242982893018052 ], [ 432447.963316977547947, 430771.881762873730622 ], [ 432480.990521022235043, 430738.641901629394852 ], [ 432468.218515924061649, 430726.003077680827118 ], [ 432435.184725118160713, 430759.242982893018052 ] ] ] } },
{ "type": "Feature", "properties": { "addr:city": null, "addr:postcode": null, "addr:street": null, "building": "industrial", "disused:amenity": null, "name": null, "wikidata": null, "osm_type": "way", "osm_id": 223128202, "shop": null, "addr:place": null, "addr:unit": null, "old_name": null, "addr:housenumber": null, "amenity": null, "fhrs:id": null, "opening_hours": null, "source": "Bing", "industrial": null, "ref:GB:uprn": null, "addr:housename": null, "addr:suburb": null, "operator": null, "operator:wikidata": null, "phone": null, "service:vehicle:car_parts": null, "service:vehicle:car_repair": null, "service:vehicle:diagnostics": null, "service:vehicle:inspection": null, "office": null, "automated": null, "self_service": null, "recycling_type": null, "area": null, "barrier": null, "layer": null }, "geometry": { "type": "Polygon", "coordinates": [ [ [ 432714.548834886576515, 430922.189816008205526 ], [ 432705.382746947696432, 430949.374471775838174 ], [ 432711.22182989155408, 430951.328865409945138 ], [ 432707.453035447513685, 430962.518004558165558 ], [ 432768.230084997252561, 430982.902296377462335 ], [ 432784.20766106172232, 430935.481915269396268 ], [ 432756.676017629448324, 430926.244106202037074 ], [ 432754.858778741559945, 430931.649977538967505 ], [ 432721.369623216916807, 430920.412598230759613 ], [ 432720.138048438355327, 430924.064595600008033 ], [ 432714.548834886576515, 430922.189816008205526 ] ] ] } },
{ "type": "Feature", "properties": { "addr:city": null, "addr:postcode": null, "addr:street": null, "building": "yes", "disused:amenity": null, "name": null, "wikidata": null, "osm_type": "way", "osm_id": 223128203, "shop": null, "addr:place": null, "addr:unit": null, "old_name": null, "addr:housenumber": null, "amenity": null, "fhrs:id": null, "opening_hours": null, "source": "Bing", "industrial": null, "ref:GB:uprn": null, "addr:housename": null, "addr:suburb": null, "operator": null, "operator:wikidata": null, "phone": null, "service:vehicle:car_parts": null, "service:vehicle:car_repair": null, "service:vehicle:diagnostics": null, "service:vehicle:inspection": null, "office": null, "automated": null, "self_service": null, "recycling_type": null, "area": null, "barrier": null, "layer": null }, "geometry": { "type": "Polygon", "coordinates": [ [ [ 432575.157136228168383, 430976.452413983643055 ], [ 432586.016316646127962, 430987.264677037252113 ], [ 432594.352188860008027, 430978.933228294015862 ], [ 432591.452509325812571, 430976.0425058696419 ], [ 432599.489752647816204, 430968.009406146709807 ], [ 432601.538533214421477, 430970.048623925657012 ], [ 432605.620199985802174, 430965.971323487348855 ], [ 432603.309574249899015, 430963.674380073091015 ], [ 432605.094937191810459, 430961.884300233563408 ], [ 432597.397280031756964, 430954.220440887147561 ], [ 432575.157136228168383, 430976.452413983643055 ] ] ] } },
{ "type": "Feature", "properties": { "addr:city": null, "addr:postcode": null, "addr:street": null, "building": "industrial", "disused:amenity": null, "name": "SIG", "wikidata": null, "osm_type": "way", "osm_id": 223128204, "shop": null, "addr:place": null, "addr:unit": null, "old_name": null, "addr:housenumber": null, "amenity": null, "fhrs:id": null, "opening_hours": null, "source": "Bing", "industrial": null, "ref:GB:uprn": null, "addr:housename": null, "addr:suburb": null, "operator": null, "operator:wikidata": null, "phone": null, "service:vehicle:car_parts": null, "service:vehicle:car_repair": null, "service:vehicle:diagnostics": null, "service:vehicle:inspection": null, "office": null, "automated": null, "self_service": null, "recycling_type": null, "area": null, "barrier": null, "layer": null }, "geometry": { "type": "Polygon", "coordinates": [ [ [ 432851.019870332849678, 430430.221780462539755 ], [ 432879.358061808277853, 430518.629857764812186 ], [ 432953.301926540618297, 430495.048227508086711 ], [ 432941.458950167114381, 430458.103511101333424 ], [ 432975.521337031736039, 430447.238354047643952 ], [ 432958.905113775224891, 430395.395267161657102 ], [ 432937.493700775958132, 430402.221341176540591 ], [ 432922.886918067291845, 430406.881044822279364 ], [ 432924.912459775921889, 430413.192763542989269 ], [ 432889.806109536904842, 430424.395898488583043 ], [ 432887.903190342825837, 430418.452223782776855 ], [ 432852.651651428837795, 430429.699125141836703 ], [ 432851.019870332849678, 430430.221780462539755 ] ] ] } },
{ "type": "Feature", "properties": { "addr:city": null, "addr:postcode": null, "addr:street": null, "building": "industrial", "disused:amenity": null, "name": null, "wikidata": null, "osm_type": "way", "osm_id": 223128211, "shop": null, "addr:place": null, "addr:unit": null, "old_name": null, "addr:housenumber": null, "amenity": null, "fhrs:id": null, "opening_hours": null, "source": "Bing", "industrial": null, "ref:GB:uprn": null, "addr:housename": null, "addr:suburb": null, "operator": null, "operator:wikidata": null, "phone": null, "service:vehicle:car_parts": null, "service:vehicle:car_repair": null, "service:vehicle:diagnostics": null, "service:vehicle:inspection": null, "office": null, "automated": null, "self_service": null, "recycling_type": null, "area": null, "barrier": null, "layer": null }, "geometry": { "type": "Polygon", "coordinates": [ [ [ 432973.693451571452897, 430319.79522795160301 ], [ 432980.862599311454687, 430346.470946383429691 ], [ 432996.170924606383778, 430342.383793141925707 ], [ 433007.886670059873722, 430339.250568592688069 ], [ 433174.814608368615154, 430294.619043847895227 ], [ 433172.990392106468789, 430287.841328980983235 ], [ 433183.12796596379485, 430285.131326086353511 ], [ 433182.241678462654818, 430281.820533900638111 ], [ 433189.981920273508877, 430279.7500705269631 ], [ 433188.215550009568688, 430273.184159417403862 ], [ 433179.67623356328113, 430275.460383589845151 ], [ 433176.985024965542834, 430265.438770482549444 ], [ 432973.693451571452897, 430319.79522795160301 ] ] ] } },
{ "type": "Feature", "properties": { "addr:city": null, "addr:postcode": null, "addr:street": null, "building": "yes", "disused:amenity": null, "name": null, "wikidata": null, "osm_type": "way", "osm_id": 223128221, "shop": null, "addr:place": null, "addr:unit": null, "old_name": null, "addr:housenumber": null, "amenity": null, "fhrs:id": null, "opening_hours": null, "source": "Bing", "industrial": null, "ref:GB:uprn": null, "addr:housename": null, "addr:suburb": null, "operator": null, "operator:wikidata": null, "phone": null, "service:vehicle:car_parts": null, "service:vehicle:car_repair": null, "service:vehicle:diagnostics": null, "service:vehicle:inspection": null, "office": null, "automated": null, "self_service": null, "recycling_type": null, "area": null, "barrier": null, "layer": null }, "geometry": { "type": "Polygon", "coordinates": [ [ [ 432989.334292789222673, 430369.751154951401986 ], [ 432991.726200944860466, 430378.324128402979113 ], [ 433015.839326099900063, 430371.650802292861044 ], [ 433013.454049710417166, 430363.077862772508524 ], [ 432989.334292789222673, 430369.751154951401986 ] ] ] } },
{ "type": "Feature", "properties": { "addr:city": null, "addr:postcode": null, "addr:street": null, "building": "industrial", "disused:amenity": null, "name": null, "wikidata": null, "osm_type": "way", "osm_id": 223128223, "shop": null, "addr:place": null, "addr:unit": null, "old_name": null, "addr:housenumber": null, "amenity": null, "fhrs:id": null, "opening_hours": null, "source": "Bing", "industrial": null, "ref:GB:uprn": null, "addr:housename": null, "addr:suburb": null, "operator": null, "operator:wikidata": null, "phone": null, "service:vehicle:car_parts": null, "service:vehicle:car_repair": null, "service:vehicle:diagnostics": null, "service:vehicle:inspection": null, "office": null, "automated": null, "self_service": null, "recycling_type": null, "area": null, "barrier": null, "layer": null }, "geometry": { "type": "Polygon", "coordinates": [ [ [ 432927.612347536545713, 430864.018879106617533 ], [ 432946.78439440013608, 430870.762375834397972 ], [ 432951.343629906070419, 430857.854380447068252 ], [ 432932.178126905811951, 430851.110911550698802 ], [ 432927.612347536545713, 430864.018879106617533 ] ] ] } },
{ "type": "Feature", "properties": { "addr:city": null, "addr:postcode": null, "addr:street": null, "building": "yes", "disused:amenity": null, "name": null, "wikidata": null, "osm_type": "way", "osm_id": 223128233, "shop": null, "addr:place": null, "addr:unit": null, "old_name": null, "addr:housenumber": null, "amenity": null, "fhrs:id": null, "opening_hours": null, "source": "Bing", "industrial": null, "ref:GB:uprn": null, "addr:housename": null, "addr:suburb": null, "operator": null, "operator:wikidata": null, "phone": null, "service:vehicle:car_parts": null, "service:vehicle:car_repair": null, "service:vehicle:diagnostics": null, "service:vehicle:inspection": null, "office": null, "automated": null, "self_service": null, "recycling_type": null, "area": null, "barrier": null, "layer": null }, "geometry": { "type": "Polygon", "coordinates": [ [ [ 432996.170924606383778, 430342.383793141925707 ], [ 432999.536985156650189, 430354.913472743006423 ], [ 433011.252701753168367, 430351.780256668454967 ], [ 433007.886670059873722, 430339.250568592688069 ], [ 432996.170924606383778, 430342.383793141925707 ] ] ] } },
{ "type": "Feature", "properties": { "addr:city": null, "addr:postcode": null, "addr:street": null, "building": "industrial", "disused:amenity": null, "name": null, "wikidata": null, "osm_type": "way", "osm_id": 223128235, "shop": null, "addr:place": null, "addr:unit": null, "old_name": null, "addr:housenumber": null, "amenity": null, "fhrs:id": null, "opening_hours": null, "source": "Bing", "industrial": null, "ref:GB:uprn": null, "addr:housename": null, "addr:suburb": null, "operator": null, "operator:wikidata": null, "phone": null, "service:vehicle:car_parts": null, "service:vehicle:car_repair": null, "service:vehicle:diagnostics": null, "service:vehicle:inspection": null, "office": null, "automated": null, "self_service": null, "recycling_type": null, "area": null, "barrier": null, "layer": null }, "geometry": { "type": "Polygon", "coordinates": [ [ [ 432666.261163894843776, 430776.610161189106293 ], [ 432647.052919389097951, 430806.261917258030735 ], [ 432723.200371384795289, 430855.347209953237325 ], [ 432742.402314910548739, 430825.695717182592489 ], [ 432666.261163894843776, 430776.610161189106293 ] ] ] } },
{ "type": "Feature", "properties": { "addr:city": null, "addr:postcode": null, "addr:street": null, "building": "industrial", "disused:amenity": null, "name": null, "wikidata": null, "osm_type": "way", "osm_id": 223128239, "shop": null, "addr:place": null, "addr:unit": null, "old_name": null, "addr:housenumber": null, "amenity": null, "fhrs:id": null, "opening_hours": null, "source": "Bing", "industrial": null, "ref:GB:uprn": null, "addr:housename": null, "addr:suburb": null, "operator": null, "operator:wikidata": null, "phone": null, "service:vehicle:car_parts": null, "service:vehicle:car_repair": null, "service:vehicle:diagnostics": null, "service:vehicle:inspection": null, "office": null, "automated": null, "self_service": null, "recycling_type": null, "area": null, "barrier": null, "layer": null }, "geometry": { "type": "Polygon", "coordinates": [ [ [ 432765.269138594623655, 430847.073144724243321 ], [ 432751.05149398278445, 430888.786900398088619 ], [ 432904.447492513572797, 430940.817696336191148 ], [ 432918.659768532204907, 430899.104352663387544 ], [ 432765.269138594623655, 430847.073144724243321 ] ] ] } },
{ "type": "Feature", "properties": { "addr:city": null, "addr:postcode": null, "addr:street": null, "building": "industrial", "disused:amenity": null, "name": null, "wikidata": null, "osm_type": "way", "osm_id": 223128242, "shop": null, "addr:place": null, "addr:unit": null, "old_name": null, "addr:housenumber": null, "amenity": null, "fhrs:id": null, "opening_hours": null, "source": "Bing", "industrial": null, "ref:GB:uprn": null, "addr:housename": null, "addr:suburb": null, "operator": null, "operator:wikidata": null, "phone": null, "service:vehicle:car_parts": null, "service:vehicle:car_repair": null, "service:vehicle:diagnostics": null, "service:vehicle:inspection": null, "office": null, "automated": null, "self_service": null, "recycling_type": null, "area": null, "barrier": null, "layer": null }, "geometry": { "type": "Polygon", "coordinates": [ [ [ 432951.205173419148196, 430947.120328454184346 ], [ 432970.464083835599013, 430953.64200882287696 ], [ 432985.034028037451208, 430910.818732653511688 ], [ 432965.768369421071839, 430904.296947085415013 ], [ 432951.205173419148196, 430947.120328454184346 ] ] ] } },
{ "type": "Feature", "properties": { "addr:city": null, "addr:postcode": null, "addr:street": null, "building": "industrial", "disused:amenity": null, "name": null, "wikidata": null, "osm_type": "way", "osm_id": 223128247, "shop": null, "addr:place": null, "addr:unit": null, "old_name": null, "addr:housenumber": null, "amenity": null, "fhrs:id": null, "opening_hours": null, "source": "Bing", "industrial": null, "ref:GB:uprn": null, "addr:housename": null, "addr:suburb": null, "operator": null, "operator:wikidata": null, "phone": null, "service:vehicle:car_parts": null, "service:vehicle:car_repair": null, "service:vehicle:diagnostics": null, "service:vehicle:inspection": null, "office": null, "automated": null, "self_service": null, "recycling_type": null, "area": null, "barrier": null, "layer": null }, "geometry": { "type": "Polygon", "coordinates": [ [ [ 432638.119984823628329, 430975.409656135947444 ], [ 432609.106735353299882, 431003.001829541870393 ], [ 432629.292592351324856, 431024.12633707060013 ], [ 432658.305833414371591, 430996.534287952468731 ], [ 432638.119984823628329, 430975.409656135947444 ] ] ] } },
{ "type": "Feature", "properties": { "addr:city": null, "addr:postcode": null, "addr:street": null, "building": "yes", "disused:amenity": null, "name": null, "wikidata": null, "osm_type": "way", "osm_id": 223128254, "shop": null, "addr:place": null, "addr:unit": null, "old_name": null, "addr:housenumber": null, "amenity": null, "fhrs:id": null, "opening_hours": null, "source": "Bing", "industrial": null, "ref:GB:uprn": null, "addr:housename": null, "addr:suburb": null, "operator": null, "operator:wikidata": null, "phone": null, "service:vehicle:car_parts": null, "service:vehicle:car_repair": null, "service:vehicle:diagnostics": null, "service:vehicle:inspection": null, "office": null, "automated": null, "self_service": null, "recycling_type": null, "area": null, "barrier": null, "layer": null }, "geometry": { "type": "Polygon", "coordinates": [ [ [ 432603.787435045291204, 430787.513923377962783 ], [ 432598.780698298593052, 430792.853212221642025 ], [ 432620.917224706325214, 430814.158098996733315 ], [ 432625.923964596935548, 430808.818833649740554 ], [ 432603.787435045291204, 430787.513923377962783 ] ] ] } },
{ "type": "Feature", "properties": { "addr:city": null, "addr:postcode": null, "addr:street": null, "building": "industrial", "disused:amenity": null, "name": null, "wikidata": null, "osm_type": "way", "osm_id": 223128261, "shop": null, "addr:place": null, "addr:unit": null, "old_name": null, "addr:housenumber": null, "amenity": null, "fhrs:id": null, "opening_hours": null, "source": "Bing", "industrial": null, "ref:GB:uprn": null, "addr:housename": null, "addr:suburb": null, "operator": null, "operator:wikidata": null, "phone": null, "service:vehicle:car_parts": null, "service:vehicle:car_repair": null, "service:vehicle:diagnostics": null, "service:vehicle:inspection": null, "office": null, "automated": null, "self_service": null, "recycling_type": null, "area": null, "barrier": null, "layer": null }, "geometry": { "type": "Polygon", "coordinates": [ [ [ 432998.942708043847233, 430670.364174213726074 ], [ 433006.907382391975261, 430655.010100845596753 ], [ 432968.829130225814879, 430635.338318226044066 ], [ 432945.523735978174955, 430680.236627325648442 ], [ 432983.601715489290655, 430699.908222700934857 ], [ 432989.274351179075893, 430688.988576881587505 ], [ 432983.849625514878426, 430686.191144394921139 ], [ 432993.518044397351332, 430667.555604834575206 ], [ 432998.942708043847233, 430670.364174213726074 ] ] ] } },
{ "type": "Feature", "properties": { "addr:city": null, "addr:postcode": null, "addr:street": null, "building": "industrial", "disused:amenity": null, "name": null, "wikidata": null, "osm_type": "way", "osm_id": 223128262, "shop": null, "addr:place": null, "addr:unit": null, "old_name": null, "addr:housenumber": null, "amenity": null, "fhrs:id": null, "opening_hours": null, "source": "Bing", "industrial": null, "ref:GB:uprn": null, "addr:housename": null, "addr:suburb": null, "operator": null, "operator:wikidata": null, "phone": null, "service:vehicle:car_parts": null, "service:vehicle:car_repair": null, "service:vehicle:diagnostics": null, "service:vehicle:inspection": null, "office": null, "automated": null, "self_service": null, "recycling_type": null, "area": null, "barrier": null, "layer": null }, "geometry": { "type": "Polygon", "coordinates": [ [ [ 432644.943302107567433, 431033.948400102090091 ], [ 432683.275076903868467, 431059.527448122273199 ], [ 432703.487851321639027, 431029.371018341276795 ], [ 432691.954825282678939, 431021.680298876715824 ], [ 432695.857485155691393, 431015.866116571240127 ], [ 432680.998372416303027, 431005.949253094149753 ], [ 432677.049125461722724, 431011.829881737241521 ], [ 432665.102669983753003, 431003.869320653029718 ], [ 432644.943302107567433, 431033.948400102090091 ] ] ] } },
{ "type": "Feature", "properties": { "addr:city": "Leeds", "addr:postcode": "LS10 1RZ", "addr:street": "Skelton Grange Road", "building": "yes", "disused:amenity": null, "name": "Batleys Wholesale", "wikidata": null, "osm_type": "way", "osm_id": 223128264, "shop": "wholesale", "addr:place": null, "addr:unit": null, "old_name": null, "addr:housenumber": null, "amenity": null, "fhrs:id": null, "opening_hours": null, "source": "Bing", "industrial": null, "ref:GB:uprn": null, "addr:housename": null, "addr:suburb": "Stourton", "operator": null, "operator:wikidata": null, "phone": null, "service:vehicle:car_parts": null, "service:vehicle:car_repair": null, "service:vehicle:diagnostics": null, "service:vehicle:inspection": null, "office": null, "automated": null, "self_service": null, "recycling_type": null, "area": null, "barrier": null, "layer": null }, "geometry": { "type": "Polygon", "coordinates": [ [ [ 432573.505605696060229, 430853.438972100615501 ], [ 432564.738072657724842, 430862.212520622299053 ], [ 432571.866483385616448, 430869.304931307095103 ], [ 432475.55253460071981, 430965.593251647544093 ], [ 432530.896505930984858, 431020.695666517131031 ], [ 432550.408500629826449, 431001.19279372622259 ], [ 432575.157136228168383, 430976.452413983643055 ], [ 432597.397280031756964, 430954.220440887147561 ], [ 432635.984541733982041, 430915.646216221735813 ], [ 432618.841426744824275, 430898.581686792778783 ], [ 432579.678337061370257, 430859.579026813502423 ], [ 432573.505605696060229, 430853.438972100615501 ] ] ] } },
{ "type": "Feature", "properties": { "addr:city": null, "addr:postcode": null, "addr:street": null, "building": "industrial", "disused:amenity": null, "name": null, "wikidata": null, "osm_type": "way", "osm_id": 223128266, "shop": null, "addr:place": null, "addr:unit": null, "old_name": null, "addr:housenumber": null, "amenity": null, "fhrs:id": null, "opening_hours": null, "source": "Bing", "industrial": null, "ref:GB:uprn": "72681059", "addr:housename": null, "addr:suburb": null, "operator": null, "operator:wikidata": null, "phone": null, "service:vehicle:car_parts": null, "service:vehicle:car_repair": null, "service:vehicle:diagnostics": null, "service:vehicle:inspection": null, "office": null, "automated": null, "self_service": null, "recycling_type": null, "area": null, "barrier": null, "layer": null }, "geometry": { "type": "Polygon", "coordinates": [ [ [ 432910.302497710566968, 430709.997575141838752 ], [ 432990.86062084347941, 430752.18639744783286 ], [ 432993.452714183949865, 430747.242239028331824 ], [ 432999.743913855170831, 430750.535330997430719 ], [ 433008.508508391678333, 430733.885093372547999 ], [ 432932.763892311893869, 430694.222019829903729 ], [ 432928.729092941794079, 430701.882059411145747 ], [ 432917.63069919164991, 430696.063069620984606 ], [ 432910.302497710566968, 430709.997575141838752 ] ] ] } },
{ "type": "Feature", "properties": { "addr:city": null, "addr:postcode": null, "addr:street": null, "building": "industrial", "disused:amenity": null, "name": null, "wikidata": null, "osm_type": "way", "osm_id": 223128267, "shop": null, "addr:place": null, "addr:unit": null, "old_name": null, "addr:housenumber": null, "amenity": null, "fhrs:id": null, "opening_hours": null, "source": "Bing", "industrial": null, "ref:GB:uprn": null, "addr:housename": null, "addr:suburb": null, "operator": null, "operator:wikidata": null, "phone": null, "service:vehicle:car_parts": null, "service:vehicle:car_repair": null, "service:vehicle:diagnostics": null, "service:vehicle:inspection": null, "office": null, "automated": null, "self_service": null, "recycling_type": null, "area": null, "barrier": null, "layer": null }, "geometry": { "type": "Polygon", "coordinates": [ [ [ 432801.380091899249237, 430999.211276367655955 ], [ 432808.343170070904307, 431001.585317285032943 ], [ 432806.203495549270883, 431007.856774806859903 ], [ 432827.862114050949458, 431015.217981829307973 ], [ 432830.129677248827647, 431008.569130941992626 ], [ 432851.492385711637326, 431015.828242188086733 ], [ 432868.677704649220686, 430965.45696999435313 ], [ 432818.686122562852688, 430948.473499630112201 ], [ 432801.380091899249237, 430999.211276367655955 ] ] ] } },
{ "type": "Feature", "properties": { "addr:city": null, "addr:postcode": null, "addr:street": null, "building": "industrial", "disused:amenity": null, "name": null, "wikidata": null, "osm_type": "way", "osm_id": 223128268, "shop": null, "addr:place": null, "addr:unit": null, "old_name": null, "addr:housenumber": null, "amenity": null, "fhrs:id": null, "opening_hours": null, "source": "Bing", "industrial": null, "ref:GB:uprn": null, "addr:housename": null, "addr:suburb": null, "operator": null, "operator:wikidata": null, "phone": null, "service:vehicle:car_parts": null, "service:vehicle:car_repair": null, "service:vehicle:diagnostics": null, "service:vehicle:inspection": null, "office": null, "automated": null, "self_service": null, "recycling_type": null, "area": null, "barrier": null, "layer": null }, "geometry": { "type": "Polygon", "coordinates": [ [ [ 432988.761374763329513, 430877.476902030641213 ], [ 433014.865744089882355, 430886.27211675955914 ], [ 433019.058913523040246, 430873.895678460597992 ], [ 433022.839782063150778, 430875.168411000049673 ], [ 433026.736890918284189, 430863.657755619613454 ], [ 433022.600977972731926, 430862.260133922682144 ], [ 433026.504765330522787, 430850.738399036694318 ], [ 433000.755334204586688, 430842.056879072566517 ], [ 432988.761374763329513, 430877.476902030641213 ] ] ] } },
{ "type": "Feature", "properties": { "addr:city": null, "addr:postcode": null, "addr:street": null, "building": "industrial", "disused:amenity": null, "name": null, "wikidata": null, "osm_type": "way", "osm_id": 223128270, "shop": null, "addr:place": null, "addr:unit": null, "old_name": null, "addr:housenumber": null, "amenity": null, "fhrs:id": null, "opening_hours": null, "source": "Bing", "industrial": null, "ref:GB:uprn": null, "addr:housename": null, "addr:suburb": null, "operator": null, "operator:wikidata": null, "phone": null, "service:vehicle:car_parts": null, "service:vehicle:car_repair": null, "service:vehicle:diagnostics": null, "service:vehicle:inspection": null, "office": null, "automated": null, "self_service": null, "recycling_type": null, "area": null, "barrier": null, "layer": null }, "geometry": { "type": "Polygon", "coordinates": [ [ [ 432911.825094070169143, 431048.650596983265132 ], [ 432916.938757426221855, 431053.459646181552671 ], [ 432904.522030312160496, 431066.601911581587046 ], [ 432932.761569589842111, 431093.158213329967111 ], [ 432984.069039079302456, 431038.854321918217465 ], [ 432939.021742139419075, 430996.491626143106259 ], [ 432933.357700820080936, 431002.49353395937942 ], [ 432945.051819482585415, 431013.479389499523677 ], [ 432911.825094070169143, 431048.650596983265132 ] ] ] } },
{ "type": "Feature", "properties": { "addr:city": "Leeds", "addr:postcode": "LS10 1DS", "addr:street": null, "building": "yes", "disused:amenity": null, "name": "Retail Computer Solutions", "wikidata": null, "osm_type": "way", "osm_id": 448484750, "shop": null, "addr:place": null, "addr:unit": null, "old_name": "Absolute Warehouse Services", "addr:housenumber": null, "amenity": null, "fhrs:id": null, "opening_hours": null, "source": null, "industrial": null, "ref:GB:uprn": null, "addr:housename": null, "addr:suburb": null, "operator": null, "operator:wikidata": null, "phone": null, "service:vehicle:car_parts": null, "service:vehicle:car_repair": null, "service:vehicle:diagnostics": null, "service:vehicle:inspection": null, "office": "company", "automated": null, "self_service": null, "recycling_type": null, "area": null, "barrier": null, "layer": null }, "geometry": { "type": "Polygon", "coordinates": [ [ [ 432040.760806186764967, 430884.54507645231206 ], [ 432034.045754559978377, 430864.082424903055653 ], [ 432022.665387624874711, 430867.620902785798535 ], [ 432029.37176892143907, 430888.395016425987706 ], [ 432040.760806186764967, 430884.54507645231206 ] ] ] } },
{ "type": "Feature", "properties": { "addr:city": null, "addr:postcode": null, "addr:street": null, "building": "yes", "disused:amenity": null, "name": null, "wikidata": null, "osm_type": "way", "osm_id": 660417488, "shop": null, "addr:place": null, "addr:unit": null, "old_name": null, "addr:housenumber": null, "amenity": null, "fhrs:id": null, "opening_hours": null, "source": null, "industrial": null, "ref:GB:uprn": null, "addr:housename": null, "addr:suburb": null, "operator": null, "operator:wikidata": null, "phone": null, "service:vehicle:car_parts": null, "service:vehicle:car_repair": null, "service:vehicle:diagnostics": null, "service:vehicle:inspection": null, "office": null, "automated": null, "self_service": null, "recycling_type": null, "area": null, "barrier": null, "layer": null }, "geometry": { "type": "Polygon", "coordinates": [ [ [ 432037.583570943505038, 430604.306260601151735 ], [ 432042.285046834207606, 430602.101926170638762 ], [ 432039.673082662338857, 430596.56544450391084 ], [ 432034.971602514619008, 430598.769781553652138 ], [ 432037.583570943505038, 430604.306260601151735 ] ] ] } },
{ "type": "Feature", "properties": { "addr:city": null, "addr:postcode": null, "addr:street": null, "building": "yes", "disused:amenity": null, "name": null, "wikidata": null, "osm_type": "way", "osm_id": 660417489, "shop": null, "addr:place": null, "addr:unit": null, "old_name": null, "addr:housenumber": null, "amenity": null, "fhrs:id": null, "opening_hours": null, "source": null, "industrial": null, "ref:GB:uprn": null, "addr:housename": null, "addr:suburb": null, "operator": null, "operator:wikidata": null, "phone": null, "service:vehicle:car_parts": null, "service:vehicle:car_repair": null, "service:vehicle:diagnostics": null, "service:vehicle:inspection": null, "office": null, "automated": null, "self_service": null, "recycling_type": null, "area": null, "barrier": null, "layer": null }, "geometry": { "type": "Polygon", "coordinates": [ [ [ 432011.032368957123253, 430609.332414544071071 ], [ 432014.463001004070975, 430616.610168756451458 ], [ 432036.105795860406943, 430606.432442824705504 ], [ 432032.668522662192117, 430599.165753661538474 ], [ 432011.032368957123253, 430609.332414544071071 ] ] ] } },
{ "type": "Feature", "properties": { "addr:city": null, "addr:postcode": null, "addr:street": null, "building": "yes", "disused:amenity": null, "name": null, "wikidata": null, "osm_type": "way", "osm_id": 670963513, "shop": null, "addr:place": null, "addr:unit": null, "old_name": null, "addr:housenumber": null, "amenity": null, "fhrs:id": null, "opening_hours": null, "source": null, "industrial": null, "ref:GB:uprn": null, "addr:housename": null, "addr:suburb": null, "operator": null, "operator:wikidata": null, "phone": null, "service:vehicle:car_parts": null, "service:vehicle:car_repair": null, "service:vehicle:diagnostics": null, "service:vehicle:inspection": null, "office": null, "automated": null, "self_service": null, "recycling_type": null, "area": null, "barrier": null, "layer": null }, "geometry": { "type": "Polygon", "coordinates": [ [ [ 432366.338101343135349, 430873.414170597214252 ], [ 432359.693338549812324, 430880.266738054924645 ], [ 432380.383120406419039, 430900.23648044897709 ], [ 432387.021295336307958, 430893.38389670883771 ], [ 432366.338101343135349, 430873.414170597214252 ] ] ] } },
{ "type": "Feature", "properties": { "addr:city": null, "addr:postcode": null, "addr:street": null, "building": "yes", "disused:amenity": null, "name": null, "wikidata": null, "osm_type": "way", "osm_id": 670963514, "shop": null, "addr:place": null, "addr:unit": null, "old_name": null, "addr:housenumber": null, "amenity": null, "fhrs:id": null, "opening_hours": null, "source": null, "industrial": null, "ref:GB:uprn": null, "addr:housename": null, "addr:suburb": null, "operator": null, "operator:wikidata": null, "phone": null, "service:vehicle:car_parts": null, "service:vehicle:car_repair": null, "service:vehicle:diagnostics": null, "service:vehicle:inspection": null, "office": null, "automated": null, "self_service": null, "recycling_type": null, "area": null, "barrier": null, "layer": null }, "geometry": { "type": "Polygon", "coordinates": [ [ [ 432396.604228922573384, 430855.197541180765256 ], [ 432381.210311219794676, 430871.068861442268826 ], [ 432387.260040396125987, 430876.91852692340035 ], [ 432402.654036673542578, 430861.036100581637584 ], [ 432396.604228922573384, 430855.197541180765256 ] ] ] } },
{ "type": "Feature", "properties": { "addr:city": null, "addr:postcode": null, "addr:street": null, "building": "yes", "disused:amenity": null, "name": null, "wikidata": null, "osm_type": "way", "osm_id": 670963515, "shop": null, "addr:place": null, "addr:unit": null, "old_name": null, "addr:housenumber": null, "amenity": null, "fhrs:id": null, "opening_hours": null, "source": null, "industrial": null, "ref:GB:uprn": null, "addr:housename": null, "addr:suburb": null, "operator": null, "operator:wikidata": null, "phone": null, "service:vehicle:car_parts": null, "service:vehicle:car_repair": null, "service:vehicle:diagnostics": null, "service:vehicle:inspection": null, "office": null, "automated": null, "self_service": null, "recycling_type": null, "area": null, "barrier": null, "layer": null }, "geometry": { "type": "Polygon", "coordinates": [ [ [ 432405.144226219446864, 430846.878292343812063 ], [ 432420.93003785808105, 430862.107936610351317 ], [ 432427.004047562426422, 430855.841212463448755 ], [ 432411.218233976862393, 430840.611547861713916 ], [ 432405.144226219446864, 430846.878292343812063 ] ] ] } },
{ "type": "Feature", "properties": { "addr:city": null, "addr:postcode": null, "addr:street": null, "building": "yes", "disused:amenity": null, "name": null, "wikidata": null, "osm_type": "way", "osm_id": 670963516, "shop": null, "addr:place": null, "addr:unit": null, "old_name": null, "addr:housenumber": null, "amenity": null, "fhrs:id": null, "opening_hours": null, "source": null, "industrial": null, "ref:GB:uprn": null, "addr:housename": null, "addr:suburb": null, "operator": null, "operator:wikidata": null, "phone": null, "service:vehicle:car_parts": null, "service:vehicle:car_repair": null, "service:vehicle:diagnostics": null, "service:vehicle:inspection": null, "office": null, "automated": null, "self_service": null, "recycling_type": null, "area": null, "barrier": null, "layer": null }, "geometry": { "type": "Polygon", "coordinates": [ [ [ 432386.117329495435115, 430824.694634852232412 ], [ 432379.718089771398809, 430831.292960741207935 ], [ 432391.47078900411725, 430842.633859521709383 ], [ 432397.869953512679785, 430836.046675414429046 ], [ 432386.117329495435115, 430824.694634852232412 ] ] ] } },
{ "type": "Feature", "properties": { "addr:city": null, "addr:postcode": null, "addr:street": null, "building": "yes", "disused:amenity": null, "name": null, "wikidata": null, "osm_type": "way", "osm_id": 670963517, "shop": null, "addr:place": null, "addr:unit": null, "old_name": null, "addr:housenumber": null, "amenity": null, "fhrs:id": null, "opening_hours": null, "source": null, "industrial": null, "ref:GB:uprn": null, "addr:housename": null, "addr:suburb": null, "operator": null, "operator:wikidata": null, "phone": null, "service:vehicle:car_parts": null, "service:vehicle:car_repair": null, "service:vehicle:diagnostics": null, "service:vehicle:inspection": null, "office": null, "automated": null, "self_service": null, "recycling_type": null, "area": null, "barrier": null, "layer": null }, "geometry": { "type": "Polygon", "coordinates": [ [ [ 432378.194961613975465, 430845.724479271098971 ], [ 432372.020723559369799, 430839.762704730615951 ], [ 432349.855848257197067, 430862.630459957290441 ], [ 432356.023569526267238, 430868.581034244503826 ], [ 432378.194961613975465, 430845.724479271098971 ] ] ] } },
{ "type": "Feature", "properties": { "addr:city": null, "addr:postcode": null, "addr:street": null, "building": "yes", "disused:amenity": null, "name": null, "wikidata": null, "osm_type": "way", "osm_id": 670965340, "shop": null, "addr:place": null, "addr:unit": null, "old_name": null, "addr:housenumber": null, "amenity": null, "fhrs:id": null, "opening_hours": null, "source": null, "industrial": null, "ref:GB:uprn": null, "addr:housename": null, "addr:suburb": null, "operator": null, "operator:wikidata": null, "phone": null, "service:vehicle:car_parts": null, "service:vehicle:car_repair": null, "service:vehicle:diagnostics": null, "service:vehicle:inspection": null, "office": null, "automated": null, "self_service": null, "recycling_type": null, "area": null, "barrier": null, "layer": null }, "geometry": { "type": "Polygon", "coordinates": [ [ [ 432517.370746384433005, 430830.485800862195902 ], [ 432529.747102650580928, 430818.343611484509893 ], [ 432518.384759173204657, 430806.827043351484463 ], [ 432482.164885125297587, 430842.381101578357629 ], [ 432478.532353499846067, 430838.695412288536318 ], [ 432474.915730331267696, 430842.24197209009435 ], [ 432488.856816363229882, 430856.379838038468733 ], [ 432492.466848788782954, 430852.833243344095536 ], [ 432493.52063825156074, 430853.897536815144122 ], [ 432507.217505373817403, 430840.451511813676916 ], [ 432510.967798848287202, 430844.260428624227643 ], [ 432521.1210398109979, 430834.29472574882675 ], [ 432517.370746384433005, 430830.485800862195902 ] ] ] } },
{ "type": "Feature", "properties": { "addr:city": null, "addr:postcode": null, "addr:street": null, "building": "yes", "disused:amenity": null, "name": null, "wikidata": null, "osm_type": "way", "osm_id": 671054251, "shop": null, "addr:place": null, "addr:unit": null, "old_name": null, "addr:housenumber": null, "amenity": null, "fhrs:id": null, "opening_hours": null, "source": null, "industrial": null, "ref:GB:uprn": null, "addr:housename": null, "addr:suburb": null, "operator": null, "operator:wikidata": null, "phone": null, "service:vehicle:car_parts": null, "service:vehicle:car_repair": null, "service:vehicle:diagnostics": null, "service:vehicle:inspection": null, "office": null, "automated": null, "self_service": null, "recycling_type": null, "area": null, "barrier": null, "layer": null }, "geometry": { "type": "Polygon", "coordinates": [ [ [ 432102.906615040556062, 430668.517268836614676 ], [ 432094.241518884664401, 430728.952040808741003 ], [ 432107.674398632196244, 430730.868546772282571 ], [ 432110.013660998665728, 430714.562175570405088 ], [ 432116.339589274895843, 430670.444924701703712 ], [ 432102.906615040556062, 430668.517268836614676 ] ] ] } },
{ "type": "Feature", "properties": { "addr:city": null, "addr:postcode": null, "addr:street": null, "building": "industrial", "disused:amenity": null, "name": "Troy Foods", "wikidata": null, "osm_type": "way", "osm_id": 671061568, "shop": null, "addr:place": null, "addr:unit": null, "old_name": null, "addr:housenumber": null, "amenity": null, "fhrs:id": null, "opening_hours": null, "source": null, "industrial": null, "ref:GB:uprn": "72568582", "addr:housename": null, "addr:suburb": null, "operator": null, "operator:wikidata": null, "phone": null, "service:vehicle:car_parts": null, "service:vehicle:car_repair": null, "service:vehicle:diagnostics": null, "service:vehicle:inspection": null, "office": null, "automated": null, "self_service": null, "recycling_type": null, "area": null, "barrier": null, "layer": null }, "geometry": { "type": "Polygon", "coordinates": [ [ [ 432724.953068021393847, 430504.378171320888214 ], [ 432687.264013567648362, 430516.532818282488734 ], [ 432688.980491049820557, 430521.829783702502027 ], [ 432690.013012086506933, 430525.00798162794672 ], [ 432677.923506776394788, 430528.907114532892592 ], [ 432696.03668241831474, 430584.809601230779663 ], [ 432745.814654950634576, 430568.756036783219315 ], [ 432729.947520362271462, 430519.789598729810677 ], [ 432724.953068021393847, 430504.378171320888214 ] ] ] } },
{ "type": "Feature", "properties": { "addr:city": null, "addr:postcode": null, "addr:street": null, "building": "yes", "disused:amenity": null, "name": null, "wikidata": null, "osm_type": "way", "osm_id": 751680109, "shop": null, "addr:place": null, "addr:unit": null, "old_name": null, "addr:housenumber": null, "amenity": null, "fhrs:id": null, "opening_hours": null, "source": null, "industrial": null, "ref:GB:uprn": null, "addr:housename": null, "addr:suburb": null, "operator": null, "operator:wikidata": null, "phone": null, "service:vehicle:car_parts": null, "service:vehicle:car_repair": null, "service:vehicle:diagnostics": null, "service:vehicle:inspection": null, "office": null, "automated": null, "self_service": null, "recycling_type": null, "area": "yes", "barrier": "toll_booth", "layer": null }, "geometry": { "type": "Polygon", "coordinates": [ [ [ 432989.048851145198569, 430850.619847121066414 ], [ 432990.634962493320927, 430846.258320286753587 ], [ 432988.189317406970076, 430845.373287500930019 ], [ 432986.603129932715092, 430849.745940977940336 ], [ 432989.048851145198569, 430850.619847121066414 ] ] ] } },
{ "type": "Feature", "properties": { "addr:city": null, "addr:postcode": null, "addr:street": null, "building": "yes", "disused:amenity": null, "name": null, "wikidata": null, "osm_type": "way", "osm_id": 808814231, "shop": null, "addr:place": null, "addr:unit": null, "old_name": null, "addr:housenumber": null, "amenity": null, "fhrs:id": null, "opening_hours": null, "source": null, "industrial": null, "ref:GB:uprn": null, "addr:housename": null, "addr:suburb": null, "operator": null, "operator:wikidata": null, "phone": null, "service:vehicle:car_parts": null, "service:vehicle:car_repair": null, "service:vehicle:diagnostics": null, "service:vehicle:inspection": null, "office": null, "automated": null, "self_service": null, "recycling_type": null, "area": null, "barrier": null, "layer": null }, "geometry": { "type": "Polygon", "coordinates": [ [ [ 432345.188577366294339, 430979.5363822018262 ], [ 432373.458605685678776, 431006.979586106725037 ], [ 432408.604958041512873, 430972.919352818047628 ], [ 432380.158819902862888, 430945.207691463991068 ], [ 432345.188577366294339, 430979.5363822018262 ] ] ] } },
{ "type": "Feature", "properties": { "addr:city": null, "addr:postcode": null, "addr:street": null, "building": "yes", "disused:amenity": null, "name": null, "wikidata": null, "osm_type": "way", "osm_id": 808814232, "shop": null, "addr:place": null, "addr:unit": null, "old_name": null, "addr:housenumber": null, "amenity": null, "fhrs:id": null, "opening_hours": null, "source": null, "industrial": null, "ref:GB:uprn": null, "addr:housename": null, "addr:suburb": null, "operator": null, "operator:wikidata": null, "phone": null, "service:vehicle:car_parts": null, "service:vehicle:car_repair": null, "service:vehicle:diagnostics": null, "service:vehicle:inspection": null, "office": null, "automated": null, "self_service": null, "recycling_type": null, "area": null, "barrier": null, "layer": null }, "geometry": { "type": "Polygon", "coordinates": [ [ [ 432302.837213304126635, 431033.029795551206917 ], [ 432358.161311510251835, 431087.36230503488332 ], [ 432400.671668049821164, 431044.284760539536364 ], [ 432336.94830799283227, 430981.704923248151317 ], [ 432334.100917889911216, 430984.600430235266685 ], [ 432328.830940785410348, 430979.423779670032673 ], [ 432327.297738181310706, 430980.982045416836627 ], [ 432332.626646761898883, 430986.214731695712544 ], [ 432330.429724686429836, 430988.447136272327043 ], [ 432337.166155303071719, 430995.058057869202457 ], [ 432333.25027751212474, 430999.025467315805145 ], [ 432329.237190056126565, 430995.092493608826771 ], [ 432307.606988265295513, 431017.018383310525678 ], [ 432313.21083884278778, 431022.5199716250645 ], [ 432302.837213304126635, 431033.029795551206917 ] ] ] } },
{ "type": "Feature", "properties": { "addr:city": null, "addr:postcode": null, "addr:street": null, "building": "yes", "disused:amenity": null, "name": null, "wikidata": null, "osm_type": "way", "osm_id": 1079241843, "shop": null, "addr:place": null, "addr:unit": null, "old_name": null, "addr:housenumber": null, "amenity": null, "fhrs:id": null, "opening_hours": null, "source": null, "industrial": null, "ref:GB:uprn": "72740387", "addr:housename": null, "addr:suburb": null, "operator": null, "operator:wikidata": null, "phone": null, "service:vehicle:car_parts": null, "service:vehicle:car_repair": null, "service:vehicle:diagnostics": null, "service:vehicle:inspection": null, "office": null, "automated": null, "self_service": null, "recycling_type": null, "area": null, "barrier": null, "layer": null }, "geometry": { "type": "Polygon", "coordinates": [ [ [ 432191.139421340776607, 430350.707096816506237 ], [ 432226.782716380083002, 430309.094108924735337 ], [ 432235.872312304854859, 430316.844767661648802 ], [ 432231.5198888037703, 430321.9219030252425 ], [ 432234.449237629072741, 430324.423174353200011 ], [ 432230.84768235712545, 430328.6264800906647 ], [ 432237.027592725527938, 430333.887133761658333 ], [ 432228.674875155556947, 430343.643273039488122 ], [ 432219.722900686145294, 430336.015961079043336 ], [ 432200.386271700204816, 430358.592280953540467 ], [ 432191.139421340776607, 430350.707096816506237 ] ] ] } },
{ "type": "Feature", "properties": { "addr:city": null, "addr:postcode": null, "addr:street": null, "building": "yes", "disused:amenity": null, "name": "Hunslet East Terminal", "wikidata": null, "osm_type": "way", "osm_id": 1204396225, "shop": null, "addr:place": null, "addr:unit": null, "old_name": null, "addr:housenumber": null, "amenity": null, "fhrs:id": null, "opening_hours": null, "source": null, "industrial": null, "ref:GB:uprn": null, "addr:housename": null, "addr:suburb": null, "operator": "Cemex", "operator:wikidata": null, "phone": null, "service:vehicle:car_parts": null, "service:vehicle:car_repair": null, "service:vehicle:diagnostics": null, "service:vehicle:inspection": null, "office": null, "automated": null, "self_service": null, "recycling_type": null, "area": null, "barrier": null, "layer": "1" }, "geometry": { "type": "Polygon", "coordinates": [ [ [ 432392.649858396267518, 430437.408905392629094 ], [ 432408.873865492991172, 430431.367914821370505 ], [ 432410.666800944425631, 430436.142362564569339 ], [ 432394.436139930097852, 430442.194427295704372 ], [ 432392.649858396267518, 430437.408905392629094 ] ] ] } },
{ "type": "Feature", "properties": { "addr:city": null, "addr:postcode": null, "addr:street": null, "building": "industrial", "disused:amenity": null, "name": null, "wikidata": null, "osm_type": "way", "osm_id": 1499288371, "shop": null, "addr:place": null, "addr:unit": null, "old_name": null, "addr:housenumber": null, "amenity": null, "fhrs:id": null, "opening_hours": null, "source": null, "industrial": null, "ref:GB:uprn": null, "addr:housename": null, "addr:suburb": null, "operator": null, "operator:wikidata": null, "phone": null, "service:vehicle:car_parts": null, "service:vehicle:car_repair": null, "service:vehicle:diagnostics": null, "service:vehicle:inspection": null, "office": null, "automated": null, "self_service": null, "recycling_type": null, "area": null, "barrier": null, "layer": null }, "geometry": { "type": "Polygon", "coordinates": [ [ [ 432881.702653277898207, 430115.793974433094263 ], [ 432818.5114450303372, 429988.35591939475853 ], [ 432717.150443253922276, 430038.385254105203785 ], [ 432722.338050025922712, 430048.857899581664242 ], [ 432724.548351691453718, 430053.312708783778362 ], [ 432747.237357347970828, 430042.121896429918706 ], [ 432800.483779500471428, 430149.539988853270188 ], [ 432803.006008440803271, 430154.620090785901994 ], [ 432881.702653277898207, 430115.793974433094263 ] ] ] } }
]
}
