{
"type": "FeatureCollection",
"name": "se3331_rgb_250_04_osm_road_buffers",
"crs": { "type": "name", "properties": { "name": "urn:ogc:def:crs:EPSG::27700" } },
"features": [
{ "type": "Feature", "properties": { "highway": "unclassified", "layer": "1", "name": "Knowsthorpe Way", "source": "survey", "osm_type": "way", "osm_id": 25024586, "lanes": null, "lit": null, "maxspeed": null, "oneway": null, "ref": null, "surface": null, "disused:highway": null, "not:name": null, "not:name:note": null }, "geometry": { "type": "Polygon", "coordinates": [ [ [ 432710.164270419976674, 431822.065970868105069 ], [ 432730.802874688873999, 431805.976580435759388 ], [ 432737.508045235823374, 431800.749416959937662 ], [ 432738.027508215687703, 431800.282613558752928 ], [ 432754.428836796258111, 431783.329091913125012 ], [ 432754.883613229787443, 431782.786993892048486 ], [ 432759.167928952665534, 431776.876334868080448 ], [ 432769.01470837823581, 431763.305026143207215 ], [ 432769.222945408604573, 431762.994187214702833 ], [ 432789.227698316331953, 431730.571733122691512 ], [ 432803.112806485092733, 431709.669018613582011 ], [ 432812.841536042804364, 431699.813380084582604 ], [ 432826.340931382146664, 431686.133156518044416 ], [ 432841.409910485905129, 431670.871392997680232 ], [ 432868.102047482680064, 431647.535052415914834 ], [ 432905.129126980900764, 431636.751651161233895 ], [ 432977.297978108399548, 431624.112161380180623 ], [ 432999.324500001035631, 431623.060196175298188 ], [ 433046.6626683260547, 431620.800621429749299 ], [ 433055.697295942984056, 431620.363333905756008 ], [ 433089.431096292741131, 431618.720455706643406 ], [ 433089.503825984953437, 431618.716382430458907 ], [ 433119.072931317437906, 431616.844182723027188 ], [ 433118.441035905794706, 431606.864167282765266 ], [ 433088.908280584262684, 431608.734065450145863 ], [ 433055.21310091012856, 431610.375062997860368 ], [ 433046.184218752779998, 431610.812073547916953 ], [ 432998.847650227602571, 431613.071571930835489 ], [ 432976.506734351161867, 431614.138552284042817 ], [ 432975.882697715831455, 431614.207822608877905 ], [ 432903.132825980137568, 431626.949071028502658 ], [ 432902.597317296429537, 431627.073545217106584 ], [ 432864.244932710425928, 431638.242915247625206 ], [ 432863.73212542332476, 431638.423028673278168 ], [ 432863.24189797474537, 431638.657739577407483 ], [ 432862.780043130740523, 431638.944274501816835 ], [ 432862.352018392819446, 431639.279247610480525 ], [ 432834.689860948303249, 431663.463655454223044 ], [ 432834.422909688146319, 431663.714895170240197 ], [ 432819.224541458534077, 431679.107703151355963 ], [ 432805.724492532084696, 431692.788588852563407 ], [ 432795.656803838675842, 431702.987608158844523 ], [ 432795.3355949074612, 431703.345974968746305 ], [ 432795.050326696538832, 431703.733562372741289 ], [ 432780.851637943531387, 431725.108342734631151 ], [ 432780.761270217539277, 431725.249457561469171 ], [ 432760.810815463599283, 431757.583908597007394 ], [ 432751.073287628707476, 431771.004641483654268 ], [ 432746.995075811399147, 431776.630957809393294 ], [ 432731.08375403174432, 431793.077975310268812 ], [ 432724.654643284447957, 431798.089930285117589 ], [ 432704.015747921774164, 431814.179547647596337 ], [ 432670.880594711692538, 431840.018442240834702 ], [ 432677.029947198054288, 431847.904218296462204 ], [ 432710.164270419976674, 431822.065970868105069 ] ] ] } },
{ "type": "Feature", "properties": { "highway": "trunk", "layer": null, "name": "Pontefract Lane", "source": "survey", "osm_type": "way", "osm_id": 33171175, "lanes": "2", "lit": "yes", "maxspeed": "40 mph", "oneway": "yes", "ref": "A63", "surface": "asphalt", "disused:highway": null, "not:name": null, "not:name:note": null }, "geometry": { "type": "Polygon", "coordinates": [ [ [ 433604.365280595608056, 432099.428817902575247 ], [ 433610.856623774510808, 432092.71298354229657 ], [ 433625.873509273515083, 432083.426904143299907 ], [ 433711.443421455333009, 432036.528835338656791 ], [ 433745.346200030588079, 432017.958255570323672 ], [ 433745.672838235739619, 432017.772630564984865 ], [ 433753.004950333270244, 432013.452642337768339 ], [ 433937.379468717845157, 431904.784751781146042 ], [ 433937.415679229132365, 431904.76332416391233 ], [ 433964.503184380824678, 431888.670073791232426 ], [ 434110.513167593744583, 431801.920106289268006 ], [ 434186.485850362514611, 431757.567612259997986 ], [ 434212.878057852212805, 431742.160617627494503 ], [ 434216.063194287009537, 431740.299049523135182 ], [ 434217.145073532592505, 431739.671393546508625 ], [ 434217.17248178482987, 431739.6554441137705 ], [ 434231.174331182613969, 431731.482691793993581 ], [ 434245.893580260511953, 431724.48544064007001 ], [ 434256.785878658469301, 431722.085888741887175 ], [ 434267.562609959975816, 431721.352801993489265 ], [ 434265.933775129029527, 431697.408138765720651 ], [ 434254.263967564329505, 431698.201976993936114 ], [ 434253.375622169813141, 431698.295731301885098 ], [ 434252.49671229737578, 431698.45530838763807 ], [ 434239.394834851380438, 431701.341626201057807 ], [ 434238.084621362213511, 431701.709273108630441 ], [ 434236.824457086913753, 431702.222897129890043 ], [ 434220.411618087615352, 431710.025248732126784 ], [ 434219.514451415336225, 431710.499244514503516 ], [ 434205.087741141731385, 431718.919984268664848 ], [ 434204.002903880376834, 431719.549356348346919 ], [ 434203.969589698419441, 431719.568755275453441 ], [ 434200.775746405182872, 431721.43541396089131 ], [ 434174.386089384672232, 431736.840919704467524 ], [ 434098.373332857270725, 431781.216808602737729 ], [ 434098.293938273622189, 431781.263568405411206 ], [ 433952.244535707402974, 431868.036956413940061 ], [ 433925.175179390760604, 431884.119424186123069 ], [ 433740.821078940469306, 431992.775280836038291 ], [ 433733.651597503980156, 431996.999449123279192 ], [ 433699.912346845027059, 432015.480454870208632 ], [ 433614.062597052077763, 432062.531893129926175 ], [ 433613.518702870816924, 432062.848811629519332 ], [ 433596.958959388779476, 432073.088957151805516 ], [ 433596.135914722341113, 432073.646312126948033 ], [ 433595.36182190629188, 432074.269872391421814 ], [ 433594.641992330551147, 432074.955359425046481 ], [ 433585.76640216022497, 432084.137895579915494 ], [ 433584.929572482127696, 432085.101294445164967 ], [ 433584.199778648559004, 432086.148109731730074 ], [ 433583.585273519391194, 432087.266503548715264 ], [ 433578.073921992443502, 432098.698405067785643 ], [ 433599.692709262017161, 432109.120882555958815 ], [ 433604.365280595608056, 432099.428817902575247 ] ] ] } },
{ "type": "Feature", "properties": { "highway": "trunk", "layer": null, "name": "Pontefract Lane", "source": "survey", "osm_type": "way", "osm_id": 33171194, "lanes": "2", "lit": "yes", "maxspeed": "40 mph", "oneway": "yes", "ref": "A63", "surface": "asphalt", "disused:highway": null, "not:name": null, "not:name:note": null }, "geometry": { "type": "Polygon", "coordinates": [ [ [ 434229.68954403483076, 431681.327824000676628 ], [ 434225.207607584714424, 431687.055624459404498 ], [ 434213.914232916431502, 431696.516803410835564 ], [ 434207.672551325580571, 431700.264373347221408 ], [ 434202.694502891215961, 431703.258927905466408 ], [ 434138.275550878082868, 431741.987515550572425 ], [ 433839.439464905939531, 431921.633711395319551 ], [ 433712.530248659197241, 431995.716202276060358 ], [ 433676.288044559594709, 432014.614656243647914 ], [ 433648.95934740366647, 432028.860390675312374 ], [ 433601.177550895430613, 432053.77372448152164 ], [ 433590.499299083836377, 432057.336087804869749 ], [ 433572.239975453587249, 432057.885307676217053 ], [ 433572.961542057921179, 432081.874458174628671 ], [ 433592.984188784728758, 432081.27219953230815 ], [ 433594.14782903593732, 432081.18040264910087 ], [ 433595.297045643499587, 432080.975985206314363 ], [ 433596.420965060591698, 432080.660881341202185 ], [ 433609.677375440893229, 432076.238420532899909 ], [ 433610.567299726419151, 432075.90176906331908 ], [ 433611.427754730393644, 432075.495669774885755 ], [ 433660.053666498453822, 432050.142215882893652 ], [ 433687.382576071715448, 432035.896370723668952 ], [ 433723.880910791049246, 432016.864357878919691 ], [ 433724.382174314989243, 432016.587567216716707 ], [ 433851.605492621194571, 431942.321721149957739 ], [ 433851.738531134556979, 431942.242907106876373 ], [ 434150.641055030515417, 431762.556771907955408 ], [ 434215.061862918722909, 431723.827068521117326 ], [ 434220.030974571651313, 431720.837885449873284 ], [ 434227.075677885906771, 431716.608172997075599 ], [ 434227.861611153697595, 431716.093391733826138 ], [ 434228.604862727457657, 431715.518702297296841 ], [ 434241.587069841625635, 431704.642680886609014 ], [ 434242.506527037825435, 431703.786604365741368 ], [ 434243.331444910669234, 431702.839092335081659 ], [ 434249.391277828079183, 431695.094780439743772 ], [ 434250.132247559784446, 431694.034742044226732 ], [ 434250.754830913443584, 431692.90111621923279 ], [ 434254.983750774234068, 431684.108701636781916 ], [ 434233.355419536295813, 431673.706043906044215 ], [ 434229.68954403483076, 431681.327824000676628 ] ] ] } },
{ "type": "Feature", "properties": { "highway": "no", "layer": null, "name": null, "source": null, "osm_type": "way", "osm_id": 183494698, "lanes": null, "lit": null, "maxspeed": null, "oneway": null, "ref": null, "surface": null, "disused:highway": "unclassified", "not:name": "Middle Road", "not:name:note": "These roads are under a construction zone and not likely to be maintained by development" }, "geometry": { "type": "Polygon", "coordinates": [ [ [ 433548.962156556022819, 431005.278691488085315 ], [ 433600.901165553019382, 430960.643283129902557 ], [ 433633.230758575838991, 430932.858297800761648 ], [ 433626.712856184341945, 430925.274304893682711 ], [ 433594.383419245597906, 430953.059156082163099 ], [ 433542.445123434590641, 430997.693951586203184 ], [ 433496.568941234843805, 431037.109810056514107 ], [ 433503.085754089755937, 431044.694739206810482 ], [ 433548.962156556022819, 431005.278691488085315 ] ] ] } },
{ "type": "Feature", "properties": { "highway": "unclassified", "layer": null, "name": "West Road", "source": null, "osm_type": "way", "osm_id": 183494708, "lanes": null, "lit": null, "maxspeed": null, "oneway": null, "ref": null, "surface": null, "disused:highway": null, "not:name": null, "not:name:note": "These roads are under a construction zone and not likely to be maintained by development" }, "geometry": { "type": "Polygon", "coordinates": [ [ [ 433290.72155494033359, 431167.749732131953351 ], [ 433290.780143878131639, 431167.812096578127239 ], [ 433311.515654034155887, 431189.508752513502259 ], [ 433317.537417817628011, 431196.487043967470527 ], [ 433410.533118658873718, 431304.338689910131507 ], [ 433418.106518689484801, 431297.808482258231379 ], [ 433325.11018855497241, 431189.956106493482366 ], [ 433319.003549243148882, 431182.879456880735233 ], [ 433318.832799564173911, 431182.691457115637604 ], [ 433298.039087808399927, 431160.933901782322209 ], [ 433244.213981096982025, 431102.648784142336808 ], [ 433236.86742058955133, 431109.433181588654406 ], [ 433290.72155494033359, 431167.749732131953351 ] ] ] } },
{ "type": "Feature", "properties": { "highway": "no", "layer": null, "name": null, "source": null, "osm_type": "way", "osm_id": 183494710, "lanes": null, "lit": null, "maxspeed": null, "oneway": null, "ref": null, "surface": null, "disused:highway": "unclassified", "not:name": "Service Road", "not:name:note": "These roads are under a construction zone and not likely to be maintained by development" }, "geometry": { "type": "Polygon", "coordinates": [ [ [ 433487.414174507313874, 431034.490949621307664 ], [ 433487.536984767240938, 431034.633986202883534 ], [ 433496.095864245493431, 431044.230341865099035 ], [ 433517.171050313918386, 431067.836954353086185 ], [ 433524.630763778404798, 431061.177173949137796 ], [ 433503.558017947652843, 431037.573295701993629 ], [ 433495.062705271237064, 431028.048212177644018 ], [ 433444.892253276251722, 430967.335560709587298 ], [ 433437.183665922784712, 430973.705622013309039 ], [ 433487.414174507313874, 431034.490949621307664 ] ] ] } },
{ "type": "Feature", "properties": { "highway": "unclassified", "layer": null, "name": "West Road (North)", "source": null, "osm_type": "way", "osm_id": 761994888, "lanes": null, "lit": null, "maxspeed": null, "oneway": null, "ref": null, "surface": null, "disused:highway": null, "not:name": null, "not:name:note": null }, "geometry": { "type": "Polygon", "coordinates": [ [ [ 433651.467249978042673, 431352.28740971168736 ], [ 433629.503279642085545, 431364.524070494167972 ], [ 433560.883401508443058, 431401.670273749914486 ], [ 433565.64396403520368, 431410.464422055927571 ], [ 433634.290514505759347, 431373.303780184534844 ], [ 433634.343682054372039, 431373.274580443568993 ], [ 433656.979480940033682, 431360.663627675559837 ], [ 433657.394306698639411, 431360.405173170322087 ], [ 433657.781916721898597, 431360.107452477153856 ], [ 433658.13860733184265, 431359.773310366610531 ], [ 433691.734597785805818, 431325.066152820654679 ], [ 433684.549447378201876, 431318.111038614471909 ], [ 433651.467249978042673, 431352.28740971168736 ] ] ] } },
{ "type": "Feature", "properties": { "highway": "unclassified", "layer": null, "name": "Central Parade", "source": null, "osm_type": "way", "osm_id": 889840823, "lanes": null, "lit": null, "maxspeed": null, "oneway": null, "ref": null, "surface": null, "disused:highway": null, "not:name": null, "not:name:note": "These roads are under a construction zone and not likely to be maintained by development" }, "geometry": { "type": "Polygon", "coordinates": [ [ [ 433354.843934790231287, 431157.947062549937982 ], [ 433348.238988570636138, 431150.438754788774531 ], [ 433311.915635138459038, 431182.391866404388566 ], [ 433318.520581358054187, 431189.900174165552016 ], [ 433354.843934790231287, 431157.947062549937982 ] ] ] } },
{ "type": "Feature", "properties": { "highway": "unclassified", "layer": null, "name": null, "source": null, "osm_type": "way", "osm_id": 889840830, "lanes": null, "lit": null, "maxspeed": null, "oneway": null, "ref": null, "surface": null, "disused:highway": null, "not:name": null, "not:name:note": null }, "geometry": { "type": "Polygon", "coordinates": [ [ [ 433784.975114209402818, 430909.436704423220363 ], [ 433718.856672033085488, 430993.556108624150511 ], [ 433718.574980150384363, 430993.952797223057132 ], [ 433718.333176392305177, 430994.374985692673363 ], [ 433718.133550274418667, 430994.818676547205541 ], [ 433717.977991954016034, 430995.279668705770746 ], [ 433717.867974332883023, 430995.753597270348109 ], [ 433717.804539111384656, 430996.235974854789674 ], [ 433717.788286925060675, 430996.722234073502477 ], [ 433717.819371657504234, 430997.207770787528716 ], [ 433717.897498983365949, 430997.687987699231599 ], [ 433718.021929155103862, 430998.158337881148327 ], [ 433718.191484007344116, 430998.614367829053663 ], [ 433718.404558112262748, 430999.051759629568551 ], [ 433718.659133980516344, 430999.466371844289824 ], [ 433718.952801164065022, 430999.854278723069001 ], [ 433719.282779079047032, 431000.21180737495888 ], [ 433739.865592195419595, 431020.442784529412165 ], [ 433746.875443291151896, 431013.311025446513668 ], [ 433729.484339912422001, 430996.217199973936658 ], [ 433792.836498216493055, 430915.617209388758056 ], [ 433807.450357283058111, 430897.030302124621812 ], [ 433799.589200319314841, 430890.849508389772382 ], [ 433784.975114209402818, 430909.436704423220363 ] ] ] } },
{ "type": "Feature", "properties": { "highway": "unclassified", "layer": null, "name": "West Road (North)", "source": null, "osm_type": "way", "osm_id": 889840832, "lanes": null, "lit": null, "maxspeed": null, "oneway": null, "ref": null, "surface": null, "disused:highway": null, "not:name": null, "not:name:note": null }, "geometry": { "type": "Polygon", "coordinates": [ [ [ 433689.051426994730718, 431313.459978973958641 ], [ 433684.539452212920878, 431306.039031501568388 ], [ 433675.994847553374711, 431311.234195715805981 ], [ 433683.869720252230763, 431324.18617782468209 ], [ 433684.138723079231568, 431324.584191332978662 ], [ 433684.444680728018284, 431324.954552225768566 ], [ 433684.784768875746522, 431325.293841667822562 ], [ 433685.155848137801513, 431325.598927647573873 ], [ 433685.554493047704455, 431325.866993888514116 ], [ 433685.977023678133264, 431326.095565846830141 ], [ 433686.419539610273205, 431326.282533553952817 ], [ 433686.87795593944611, 431326.426171094062738 ], [ 433687.348040982731618, 431326.525152535818052 ], [ 433687.825455342361238, 431326.578564172668848 ], [ 433688.305791962950025, 431326.585912956856191 ], [ 433688.784616813529283, 431326.547131051076576 ], [ 433689.257509818300605, 431326.462576454679947 ], [ 433689.720105658983812, 431326.333029698813334 ], [ 433690.168134071223903, 431326.159686641360167 ], [ 433690.597459263983183, 431325.94414742779918 ], [ 433691.004118097480386, 431325.688401720311958 ], [ 433691.384356666938402, 431325.394810330762994 ], [ 433691.734664955583867, 431325.06608342792606 ], [ 433696.654595622676425, 431319.983232570637483 ], [ 433689.469310875516385, 431313.028257149911951 ], [ 433689.051426994730718, 431313.459978973958641 ] ] ] } }
]
}
