{
"type": "FeatureCollection",
"name": "se3330_rgb_250_05_osm_buildings",
"crs": { "type": "name", "properties": { "name": "urn:ogc:def:crs:EPSG::27700" } },
"features": [
{ "type": "Feature", "properties": { "addr:city": "Leeds", "addr:housename": "Leodis House", "addr:postcode": "LS10 1AZ", "addr:street": "Leodis Way", "addr:suburb": "Stourton", "amenity": "post_depot", "building": "warehouse", "fhrs:id": "320984", "name": "Leeds Mail Centre", "operator": "Royal Mail", "operator:wikidata": "Q638098", "source": "Bing", "osm_type": "way", "osm_id": 151470651, "industrial": null, "shop": null, "ref:GB:uprn": null, "power": null, "ref": null, "substation": null, "voltage": null }, "geometry": { "type": "Polygon", "coordinates": [ [ [ 433114.703204619232565, 429903.759623657097109 ], [ 432923.550539266259875, 430019.610337640508078 ], [ 432972.56562382041011, 430100.086102197295986 ], [ 433163.709682126296684, 429984.237336357473396 ], [ 433114.703204619232565, 429903.759623657097109 ] ] ] } },
{ "type": "Feature", "properties": { "addr:city": null, "addr:housename": null, "addr:postcode": null, "addr:street": null, "addr:suburb": null, "amenity": null, "building": "industrial", "fhrs:id": null, "name": "Smith Brothers Stores", "operator": null, "operator:wikidata": null, "source": null, "osm_type": "way", "osm_id": 203858623, "industrial": "warehouse", "shop": null, "ref:GB:uprn": null, "power": null, "ref": null, "substation": null, "voltage": null }, "geometry": { "type": "Polygon", "coordinates": [ [ [ 433236.593513557454571, 430032.695847107330337 ], [ 433217.530818253231701, 430043.620651335804723 ], [ 433215.746522519097198, 430040.514906690106727 ], [ 433187.284942352038343, 430056.836445437860675 ], [ 433192.195197595981881, 430065.360549728968181 ], [ 433186.423496389877982, 430068.668816788936965 ], [ 433193.795408089237753, 430081.460583626991138 ], [ 433199.725930634187534, 430078.064436977612786 ], [ 433204.675219265860505, 430086.65558914153371 ], [ 433252.033802797493991, 430059.508380998042412 ], [ 433236.593513557454571, 430032.695847107330337 ] ] ] } },
{ "type": "Feature", "properties": { "addr:city": null, "addr:housename": null, "addr:postcode": null, "addr:street": null, "addr:suburb": null, "amenity": null, "building": "yes", "fhrs:id": null, "name": "Store First", "operator": null, "operator:wikidata": null, "source": null, "osm_type": "way", "osm_id": 203858625, "industrial": "warehouse", "shop": "storage_rental", "ref:GB:uprn": null, "power": null, "ref": null, "substation": null, "voltage": null }, "geometry": { "type": "Polygon", "coordinates": [ [ [ 433252.033802797493991, 430059.508380998042412 ], [ 433266.119367439765483, 430083.974839032744057 ], [ 433316.357612040592358, 430055.179710909025744 ], [ 433286.832117596000899, 430003.900403022533283 ], [ 433236.593513557454571, 430032.695847107330337 ], [ 433252.033802797493991, 430059.508380998042412 ] ] ] } },
{ "type": "Feature", "properties": { "addr:city": null, "addr:housename": null, "addr:postcode": null, "addr:street": null, "addr:suburb": null, "amenity": null, "building": "industrial", "fhrs:id": null, "name": null, "operator": null, "operator:wikidata": null, "source": "Bing", "osm_type": "way", "osm_id": 223128201, "industrial": null, "shop": null, "ref:GB:uprn": null, "power": null, "ref": null, "substation": null, "voltage": null }, "geometry": { "type": "Polygon", "coordinates": [ [ [ 433059.54993304942036, 430795.795140820555389 ], [ 433050.758043854613788, 430812.567483284859918 ], [ 433088.846274990821257, 430832.440301922615618 ], [ 433086.60154478426557, 430836.719272683025338 ], [ 433099.590855044545606, 430843.497736122109927 ], [ 433110.447238099062815, 430822.790170129039325 ], [ 433075.452062471187674, 430804.530025566928089 ], [ 433078.05088676745072, 430799.574833956896327 ], [ 433065.764051268575713, 430793.168547545559704 ], [ 433063.352205645292997, 430797.780144169926643 ], [ 433059.54993304942036, 430795.795140820555389 ] ] ] } },
{ "type": "Feature", "properties": { "addr:city": null, "addr:housename": null, "addr:postcode": null, "addr:street": null, "addr:suburb": null, "amenity": null, "building": "industrial", "fhrs:id": null, "name": null, "operator": null, "operator:wikidata": null, "source": "Bing", "osm_type": "way", "osm_id": 223128205, "industrial": null, "shop": null, "ref:GB:uprn": null, "power": null, "ref": null, "substation": null, "voltage": null }, "geometry": { "type": "Polygon", "coordinates": [ [ [ 433376.545019716140814, 430591.319710058742203 ], [ 433309.352150447317399, 430556.028345996513963 ], [ 433259.851825784426183, 430649.862425989238545 ], [ 433252.628293592482805, 430646.061697666416876 ], [ 433217.754241645394359, 430712.161569053307176 ], [ 433358.157510692428332, 430785.889686634065583 ], [ 433432.01195346924942, 430645.910746119450778 ], [ 433423.869138613925315, 430641.635901641799137 ], [ 433423.160915478481911, 430642.977155056083575 ], [ 433371.565465966996271, 430615.873638047953136 ], [ 433376.289111741818488, 430606.928206277429126 ], [ 433370.037443869863637, 430603.646015463513322 ], [ 433376.545019716140814, 430591.319710058742203 ] ] ] } },
{ "type": "Feature", "properties": { "addr:city": null, "addr:housename": null, "addr:postcode": null, "addr:street": null, "addr:suburb": null, "amenity": null, "building": "industrial", "fhrs:id": null, "name": null, "operator": null, "operator:wikidata": null, "source": "Bing", "osm_type": "way", "osm_id": 223128208, "industrial": null, "shop": null, "ref:GB:uprn": null, "power": null, "ref": null, "substation": null, "voltage": null }, "geometry": { "type": "Polygon", "coordinates": [ [ [ 433027.274429823970422, 430638.141021009651013 ], [ 433015.68322335742414, 430660.234407028649002 ], [ 433038.116642384091392, 430671.952427117852494 ], [ 433026.592234849813394, 430693.923866583849303 ], [ 433110.302712030592375, 430737.627849854528904 ], [ 433099.005186772032175, 430759.177912003360689 ], [ 433305.289413130842149, 430866.870665538823232 ], [ 433339.61174473335268, 430801.446223273524083 ], [ 433307.684057703008875, 430784.774928075727075 ], [ 433311.472475099086296, 430777.547389938728884 ], [ 433292.986884469573852, 430767.892151992884465 ], [ 433289.292020951979794, 430774.942345621064305 ], [ 433057.516332107479684, 430653.930658202501945 ], [ 433027.274429823970422, 430638.141021009651013 ] ] ] } },
{ "type": "Feature", "properties": { "addr:city": null, "addr:housename": null, "addr:postcode": null, "addr:street": null, "addr:suburb": null, "amenity": null, "building": "industrial", "fhrs:id": null, "name": null, "operator": null, "operator:wikidata": null, "source": "Bing", "osm_type": "way", "osm_id": 223128211, "industrial": null, "shop": null, "ref:GB:uprn": null, "power": null, "ref": null, "substation": null, "voltage": null }, "geometry": { "type": "Polygon", "coordinates": [ [ [ 432973.693451571452897, 430319.79522795160301 ], [ 432980.862599311454687, 430346.470946383429691 ], [ 432996.170924606383778, 430342.383793141925707 ], [ 433007.886670059873722, 430339.250568592688069 ], [ 433174.814608368615154, 430294.619043847895227 ], [ 433172.990392106468789, 430287.841328980983235 ], [ 433183.12796596379485, 430285.131326086353511 ], [ 433182.241678462654818, 430281.820533900638111 ], [ 433189.981920273508877, 430279.7500705269631 ], [ 433188.215550009568688, 430273.184159417403862 ], [ 433179.67623356328113, 430275.460383589845151 ], [ 433176.985024965542834, 430265.438770482549444 ], [ 432973.693451571452897, 430319.79522795160301 ] ] ] } },
{ "type": "Feature", "properties": { "addr:city": null, "addr:housename": null, "addr:postcode": null, "addr:street": null, "addr:suburb": null, "amenity": null, "building": "yes", "fhrs:id": null, "name": null, "operator": null, "operator:wikidata": null, "source": "Bing", "osm_type": "way", "osm_id": 223128213, "industrial": null, "shop": null, "ref:GB:uprn": null, "power": null, "ref": null, "substation": null, "voltage": null }, "geometry": { "type": "Polygon", "coordinates": [ [ [ 433305.77444769477006, 430549.316025346983224 ], [ 433315.664453529461753, 430554.493161837570369 ], [ 433320.000637246994302, 430546.268141494714655 ], [ 433330.035086131363641, 430551.524217584868893 ], [ 433329.406996375706512, 430552.721410447731614 ], [ 433336.57160875358386, 430556.477332164067775 ], [ 433342.183945833938196, 430545.835837165126577 ], [ 433343.339798004366457, 430546.433739160536788 ], [ 433345.992248672642745, 430541.412315954337828 ], [ 433342.30820775788743, 430539.4724294670159 ], [ 433343.323800149024464, 430537.543647574493662 ], [ 433339.482120514614508, 430535.524759827647358 ], [ 433337.79166597960284, 430538.739413410658017 ], [ 433317.072630081442185, 430527.877721720258705 ], [ 433305.77444769477006, 430549.316025346983224 ] ] ] } },
{ "type": "Feature", "properties": { "addr:city": null, "addr:housename": null, "addr:postcode": null, "addr:street": null, "addr:suburb": null, "amenity": null, "building": "yes", "fhrs:id": null, "name": null, "operator": null, "operator:wikidata": null, "source": "Bing", "osm_type": "way", "osm_id": 223128221, "industrial": null, "shop": null, "ref:GB:uprn": null, "power": null, "ref": null, "substation": null, "voltage": null }, "geometry": { "type": "Polygon", "coordinates": [ [ [ 432989.334292789222673, 430369.751154951401986 ], [ 432991.726200944860466, 430378.324128402979113 ], [ 433015.839326099900063, 430371.650802292861044 ], [ 433013.454049710417166, 430363.077862772508524 ], [ 432989.334292789222673, 430369.751154951401986 ] ] ] } },
{ "type": "Feature", "properties": { "addr:city": null, "addr:housename": null, "addr:postcode": null, "addr:street": null, "addr:suburb": null, "amenity": null, "building": "yes", "fhrs:id": null, "name": null, "operator": null, "operator:wikidata": null, "source": "Bing", "osm_type": "way", "osm_id": 223128222, "industrial": null, "shop": null, "ref:GB:uprn": null, "power": null, "ref": null, "substation": null, "voltage": null }, "geometry": { "type": "Polygon", "coordinates": [ [ [ 433377.714288035174832, 430431.386292505427264 ], [ 433368.586118476407137, 430430.286693969275802 ], [ 433366.23197601235006, 430449.908032971783541 ], [ 433375.36018678045366, 430450.996501273359172 ], [ 433377.714288035174832, 430431.386292505427264 ] ] ] } },
{ "type": "Feature", "properties": { "addr:city": null, "addr:housename": null, "addr:postcode": null, "addr:street": null, "addr:suburb": null, "amenity": null, "building": "yes", "fhrs:id": null, "name": null, "operator": null, "operator:wikidata": null, "source": "Bing", "osm_type": "way", "osm_id": 223128224, "industrial": null, "shop": null, "ref:GB:uprn": null, "power": null, "ref": null, "substation": null, "voltage": null }, "geometry": { "type": "Polygon", "coordinates": [ [ [ 433374.473119504749775, 430469.159577729180455 ], [ 433361.58083406125661, 430462.547947172191925 ], [ 433359.903284277126659, 430465.796063646674156 ], [ 433372.795563012477942, 430472.407689639599994 ], [ 433374.473119504749775, 430469.159577729180455 ] ] ] } },
{ "type": "Feature", "properties": { "addr:city": null, "addr:housename": null, "addr:postcode": null, "addr:street": null, "addr:suburb": null, "amenity": null, "building": "yes", "fhrs:id": null, "name": null, "operator": null, "operator:wikidata": null, "source": "Bing", "osm_type": "way", "osm_id": 223128226, "industrial": null, "shop": null, "ref:GB:uprn": null, "power": null, "ref": null, "substation": null, "voltage": null }, "geometry": { "type": "Polygon", "coordinates": [ [ [ 433350.598980205191765, 430467.232063198345713 ], [ 433332.563892404315993, 430501.684851274476387 ], [ 433338.0803536856547, 430504.561222622171044 ], [ 433356.108880384359509, 430470.108408731874079 ], [ 433350.598980205191765, 430467.232063198345713 ] ] ] } },
{ "type": "Feature", "properties": { "addr:city": null, "addr:housename": null, "addr:postcode": null, "addr:street": null, "addr:suburb": null, "amenity": null, "building": "yes", "fhrs:id": null, "name": null, "operator": null, "operator:wikidata": null, "source": "Bing", "osm_type": "way", "osm_id": 223128231, "industrial": null, "shop": null, "ref:GB:uprn": null, "power": null, "ref": null, "substation": null, "voltage": null }, "geometry": { "type": "Polygon", "coordinates": [ [ [ 433145.94805259333225, 430842.211291218292899 ], [ 433139.027932614379097, 430856.159452624269761 ], [ 433154.758514926652424, 430863.936532357009128 ], [ 433161.678749489947222, 430849.977268083253875 ], [ 433145.94805259333225, 430842.211291218292899 ] ] ] } },
{ "type": "Feature", "properties": { "addr:city": null, "addr:housename": null, "addr:postcode": null, "addr:street": null, "addr:suburb": null, "amenity": null, "building": "yes", "fhrs:id": null, "name": null, "operator": null, "operator:wikidata": null, "source": "Bing", "osm_type": "way", "osm_id": 223128233, "industrial": null, "shop": null, "ref:GB:uprn": null, "power": null, "ref": null, "substation": null, "voltage": null }, "geometry": { "type": "Polygon", "coordinates": [ [ [ 432996.170924606383778, 430342.383793141925707 ], [ 432999.536985156650189, 430354.913472743006423 ], [ 433011.252701753168367, 430351.780256668454967 ], [ 433007.886670059873722, 430339.250568592688069 ], [ 432996.170924606383778, 430342.383793141925707 ] ] ] } },
{ "type": "Feature", "properties": { "addr:city": null, "addr:housename": null, "addr:postcode": null, "addr:street": null, "addr:suburb": null, "amenity": null, "building": "yes", "fhrs:id": null, "name": null, "operator": null, "operator:wikidata": null, "source": "Bing", "osm_type": "way", "osm_id": 223128234, "industrial": null, "shop": null, "ref:GB:uprn": null, "power": null, "ref": null, "substation": null, "voltage": null }, "geometry": { "type": "Polygon", "coordinates": [ [ [ 433216.437736188352574, 430243.920971628162079 ], [ 433222.995677112252451, 430266.431486747227609 ], [ 433227.896889112889767, 430265.008592934347689 ], [ 433221.338890889659524, 430242.509196735452861 ], [ 433216.437736188352574, 430243.920971628162079 ] ] ] } },
{ "type": "Feature", "properties": { "addr:city": null, "addr:housename": null, "addr:postcode": null, "addr:street": null, "addr:suburb": null, "amenity": null, "building": "industrial", "fhrs:id": null, "name": null, "operator": null, "operator:wikidata": null, "source": "Bing", "osm_type": "way", "osm_id": 223128237, "industrial": null, "shop": null, "ref:GB:uprn": "72674677", "power": null, "ref": null, "substation": null, "voltage": null }, "geometry": { "type": "Polygon", "coordinates": [ [ [ 433179.739719753037207, 430609.930779452552088 ], [ 433145.638763285824098, 430674.935125286108814 ], [ 433202.850790715485346, 430704.801806074916385 ], [ 433236.945666263345629, 430639.808951108716428 ], [ 433179.739719753037207, 430609.930779452552088 ] ] ] } },
{ "type": "Feature", "properties": { "addr:city": null, "addr:housename": null, "addr:postcode": null, "addr:street": null, "addr:suburb": null, "amenity": null, "building": "yes", "fhrs:id": null, "name": null, "operator": null, "operator:wikidata": null, "source": "Bing", "osm_type": "way", "osm_id": 223128238, "industrial": null, "shop": null, "ref:GB:uprn": null, "power": null, "ref": null, "substation": null, "voltage": null }, "geometry": { "type": "Polygon", "coordinates": [ [ [ 433207.304186956607737, 430255.650361141189933 ], [ 433198.905990349594504, 430258.472740299883299 ], [ 433200.48789313971065, 430263.156994945486076 ], [ 433208.886161022004671, 430260.323492816067301 ], [ 433207.304186956607737, 430255.650361141189933 ] ] ] } },
{ "type": "Feature", "properties": { "addr:city": null, "addr:housename": null, "addr:postcode": null, "addr:street": null, "addr:suburb": null, "amenity": null, "building": "yes", "fhrs:id": null, "name": null, "operator": null, "operator:wikidata": null, "source": "Bing", "osm_type": "way", "osm_id": 223128241, "industrial": null, "shop": null, "ref:GB:uprn": null, "power": null, "ref": null, "substation": null, "voltage": null }, "geometry": { "type": "Polygon", "coordinates": [ [ [ 433316.311477540701162, 430288.510563301155344 ], [ 433320.942129398288671, 430287.13035364029929 ], [ 433318.263508240052033, 430278.165750742075033 ], [ 433313.632848383218516, 430279.545963063719682 ], [ 433316.311477540701162, 430288.510563301155344 ] ] ] } },
{ "type": "Feature", "properties": { "addr:city": null, "addr:housename": null, "addr:postcode": null, "addr:street": null, "addr:suburb": null, "amenity": null, "building": "industrial", "fhrs:id": null, "name": null, "operator": null, "operator:wikidata": null, "source": "Bing", "osm_type": "way", "osm_id": 223128244, "industrial": null, "shop": null, "ref:GB:uprn": null, "power": null, "ref": null, "substation": null, "voltage": null }, "geometry": { "type": "Polygon", "coordinates": [ [ [ 433078.340249735570978, 430837.106145897414535 ], [ 433067.822504310752265, 430856.547761600580998 ], [ 433105.86644673277624, 430877.032363811857067 ], [ 433116.384306575171649, 430857.590832573594525 ], [ 433078.340249735570978, 430837.106145897414535 ] ] ] } },
{ "type": "Feature", "properties": { "addr:city": null, "addr:housename": null, "addr:postcode": null, "addr:street": null, "addr:suburb": null, "amenity": null, "building": "industrial", "fhrs:id": null, "name": null, "operator": null, "operator:wikidata": null, "source": "Bing", "osm_type": "way", "osm_id": 223128245, "industrial": null, "shop": null, "ref:GB:uprn": null, "power": null, "ref": null, "substation": null, "voltage": null }, "geometry": { "type": "Polygon", "coordinates": [ [ [ 433043.09117793396581, 430428.564627704559825 ], [ 433054.768042602518108, 430471.21626734349411 ], [ 433148.290788436424918, 430445.739370196708478 ], [ 433136.608192620100453, 430403.076323677320033 ], [ 433043.09117793396581, 430428.564627704559825 ] ] ] } },
{ "type": "Feature", "properties": { "addr:city": null, "addr:housename": null, "addr:postcode": null, "addr:street": null, "addr:suburb": null, "amenity": null, "building": "yes", "fhrs:id": null, "name": null, "operator": null, "operator:wikidata": null, "source": "Bing", "osm_type": "way", "osm_id": 223128248, "industrial": null, "shop": null, "ref:GB:uprn": null, "power": null, "ref": null, "substation": null, "voltage": null }, "geometry": { "type": "Polygon", "coordinates": [ [ [ 433137.558298824122176, 430480.511458483408205 ], [ 433139.929096329724416, 430479.882852166891098 ], [ 433138.702665319549851, 430475.267881983076222 ], [ 433136.331865659740288, 430475.896488925558515 ], [ 433137.558298824122176, 430480.511458483408205 ] ] ] } },
{ "type": "Feature", "properties": { "addr:city": null, "addr:housename": null, "addr:postcode": null, "addr:street": null, "addr:suburb": null, "amenity": null, "building": "yes", "fhrs:id": null, "name": null, "operator": null, "operator:wikidata": null, "source": "Bing", "osm_type": "way", "osm_id": 223128249, "industrial": null, "shop": null, "ref:GB:uprn": null, "power": null, "ref": null, "substation": null, "voltage": null }, "geometry": { "type": "Polygon", "coordinates": [ [ [ 433374.224097144033294, 430312.142351687070914 ], [ 433375.572861232096329, 430316.213061032234691 ], [ 433383.607270183099899, 430313.566435477812774 ], [ 433382.258512250613421, 430309.495723810279742 ], [ 433374.224097144033294, 430312.142351687070914 ] ] ] } },
{ "type": "Feature", "properties": { "addr:city": null, "addr:housename": null, "addr:postcode": null, "addr:street": null, "addr:suburb": null, "amenity": null, "building": "industrial", "fhrs:id": null, "name": null, "operator": null, "operator:wikidata": null, "source": "Bing", "osm_type": "way", "osm_id": 223128250, "industrial": null, "shop": null, "ref:GB:uprn": null, "power": null, "ref": null, "substation": null, "voltage": null }, "geometry": { "type": "Polygon", "coordinates": [ [ [ 433191.139884333009832, 430483.459903936251067 ], [ 433182.265581418003421, 430500.55408550077118 ], [ 433202.657767462544143, 430511.090200501610525 ], [ 433211.532204623916186, 430493.984931296668947 ], [ 433191.139884333009832, 430483.459903936251067 ] ] ] } },
{ "type": "Feature", "properties": { "addr:city": null, "addr:housename": null, "addr:postcode": null, "addr:street": null, "addr:suburb": null, "amenity": null, "building": "yes", "fhrs:id": null, "name": null, "operator": null, "operator:wikidata": null, "source": "Bing", "osm_type": "way", "osm_id": 223128252, "industrial": null, "shop": null, "ref:GB:uprn": null, "power": null, "ref": null, "substation": null, "voltage": null }, "geometry": { "type": "Polygon", "coordinates": [ [ [ 433356.876883252523839, 430215.253059103386477 ], [ 433354.461697268823627, 430220.253907453035936 ], [ 433361.491066548449453, 430223.630603173980489 ], [ 433363.906258402392268, 430218.629758402821608 ], [ 433356.876883252523839, 430215.253059103386477 ] ] ] } },
{ "type": "Feature", "properties": { "addr:city": null, "addr:housename": null, "addr:postcode": null, "addr:street": null, "addr:suburb": null, "amenity": null, "building": "yes", "fhrs:id": null, "name": null, "operator": null, "operator:wikidata": null, "source": "Bing", "osm_type": "way", "osm_id": 223128253, "industrial": null, "shop": null, "ref:GB:uprn": null, "power": null, "ref": null, "substation": null, "voltage": null }, "geometry": { "type": "Polygon", "coordinates": [ [ [ 433098.868202035722788, 430536.326761359698139 ], [ 433090.659479987923987, 430552.56907183653675 ], [ 433110.632867230626289, 430562.667908536852337 ], [ 433119.111250309506431, 430546.516544338315725 ], [ 433098.868202035722788, 430536.326761359698139 ] ] ] } },
{ "type": "Feature", "properties": { "addr:city": null, "addr:housename": null, "addr:postcode": null, "addr:street": null, "addr:suburb": null, "amenity": null, "building": "yes", "fhrs:id": null, "name": null, "operator": null, "operator:wikidata": null, "source": "Bing", "osm_type": "way", "osm_id": 223128256, "industrial": null, "shop": null, "ref:GB:uprn": null, "power": null, "ref": null, "substation": null, "voltage": null }, "geometry": { "type": "Polygon", "coordinates": [ [ [ 433317.727992275729775, 430293.260444577783346 ], [ 433324.148718836950138, 430291.358867103466764 ], [ 433322.725697409478016, 430286.597811306244694 ], [ 433320.942129398288671, 430287.13035364029929 ], [ 433316.311477540701162, 430288.510563301155344 ], [ 433317.727992275729775, 430293.260444577783346 ] ] ] } },
{ "type": "Feature", "properties": { "addr:city": null, "addr:housename": null, "addr:postcode": null, "addr:street": null, "addr:suburb": null, "amenity": null, "building": "yes", "fhrs:id": null, "name": null, "operator": null, "operator:wikidata": null, "source": "Bing", "osm_type": "way", "osm_id": 223128257, "industrial": null, "shop": null, "ref:GB:uprn": null, "power": null, "ref": null, "substation": null, "voltage": null }, "geometry": { "type": "Polygon", "coordinates": [ [ [ 433150.780361698649358, 430269.47069211571943 ], [ 433183.415404961677268, 430261.233909549657255 ], [ 433178.695177068177145, 430242.630659440648742 ], [ 433163.969008795218542, 430246.354159587295726 ], [ 433165.155615618918091, 430251.013358764583245 ], [ 433147.246558272687253, 430255.537795555428602 ], [ 433150.780361698649358, 430269.47069211571943 ] ] ] } },
{ "type": "Feature", "properties": { "addr:city": null, "addr:housename": null, "addr:postcode": null, "addr:street": null, "addr:suburb": null, "amenity": null, "building": "industrial", "fhrs:id": null, "name": null, "operator": null, "operator:wikidata": null, "source": "Bing", "osm_type": "way", "osm_id": 223128258, "industrial": null, "shop": null, "ref:GB:uprn": null, "power": null, "ref": null, "substation": null, "voltage": null }, "geometry": { "type": "Polygon", "coordinates": [ [ [ 433221.378235364099964, 430487.701387054985389 ], [ 433207.657589431852102, 430514.329936512862332 ], [ 433222.736930709041189, 430522.069246878498234 ], [ 433227.735892189200968, 430512.380148329306394 ], [ 433231.853837520175148, 430514.489908861694857 ], [ 433240.582109981391113, 430497.561681632185355 ], [ 433221.378235364099964, 430487.701387054985389 ] ] ] } },
{ "type": "Feature", "properties": { "addr:city": null, "addr:housename": null, "addr:postcode": null, "addr:street": null, "addr:suburb": null, "amenity": null, "building": "yes", "fhrs:id": null, "name": null, "operator": null, "operator:wikidata": null, "source": "Bing", "osm_type": "way", "osm_id": 223128259, "industrial": null, "shop": null, "ref:GB:uprn": null, "power": null, "ref": null, "substation": null, "voltage": null }, "geometry": { "type": "Polygon", "coordinates": [ [ [ 433130.758910859934986, 430475.401002726051956 ], [ 433133.070388854248449, 430484.118128791917115 ], [ 433138.161941572616342, 430482.774370373459533 ], [ 433137.558298824122176, 430480.511458483408205 ], [ 433136.331865659740288, 430475.896488925558515 ], [ 433135.843881099892315, 430474.057195292669348 ], [ 433130.758910859934986, 430475.401002726051956 ] ] ] } },
{ "type": "Feature", "properties": { "addr:city": null, "addr:housename": null, "addr:postcode": null, "addr:street": null, "addr:suburb": null, "amenity": null, "building": "yes", "fhrs:id": null, "name": null, "operator": null, "operator:wikidata": null, "source": "Bing", "osm_type": "way", "osm_id": 223128260, "industrial": null, "shop": null, "ref:GB:uprn": null, "power": null, "ref": null, "substation": null, "voltage": null }, "geometry": { "type": "Polygon", "coordinates": [ [ [ 433292.745877860113978, 430281.979223350295797 ], [ 433301.071524487051647, 430309.854167261859402 ], [ 433320.921612720587291, 430303.964414654416032 ], [ 433317.727992275729775, 430293.260444577783346 ], [ 433316.311477540701162, 430288.510563301155344 ], [ 433313.632848383218516, 430279.545963063719682 ], [ 433312.602743162249681, 430276.078356210608035 ], [ 433292.745877860113978, 430281.979223350295797 ] ] ] } },
{ "type": "Feature", "properties": { "addr:city": null, "addr:housename": null, "addr:postcode": null, "addr:street": null, "addr:suburb": null, "amenity": null, "building": "industrial", "fhrs:id": null, "name": null, "operator": null, "operator:wikidata": null, "source": "Bing", "osm_type": "way", "osm_id": 223128261, "industrial": null, "shop": null, "ref:GB:uprn": null, "power": null, "ref": null, "substation": null, "voltage": null }, "geometry": { "type": "Polygon", "coordinates": [ [ [ 432998.942708043847233, 430670.364174213726074 ], [ 433006.907382391975261, 430655.010100845596753 ], [ 432968.829130225814879, 430635.338318226044066 ], [ 432945.523735978174955, 430680.236627325648442 ], [ 432983.601715489290655, 430699.908222700934857 ], [ 432989.274351179075893, 430688.988576881587505 ], [ 432983.849625514878426, 430686.191144394921139 ], [ 432993.518044397351332, 430667.555604834575206 ], [ 432998.942708043847233, 430670.364174213726074 ] ] ] } },
{ "type": "Feature", "properties": { "addr:city": null, "addr:housename": null, "addr:postcode": null, "addr:street": null, "addr:suburb": null, "amenity": null, "building": "yes", "fhrs:id": null, "name": null, "operator": null, "operator:wikidata": null, "source": "Bing", "osm_type": "way", "osm_id": 223128263, "industrial": null, "shop": null, "ref:GB:uprn": null, "power": null, "ref": null, "substation": null, "voltage": null }, "geometry": { "type": "Polygon", "coordinates": [ [ [ 433325.351530788233504, 430273.264785704552196 ], [ 433332.495588307676371, 430300.419317708350718 ], [ 433358.221255621581804, 430293.291879227967001 ], [ 433356.597294986771885, 430287.127462564385496 ], [ 433385.158019681111909, 430279.00780040177051 ], [ 433385.263170506455936, 430264.210466180928051 ], [ 433373.072781577939168, 430267.283747378620319 ], [ 433370.792491079831962, 430259.79062496451661 ], [ 433325.351530788233504, 430273.264785704552196 ] ] ] } },
{ "type": "Feature", "properties": { "addr:city": null, "addr:housename": null, "addr:postcode": null, "addr:street": null, "addr:suburb": null, "amenity": null, "building": "industrial", "fhrs:id": null, "name": null, "operator": null, "operator:wikidata": null, "source": "Bing", "osm_type": "way", "osm_id": 223128266, "industrial": null, "shop": null, "ref:GB:uprn": "72681059", "power": null, "ref": null, "substation": null, "voltage": null }, "geometry": { "type": "Polygon", "coordinates": [ [ [ 432910.302497710566968, 430709.997575141838752 ], [ 432990.86062084347941, 430752.18639744783286 ], [ 432993.452714183949865, 430747.242239028331824 ], [ 432999.743913855170831, 430750.535330997430719 ], [ 433008.508508391678333, 430733.885093372547999 ], [ 432932.763892311893869, 430694.222019829903729 ], [ 432928.729092941794079, 430701.882059411145747 ], [ 432917.63069919164991, 430696.063069620984606 ], [ 432910.302497710566968, 430709.997575141838752 ] ] ] } },
{ "type": "Feature", "properties": { "addr:city": null, "addr:housename": null, "addr:postcode": null, "addr:street": null, "addr:suburb": null, "amenity": null, "building": "industrial", "fhrs:id": null, "name": null, "operator": null, "operator:wikidata": null, "source": "Bing", "osm_type": "way", "osm_id": 223128268, "industrial": null, "shop": null, "ref:GB:uprn": null, "power": null, "ref": null, "substation": null, "voltage": null }, "geometry": { "type": "Polygon", "coordinates": [ [ [ 432988.761374763329513, 430877.476902030641213 ], [ 433014.865744089882355, 430886.27211675955914 ], [ 433019.058913523040246, 430873.895678460597992 ], [ 433022.839782063150778, 430875.168411000049673 ], [ 433026.736890918284189, 430863.657755619613454 ], [ 433022.600977972731926, 430862.260133922682144 ], [ 433026.504765330522787, 430850.738399036694318 ], [ 433000.755334204586688, 430842.056879072566517 ], [ 432988.761374763329513, 430877.476902030641213 ] ] ] } },
{ "type": "Feature", "properties": { "addr:city": null, "addr:housename": null, "addr:postcode": null, "addr:street": null, "addr:suburb": null, "amenity": null, "building": "industrial", "fhrs:id": null, "name": null, "operator": null, "operator:wikidata": null, "source": "Bing", "osm_type": "way", "osm_id": 223128271, "industrial": null, "shop": null, "ref:GB:uprn": null, "power": null, "ref": null, "substation": null, "voltage": null }, "geometry": { "type": "Polygon", "coordinates": [ [ [ 433144.399541523715016, 430498.373044838546775 ], [ 433119.111250309506431, 430546.516544338315725 ], [ 433110.632867230626289, 430562.667908536852337 ], [ 433169.606145052472129, 430593.503443050314672 ], [ 433172.75962579989573, 430587.506340163177811 ], [ 433192.204933822678868, 430597.668558206409216 ], [ 433188.904309479519725, 430603.965020922711119 ], [ 433241.138836947444361, 430631.271308541297913 ], [ 433275.067070946504828, 430566.689223800203763 ], [ 433144.399541523715016, 430498.373044838546775 ] ] ] } },
{ "type": "Feature", "properties": { "addr:city": null, "addr:housename": null, "addr:postcode": null, "addr:street": null, "addr:suburb": null, "amenity": null, "building": "yes", "fhrs:id": null, "name": "Stourton Warehouse", "operator": "Northern Powergrid", "operator:wikidata": "Q7058871", "source": null, "osm_type": "way", "osm_id": 1052052741, "industrial": null, "shop": null, "ref:GB:uprn": null, "power": "substation", "ref": "49404", "substation": "minor_distribution", "voltage": "11000" }, "geometry": { "type": "Polygon", "coordinates": [ [ [ 433167.467947409721091, 430079.394304731744342 ], [ 433169.490034791990183, 430082.434951469884254 ], [ 433172.887717675301246, 430080.17803331813775 ], [ 433170.865631482331082, 430077.137385119218379 ], [ 433167.467947409721091, 430079.394304731744342 ] ] ] } }
]
}
