{
"type": "FeatureCollection",
"name": "se3330_rgb_250_05_osm_road_buffers",
"crs": { "type": "name", "properties": { "name": "urn:ogc:def:crs:EPSG::27700" } },
"features": [
{ "type": "Feature", "properties": { "highway": "secondary", "lanes": "2", "lit": "yes", "name": "Pontefract Road", "note": "license remap", "ref": "B6481", "source:name": "OS_OpenData_StreetView", "source:ref": "OS_OpenData_StreetView", "surface": "asphalt", "osm_type": "way", "osm_id": 151468343, "disused:highway": null, "not:name": null, "not:name:note": null }, "geometry": { "type": "Polygon", "coordinates": [ [ [ 433498.748595405253582, 429840.460152770392597 ], [ 433498.699175162648316, 429840.491685984539799 ], [ 433438.939456425490789, 429878.930958643264603 ], [ 433402.466066325840075, 429901.625985549588222 ], [ 433392.615427379612811, 429907.751880676485598 ], [ 433315.259554627293255, 429955.811735193245113 ], [ 433215.186782174336258, 430017.9103156447527 ], [ 433163.525584280956537, 430049.966603375331033 ], [ 433083.211387412855402, 430098.600592250993941 ], [ 433082.927510459092446, 430098.780752623919398 ], [ 433045.633252896775957, 430123.563721959595568 ], [ 433045.289605089696124, 430123.805326872097794 ], [ 433000.135820450261235, 430157.356581226864364 ], [ 432999.872024081938434, 430157.561274564883206 ], [ 432939.416397499095183, 430206.526919866504613 ], [ 432939.268182193627581, 430206.649950144870672 ], [ 432916.38309063721681, 430226.116447160427924 ], [ 432926.749845363257919, 430238.303751885017846 ], [ 432949.561569902522024, 430218.899662258860189 ], [ 433009.812586313171778, 430170.099739648110699 ], [ 433054.663685322506353, 430136.773394072253723 ], [ 433091.642901086888742, 430112.199777911242563 ], [ 433171.850479842454661, 430063.630351271189284 ], [ 433171.924659969925415, 430063.584878605382983 ], [ 433223.62288347777212, 430031.50561611232115 ], [ 433323.697670672554523, 429969.405785445938818 ], [ 433401.060508469701745, 429921.341605042049196 ], [ 433410.916399064066354, 429915.212444899778347 ], [ 433447.443333693314344, 429892.484101015317719 ], [ 433447.544693062314764, 429892.419972660951316 ], [ 433507.330198759445921, 429853.964113043562975 ], [ 433509.113326681370381, 429852.835537403938361 ], [ 433500.556491219846066, 429839.31590105954092 ], [ 433498.748595405253582, 429840.460152770392597 ] ] ] } },
{ "type": "Feature", "properties": { "highway": "no", "lanes": null, "lit": null, "name": null, "note": null, "ref": null, "source:name": null, "source:ref": null, "surface": null, "osm_type": "way", "osm_id": 183494698, "disused:highway": "unclassified", "not:name": "Middle Road", "not:name:note": "These roads are under a construction zone and not likely to be maintained by development" }, "geometry": { "type": "Polygon", "coordinates": [ [ [ 433548.962156556022819, 431005.278691488085315 ], [ 433600.901165553019382, 430960.643283129902557 ], [ 433633.230758575838991, 430932.858297800761648 ], [ 433626.712856184341945, 430925.274304893682711 ], [ 433594.383419245597906, 430953.059156082163099 ], [ 433542.445123434590641, 430997.693951586203184 ], [ 433496.568941234843805, 431037.109810056514107 ], [ 433503.085754089755937, 431044.694739206810482 ], [ 433548.962156556022819, 431005.278691488085315 ] ] ] } },
{ "type": "Feature", "properties": { "highway": "no", "lanes": null, "lit": null, "name": null, "note": null, "ref": null, "source:name": null, "source:ref": null, "surface": null, "osm_type": "way", "osm_id": 183494710, "disused:highway": "unclassified", "not:name": "Service Road", "not:name:note": "These roads are under a construction zone and not likely to be maintained by development" }, "geometry": { "type": "Polygon", "coordinates": [ [ [ 433487.414174507313874, 431034.490949621307664 ], [ 433487.536984767240938, 431034.633986202883534 ], [ 433496.095864245493431, 431044.230341865099035 ], [ 433517.171050313918386, 431067.836954353086185 ], [ 433524.630763778404798, 431061.177173949137796 ], [ 433503.558017947652843, 431037.573295701993629 ], [ 433495.062705271237064, 431028.048212177644018 ], [ 433444.892253276251722, 430967.335560709587298 ], [ 433437.183665922784712, 430973.705622013309039 ], [ 433487.414174507313874, 431034.490949621307664 ] ] ] } },
{ "type": "Feature", "properties": { "highway": "unclassified", "lanes": null, "lit": null, "name": null, "note": null, "ref": null, "source:name": null, "source:ref": null, "surface": null, "osm_type": "way", "osm_id": 366400787, "disused:highway": null, "not:name": null, "not:name:note": null }, "geometry": { "type": "Polygon", "coordinates": [ [ [ 434197.503769428876694, 430601.613410524907522 ], [ 434197.104053309478331, 430601.663096008938737 ], [ 434196.709633539547212, 430601.744794653728604 ], [ 434116.815606660034973, 430621.680897575221024 ], [ 434116.289149318472482, 430621.843557990330737 ], [ 434115.783787171472795, 430622.063159546523821 ], [ 434050.033096528204624, 430655.054259300639387 ], [ 434049.679440074251033, 430655.249989834788721 ], [ 434049.342749452160206, 430655.473647507082205 ], [ 433951.364115947275423, 430726.429516704811249 ], [ 433950.857823659898713, 430726.849611051846296 ], [ 433929.939140620874241, 430746.670329554355703 ], [ 433907.202232005773112, 430768.213721991167404 ], [ 433906.882629718864337, 430768.545811731542926 ], [ 433860.362367883848492, 430821.572294178127777 ], [ 433804.067655603168532, 430885.733150091662537 ], [ 433799.760996679076925, 430890.642700841592159 ], [ 433807.278560923296027, 430897.237109672802035 ], [ 433811.584662220091559, 430892.32819456467405 ], [ 433867.879279551154468, 430828.167446868203115 ], [ 433914.247672989440616, 430775.314072806853801 ], [ 433936.817129224946257, 430753.929342762916349 ], [ 433957.496524707297795, 430734.335352266847622 ], [ 434054.879983506631106, 430663.810507028596476 ], [ 434119.773756859649438, 430631.24937452696031 ], [ 434198.738951386185363, 430611.545044844446238 ], [ 434219.89036632218631, 430609.777395264827646 ], [ 434219.057557279651519, 430599.812134149367921 ], [ 434197.503769428876694, 430601.613410524907522 ] ] ] } },
{ "type": "Feature", "properties": { "highway": "unclassified", "lanes": null, "lit": null, "name": null, "note": null, "ref": null, "source:name": null, "source:ref": null, "surface": null, "osm_type": "way", "osm_id": 889840830, "disused:highway": null, "not:name": null, "not:name:note": null }, "geometry": { "type": "Polygon", "coordinates": [ [ [ 433784.975114209402818, 430909.436704423220363 ], [ 433718.856672033085488, 430993.556108624150511 ], [ 433718.574980150384363, 430993.952797223057132 ], [ 433718.333176392305177, 430994.374985692673363 ], [ 433718.133550274418667, 430994.818676547205541 ], [ 433717.977991954016034, 430995.279668705770746 ], [ 433717.867974332883023, 430995.753597270348109 ], [ 433717.804539111384656, 430996.235974854789674 ], [ 433717.788286925060675, 430996.722234073502477 ], [ 433717.819371657504234, 430997.207770787528716 ], [ 433717.897498983365949, 430997.687987699231599 ], [ 433718.021929155103862, 430998.158337881148327 ], [ 433718.191484007344116, 430998.614367829053663 ], [ 433718.404558112262748, 430999.051759629568551 ], [ 433718.659133980516344, 430999.466371844289824 ], [ 433718.952801164065022, 430999.854278723069001 ], [ 433719.282779079047032, 431000.21180737495888 ], [ 433739.865592195419595, 431020.442784529412165 ], [ 433746.875443291151896, 431013.311025446513668 ], [ 433729.484339912422001, 430996.217199973936658 ], [ 433792.836498216493055, 430915.617209388758056 ], [ 433807.450357283058111, 430897.030302124621812 ], [ 433799.589200319314841, 430890.849508389772382 ], [ 433784.975114209402818, 430909.436704423220363 ] ] ] } }
]
}
