{
"type": "FeatureCollection",
"name": "se3431_rgb_250_04_osm_buildings",
"crs": { "type": "name", "properties": { "name": "urn:ogc:def:crs:EPSG::27700" } },
"features": [
{ "type": "Feature", "properties": { "amenity": "post_depot", "brand": "Amazon", "brand:wikidata": "Q3884", "building": "warehouse", "name": "Amazon", "operator": "Amazon", "operator:type": "private", "operator:wikidata": "Q3884", "osm_type": "way", "osm_id": 500241896, "brand:wikipedia": null, "bus": null, "internet_access": null, "internet_access:fee": null, "public_transport": null, "addr:city": null, "addr:housenumber": null, "addr:postcode": null, "addr:street": null, "shop": null, "addr:housename": null, "check_date": null, "fhrs:id": null, "old_brand:wikidata": null, "old_brand:wikipedia": null, "source:addr": null, "layer": null, "construction": null, "power": null }, "geometry": { "type": "Polygon", "coordinates": [ [ [ 434165.8132678346592, 431842.284423196222633 ], [ 434277.774252961971797, 431855.439659266383387 ], [ 434284.965122813126072, 431790.24679412948899 ], [ 434174.055792597937398, 431778.156068708165549 ], [ 434165.8132678346592, 431842.284423196222633 ] ] ] } },
{ "type": "Feature", "properties": { "amenity": null, "brand": null, "brand:wikidata": "Q1918981", "building": "warehouse", "name": "John Lewis", "operator": null, "operator:type": null, "operator:wikidata": null, "osm_type": "way", "osm_id": 500248063, "brand:wikipedia": "ak:John Lewis & Partners", "bus": null, "internet_access": null, "internet_access:fee": null, "public_transport": null, "addr:city": null, "addr:housenumber": null, "addr:postcode": null, "addr:street": null, "shop": null, "addr:housename": null, "check_date": null, "fhrs:id": null, "old_brand:wikidata": null, "old_brand:wikipedia": null, "source:addr": null, "layer": null, "construction": null, "power": null }, "geometry": { "type": "Polygon", "coordinates": [ [ [ 434324.914711390098091, 432066.596521546831354 ], [ 434337.802600958559196, 431958.59748095611576 ], [ 434378.246683753852267, 431963.399651432759129 ], [ 434365.357870763866231, 432071.398584979586303 ], [ 434324.914711390098091, 432066.596521546831354 ] ] ] } },
{ "type": "Feature", "properties": { "amenity": "bus_station", "brand": null, "brand:wikidata": null, "building": "yes", "name": "Temple Green Park & Ride", "operator": "WY Metro", "operator:type": null, "operator:wikidata": null, "osm_type": "way", "osm_id": 644584946, "brand:wikipedia": null, "bus": "yes", "internet_access": "yes", "internet_access:fee": "no", "public_transport": "station", "addr:city": null, "addr:housenumber": null, "addr:postcode": null, "addr:street": null, "shop": null, "addr:housename": null, "check_date": null, "fhrs:id": null, "old_brand:wikidata": null, "old_brand:wikipedia": null, "source:addr": null, "layer": null, "construction": null, "power": null }, "geometry": { "type": "Polygon", "coordinates": [ [ [ 434385.174085454724263, 431399.818957305280492 ], [ 434404.13076157978503, 431389.510092128184624 ], [ 434402.446463290019892, 431386.426859958795831 ], [ 434399.766696091275662, 431387.887042928836308 ], [ 434397.91325614892412, 431384.502160000964068 ], [ 434381.642920508631505, 431393.350903700920753 ], [ 434385.174085454724263, 431399.818957305280492 ] ] ] } },
{ "type": "Feature", "properties": { "amenity": null, "brand": "McLaren", "brand:wikidata": null, "building": "yes", "name": null, "operator": null, "operator:type": null, "operator:wikidata": null, "osm_type": "way", "osm_id": 747009833, "brand:wikipedia": null, "bus": null, "internet_access": null, "internet_access:fee": null, "public_transport": null, "addr:city": null, "addr:housenumber": null, "addr:postcode": null, "addr:street": null, "shop": null, "addr:housename": null, "check_date": null, "fhrs:id": null, "old_brand:wikidata": null, "old_brand:wikipedia": null, "source:addr": null, "layer": null, "construction": null, "power": null }, "geometry": { "type": "Polygon", "coordinates": [ [ [ 434336.733927532914095, 431503.685707058524713 ], [ 434357.264151358627714, 431491.708072835346684 ], [ 434362.41268711182056, 431500.491114335949533 ], [ 434341.875898196070921, 431512.468677837518044 ], [ 434336.733927532914095, 431503.685707058524713 ] ] ] } },
{ "type": "Feature", "properties": { "amenity": null, "brand": "McLaren", "brand:wikidata": null, "building": "yes", "name": "McLaren", "operator": null, "operator:type": null, "operator:wikidata": null, "osm_type": "way", "osm_id": 754993474, "brand:wikipedia": null, "bus": null, "internet_access": null, "internet_access:fee": null, "public_transport": null, "addr:city": "Leeds", "addr:housenumber": "2", "addr:postcode": "LS9 0AA", "addr:street": "Aire Valley Drive", "shop": "car", "addr:housename": null, "check_date": null, "fhrs:id": null, "old_brand:wikidata": null, "old_brand:wikipedia": null, "source:addr": null, "layer": null, "construction": null, "power": null }, "geometry": { "type": "Polygon", "coordinates": [ [ [ 434370.831543530803174, 431582.877143373596482 ], [ 434414.570216664753389, 431556.705482471967116 ], [ 434401.646478231297806, 431535.203539719223045 ], [ 434357.907761439913884, 431561.364195231231861 ], [ 434370.831543530803174, 431582.877143373596482 ] ] ] } },
{ "type": "Feature", "properties": { "amenity": null, "brand": "Lamborghini", "brand:wikidata": null, "building": "yes", "name": "Lamborghini", "operator": null, "operator:type": null, "operator:wikidata": null, "osm_type": "way", "osm_id": 754993475, "brand:wikipedia": null, "bus": null, "internet_access": null, "internet_access:fee": null, "public_transport": null, "addr:city": "Leeds", "addr:housenumber": "2", "addr:postcode": "LS9 0AA", "addr:street": "Aire Valley Drive", "shop": "car", "addr:housename": null, "check_date": null, "fhrs:id": null, "old_brand:wikidata": null, "old_brand:wikipedia": null, "source:addr": null, "layer": null, "construction": null, "power": null }, "geometry": { "type": "Polygon", "coordinates": [ [ [ 434407.854214733582921, 431521.730416312464513 ], [ 434425.102951574895997, 431551.063705845735967 ], [ 434446.222461236000527, 431538.712482473347336 ], [ 434428.980480258062016, 431509.368037798325531 ], [ 434407.854214733582921, 431521.730416312464513 ] ] ] } },
{ "type": "Feature", "properties": { "amenity": null, "brand": "Morrisons Daily", "brand:wikidata": "Q99752411", "building": "retail", "name": "Morrisons Daily", "operator": null, "operator:type": null, "operator:wikidata": null, "osm_type": "way", "osm_id": 754993476, "brand:wikipedia": null, "bus": null, "internet_access": null, "internet_access:fee": null, "public_transport": null, "addr:city": "Leeds", "addr:housenumber": "2a", "addr:postcode": "LS9 0AA", "addr:street": "Aire Valley Road", "shop": "convenience", "addr:housename": "Gateway Service Station", "check_date": "2020-03-07", "fhrs:id": "1355740", "old_brand:wikidata": "Q16997477", "old_brand:wikipedia": "en:McColl's", "source:addr": "FHRS Open Data", "layer": null, "construction": null, "power": null }, "geometry": { "type": "Polygon", "coordinates": [ [ [ 434335.778416106768418, 431585.691588351153769 ], [ 434322.704766670707613, 431555.810572722926736 ], [ 434335.508319709217176, 431550.530113629531115 ], [ 434348.730456905963365, 431579.922689036466181 ], [ 434335.778416106768418, 431585.691588351153769 ] ] ] } },
{ "type": "Feature", "properties": { "amenity": null, "brand": null, "brand:wikidata": null, "building": "roof", "name": null, "operator": null, "operator:type": null, "operator:wikidata": null, "osm_type": "way", "osm_id": 754993479, "brand:wikipedia": null, "bus": null, "internet_access": null, "internet_access:fee": null, "public_transport": null, "addr:city": null, "addr:housenumber": null, "addr:postcode": null, "addr:street": null, "shop": null, "addr:housename": null, "check_date": null, "fhrs:id": null, "old_brand:wikidata": null, "old_brand:wikipedia": null, "source:addr": null, "layer": null, "construction": null, "power": null }, "geometry": { "type": "Polygon", "coordinates": [ [ [ 434315.477376896305941, 431549.237666587228887 ], [ 434318.777109702408779, 431547.692955937818624 ], [ 434320.094411771045998, 431550.49531588354148 ], [ 434325.173040927445982, 431548.106877082493156 ], [ 434320.143749232403934, 431537.433255714247935 ], [ 434316.61992003233172, 431529.963925213902257 ], [ 434304.822692971036304, 431535.507695537176915 ], [ 434308.593125465500634, 431543.501760687446222 ], [ 434312.011881487618666, 431541.902282772934996 ], [ 434315.477376896305941, 431549.237666587228887 ] ] ] } },
{ "type": "Feature", "properties": { "amenity": null, "brand": null, "brand:wikidata": null, "building": "roof", "name": null, "operator": null, "operator:type": null, "operator:wikidata": null, "osm_type": "way", "osm_id": 754993480, "brand:wikipedia": null, "bus": null, "internet_access": null, "internet_access:fee": null, "public_transport": null, "addr:city": null, "addr:housenumber": null, "addr:postcode": null, "addr:street": null, "shop": null, "addr:housename": null, "check_date": null, "fhrs:id": null, "old_brand:wikidata": null, "old_brand:wikipedia": null, "source:addr": null, "layer": null, "construction": null, "power": null }, "geometry": { "type": "Polygon", "coordinates": [ [ [ 434304.827072370739188, 431570.088649857440032 ], [ 434306.665101258375216, 431569.267596369842067 ], [ 434315.573953875107691, 431589.226738234749064 ], [ 434319.408559696457814, 431587.530167162651196 ], [ 434320.614638755912893, 431590.220450417487882 ], [ 434325.037677234911826, 431588.261150664417073 ], [ 434312.102355366048869, 431559.282416661968455 ], [ 434310.286830018274486, 431555.219132736441679 ], [ 434300.191109354258515, 431559.696083904244006 ], [ 434301.948228377674241, 431563.636546552996151 ], [ 434304.827072370739188, 431570.088649857440032 ] ] ] } },
{ "type": "Feature", "properties": { "amenity": null, "brand": null, "brand:wikidata": null, "building": "roof", "name": null, "operator": null, "operator:type": null, "operator:wikidata": null, "osm_type": "way", "osm_id": 754993508, "brand:wikipedia": null, "bus": null, "internet_access": null, "internet_access:fee": null, "public_transport": null, "addr:city": null, "addr:housenumber": null, "addr:postcode": null, "addr:street": null, "shop": null, "addr:housename": null, "check_date": null, "fhrs:id": null, "old_brand:wikidata": null, "old_brand:wikipedia": null, "source:addr": null, "layer": "1", "construction": null, "power": null }, "geometry": { "type": "Polygon", "coordinates": [ [ [ 435017.812511597760022, 430993.639342989190482 ], [ 435012.429878978233319, 431026.066140852519311 ], [ 435000.35057279834291, 431024.073479712940753 ], [ 435005.7331236184109, 430991.646668380359188 ], [ 435017.812511597760022, 430993.639342989190482 ] ] ] } },
{ "type": "Feature", "properties": { "amenity": "post_depot", "brand": "Amazon", "brand:wikidata": "Q3884", "building": "warehouse", "name": "Amazon", "operator": "Amazon", "operator:type": "private", "operator:wikidata": "Q3884", "osm_type": "way", "osm_id": 759460984, "brand:wikipedia": null, "bus": null, "internet_access": null, "internet_access:fee": null, "public_transport": null, "addr:city": "Leeds", "addr:housenumber": null, "addr:postcode": "LS15 0BF", "addr:street": "Skelton Moor Way", "shop": null, "addr:housename": "LBA8 Unit 2", "check_date": null, "fhrs:id": null, "old_brand:wikidata": null, "old_brand:wikipedia": null, "source:addr": null, "layer": null, "construction": "warehouse", "power": null }, "geometry": { "type": "Polygon", "coordinates": [ [ [ 434004.308050495805219, 432157.024525120388716 ], [ 434123.108085070212837, 432224.567164223873988 ], [ 434234.362532201339491, 432029.752215089160018 ], [ 434115.591858104453422, 431962.229275034624152 ], [ 434004.308050495805219, 432157.024525120388716 ] ] ] } },
{ "type": "Feature", "properties": { "amenity": null, "brand": null, "brand:wikidata": null, "building": "yes", "name": null, "operator": null, "operator:type": null, "operator:wikidata": null, "osm_type": "way", "osm_id": 889840786, "brand:wikipedia": null, "bus": null, "internet_access": null, "internet_access:fee": null, "public_transport": null, "addr:city": null, "addr:housenumber": null, "addr:postcode": null, "addr:street": null, "shop": null, "addr:housename": null, "check_date": null, "fhrs:id": null, "old_brand:wikidata": null, "old_brand:wikipedia": null, "source:addr": null, "layer": null, "construction": null, "power": "substation" }, "geometry": { "type": "Polygon", "coordinates": [ [ [ 434289.406658494728617, 431125.987396349199116 ], [ 434286.485733109293506, 431129.771304892376065 ], [ 434292.285982394008897, 431134.219714396866038 ], [ 434295.206909799599089, 431130.435809442889877 ], [ 434289.406658494728617, 431125.987396349199116 ] ] ] } },
{ "type": "Feature", "properties": { "amenity": null, "brand": null, "brand:wikidata": null, "building": "yes", "name": null, "operator": null, "operator:type": null, "operator:wikidata": null, "osm_type": "way", "osm_id": 889840810, "brand:wikipedia": null, "bus": null, "internet_access": null, "internet_access:fee": null, "public_transport": null, "addr:city": null, "addr:housenumber": null, "addr:postcode": null, "addr:street": null, "shop": null, "addr:housename": null, "check_date": null, "fhrs:id": null, "old_brand:wikidata": null, "old_brand:wikipedia": null, "source:addr": null, "layer": null, "construction": null, "power": null }, "geometry": { "type": "Polygon", "coordinates": [ [ [ 434177.211956530052703, 431022.094506414956413 ], [ 434172.01170131721301, 431024.82714314176701 ], [ 434174.592570857261308, 431029.730416245292872 ], [ 434179.792822215007618, 431026.997782379738055 ], [ 434177.211956530052703, 431022.094506414956413 ] ] ] } },
{ "type": "Feature", "properties": { "amenity": null, "brand": null, "brand:wikidata": null, "building": "yes", "name": null, "operator": null, "operator:type": null, "operator:wikidata": null, "osm_type": "way", "osm_id": 889840811, "brand:wikipedia": null, "bus": null, "internet_access": null, "internet_access:fee": null, "public_transport": null, "addr:city": null, "addr:housenumber": null, "addr:postcode": null, "addr:street": null, "shop": null, "addr:housename": null, "check_date": null, "fhrs:id": null, "old_brand:wikidata": null, "old_brand:wikipedia": null, "source:addr": null, "layer": null, "construction": null, "power": null }, "geometry": { "type": "Polygon", "coordinates": [ [ [ 434128.601539919385687, 431035.237354518962093 ], [ 434143.409701391181443, 431026.354844797984697 ], [ 434146.288059563667048, 431031.137874171952717 ], [ 434131.486497921112459, 431040.020422709058039 ], [ 434128.601539919385687, 431035.237354518962093 ] ] ] } },
{ "type": "Feature", "properties": { "amenity": null, "brand": null, "brand:wikidata": null, "building": "ruins", "name": null, "operator": null, "operator:type": null, "operator:wikidata": null, "osm_type": "way", "osm_id": 889840812, "brand:wikipedia": null, "bus": null, "internet_access": null, "internet_access:fee": null, "public_transport": null, "addr:city": null, "addr:housenumber": null, "addr:postcode": null, "addr:street": null, "shop": null, "addr:housename": null, "check_date": null, "fhrs:id": null, "old_brand:wikidata": null, "old_brand:wikipedia": null, "source:addr": null, "layer": null, "construction": null, "power": null }, "geometry": { "type": "Polygon", "coordinates": [ [ [ 434147.749852997425478, 431027.699315222795121 ], [ 434141.104066014289856, 431016.224177595577203 ], [ 434144.982578777882736, 431013.982585691032 ], [ 434151.628359599388205, 431025.457728811306879 ], [ 434147.749852997425478, 431027.699315222795121 ] ] ] } },
{ "type": "Feature", "properties": { "amenity": null, "brand": null, "brand:wikidata": null, "building": "ruins", "name": null, "operator": null, "operator:type": null, "operator:wikidata": null, "osm_type": "way", "osm_id": 889840813, "brand:wikipedia": null, "bus": null, "internet_access": null, "internet_access:fee": null, "public_transport": null, "addr:city": null, "addr:housenumber": null, "addr:postcode": null, "addr:street": null, "shop": null, "addr:housename": null, "check_date": null, "fhrs:id": null, "old_brand:wikidata": null, "old_brand:wikipedia": null, "source:addr": null, "layer": null, "construction": null, "power": null }, "geometry": { "type": "Polygon", "coordinates": [ [ [ 434173.515627768472768, 430998.390608753543347 ], [ 434166.425370788027067, 431001.810464071924798 ], [ 434169.165678968653083, 431007.449236733256839 ], [ 434176.249339051835705, 431004.029337603598833 ], [ 434173.515627768472768, 430998.390608753543347 ] ] ] } },
{ "type": "Feature", "properties": { "amenity": null, "brand": null, "brand:wikidata": null, "building": "ruins", "name": null, "operator": null, "operator:type": null, "operator:wikidata": null, "osm_type": "way", "osm_id": 889840814, "brand:wikipedia": null, "bus": null, "internet_access": null, "internet_access:fee": null, "public_transport": null, "addr:city": null, "addr:housenumber": null, "addr:postcode": null, "addr:street": null, "shop": null, "addr:housename": null, "check_date": null, "fhrs:id": null, "old_brand:wikidata": null, "old_brand:wikipedia": null, "source:addr": null, "layer": null, "construction": null, "power": null }, "geometry": { "type": "Polygon", "coordinates": [ [ [ 434121.756488061801065, 431004.011420891620219 ], [ 434121.43783845345024, 431003.419406211352907 ], [ 434120.959966400638223, 431002.970878120744601 ], [ 434120.362333974859212, 431002.677249761647545 ], [ 434119.703851436381228, 431002.5945811875863 ], [ 434119.05050452647265, 431002.712225367431529 ], [ 434118.46819815505296, 431003.030661064549349 ], [ 434117.97654218430398, 431003.57228351465892 ], [ 434117.694892693660222, 431004.237822048831731 ], [ 434117.663196597597562, 431004.971934769069776 ], [ 434117.882261992723215, 431005.663363455561921 ], [ 434118.326211796840653, 431006.24516171135474 ], [ 434118.936297428444959, 431006.639017959474586 ], [ 434119.653527927352116, 431006.799998079892248 ], [ 434120.379127055697609, 431006.716258113039657 ], [ 434121.027418714133091, 431006.387175631243736 ], [ 434121.492227857583202, 431005.912116905208677 ], [ 434121.779983290296514, 431005.313381407409906 ], [ 434121.870428539870773, 431004.657580390688963 ], [ 434121.756488061801065, 431004.011420891620219 ] ] ] } },
{ "type": "Feature", "properties": { "amenity": null, "brand": null, "brand:wikidata": null, "building": "construction", "name": null, "operator": null, "operator:type": null, "operator:wikidata": null, "osm_type": "way", "osm_id": 935938011, "brand:wikipedia": null, "bus": null, "internet_access": null, "internet_access:fee": null, "public_transport": null, "addr:city": null, "addr:housenumber": null, "addr:postcode": null, "addr:street": null, "shop": null, "addr:housename": null, "check_date": null, "fhrs:id": null, "old_brand:wikidata": null, "old_brand:wikipedia": null, "source:addr": null, "layer": null, "construction": null, "power": null }, "geometry": { "type": "Polygon", "coordinates": [ [ [ 434519.401365551049821, 431229.957492438610643 ], [ 434531.788178108341526, 431222.349074620055035 ], [ 434560.385757594485767, 431268.745235187700018 ], [ 434535.202017149422318, 431284.192590100108646 ], [ 434510.212471899343655, 431243.642216194886714 ], [ 434523.002950616879389, 431235.803087086416781 ], [ 434519.401365551049821, 431229.957492438610643 ] ] ] } },
{ "type": "Feature", "properties": { "amenity": "post_depot", "brand": "Amazon", "brand:wikidata": "Q3884", "building": "warehouse", "name": "Amazon", "operator": "Amazon", "operator:type": "private", "operator:wikidata": "Q3884", "osm_type": "way", "osm_id": 1002110285, "brand:wikipedia": null, "bus": null, "internet_access": null, "internet_access:fee": null, "public_transport": null, "addr:city": null, "addr:housenumber": null, "addr:postcode": null, "addr:street": "Aire Valley Road", "shop": null, "addr:housename": "LBA5", "check_date": null, "fhrs:id": null, "old_brand:wikidata": null, "old_brand:wikipedia": null, "source:addr": null, "layer": null, "construction": null, "power": null }, "geometry": { "type": "Polygon", "coordinates": [ [ [ 434053.765847728063818, 431153.03462718881201 ], [ 433857.143735301331617, 431365.718490853789262 ], [ 433971.613445539784152, 431471.044414355419576 ], [ 434008.470917741185986, 431431.189345966558903 ], [ 434023.907720449089538, 431445.398329752148129 ], [ 434158.450465895410161, 431299.92917597934138 ], [ 434130.4375525705982, 431274.134751444100402 ], [ 434155.693064221413806, 431246.824998290976509 ], [ 434053.765847728063818, 431153.03462718881201 ] ] ] } },
{ "type": "Feature", "properties": { "amenity": null, "brand": null, "brand:wikidata": null, "building": "construction", "name": null, "operator": null, "operator:type": null, "operator:wikidata": null, "osm_type": "way", "osm_id": 1002110290, "brand:wikipedia": null, "bus": null, "internet_access": null, "internet_access:fee": null, "public_transport": null, "addr:city": null, "addr:housenumber": null, "addr:postcode": null, "addr:street": null, "shop": null, "addr:housename": null, "check_date": null, "fhrs:id": null, "old_brand:wikidata": null, "old_brand:wikipedia": null, "source:addr": null, "layer": null, "construction": null, "power": null }, "geometry": { "type": "Polygon", "coordinates": [ [ [ 434504.689029676141217, 431201.566004781401716 ], [ 434511.85176457639318, 431197.245953809469938 ], [ 434506.987655731849372, 431189.210312803741544 ], [ 434499.824831513513345, 431193.541497020283714 ], [ 434504.689029676141217, 431201.566004781401716 ] ] ] } },
{ "type": "Feature", "properties": { "amenity": null, "brand": null, "brand:wikidata": null, "building": "construction", "name": null, "operator": null, "operator:type": null, "operator:wikidata": null, "osm_type": "way", "osm_id": 1002110291, "brand:wikipedia": null, "bus": null, "internet_access": null, "internet_access:fee": null, "public_transport": null, "addr:city": null, "addr:housenumber": null, "addr:postcode": null, "addr:street": null, "shop": null, "addr:housename": null, "check_date": null, "fhrs:id": null, "old_brand:wikidata": null, "old_brand:wikipedia": null, "source:addr": null, "layer": null, "construction": null, "power": null }, "geometry": { "type": "Polygon", "coordinates": [ [ [ 434540.687523193191737, 431304.494153969571926 ], [ 434560.292153000540566, 431292.210176791180857 ], [ 434555.979707816732116, 431285.357942713890225 ], [ 434593.150045961258002, 431262.065840951399878 ], [ 434603.989751151646487, 431279.280399881768972 ], [ 434547.214888827584218, 431314.856365759507753 ], [ 434540.687523193191737, 431304.494153969571926 ] ] ] } },
{ "type": "Feature", "properties": { "amenity": "charging_station", "brand": null, "brand:wikidata": null, "building": "roof", "name": null, "operator": "Swarco", "operator:type": null, "operator:wikidata": "Q118383410", "osm_type": "way", "osm_id": 1309123000, "brand:wikipedia": null, "bus": null, "internet_access": null, "internet_access:fee": null, "public_transport": null, "addr:city": null, "addr:housenumber": null, "addr:postcode": null, "addr:street": null, "shop": null, "addr:housename": null, "check_date": null, "fhrs:id": null, "old_brand:wikidata": null, "old_brand:wikipedia": null, "source:addr": null, "layer": null, "construction": null, "power": null }, "geometry": { "type": "Polygon", "coordinates": [ [ [ 434303.728915680083446, 431529.168770656455308 ], [ 434308.074309066054411, 431527.019738092087209 ], [ 434300.742005592444912, 431512.245916077750735 ], [ 434296.403273082803935, 431514.383877745131031 ], [ 434303.728915680083446, 431529.168770656455308 ] ] ] } }
]
}
