{
"type": "FeatureCollection",
"name": "se3430_rgb_250_05_osm_road_buffers",
"crs": { "type": "name", "properties": { "name": "urn:ogc:def:crs:EPSG::27700" } },
"features": [
{ "type": "Feature", "properties": { "destination": "Leeds;Skelton Lake Services", "destination:ref": "A63", "highway": "motorway_link", "lanes": "2", "lit": "yes", "maxspeed": "70 mph", "national_highways:area": "DBFO27", "oneway": "yes", "operator": "National Highways", "operator:wikidata": "Q5760006", "surface": "asphalt", "osm_type": "way", "osm_id": 32451683, "carriageway_ref": null, "maxheight:signed": null, "maxspeed:type": null, "ref": null, "bridge": null, "layer": null, "name": null, "source": null, "opening_hours": null, "website": null, "wikidata": null, "access": null, "bicycle": null, "foot": null, "motor_vehicle": null }, "geometry": { "type": "Polygon", "coordinates": [ [ [ 434544.17988940019859, 430866.175489042012487 ], [ 434544.700142484041862, 430867.134511673939414 ], [ 434596.552329847821966, 430950.263447968638502 ], [ 434596.877478075621184, 430950.748887781694066 ], [ 434616.077400662179571, 430977.493666450201999 ], [ 434616.309612587327138, 430977.802883553376887 ], [ 434633.188487389590591, 430999.301205651543569 ], [ 434633.327634656277951, 430999.474006847653072 ], [ 434655.596826549328398, 431026.441867972433101 ], [ 434655.673168149020057, 431026.533082765410654 ], [ 434679.084233681787737, 431054.132567075779662 ], [ 434679.415040221589152, 431054.501471023191698 ], [ 434717.875348064058926, 431095.085602330509573 ], [ 434718.215694342041388, 431095.426027474517468 ], [ 434735.02279582049232, 431111.360983185179066 ], [ 434747.407293174765073, 431098.298662362212781 ], [ 434730.774918497190811, 431082.529366615985055 ], [ 434692.65071290906053, 431042.299897525110282 ], [ 434669.438443324237596, 431014.934775279078167 ], [ 434647.27775950008072, 430988.098316791001707 ], [ 434630.586821553530172, 430966.839366517437156 ], [ 434611.670139489986468, 430940.489131371839903 ], [ 434560.261888610955793, 430858.071909850114025 ], [ 434525.245770120702218, 430782.993334120081272 ], [ 434508.932762924523558, 430790.601605685718823 ], [ 434544.17988940019859, 430866.175489042012487 ] ] ] } },
{ "type": "Feature", "properties": { "destination": null, "destination:ref": null, "highway": "motorway", "lanes": "3", "lit": "yes", "maxspeed": "70 mph", "national_highways:area": "DBFO27", "oneway": "yes", "operator": "National Highways", "operator:wikidata": "Q5760006", "surface": "asphalt", "osm_type": "way", "osm_id": 32451685, "carriageway_ref": "A", "maxheight:signed": "no", "maxspeed:type": "GB:motorway", "ref": "M1", "bridge": null, "layer": null, "name": null, "source": null, "opening_hours": null, "website": null, "wikidata": null, "access": null, "bicycle": null, "foot": null, "motor_vehicle": null }, "geometry": { "type": "Polygon", "coordinates": [ [ [ 434478.214316701341886, 430738.086055507301353 ], [ 434478.427316099754535, 430738.551905921776779 ], [ 434504.465659561625216, 430792.850943888537586 ], [ 434505.398625891946722, 430794.499996867729351 ], [ 434564.558834517840296, 430884.291404523770325 ], [ 434564.774342453689314, 430884.608935516094789 ], [ 434604.123014782031532, 430940.909181567141786 ], [ 434604.409118773241062, 430941.303732137370389 ], [ 434626.816078294010367, 430971.098595727642532 ], [ 434627.398146229679696, 430971.821403862908483 ], [ 434661.71942420740379, 431011.662473002681509 ], [ 434662.537228781671729, 431012.533673677884508 ], [ 434728.698613105574623, 431077.244322838902008 ], [ 434729.111067168065347, 431077.631736337032635 ], [ 434780.256323778128717, 431123.762210959743243 ], [ 434781.163272024365142, 431124.513523714442272 ], [ 434843.037117344210856, 431171.525283737049904 ], [ 434843.89003175398102, 431172.124588877370115 ], [ 434844.785174141055904, 431172.658770259004086 ], [ 434913.717854444636032, 431210.38786448322935 ], [ 434949.902803734701592, 431231.325631926592905 ], [ 434963.926093501679134, 431207.090381894668099 ], [ 434927.597140067198779, 431186.069289053732064 ], [ 434927.307192271808162, 431185.906083957059309 ], [ 434859.144883384054992, 431148.598639023199212 ], [ 434798.572068565583322, 431102.57540223520482 ], [ 434748.074613997770939, 431057.02921279653674 ], [ 434682.543049708881881, 430992.934573468693998 ], [ 434648.91508677310776, 430953.898323209432419 ], [ 434626.933662456343882, 430924.669300037901849 ], [ 434587.834537994058337, 430868.726108124305028 ], [ 434529.302311763749458, 430779.887831374886446 ], [ 434503.785291597770993, 430726.675934511295054 ], [ 434483.68981881783111, 430680.510034035774879 ], [ 434458.016606099030469, 430691.685281178099103 ], [ 434478.214316701341886, 430738.086055507301353 ] ] ] } },
{ "type": "Feature", "properties": { "destination": null, "destination:ref": null, "highway": "motorway", "lanes": "3", "lit": "yes", "maxspeed": "70 mph", "national_highways:area": "DBFO27", "oneway": "yes", "operator": "National Highways", "operator:wikidata": "Q5760006", "surface": "asphalt", "osm_type": "way", "osm_id": 91012609, "carriageway_ref": "A", "maxheight:signed": null, "maxspeed:type": "GB:motorway", "ref": "M1", "bridge": "yes", "layer": "1", "name": null, "source": null, "opening_hours": null, "website": null, "wikidata": null, "access": null, "bicycle": null, "foot": null, "motor_vehicle": null }, "geometry": { "type": "Polygon", "coordinates": [ [ [ 434457.731561672117095, 430690.978464983054437 ], [ 434483.974863244744483, 430681.216850230819546 ], [ 434468.5328151928843, 430639.702169083291665 ], [ 434442.289513620256912, 430649.463783835526556 ], [ 434457.731561672117095, 430690.978464983054437 ] ] ] } },
{ "type": "Feature", "properties": { "destination": null, "destination:ref": null, "highway": "motorway", "lanes": "3", "lit": "yes", "maxspeed": "70 mph", "national_highways:area": "DBFO27", "oneway": "yes", "operator": "National Highways", "operator:wikidata": "Q5760006", "surface": "asphalt", "osm_type": "way", "osm_id": 91015584, "carriageway_ref": "A", "maxheight:signed": null, "maxspeed:type": "GB:motorway", "ref": "M1", "bridge": null, "layer": null, "name": null, "source": null, "opening_hours": null, "website": null, "wikidata": null, "access": null, "bicycle": null, "foot": null, "motor_vehicle": null }, "geometry": { "type": "Polygon", "coordinates": [ [ [ 434093.041757983679418, 429974.180528783472255 ], [ 434093.124512220849283, 429974.256746415863745 ], [ 434116.046685285458807, 429995.198736525257118 ], [ 434128.810891081753653, 430007.64998768735677 ], [ 434148.362645493412856, 429987.60681180562824 ], [ 434135.434560548223089, 429974.995699507184327 ], [ 434135.101662974397186, 429974.681420978857204 ], [ 434112.052001731877681, 429953.622956041654106 ], [ 434090.968764984339941, 429934.047890115645714 ], [ 434071.917297245992813, 429954.567187789245509 ], [ 434093.041757983679418, 429974.180528783472255 ] ] ] } },
{ "type": "Feature", "properties": { "destination": null, "destination:ref": null, "highway": "motorway", "lanes": "3", "lit": "yes", "maxspeed": "70 mph", "national_highways:area": "DBFO27", "oneway": "yes", "operator": "National Highways", "operator:wikidata": "Q5760006", "surface": "asphalt", "osm_type": "way", "osm_id": 91015590, "carriageway_ref": "B", "maxheight:signed": null, "maxspeed:type": "GB:motorway", "ref": "M1", "bridge": null, "layer": null, "name": null, "source": null, "opening_hours": null, "website": null, "wikidata": null, "access": null, "bicycle": null, "foot": null, "motor_vehicle": null }, "geometry": { "type": "Polygon", "coordinates": [ [ [ 434470.128312416432891, 430576.102309518202674 ], [ 434405.245744797924999, 430358.802595604793169 ], [ 434404.613961522059981, 430357.09885024803225 ], [ 434369.410472125338856, 430278.277713748277165 ], [ 434369.328885129420087, 430278.098436973872595 ], [ 434344.246772996673826, 430223.996522268163972 ], [ 434343.660564261372201, 430222.869169837329537 ], [ 434314.6787504159729, 430172.822312716976739 ], [ 434290.448350785358343, 430186.853981674765237 ], [ 434319.111453953781165, 430236.3504775306792 ], [ 434343.884643945901189, 430289.786049656628165 ], [ 434378.676678126095794, 430367.685931805230211 ], [ 434443.364172185305506, 430584.332320331246592 ], [ 434443.502126629406121, 430584.768249209271744 ], [ 434467.889171332470141, 430657.669434982235543 ], [ 434494.442820089054294, 430648.786657392396592 ], [ 434470.128312416432891, 430576.102309518202674 ] ] ] } },
{ "type": "Feature", "properties": { "destination": null, "destination:ref": null, "highway": "motorway", "lanes": "3", "lit": "yes", "maxspeed": "70 mph", "national_highways:area": "DBFO27", "oneway": "yes", "operator": "National Highways", "operator:wikidata": "Q5760006", "surface": "asphalt", "osm_type": "way", "osm_id": 91015594, "carriageway_ref": "A", "maxheight:signed": null, "maxspeed:type": "GB:motorway", "ref": "M1", "bridge": null, "layer": null, "name": null, "source": null, "opening_hours": null, "website": null, "wikidata": null, "access": null, "bicycle": null, "foot": null, "motor_vehicle": null }, "geometry": { "type": "Polygon", "coordinates": [ [ [ 434292.628466090711299, 430229.067692593671381 ], [ 434319.210332553135231, 430280.615297165699303 ], [ 434347.175141507992521, 430346.724226507241838 ], [ 434426.205815845634788, 430606.901027124549728 ], [ 434426.508693926502019, 430607.789795650460292 ], [ 434442.318407711049076, 430649.540770536579657 ], [ 434468.503921102092136, 430639.625182382238563 ], [ 434452.860556842235383, 430598.313510504493024 ], [ 434373.752010796393733, 430337.880348517850507 ], [ 434373.250222209258936, 430336.495134392753243 ], [ 434344.790869168122299, 430269.217100691865198 ], [ 434344.340008438623045, 430268.254790450329892 ], [ 434317.294264191819821, 430215.807633221498691 ], [ 434316.82517010968877, 430214.969810301088728 ], [ 434287.351605350209866, 430166.321461118292063 ], [ 434263.403822594962548, 430180.830206794897094 ], [ 434292.628466090711299, 430229.067692593671381 ] ] ] } },
{ "type": "Feature", "properties": { "destination": null, "destination:ref": null, "highway": "motorway", "lanes": "3", "lit": "yes", "maxspeed": "70 mph", "national_highways:area": "DBFO27", "oneway": "yes", "operator": "National Highways", "operator:wikidata": "Q5760006", "surface": "asphalt", "osm_type": "way", "osm_id": 91015654, "carriageway_ref": "B", "maxheight:signed": null, "maxspeed:type": "GB:motorway", "ref": "M1", "bridge": null, "layer": null, "name": null, "source": null, "opening_hours": null, "website": null, "wikidata": null, "access": null, "bicycle": null, "foot": null, "motor_vehicle": null }, "geometry": { "type": "Polygon", "coordinates": [ [ [ 434121.660937055188697, 429933.893184690328781 ], [ 434101.907983989862259, 429953.738104574324097 ], [ 434159.87653213867452, 430011.438010522222612 ], [ 434179.629485204000957, 429991.593090638227295 ], [ 434121.660937055188697, 429933.893184690328781 ] ] ] } },
{ "type": "Feature", "properties": { "destination": null, "destination:ref": null, "highway": "motorway", "lanes": "3", "lit": "yes", "maxspeed": "70 mph", "national_highways:area": "DBFO27", "oneway": "yes", "operator": "National Highways", "operator:wikidata": "Q5760006", "surface": "asphalt", "osm_type": "way", "osm_id": 91015670, "carriageway_ref": "B", "maxheight:signed": null, "maxspeed:type": "GB:motorway", "ref": "M1", "bridge": "yes", "layer": "1", "name": null, "source": null, "opening_hours": null, "website": null, "wikidata": null, "access": null, "bicycle": null, "foot": null, "motor_vehicle": null }, "geometry": { "type": "Polygon", "coordinates": [ [ [ 434281.928372798953205, 430121.468249567551538 ], [ 434281.495945868024137, 430120.829969446233008 ], [ 434254.752986635256093, 430083.606314896664117 ], [ 434254.428183652984444, 430083.172212288831361 ], [ 434226.259775871469174, 430047.006469755782746 ], [ 434225.916405190073419, 430046.582892893115059 ], [ 434196.384265681379475, 430011.569002127973363 ], [ 434180.499914690561127, 429992.543147835473064 ], [ 434159.00610265211435, 430010.487953324976843 ], [ 434174.912982953421306, 430029.540792628016789 ], [ 434174.958176806278061, 430029.59464916982688 ], [ 434204.337170371611137, 430064.426967064850032 ], [ 434232.171412912604865, 430100.163671004469506 ], [ 434258.5311700028833, 430136.853944634960499 ], [ 434290.761237839702517, 430187.368446890613995 ], [ 434314.365863361628726, 430172.307847501127981 ], [ 434281.928372798953205, 430121.468249567551538 ] ] ] } },
{ "type": "Feature", "properties": { "destination": null, "destination:ref": null, "highway": "motorway", "lanes": "3", "lit": "yes", "maxspeed": "70 mph", "national_highways:area": "DBFO27", "oneway": "yes", "operator": "National Highways", "operator:wikidata": "Q5760006", "surface": "asphalt", "osm_type": "way", "osm_id": 91015673, "carriageway_ref": "B", "maxheight:signed": null, "maxspeed:type": "GB:motorway", "ref": "M1", "bridge": "yes", "layer": "1", "name": null, "source": null, "opening_hours": null, "website": null, "wikidata": null, "access": null, "bicycle": null, "foot": null, "motor_vehicle": null }, "geometry": { "type": "Polygon", "coordinates": [ [ [ 434494.057252992584836, 430647.76769036607584 ], [ 434468.2747384289396, 430658.688402008556295 ], [ 434487.983787048375234, 430705.219145581184421 ], [ 434513.76630161202047, 430694.298433938703965 ], [ 434494.057252992584836, 430647.76769036607584 ] ] ] } },
{ "type": "Feature", "properties": { "destination": null, "destination:ref": null, "highway": "motorway", "lanes": "3", "lit": "yes", "maxspeed": "70 mph", "national_highways:area": "DBFO27", "oneway": "yes", "operator": "National Highways", "operator:wikidata": "Q5760006", "surface": "asphalt", "osm_type": "way", "osm_id": 91015678, "carriageway_ref": "A", "maxheight:signed": null, "maxspeed:type": "GB:motorway", "ref": "M1", "bridge": "yes", "layer": "1", "name": null, "source": null, "opening_hours": null, "website": null, "wikidata": null, "access": null, "bicycle": null, "foot": null, "motor_vehicle": null }, "geometry": { "type": "Polygon", "coordinates": [ [ [ 434161.059423218946904, 430038.788117151765618 ], [ 434198.392093842849135, 430082.344159095082432 ], [ 434231.53901274187956, 430133.127998159034178 ], [ 434231.619408169644885, 430133.249779264733661 ], [ 434263.734416387451347, 430181.349740397010464 ], [ 434287.021011557721067, 430165.801927516178694 ], [ 434254.946518392767757, 430117.762647435360122 ], [ 434221.340095972409472, 430066.274810725473799 ], [ 434220.24612557986984, 430064.816008719149977 ], [ 434181.888940447068308, 430020.06466528319288 ], [ 434180.983761096955277, 430019.104184669791721 ], [ 434148.311311557830777, 429987.556991792051122 ], [ 434128.862225017335732, 430007.699807700933889 ], [ 434161.059423218946904, 430038.788117151765618 ] ] ] } },
{ "type": "Feature", "properties": { "destination": null, "destination:ref": null, "highway": "motorway", "lanes": "3", "lit": "yes", "maxspeed": "70 mph", "national_highways:area": "DBFO27", "oneway": "yes", "operator": "National Highways", "operator:wikidata": "Q5760006", "surface": "asphalt", "osm_type": "way", "osm_id": 143907870, "carriageway_ref": "B", "maxheight:signed": "no", "maxspeed:type": "GB:motorway", "ref": "M1", "bridge": null, "layer": null, "name": null, "source": null, "opening_hours": null, "website": null, "wikidata": null, "access": null, "bicycle": null, "foot": null, "motor_vehicle": null }, "geometry": { "type": "Polygon", "coordinates": [ [ [ 435371.607810131972656, 431290.571141339896712 ], [ 435326.82018782896921, 431287.600514967401978 ], [ 435287.71038274327293, 431284.817846248159185 ], [ 435255.535794128838461, 431279.965604598168284 ], [ 435189.850246390909888, 431268.087358525197487 ], [ 435129.44479416141985, 431250.889849779661745 ], [ 435076.953394202399068, 431231.982363425486255 ], [ 434968.801143941993359, 431184.217212129908148 ], [ 434920.268694783444516, 431158.708894332754426 ], [ 434859.229764083283953, 431122.109003109391779 ], [ 434798.306344769196585, 431077.223240579769481 ], [ 434766.860371272545308, 431050.09791398618836 ], [ 434730.249553338333499, 431014.775697159115225 ], [ 434688.492016742413398, 430969.65242072113324 ], [ 434629.783116994309239, 430896.839924955740571 ], [ 434592.712530512653757, 430838.811262362229172 ], [ 434592.678168878774159, 430838.757742524612695 ], [ 434581.76370147644775, 430821.842590039595962 ], [ 434571.264507562620565, 430805.437741695961449 ], [ 434558.539917745511048, 430783.735089274821803 ], [ 434543.738139443506952, 430754.571807002881542 ], [ 434513.413073731062468, 430693.530000251252204 ], [ 434488.337014929333236, 430705.987579268636182 ], [ 434518.688834680768196, 430767.08323965058662 ], [ 434518.742804394860286, 430767.19071510923095 ], [ 434533.763935049530119, 430796.786177518428303 ], [ 434534.170792596472893, 430797.530956857837737 ], [ 434547.24827527947491, 430819.835492036654614 ], [ 434547.533707499969751, 430820.301245870126877 ], [ 434558.194161731924396, 430836.958061277575325 ], [ 434558.222242980380543, 430837.001759093138389 ], [ 434569.133549938618671, 430853.912013547727838 ], [ 434606.602300296130124, 430912.563944327703211 ], [ 434607.501774151634891, 430913.814518003433477 ], [ 434666.994220398599282, 430987.598791069642175 ], [ 434667.617505600966979, 430988.320099766191561 ], [ 434709.968297368555795, 431034.084448913286906 ], [ 434710.522991811973043, 431034.650807432190049 ], [ 434747.699955697520636, 431070.519243414571974 ], [ 434748.276162986410782, 431071.044976381817833 ], [ 434780.424803036497906, 431098.776423811563291 ], [ 434781.265026904176921, 431099.446713026321959 ], [ 434843.1562870683847, 431145.045539186510723 ], [ 434844.260906706855167, 431145.781237043091096 ], [ 434906.207236521528102, 431182.925218874006532 ], [ 434906.893347273115069, 431183.310826405591797 ], [ 434956.195941387384664, 431209.223927036102396 ], [ 434957.053366657637525, 431209.638003831147216 ], [ 435066.090764369932003, 431257.794078125152737 ], [ 435067.002351118659135, 431258.159034034295473 ], [ 435120.406401430664118, 431277.395258507633116 ], [ 435121.317341350833885, 431277.688613665406592 ], [ 435182.846702699258458, 431295.206100760377012 ], [ 435184.188902431284077, 431295.517724713601638 ], [ 435250.754515608306974, 431307.555117420910392 ], [ 435251.158070437784772, 431307.622021165967453 ], [ 435284.079609305365011, 431312.586910196521785 ], [ 435285.173747656168416, 431312.708147622644901 ], [ 435324.866525948920753, 431315.532294976292178 ], [ 435324.933574872091413, 431315.536903795553371 ], [ 435369.969930220220704, 431318.524027872248553 ], [ 435370.400673885305878, 431318.545939608651679 ], [ 435416.264466088148765, 431320.171185377927031 ], [ 435417.256061722408049, 431292.188749134831596 ], [ 435371.607810131972656, 431290.571141339896712 ] ] ] } },
{ "type": "Feature", "properties": { "destination": null, "destination:ref": null, "highway": "unclassified", "lanes": null, "lit": null, "maxspeed": null, "national_highways:area": null, "oneway": null, "operator": null, "operator:wikidata": null, "surface": null, "osm_type": "way", "osm_id": 263353469, "carriageway_ref": null, "maxheight:signed": null, "maxspeed:type": null, "ref": null, "bridge": null, "layer": null, "name": "Knowsthorpe Lane", "source": "survey", "opening_hours": null, "website": null, "wikidata": null, "access": null, "bicycle": null, "foot": null, "motor_vehicle": null }, "geometry": { "type": "Polygon", "coordinates": [ [ [ 434656.5483852258767, 430753.105897771660239 ], [ 434625.897045329504181, 430737.023553559731226 ], [ 434621.250882899679709, 430745.87867494096281 ], [ 434651.898904447094537, 430761.959277355112135 ], [ 434658.299391826498322, 430765.321606353274547 ], [ 434662.949978529359214, 430756.468807738157921 ], [ 434656.5483852258767, 430753.105897771660239 ] ] ] } },
{ "type": "Feature", "properties": { "destination": null, "destination:ref": null, "highway": "unclassified", "lanes": null, "lit": null, "maxspeed": null, "national_highways:area": null, "oneway": null, "operator": null, "operator:wikidata": null, "surface": null, "osm_type": "way", "osm_id": 366400787, "carriageway_ref": null, "maxheight:signed": null, "maxspeed:type": null, "ref": null, "bridge": null, "layer": null, "name": null, "source": null, "opening_hours": null, "website": null, "wikidata": null, "access": null, "bicycle": null, "foot": null, "motor_vehicle": null }, "geometry": { "type": "Polygon", "coordinates": [ [ [ 434197.503769428876694, 430601.613410524907522 ], [ 434197.104053309478331, 430601.663096008938737 ], [ 434196.709633539547212, 430601.744794653728604 ], [ 434116.815606660034973, 430621.680897575221024 ], [ 434116.289149318472482, 430621.843557990330737 ], [ 434115.783787171472795, 430622.063159546523821 ], [ 434050.033096528204624, 430655.054259300639387 ], [ 434049.679440074251033, 430655.249989834788721 ], [ 434049.342749452160206, 430655.473647507082205 ], [ 433951.364115947275423, 430726.429516704811249 ], [ 433950.857823659898713, 430726.849611051846296 ], [ 433929.939140620874241, 430746.670329554355703 ], [ 433907.202232005773112, 430768.213721991167404 ], [ 433906.882629718864337, 430768.545811731542926 ], [ 433860.362367883848492, 430821.572294178127777 ], [ 433804.067655603168532, 430885.733150091662537 ], [ 433799.760996679076925, 430890.642700841592159 ], [ 433807.278560923296027, 430897.237109672802035 ], [ 433811.584662220091559, 430892.32819456467405 ], [ 433867.879279551154468, 430828.167446868203115 ], [ 433914.247672989440616, 430775.314072806853801 ], [ 433936.817129224946257, 430753.929342762916349 ], [ 433957.496524707297795, 430734.335352266847622 ], [ 434054.879983506631106, 430663.810507028596476 ], [ 434119.773756859649438, 430631.24937452696031 ], [ 434198.738951386185363, 430611.545044844446238 ], [ 434219.89036632218631, 430609.777395264827646 ], [ 434219.057557279651519, 430599.812134149367921 ], [ 434197.503769428876694, 430601.613410524907522 ] ] ] } },
{ "type": "Feature", "properties": { "destination": null, "destination:ref": null, "highway": "unclassified", "lanes": "2", "lit": null, "maxspeed": null, "national_highways:area": null, "oneway": "no", "operator": null, "operator:wikidata": null, "surface": "asphalt", "osm_type": "way", "osm_id": 687345201, "carriageway_ref": null, "maxheight:signed": null, "maxspeed:type": null, "ref": null, "bridge": null, "layer": null, "name": "Knowsthorpe Lane", "source": "survey", "opening_hours": null, "website": null, "wikidata": null, "access": null, "bicycle": null, "foot": null, "motor_vehicle": null }, "geometry": { "type": "Polygon", "coordinates": [ [ [ 434677.150985729298554, 430776.332231315842364 ], [ 434681.171900082437787, 430779.560926254198421 ], [ 434688.685203623666894, 430770.204096133995336 ], [ 434684.209971084841527, 430766.610594910860527 ], [ 434683.740191269607749, 430766.269401146681048 ], [ 434683.239632979151793, 430765.975211314565968 ], [ 434676.890548086084891, 430762.646040764229838 ], [ 434671.317920756235253, 430773.273638077022042 ], [ 434677.150985729298554, 430776.332231315842364 ] ] ] } },
{ "type": "Feature", "properties": { "destination": null, "destination:ref": null, "highway": "unclassified", "lanes": null, "lit": null, "maxspeed": null, "national_highways:area": null, "oneway": null, "operator": null, "operator:wikidata": null, "surface": null, "osm_type": "way", "osm_id": 688892821, "carriageway_ref": null, "maxheight:signed": null, "maxspeed:type": null, "ref": null, "bridge": null, "layer": null, "name": "Knowsthorpe Lane", "source": "survey", "opening_hours": null, "website": null, "wikidata": null, "access": null, "bicycle": null, "foot": null, "motor_vehicle": null }, "geometry": { "type": "Polygon", "coordinates": [ [ [ 434594.079587350832298, 430720.333469047211111 ], [ 434565.306190581060946, 430705.244782117835712 ], [ 434536.534211361024063, 430690.157113501511049 ], [ 434536.471043810539413, 430690.124559433199465 ], [ 434511.812550216098316, 430677.63750947965309 ], [ 434511.438027711526956, 430677.466839169792365 ], [ 434511.050737171375658, 430677.327549907553475 ], [ 434280.054106309369672, 430604.838745823071804 ], [ 434279.597824928408954, 430604.718886655464303 ], [ 434279.132278140576091, 430604.642564266861882 ], [ 434246.63122140505584, 430600.878424366412219 ], [ 434246.25342114007799, 430600.849124214961194 ], [ 434219.671396099263802, 430599.798664257978089 ], [ 434219.276527502574027, 430609.790865156217478 ], [ 434245.669096869765781, 430610.833838264516089 ], [ 434277.511608809232712, 430614.521708191256039 ], [ 434507.662915447028354, 430686.745241990895011 ], [ 434531.921592812752351, 430699.029825187812094 ], [ 434560.662051868392155, 430714.100965021236334 ], [ 434589.432981832709629, 430729.188357979932334 ], [ 434605.406858386297245, 430737.572535322397016 ], [ 434610.054281409189571, 430728.718075471813791 ], [ 434594.079587350832298, 430720.333469047211111 ] ] ] } },
{ "type": "Feature", "properties": { "destination": null, "destination:ref": null, "highway": "services", "lanes": null, "lit": null, "maxspeed": null, "national_highways:area": null, "oneway": null, "operator": "Extra", "operator:wikidata": null, "surface": null, "osm_type": "way", "osm_id": 704817026, "carriageway_ref": null, "maxheight:signed": null, "maxspeed:type": null, "ref": null, "bridge": null, "layer": null, "name": "Skelton Lake Service Station", "source": null, "opening_hours": "24/7", "website": "https://extraservices.co.uk/locations/leeds-skelton-lake/", "wikidata": "Q99293244", "access": null, "bicycle": null, "foot": null, "motor_vehicle": null }, "geometry": { "type": "Polygon", "coordinates": [ [ [ 434955.61867953510955, 431058.461806099803653 ], [ 434956.027669691015035, 431058.558019030780997 ], [ 434956.443293588876259, 431058.619554802891798 ], [ 434956.862616427300964, 431058.645978899963666 ], [ 435011.425785912142601, 431059.786792097555008 ], [ 435011.945292416785378, 431059.770633285341319 ], [ 435012.460314584197477, 431059.70063126651803 ], [ 435012.965287123690359, 431059.577542477636598 ], [ 435049.454352231172379, 431048.645403588889167 ], [ 435049.893488670873921, 431048.491225698322523 ], [ 435050.316386863531079, 431048.296883851930033 ], [ 435050.71938262245385, 431048.064061918004882 ], [ 435051.098984204756562, 431047.794777174072806 ], [ 435051.451902565720957, 431047.491362828470301 ], [ 435051.775079856452066, 431047.156447804358322 ], [ 435052.065715918433852, 431046.79293396131834 ], [ 435052.321292545588221, 431046.403970952436794 ], [ 435065.28080614953069, 431024.525669498951174 ], [ 435090.554944481875282, 430993.506415840005502 ], [ 435090.862607278511859, 430993.085827612550929 ], [ 435091.124824549129698, 430992.635502222983632 ], [ 435098.321131986449473, 430978.647712787904311 ], [ 435098.519186059071217, 430978.21283181977924 ], [ 435098.674820968299173, 430977.761030262510758 ], [ 435098.786615164368413, 430977.296434815041721 ], [ 435098.853547533042729, 430976.823289033956826 ], [ 435098.875006722460967, 430976.345914573699702 ], [ 435098.838745077955537, 430963.761968731530942 ], [ 435103.661975480965339, 430960.563304267066997 ], [ 435104.04862109280657, 430960.279270528408233 ], [ 435104.406264577934053, 430959.959487584303133 ], [ 435104.73161318450002, 430959.606899612233974 ], [ 435106.241223969031125, 430957.804574194247834 ], [ 435106.579905091493856, 430957.350206940143835 ], [ 435106.864995161187835, 430956.860433363355696 ], [ 435116.965800037025474, 430936.997372547863051 ], [ 435117.153640742297284, 430936.582170581270475 ], [ 435117.3028977488284, 430936.151590565918013 ], [ 435117.305283541383687, 430936.141946073388681 ], [ 435126.070369941589888, 430937.426182149560191 ], [ 435126.402674876095261, 430937.463568720675539 ], [ 435131.086085821967572, 430937.832394421740901 ], [ 435140.837515639374033, 430938.595369813963771 ], [ 435141.061309619864915, 430938.607840698794462 ], [ 435153.146112662216183, 430939.009823992149904 ], [ 435153.63681042206008, 430939.002048539754469 ], [ 435154.124382286681794, 430938.946205671061762 ], [ 435154.604131091211457, 430938.842833364557009 ], [ 435155.071435036370531, 430938.692927487310953 ], [ 435155.521792214072775, 430938.497932201076765 ], [ 435155.950863977952395, 430938.259726049553137 ], [ 435156.354516740655527, 430937.980603860632982 ], [ 435156.728861796320416, 430937.663254639017396 ], [ 435157.070292783260811, 430937.310735660314094 ], [ 435157.375520427129231, 430936.926443018426653 ], [ 435157.641604228818323, 430936.514078907843214 ], [ 435157.865980792907067, 430936.077615957939997 ], [ 435158.046488522668369, 430935.621258960978594 ], [ 435158.181388444616459, 430935.149404364463408 ], [ 435158.269380961253773, 430934.666597916511819 ], [ 435163.642723918193951, 430893.9395643704338 ], [ 435163.683407792879734, 430893.436320969485678 ], [ 435163.673133030126337, 430892.93154029676225 ], [ 435163.61200439510867, 430892.430369279754814 ], [ 435163.500645177729893, 430891.937918040610384 ], [ 435163.34019083698513, 430891.459207791252993 ], [ 435163.132277423806954, 430890.999119635671377 ], [ 435162.879024898924399, 430890.562344800157007 ], [ 435162.583015517389867, 430890.153336799878161 ], [ 435162.24726749851834, 430889.776266029221006 ], [ 435161.875204251264222, 430889.434977238997817 ], [ 435161.470619467901997, 430889.132950333936606 ], [ 435138.82584920845693, 430873.946266552782618 ], [ 435065.452373973559588, 430812.367369711399078 ], [ 435046.632444156799465, 430792.763457946304698 ], [ 435033.198156104132067, 430759.908471173490398 ], [ 435024.308473579294514, 430729.754514581058174 ], [ 435024.147340864525177, 430729.292588479176629 ], [ 435023.941836571670137, 430728.848620618926361 ], [ 435023.693928112334106, 430728.426861361542251 ], [ 435023.405988857732154, 430728.031348452728707 ], [ 435023.080775417154655, 430727.665868366544601 ], [ 435022.721401247079484, 430727.333920055418275 ], [ 435022.331306844600476, 430727.038681452802848 ], [ 435021.914226809225511, 430726.78297904873034 ], [ 435021.474154089635704, 430726.569260830408894 ], [ 435021.015301756793633, 430726.39957284607226 ], [ 435020.542062669817824, 430726.275539617054164 ], [ 435020.058967420423869, 430726.198348585283384 ], [ 435019.570640959194861, 430726.16873874515295 ], [ 435019.081758318119682, 430726.186993568844628 ], [ 434905.949585408554412, 430735.970555174222682 ], [ 434905.8202945717494, 430735.983430612192024 ], [ 434823.300554092274979, 430745.285474834556226 ], [ 434723.331933036039118, 430753.121264745946974 ], [ 434690.937536670127884, 430753.003504896420054 ], [ 434690.437975905428175, 430753.026698954578023 ], [ 434689.943230894743465, 430753.099680434272159 ], [ 434689.458251045900397, 430753.221719231980387 ], [ 434688.987888076284435, 430753.391594476706814 ], [ 434688.536847476789262, 430753.607606743986253 ], [ 434688.109641438233666, 430753.867595056304708 ], [ 434687.710543711262289, 430754.168958501773886 ], [ 434687.343546852353029, 430754.508682253595907 ], [ 434687.012322282302193, 430754.883367729897145 ], [ 434686.720183557423297, 430755.289266593405046 ], [ 434686.470053220924456, 430755.722318249347154 ], [ 434686.264433565898798, 430756.178190467646345 ], [ 434686.105381602421403, 430756.652322722249664 ], [ 434685.994488479627762, 430757.139971814642195 ], [ 434685.932863567431923, 430757.636259324208368 ], [ 434685.921123358828481, 430758.136220412154216 ], [ 434685.959385302383453, 430758.634853489289526 ], [ 434686.047266627196223, 430759.127170251857024 ], [ 434686.183888172381558, 430759.608245584182441 ], [ 434686.367883181781508, 430760.073266829364002 ], [ 434686.597410977352411, 430760.517581934924237 ], [ 434686.870175372867379, 430760.936745991697535 ], [ 434687.183447645104025, 430761.32656570058316 ], [ 434687.534093831724022, 430761.683141321933363 ], [ 434727.967522992519662, 430798.881578519416507 ], [ 434733.939206505659968, 430815.972818184061907 ], [ 434744.002116534276865, 430855.106538677006029 ], [ 434753.055518442590255, 430908.430304123205133 ], [ 434753.096733256650623, 430908.644604685658123 ], [ 434754.422046472667716, 430914.807325815258082 ], [ 434756.989758414682001, 430926.742229403927922 ], [ 434762.309614419704303, 430951.514730244816747 ], [ 434762.428632193244994, 430951.965448733186349 ], [ 434762.589109087770339, 430952.403123900934588 ], [ 434762.789650158665609, 430952.82395125873154 ], [ 434763.02851220354205, 430953.224272766616195 ], [ 434779.936132621078286, 430978.773351170821115 ], [ 434781.561093661002815, 430981.225030767149292 ], [ 434781.913410452078097, 430981.694269525643904 ], [ 434782.318274312361609, 430982.119001662882511 ], [ 434810.778638105723076, 431008.666144251765218 ], [ 434811.157803652458824, 431008.986156294180546 ], [ 434811.566818673687521, 431009.267013787466567 ], [ 434838.22361054137582, 431025.687030100554693 ], [ 434838.634727102995384, 431025.914349208062049 ], [ 434839.065363367088139, 431026.102080963319167 ], [ 434839.511717835091986, 431026.248568139504641 ], [ 434935.138200274435803, 431052.725872737995815 ], [ 434955.61867953510955, 431058.461806099803653 ] ], [ [ 434957.705292863945942, 431048.661412170331459 ], [ 434937.827992209757213, 431043.094410025805701 ], [ 434937.81375161872711, 431043.090444380417466 ], [ 434842.864048203919083, 431016.800528086139821 ], [ 434817.235474964545574, 431001.013872559065931 ], [ 434789.570597710669972, 430975.208740674774162 ], [ 434788.274449993041344, 430973.253163983754348 ], [ 434771.888581728097051, 430948.492504430003464 ], [ 434766.766260370030068, 430924.639847324986476 ], [ 434764.198485571483616, 430912.704651662381366 ], [ 434762.896163680241443, 430906.648840447363909 ], [ 434753.826063546701334, 430853.226723878295161 ], [ 434753.7390727174934, 430852.818455884291325 ], [ 434743.571527804830112, 430813.277820066025015 ], [ 434743.449235541687813, 430812.873789916979149 ], [ 434736.994733065366745, 430794.400699624209665 ], [ 434736.810338410665281, 430793.94595531350933 ], [ 434736.582256260327995, 430793.511475958919618 ], [ 434736.312683444994036, 430793.101446357555687 ], [ 434736.004216422792524, 430792.719815812364686 ], [ 434735.659826271294151, 430792.370260093768593 ], [ 434703.790023853944149, 430763.050292227475438 ], [ 434723.500338694662787, 430763.121943005709909 ], [ 434723.90922860824503, 430763.106686917424668 ], [ 434824.166801944666076, 430755.248248205462005 ], [ 434824.336166055349167, 430755.232069550605956 ], [ 434906.875889175396878, 430745.927772783557884 ], [ 435015.872152206313331, 430736.501880690280814 ], [ 435023.678091002104338, 430762.979759844369255 ], [ 435023.845968841691501, 430763.458266527624801 ], [ 435037.737194375135005, 430797.430742729688063 ], [ 435037.935739228792954, 430797.857720759755466 ], [ 435038.173570302780718, 430798.26412779383827 ], [ 435038.448578222945798, 430798.646359321777709 ], [ 435038.758323885675054, 430799.001025251171086 ], [ 435058.424965278070886, 430819.486920061928686 ], [ 435058.817603488860186, 430819.854177494591568 ], [ 435132.603279137751088, 430881.779014700499829 ], [ 435133.032623390725348, 430882.101685392728541 ], [ 435153.322596220474225, 430895.709127542213537 ], [ 435148.948203849198762, 430928.864655911980662 ], [ 435141.505797905905638, 430928.617095166409854 ], [ 435131.869909000641201, 430927.863160608452745 ], [ 435127.354537230101414, 430927.507568246801384 ], [ 435114.076059357146733, 430925.562042607576586 ], [ 435113.572097159572877, 430925.514104679401498 ], [ 435113.065870662045199, 430925.517371900088619 ], [ 435112.562569211411756, 430925.571810777357314 ], [ 435112.067352169833612, 430925.676863256085198 ], [ 435111.585296025848947, 430925.831452439422719 ], [ 435111.121342355152592, 430926.033993627876043 ], [ 435110.680247164331377, 430926.282410563959274 ], [ 435110.266532136709429, 430926.57415671646595 ], [ 435109.884438280714676, 430926.906241384509485 ], [ 435109.537882454751525, 430927.275260355614591 ], [ 435109.230417215730995, 430927.677430802490562 ], [ 435108.965194401389454, 430928.108630060742144 ], [ 435108.744932820729446, 430928.564437890425324 ], [ 435108.571890383551363, 430929.040181788441259 ], [ 435108.447840954351705, 430929.530984886107035 ], [ 435107.740214968740474, 430933.077924912213348 ], [ 435098.209436237637419, 430951.820039019163232 ], [ 435097.530961208743975, 430952.630070851533674 ], [ 435091.067574581247754, 430956.916452259465586 ], [ 435090.669989894260652, 430957.209386110480409 ], [ 435090.30324203328928, 430957.540112327842508 ], [ 435089.970908753166441, 430957.905404560558964 ], [ 435089.676232082361821, 430958.301699253963307 ], [ 435089.422086695733014, 430958.725130413484294 ], [ 435089.210951871238649, 430959.171567318611778 ], [ 435089.044887303723954, 430959.636654819827527 ], [ 435088.925513011578005, 430960.115855824376922 ], [ 435088.853993533179164, 430960.604495557316113 ], [ 435088.831026566214859, 430961.097807165526319 ], [ 435088.871537373168394, 430975.15634773572674 ], [ 435082.471985964395572, 430987.595446310122497 ], [ 435057.292752079607453, 431018.498222600319423 ], [ 435057.068540433247108, 431018.795333848451264 ], [ 435056.867052740417421, 431019.10830136394361 ], [ 435044.713046793884132, 431039.626741645857692 ], [ 435010.848615887458436, 431049.772539050260093 ], [ 434957.705292863945942, 431048.661412170331459 ] ] ] } },
{ "type": "Feature", "properties": { "destination": null, "destination:ref": null, "highway": "motorway_link", "lanes": "1", "lit": "yes", "maxspeed": "70 mph", "national_highways:area": "DBFO27", "oneway": "yes", "operator": "National Highways", "operator:wikidata": "Q5760006", "surface": "asphalt", "osm_type": "way", "osm_id": 747009827, "carriageway_ref": null, "maxheight:signed": null, "maxspeed:type": null, "ref": "M1", "bridge": null, "layer": null, "name": null, "source": "survey", "opening_hours": null, "website": null, "wikidata": null, "access": null, "bicycle": null, "foot": null, "motor_vehicle": null }, "geometry": { "type": "Polygon", "coordinates": [ [ [ 434819.233918318233918, 431056.581515921279788 ], [ 434779.061851864855271, 431029.697687824314926 ], [ 434744.992623373051174, 431003.456572916882578 ], [ 434712.986308230785653, 430976.663100276316982 ], [ 434672.909774006344378, 430937.525518479233142 ], [ 434587.678816724801436, 430840.411593679978978 ], [ 434574.150143690989353, 430852.284883280808572 ], [ 434659.609561694960576, 430949.659120977215935 ], [ 434660.085813149693422, 430950.161419121897779 ], [ 434700.656774003466126, 430989.781843635370024 ], [ 434701.167747612809762, 430990.243986348446924 ], [ 434733.57869344583014, 431017.376187808404211 ], [ 434733.863936567562632, 431017.605276217800565 ], [ 434768.315482490696013, 431044.140863177948631 ], [ 434768.801850875432137, 431044.4903261528234 ], [ 434809.436856772750616, 431071.683961176022422 ], [ 434809.872567187587265, 431071.957840989693068 ], [ 434833.082616975239944, 431085.637445292319171 ], [ 434842.22219603828853, 431070.130411580088548 ], [ 434819.233918318233918, 431056.581515921279788 ] ] ] } },
{ "type": "Feature", "properties": { "destination": null, "destination:ref": null, "highway": "unclassified", "lanes": "2", "lit": null, "maxspeed": null, "national_highways:area": null, "oneway": "no", "operator": null, "operator:wikidata": null, "surface": "asphalt", "osm_type": "way", "osm_id": 806898812, "carriageway_ref": null, "maxheight:signed": null, "maxspeed:type": null, "ref": null, "bridge": null, "layer": null, "name": "Knowsthorpe Lane", "source": "survey", "opening_hours": null, "website": null, "wikidata": null, "access": "private", "bicycle": "yes", "foot": "designated", "motor_vehicle": "no" }, "geometry": { "type": "Polygon", "coordinates": [ [ [ 434708.399275041767396, 430801.437400440045167 ], [ 434723.176277074089739, 430828.128226452274248 ], [ 434729.113426365598571, 430854.678731271997094 ], [ 434740.298006108670961, 430922.951785180601291 ], [ 434740.392359441902954, 430923.413338675512932 ], [ 434740.522633559245151, 430923.866066888149362 ], [ 434752.642468194593675, 430960.50605400808854 ], [ 434752.931470212584827, 430961.221689029480331 ], [ 434760.259778275911231, 430976.463502123719081 ], [ 434760.538999970245641, 430976.978285306831822 ], [ 434767.245855317974929, 430988.020846918574534 ], [ 434767.689571667579003, 430988.65520366030978 ], [ 434780.848395570588764, 431005.097371206677053 ], [ 434781.171216347545851, 431005.468475412577391 ], [ 434781.523349048744421, 431005.811890826385934 ], [ 434781.902427229157183, 431006.125309585884679 ], [ 434815.655121729825623, 431031.77706895355368 ], [ 434816.115066178666893, 431032.093968944973312 ], [ 434816.602486302203033, 431032.366725473373663 ], [ 434846.624313079344574, 431047.376433208060917 ], [ 434847.178111782472115, 431047.619243456108961 ], [ 434901.918409713020083, 431068.398266187694389 ], [ 434902.11276154970983, 431068.468237471359316 ], [ 434943.779411586758215, 431082.663892831711564 ], [ 434944.219541276223026, 431082.79526967916172 ], [ 434944.668431245372631, 431082.892592930351384 ], [ 434964.941213899932336, 431086.481560948304832 ], [ 434965.516834109206684, 431086.554968253185507 ], [ 434981.773268139164429, 431087.833185548603069 ], [ 434982.146586610993836, 431087.850863122846931 ], [ 434997.461626541800797, 431088.098489334224723 ], [ 434998.295461121830158, 431088.053857859107666 ], [ 435007.709133940981701, 431086.888987800339237 ], [ 435006.235465332167223, 431074.979819028638303 ], [ 434997.237153173657134, 431076.093291380442679 ], [ 434982.527521813171916, 431075.855453914729878 ], [ 434966.7470586601994, 431074.614661444793455 ], [ 434947.213592140353285, 431071.156577381363604 ], [ 434906.08045701822266, 431057.142688346211798 ], [ 434851.719757524260785, 431036.507758446445223 ], [ 434822.469922358111944, 431021.884015514689963 ], [ 434789.753929898026399, 430997.020140838110819 ], [ 434777.300945030408911, 430981.459930810611695 ], [ 434770.947630700655282, 430970.999459950893652 ], [ 434763.913919078127947, 430956.370364533097018 ], [ 434752.063814497378189, 430920.545809803530574 ], [ 434740.927619304799009, 430852.568105483311228 ], [ 434740.861933884385508, 430852.228737985424232 ], [ 434734.698771491413936, 430824.667518823582213 ], [ 434734.547774132282939, 430824.116794506786391 ], [ 434734.345104905893095, 430823.582919371256139 ], [ 434734.092599643627182, 430823.070729398576077 ], [ 434718.326262540475, 430794.592925880046096 ], [ 434718.019867786613759, 430794.097827629244421 ], [ 434717.666928133054171, 430793.634757846069988 ], [ 434717.270767094974872, 430793.208077104645781 ], [ 434716.835115189140197, 430792.821803315600846 ], [ 434688.686620132124517, 430770.205233908083756 ], [ 434681.170483573980164, 430779.559788480110001 ], [ 434708.399275041767396, 430801.437400440045167 ] ] ] } },
{ "type": "Feature", "properties": { "destination": null, "destination:ref": null, "highway": "unclassified", "lanes": null, "lit": null, "maxspeed": null, "national_highways:area": null, "oneway": null, "operator": null, "operator:wikidata": null, "surface": null, "osm_type": "way", "osm_id": 1180091205, "carriageway_ref": null, "maxheight:signed": null, "maxspeed:type": null, "ref": null, "bridge": "yes", "layer": "1", "name": "Knowsthorpe Lane", "source": "survey", "opening_hours": null, "website": null, "wikidata": null, "access": null, "bicycle": null, "foot": null, "motor_vehicle": null }, "geometry": { "type": "Polygon", "coordinates": [ [ [ 434662.94572969363071, 430756.466578323859721 ], [ 434658.303640662226826, 430765.323835767572746 ], [ 434671.78318990545813, 430772.388468142482452 ], [ 434676.425278936862014, 430763.531210698769428 ], [ 434662.94572969363071, 430756.466578323859721 ] ] ] } },
{ "type": "Feature", "properties": { "destination": null, "destination:ref": null, "highway": "unclassified", "lanes": null, "lit": null, "maxspeed": null, "national_highways:area": null, "oneway": null, "operator": null, "operator:wikidata": null, "surface": null, "osm_type": "way", "osm_id": 1180091206, "carriageway_ref": null, "maxheight:signed": null, "maxspeed:type": null, "ref": null, "bridge": "yes", "layer": "1", "name": "Knowsthorpe Lane", "source": "survey", "opening_hours": null, "website": null, "wikidata": null, "access": null, "bicycle": null, "foot": null, "motor_vehicle": null }, "geometry": { "type": "Polygon", "coordinates": [ [ [ 434610.052115495491307, 430728.716939328529406 ], [ 434605.409024299995508, 430737.5736714656814 ], [ 434621.252418516844045, 430745.879480318923015 ], [ 434625.895509712339845, 430737.022748181771021 ], [ 434610.052115495491307, 430728.716939328529406 ] ] ] } }
]
}
