{
"type": "FeatureCollection",
"name": "se3430_rgb_250_05_osm_buildings",
"crs": { "type": "name", "properties": { "name": "urn:ogc:def:crs:EPSG::27700" } },
"features": [
{ "type": "Feature", "properties": { "building": "roof", "layer": "1", "osm_type": "way", "osm_id": 754993506, "addr:city": null, "addr:housename": null, "addr:postcode": null, "addr:street": null, "addr:suburb": null, "building:levels": null, "name": null, "opening_hours": null, "operator": null, "operator_1": null, "operator_2": null, "shop": null }, "geometry": { "type": "Polygon", "coordinates": [ [ [ 434993.121180930174887, 430979.747532612178475 ], [ 435000.687087804661132, 430935.587475333595648 ], [ 435014.747484112158418, 430937.984329636441544 ], [ 435013.63120237988187, 430944.496095942799002 ], [ 435030.304867114056833, 430947.33528580609709 ], [ 435029.898264395829756, 430949.713309409795329 ], [ 435024.69561665027868, 430980.083045035367832 ], [ 435008.436854075815063, 430977.302598740439862 ], [ 435007.596152753802016, 430982.214214773382992 ], [ 434993.121180930174887, 430979.747532612178475 ] ] ] } },
{ "type": "Feature", "properties": { "building": "yes", "layer": null, "osm_type": "way", "osm_id": 754993512, "addr:city": "Leeds", "addr:housename": "Leeds Skelton Lake Services", "addr:postcode": "LS9 0AS", "addr:street": "Lakeside Way", "addr:suburb": "Skelton Gate", "building:levels": "2", "name": "Skelton Lake", "opening_hours": "24/7", "operator": "eXtra services;Welcome Break", "operator_1": "eXtra services", "operator_2": "Welcome Break", "shop": "mall" }, "geometry": { "type": "Polygon", "coordinates": [ [ [ 434814.577242650091648, 430845.960470599471591 ], [ 434850.051980916643515, 430845.74513411486987 ], [ 434851.555683663464151, 430838.512989350478165 ], [ 434839.625834942620713, 430837.623374933726154 ], [ 434841.352972748747561, 430828.701667999033816 ], [ 434884.549686657381244, 430836.866449511842802 ], [ 434883.837559832143597, 430840.454995805048384 ], [ 434887.806141488894355, 430841.241071253898554 ], [ 434886.388723715324886, 430848.384834551834501 ], [ 434940.540393330156803, 430859.090464029926807 ], [ 434996.949273090576753, 430870.236346872989088 ], [ 434998.846110714541283, 430860.692878816393204 ], [ 434983.853739544050768, 430857.732811515685171 ], [ 434985.291821831022389, 430850.489092034287751 ], [ 434977.19677547714673, 430848.882223542081192 ], [ 434982.599623378948309, 430819.926990704843774 ], [ 434984.574277801264543, 430820.286618780810386 ], [ 434986.105096191866323, 430812.097844180418178 ], [ 434989.363210427691229, 430812.70069030742161 ], [ 434990.550907127559185, 430806.334095181198791 ], [ 434963.933222331048455, 430801.384877891046926 ], [ 434960.141989937692415, 430800.677943328162655 ], [ 434961.487449068867136, 430793.47803363611456 ], [ 434922.43209774576826, 430785.877406126819551 ], [ 434917.046517646173015, 430813.442028134479187 ], [ 434914.333357727737166, 430827.307638401049189 ], [ 434904.730788584798574, 430825.44490792171564 ], [ 434877.259222722321283, 430820.10041225142777 ], [ 434844.114291837438941, 430813.645847717300057 ], [ 434846.772625689103734, 430800.035700304084457 ], [ 434829.737570792553015, 430796.960837042541243 ], [ 434822.106291360512841, 430838.572709509986453 ], [ 434814.771144820319023, 430839.363938234630041 ], [ 434814.577242650091648, 430845.960470599471591 ] ] ] } },
{ "type": "Feature", "properties": { "building": "ruins", "layer": null, "osm_type": "way", "osm_id": 889840813, "addr:city": null, "addr:housename": null, "addr:postcode": null, "addr:street": null, "addr:suburb": null, "building:levels": null, "name": null, "opening_hours": null, "operator": null, "operator_1": null, "operator_2": null, "shop": null }, "geometry": { "type": "Polygon", "coordinates": [ [ [ 434173.515627768472768, 430998.390608753543347 ], [ 434166.425370788027067, 431001.810464071924798 ], [ 434169.165678968653083, 431007.449236733256839 ], [ 434176.249339051835705, 431004.029337603598833 ], [ 434173.515627768472768, 430998.390608753543347 ] ] ] } }
]
}
