{
"type": "FeatureCollection",
"name": "se3432_rgb_250_04_osm_road_buffers",
"crs": { "type": "name", "properties": { "name": "urn:ogc:def:crs:EPSG::27700" } },
"features": [
{ "type": "Feature", "properties": { "highway": "residential", "name": "Levens Place", "osm_type": "way", "osm_id": 4325549, "lanes": null, "name:note": null, "not:name": null, "surface": null, "source": null, "source:name": null, "maxspeed": null, "source:ref": null, "maxspeed:type": null, "lit": null }, "geometry": { "type": "Polygon", "coordinates": [ [ [ 434041.491367870068643, 432868.385182189522311 ], [ 434048.133842110226396, 432860.910054366569966 ], [ 434016.522937593050301, 432832.820284674759023 ], [ 434009.880463352892548, 432840.295412497711368 ], [ 434041.491367870068643, 432868.385182189522311 ] ] ] } },
{ "type": "Feature", "properties": { "highway": "residential", "name": "Kendal Drive", "osm_type": "way", "osm_id": 4325553, "lanes": "2", "name:note": "\"The sign at the junction with Ullswater Crescent has two Ls\" was the original justification for allowing the typo in the street name. Yet there are at least four other signs which correctly give it with one L. Kendal Drive it is then.", "not:name": "Kendall Drive", "surface": "asphalt", "source": null, "source:name": null, "maxspeed": null, "source:ref": null, "maxspeed:type": null, "lit": null }, "geometry": { "type": "Polygon", "coordinates": [ [ [ 434219.530854159092996, 433183.116217082075309 ], [ 434217.924424314987846, 433183.903265365690459 ], [ 434206.762606483011041, 433188.676238080486655 ], [ 434187.698195365373977, 433194.976698805461638 ], [ 434170.226441936683841, 433198.186447240819689 ], [ 434152.883315944811329, 433198.907457299006637 ], [ 434138.152286120457575, 433197.272529430978466 ], [ 434132.741927069670055, 433196.182160475756973 ], [ 434125.948812801914755, 433194.814564895175863 ], [ 434116.152447599975858, 433191.072178252739832 ], [ 434108.54539727041265, 433186.753420505730901 ], [ 434101.32642787421355, 433180.976619334891438 ], [ 434101.318278951046523, 433180.97010997106554 ], [ 434101.106558767729439, 433180.801289004855789 ], [ 434093.447627312038094, 433172.547846792731434 ], [ 434086.851604518771637, 433162.054687597206794 ], [ 434082.473398956120946, 433150.458924429258332 ], [ 434077.337090095796157, 433130.60667444585124 ], [ 434073.404143449210096, 433106.417528619407676 ], [ 434070.544173406204209, 433084.680201815092005 ], [ 434069.99635994626442, 433080.505349233397283 ], [ 434068.996497750806157, 433064.638030031172093 ], [ 434068.713902107148897, 433043.177721994055901 ], [ 434068.556169477058575, 433031.374693006160669 ], [ 434069.957883824186865, 433017.302895068656653 ], [ 434070.82696349278558, 433008.608339093916584 ], [ 434072.340363267692737, 432999.382197855040431 ], [ 434074.576496961701196, 432985.758611466328148 ], [ 434077.940518823161256, 432972.117392001440749 ], [ 434081.819654237944633, 432957.592267493368126 ], [ 434081.834158564568497, 432957.536899091326632 ], [ 434085.526496935170144, 432943.162531905225478 ], [ 434099.979943880811334, 432903.031349234108347 ], [ 434108.024459806969389, 432885.898439472133759 ], [ 434116.534710231877398, 432874.038370879774448 ], [ 434116.872969665913843, 432873.510830056446139 ], [ 434117.154360028274823, 432872.950885211932473 ], [ 434117.375811672536656, 432872.364644703106023 ], [ 434122.703656805329956, 432855.670796151040122 ], [ 434133.746432874933816, 432834.656305274111219 ], [ 434150.769202086317819, 432813.048966873669997 ], [ 434170.585205971088726, 432793.328156773524825 ], [ 434188.610826430784073, 432781.041989686433226 ], [ 434210.222164595092181, 432769.856391759007238 ], [ 434231.421600475499872, 432764.018517664284445 ], [ 434256.452912462467793, 432759.286394689872395 ], [ 434275.871141078998335, 432758.274722543370444 ], [ 434296.471356020483654, 432758.715873605804518 ], [ 434308.057085811451543, 432760.796280670096166 ], [ 434319.677604643395171, 432764.080578722700011 ], [ 434337.702424612885807, 432770.699464365898166 ], [ 434345.385217397124507, 432773.519695926981512 ], [ 434365.037347659701481, 432785.420413419022225 ], [ 434374.912761649291497, 432794.649025500344578 ], [ 434380.620506311708596, 432799.989703415718395 ], [ 434382.787026531179436, 432807.347021035966463 ], [ 434382.601981403247919, 432815.4038121883641 ], [ 434381.683444463647902, 432823.390797086933162 ], [ 434393.604867236455902, 432824.761810971249361 ], [ 434394.554800942365546, 432816.501820723235141 ], [ 434394.592507650319021, 432815.954083027201705 ], [ 434394.805343097599689, 432806.68731243966613 ], [ 434394.787663257739041, 432806.069158003141638 ], [ 434394.706450121128, 432805.456106691679452 ], [ 434394.562566413718741, 432804.854670940432698 ], [ 434391.669798675575294, 432795.031078776344657 ], [ 434391.45714865118498, 432794.429160552739631 ], [ 434391.181751105003059, 432793.853242353419773 ], [ 434390.84672358003445, 432793.309843661554623 ], [ 434390.455858639674261, 432792.805115834751632 ], [ 434390.013580935716163, 432792.344772470125463 ], [ 434383.110223057505209, 432785.885371578449849 ], [ 434372.775191267835908, 432776.227243264380377 ], [ 434372.300238180614542, 432775.827364862430841 ], [ 434371.786504437972326, 432775.478709139686543 ], [ 434351.1051344575244, 432762.95471615792485 ], [ 434350.597009838325903, 432762.679542079684325 ], [ 434350.064770883938763, 432762.454524086322635 ], [ 434341.838559130497742, 432759.434812069346663 ], [ 434323.598572587303352, 432752.736915210087318 ], [ 434323.162201452825684, 432752.595358804042917 ], [ 434311.038304231013171, 432749.168791314994451 ], [ 434310.466889770526905, 432749.037070796708576 ], [ 434298.129885372822173, 432746.821760102873668 ], [ 434297.665715650073253, 432746.757007469830569 ], [ 434297.197907926281914, 432746.728681358974427 ], [ 434275.907621147751343, 432746.272752493270673 ], [ 434275.466990145680029, 432746.279503583209589 ], [ 434255.424132060434204, 432747.323718360043131 ], [ 434254.621756086591631, 432747.420018645992968 ], [ 434228.951020590844564, 432752.273023445450235 ], [ 434228.472592070756946, 432752.383924897934776 ], [ 434206.42981414712267, 432758.4540374680073 ], [ 434205.835400885553099, 432758.65164125506999 ], [ 434205.264828606974334, 432758.910140108375344 ], [ 434182.773057494836394, 432770.551432582840789 ], [ 434182.151754243008327, 432770.922122050600592 ], [ 434163.367450391524471, 432783.725403704622295 ], [ 434162.924584743450396, 432784.058208177099004 ], [ 434162.514301565592177, 432784.430439977324568 ], [ 434142.047758902888745, 432804.798663742607459 ], [ 434141.567095533653628, 432805.338434599572793 ], [ 434123.978747455985285, 432827.663673466420732 ], [ 434123.658462920458987, 432828.110972832364496 ], [ 434123.380494818324223, 432828.585728180594742 ], [ 434111.836307503981516, 432850.554408652707934 ], [ 434111.612846762116533, 432851.028942354721949 ], [ 434111.431683644943405, 432851.521178946713917 ], [ 434106.232201732869726, 432867.812824335356709 ], [ 434097.953036757127848, 432879.350847260386217 ], [ 434097.653157748340163, 432879.812019805714954 ], [ 434097.39677630958613, 432880.298718988255132 ], [ 434088.99868639401393, 432898.184657435922418 ], [ 434088.784753047104459, 432898.701668001536746 ], [ 434074.140516152372584, 432939.362594637961593 ], [ 434073.974221300100908, 432939.902929280302487 ], [ 434070.218597924627829, 432954.523666600056458 ], [ 434066.331991748826113, 432969.076764798606746 ], [ 434066.303351905022282, 432969.188286209362559 ], [ 434062.868700353312306, 432983.115911395056173 ], [ 434062.773401786398608, 432983.580697470461018 ], [ 434060.498765570111573, 432997.438859474845231 ], [ 434058.954635306203272, 433006.852342851576395 ], [ 434058.905258565151598, 433007.226799738185946 ], [ 434058.017284469213337, 433016.110381716454867 ], [ 434056.581732341146562, 433030.521873302699532 ], [ 434056.552720333449543, 433031.196774974523578 ], [ 434056.714950115012471, 433043.336314030515496 ], [ 434056.999504163744859, 433064.945343312749173 ], [ 434057.010860928392503, 433065.243675588339102 ], [ 434058.032861464249436, 433081.462319318612572 ], [ 434058.071980997163337, 433081.865597134688869 ], [ 434058.64630138076609, 433086.242457346292213 ], [ 434061.51856038934784, 433108.073189723712858 ], [ 434061.545062697783578, 433108.253421344154049 ], [ 434065.536950707552023, 433132.80507939303061 ], [ 434065.650449364911765, 433133.345050300180446 ], [ 434070.937053239904344, 433153.778202694782522 ], [ 434071.132566164771561, 433154.394707996456418 ], [ 434075.837989155086689, 433166.857112929283176 ], [ 434076.07783576392103, 433167.407352463924326 ], [ 434076.371459374669939, 433167.930874303507153 ], [ 434083.587349558714777, 433179.410137916158419 ], [ 434083.907421352982055, 433179.870142402884085 ], [ 434084.269014730060007, 433180.298278258531354 ], [ 434092.616246642777696, 433189.293449010699987 ], [ 434092.933545095205773, 433189.610711660061497 ], [ 434093.273665780958254, 433189.90337497467408 ], [ 434093.832872479979414, 433190.349273961386643 ], [ 434101.419868388504256, 433196.420579218771309 ], [ 434101.80256803688826, 433196.702698655193672 ], [ 434102.20640411239583, 433196.953630561009049 ], [ 434110.623750290484168, 433201.732418322470039 ], [ 434111.026962855481543, 433201.94156339566689 ], [ 434111.444841852178797, 433202.119606026157271 ], [ 434122.133409387199208, 433206.20282991026761 ], [ 434122.606158898270223, 433206.361252701492049 ], [ 434123.090429422853049, 433206.479877909761854 ], [ 434130.371791050594766, 433207.94576772977598 ], [ 434136.041504939610604, 433209.088405390502885 ], [ 434136.565025508636609, 433209.170047055929899 ], [ 434152.013958360883407, 433210.884651611908339 ], [ 434152.468896588834468, 433210.917698206903879 ], [ 434152.92503064579796, 433210.916088615718763 ], [ 434171.145622901211027, 433210.158599435992073 ], [ 434171.980520481651183, 433210.065021662390791 ], [ 434190.272784097527619, 433206.704536708188243 ], [ 434191.071407441690098, 433206.500245538074523 ], [ 434210.770081964379642, 433199.990171641809866 ], [ 434211.246399210940581, 433199.809995538671501 ], [ 434222.784581939922646, 433194.876083144452423 ], [ 434223.065334252663888, 433194.747383917099796 ], [ 434224.810737003223039, 433193.892247762763873 ], [ 434237.51833532564342, 433187.664851432957221 ], [ 434232.23769204155542, 433176.889193378563505 ], [ 434219.530854159092996, 433183.116217082075309 ] ] ] } },
{ "type": "Feature", "properties": { "highway": "residential", "name": "Westminster Crescent", "osm_type": "way", "osm_id": 4325554, "lanes": "2", "name:note": null, "not:name": null, "surface": "asphalt", "source": "npe", "source:name": "OS_OpenData_Locator", "maxspeed": null, "source:ref": null, "maxspeed:type": null, "lit": null }, "geometry": { "type": "Polygon", "coordinates": [ [ [ 434469.14621799136512, 433206.950498786929529 ], [ 434439.525259305315558, 433190.062549958878662 ], [ 434433.629370106442366, 433184.977772223937791 ], [ 434420.807016562845092, 433173.927652384678368 ], [ 434401.855831886234228, 433151.02170726848999 ], [ 434394.044924275483936, 433130.580197824398056 ], [ 434386.412330765102524, 433106.265597511199303 ], [ 434384.03210062062135, 433082.045283715764526 ], [ 434387.174060000863392, 433052.897196742647793 ], [ 434393.24310342699755, 433030.389013726206031 ], [ 434403.023220456845593, 433011.870974209799897 ], [ 434417.71475063735852, 432992.103847324789967 ], [ 434440.915474675712176, 432969.622225004422944 ], [ 434451.287996626284439, 432964.378966332005803 ], [ 434465.210929664259311, 432957.398937406542245 ], [ 434488.816690605250187, 432949.850669354491401 ], [ 434518.411127870262135, 432948.376748702954501 ], [ 434543.466272521414794, 432950.314705354801845 ], [ 434544.391680293949321, 432938.350441045884509 ], [ 434518.956288544402923, 432936.383073173172306 ], [ 434518.195130719162989, 432936.372632821090519 ], [ 434487.437165418232325, 432937.904501795303077 ], [ 434486.920122474199161, 432937.952752235054504 ], [ 434486.409188089135569, 432938.045529198949225 ], [ 434485.908189466805197, 432938.182137732161209 ], [ 434461.111626781115774, 432946.111181086860597 ], [ 434460.67402278049849, 432946.270073967694771 ], [ 434460.250055807060562, 432946.462417967792135 ], [ 434445.901090149476659, 432953.656031200487632 ], [ 434445.883295525680296, 432953.664989234879613 ], [ 434434.688145400898065, 432959.324082390870899 ], [ 434434.164348280522972, 432959.622810655506328 ], [ 434433.673180324956775, 432959.972604936163407 ], [ 434433.219602357712574, 432960.369932291156147 ], [ 434409.014323320938274, 432983.824973632290494 ], [ 434408.679406527255196, 432984.176897241151892 ], [ 434408.374059404071886, 432984.554763116291724 ], [ 434393.117230386647861, 433005.082487005158328 ], [ 434392.857381563051604, 433005.46162140253 ], [ 434392.62731778586749, 433005.859534660470672 ], [ 434382.319007360085379, 433025.377675315481611 ], [ 434382.040684789477382, 433025.984107595519163 ], [ 434381.831419332243968, 433026.617693842272274 ], [ 434375.465771054266952, 433050.22589144425001 ], [ 434375.361672046536114, 433050.68203080422245 ], [ 434375.293431257770862, 433051.144894622033462 ], [ 434372.034962391189765, 433081.37384491355624 ], [ 434372.000471799925435, 433081.98862151207868 ], [ 434372.029170485737268, 433082.603695696569048 ], [ 434374.530580150370952, 433108.057086054119281 ], [ 434374.622687324532308, 433108.668541358725633 ], [ 434374.777237581962254, 433109.26726962684188 ], [ 434382.650433942966629, 433134.348341014352627 ], [ 434382.770246411208063, 433134.692976944963448 ], [ 434390.99874027952319, 433156.227329097338952 ], [ 434391.264254176814575, 433156.822916402074043 ], [ 434391.592833803850226, 433157.386172379367054 ], [ 434391.980598070600536, 433157.910444008070044 ], [ 434411.88382552342955, 433181.967105554533191 ], [ 434412.221666096651461, 433182.342139567423146 ], [ 434412.58983384288149, 433182.687449970340822 ], [ 434425.79306171706412, 433194.065801275835838 ], [ 434432.129076554439962, 433199.530155521060806 ], [ 434432.586301399860531, 433199.887427425885107 ], [ 434433.075899246847257, 433200.198862365330569 ], [ 434463.620581770315766, 433217.613458594074473 ], [ 434464.046612617443316, 433217.834266033140011 ], [ 434464.488926039310172, 433218.020322596246842 ], [ 434492.68587999267038, 433228.575093769293744 ], [ 434496.89269111584872, 433217.336644580296706 ], [ 434469.14621799136512, 433206.950498786929529 ] ] ] } },
{ "type": "Feature", "properties": { "highway": "residential", "name": "Cotterdale View", "osm_type": "way", "osm_id": 4325555, "lanes": null, "name:note": null, "not:name": null, "surface": null, "source": "npe", "source:name": "OS_OpenData_Locator", "maxspeed": null, "source:ref": null, "maxspeed:type": null, "lit": null }, "geometry": { "type": "Polygon", "coordinates": [ [ [ 434446.759185279777739, 432890.311595044797286 ], [ 434456.363449827709701, 432893.096932096872479 ], [ 434471.010915084450971, 432842.59025062515866 ], [ 434461.40665053651901, 432839.804913573083468 ], [ 434446.759185279777739, 432890.311595044797286 ] ] ] } },
{ "type": "Feature", "properties": { "highway": "residential", "name": "Lombard Street", "osm_type": "way", "osm_id": 4325556, "lanes": "2", "name:note": null, "not:name": null, "surface": "asphalt", "source": null, "source:name": null, "maxspeed": null, "source:ref": null, "maxspeed:type": null, "lit": null }, "geometry": { "type": "Polygon", "coordinates": [ [ [ 434588.931857151561417, 433266.47625835321378 ], [ 434588.789121391542722, 433263.195652295544278 ], [ 434589.09338296338683, 433260.175531697750557 ], [ 434589.847086886817124, 433257.150499239447527 ], [ 434609.607678133819718, 433204.94262998434715 ], [ 434637.691623067250475, 433132.39266634156229 ], [ 434637.74532970355358, 433132.2484581687022 ], [ 434643.388918069598731, 433116.479409890831448 ], [ 434643.479232650424819, 433116.206639176234603 ], [ 434686.257963297714014, 432975.825507932400797 ], [ 434686.504985412291717, 432975.281294145737775 ], [ 434687.161248618096579, 432974.549921111378353 ], [ 434690.071238044649363, 432971.773858126311097 ], [ 434681.788112039794214, 432963.09112678252859 ], [ 434678.709540278592613, 432966.02801343757892 ], [ 434678.385354540194385, 432966.362249440513551 ], [ 434676.957156877964735, 432967.953905423404649 ], [ 434676.573260831413791, 432968.428196936380118 ], [ 434676.239522049378138, 432968.93902669189265 ], [ 434675.959392212331295, 432969.481111452972982 ], [ 434675.169134724535979, 432971.222125696542207 ], [ 434674.893220610101707, 432971.953057702863589 ], [ 434632.042268288030755, 433112.57118897564942 ], [ 434626.473032424459234, 433128.132485000067391 ], [ 434598.408742504951078, 433200.631673349358607 ], [ 434598.39265408430947, 433200.673702496394981 ], [ 434578.499011906736996, 433253.233094916970003 ], [ 434578.288496804656461, 433253.906449657399207 ], [ 434577.34490225056652, 433257.693618683260866 ], [ 434577.197130810760427, 433258.542780647112522 ], [ 434576.806215275486466, 433262.423034249513876 ], [ 434576.781667580420617, 433263.285265941813122 ], [ 434576.950672906066757, 433267.169645687507 ], [ 434576.975444578099996, 433267.51248240825953 ], [ 434577.435958351241425, 433272.066597943136003 ], [ 434589.375072929891758, 433270.859310455445666 ], [ 434588.931857151561417, 433266.47625835321378 ] ] ] } },
{ "type": "Feature", "properties": { "highway": "residential", "name": "Firbank Grove", "osm_type": "way", "osm_id": 4325560, "lanes": null, "name:note": null, "not:name": null, "surface": "asphalt", "source": "npe", "source:name": "OS_OpenData_Locator", "maxspeed": null, "source:ref": null, "maxspeed:type": null, "lit": null }, "geometry": { "type": "Polygon", "coordinates": [ [ [ 434284.499532156565692, 432905.948005972837564 ], [ 434284.891814857546706, 432906.2169564976939 ], [ 434285.307877732499037, 432906.447416443028487 ], [ 434300.235541970760096, 432913.810930907144211 ], [ 434300.869039956189226, 432914.07112474378664 ], [ 434317.384887348744087, 432919.565930292592384 ], [ 434317.962569825234823, 432919.720438549935352 ], [ 434334.513606405467726, 432923.10153539251769 ], [ 434334.894316550926305, 432923.16411496832734 ], [ 434350.592671605874784, 432925.125971192668658 ], [ 434350.867239095736295, 432925.152615548402537 ], [ 434376.644279290107079, 432926.937920113268774 ], [ 434389.047971659631003, 432930.094211819348857 ], [ 434397.553642734710593, 432933.624901892268099 ], [ 434409.587043083854951, 432940.958676889888011 ], [ 434418.175052289501764, 432948.620942182955332 ], [ 434433.487662879517302, 432967.798628294782247 ], [ 434441.302218898781575, 432961.559019795677159 ], [ 434425.726135659322608, 432942.051357567717787 ], [ 434425.449738143768627, 432941.733618095691781 ], [ 434425.147582587029319, 432941.440265103126876 ], [ 434415.905636943294667, 432933.194554409245029 ], [ 434415.55452491203323, 432932.908758282079361 ], [ 434415.179001328186132, 432932.655892462469637 ], [ 434402.428658538381569, 432924.885175753151998 ], [ 434402.092770883347839, 432924.697792637045495 ], [ 434401.743473392503802, 432924.536782662617043 ], [ 434392.548065268259961, 432920.719783875043504 ], [ 434391.864186275342945, 432920.492155279731378 ], [ 434378.672981469368096, 432917.135470102308318 ], [ 434378.23241201788187, 432917.044248456601053 ], [ 434377.785426121146884, 432916.992999668174889 ], [ 434351.695830153475981, 432915.186047650990076 ], [ 434336.325954392785206, 432913.26524217025144 ], [ 434320.257533992407843, 432909.982735650613904 ], [ 434304.351579507871065, 432904.690840849012602 ], [ 434290.159740599337965, 432897.690294118656311 ], [ 434278.163546900381334, 432888.597600530891214 ], [ 434272.122999883606099, 432896.567029101250228 ], [ 434284.499532156565692, 432905.948005972837564 ] ] ] } },
{ "type": "Feature", "properties": { "highway": "residential", "name": "Firbank Grove", "osm_type": "way", "osm_id": 4325561, "lanes": null, "name:note": null, "not:name": null, "surface": null, "source": "npe", "source:name": "OS_OpenData_Locator", "maxspeed": null, "source:ref": null, "maxspeed:type": null, "lit": null }, "geometry": { "type": "Polygon", "coordinates": [ [ [ 434341.245676674356218, 432979.66286312910961 ], [ 434351.211251032364089, 432980.491915428719949 ], [ 434356.195496109954547, 432920.579090917308349 ], [ 434346.229921751946677, 432919.75003861769801 ], [ 434341.245676674356218, 432979.66286312910961 ] ] ] } },
{ "type": "Feature", "properties": { "highway": "residential", "name": "Esthwaite Gardens", "osm_type": "way", "osm_id": 4325563, "lanes": null, "name:note": null, "not:name": null, "surface": null, "source": "npe", "source:name": "OS_OpenData_Locator", "maxspeed": null, "source:ref": null, "maxspeed:type": null, "lit": null }, "geometry": { "type": "Polygon", "coordinates": [ [ [ 434150.993579766247422, 432892.913116683368571 ], [ 434154.946965353912674, 432883.727761905523948 ], [ 434113.636551294301171, 432865.94771970633883 ], [ 434109.683165706635918, 432875.133074484183453 ], [ 434150.993579766247422, 432892.913116683368571 ] ] ] } },
{ "type": "Feature", "properties": { "highway": "residential", "name": "Esthwaite Gardens", "osm_type": "way", "osm_id": 4325564, "lanes": null, "name:note": null, "not:name": null, "surface": null, "source": "npe", "source:name": "OS_OpenData_Locator", "maxspeed": null, "source:ref": null, "maxspeed:type": null, "lit": null }, "geometry": { "type": "Polygon", "coordinates": [ [ [ 434178.422589441353921, 432908.781199459859636 ], [ 434181.173272188287228, 432905.596812487172429 ], [ 434181.478768866450991, 432905.205438533914275 ], [ 434181.743944753950927, 432904.785696303122677 ], [ 434181.966185197525192, 432904.341724483238067 ], [ 434183.654344965936616, 432900.504268129297998 ], [ 434183.833386252750643, 432900.034518155094702 ], [ 434183.96435238129925, 432899.549163960909937 ], [ 434184.045919436786789, 432899.053111911111046 ], [ 434184.517684877151623, 432894.884131390659604 ], [ 434184.5489759236807, 432894.386581799772102 ], [ 434184.530564182612579, 432893.888389334199019 ], [ 434184.46263269224437, 432893.394506719021592 ], [ 434183.682387959386688, 432889.260914958955254 ], [ 434183.564502557041124, 432888.772488836199045 ], [ 434183.398192326945718, 432888.298360211425461 ], [ 434183.185136716638226, 432887.843316969054285 ], [ 434181.215921424794942, 432884.13499911344843 ], [ 434180.960667317907792, 432883.707227483158931 ], [ 434180.664114900340792, 432883.306977698171977 ], [ 434180.329207670933101, 432882.93822252942482 ], [ 434177.359717662329786, 432879.979220768029336 ], [ 434176.990833686257247, 432879.646479763614479 ], [ 434176.590751359879505, 432879.351986816327553 ], [ 434176.163420167402364, 432879.098649065941572 ], [ 434172.44221096241381, 432877.135556474910118 ], [ 434171.988796665915288, 432876.924635237024631 ], [ 434171.516581316420343, 432876.760060158325359 ], [ 434171.030288432841189, 432876.643477465491742 ], [ 434166.89196453941986, 432875.867880921578035 ], [ 434166.411924295243807, 432875.80180204968201 ], [ 434165.927741964871529, 432875.782501160341781 ], [ 434165.443965086713433, 432875.810159531305544 ], [ 434161.514374100312125, 432876.226615120423958 ], [ 434161.057270020712167, 432876.296562148199882 ], [ 434160.608582982211374, 432876.40844006248517 ], [ 434160.172150815371424, 432876.561291918973438 ], [ 434156.511557808087673, 432878.03672036237549 ], [ 434156.083335649513174, 432878.233253773243632 ], [ 434155.675514289177954, 432878.469222704996355 ], [ 434155.291715174214914, 432878.742531757219695 ], [ 434152.190715625998564, 432881.17890901514329 ], [ 434151.836327413329855, 432881.485249038669281 ], [ 434151.512163329694886, 432881.823410039069131 ], [ 434151.221068695769645, 432882.19042383908527 ], [ 434148.911613812844735, 432885.400287042662967 ], [ 434148.6421818343224, 432885.81691564375069 ], [ 434148.415368215879425, 432886.258196240116376 ], [ 434148.233406372833997, 432886.719783577427734 ], [ 434146.819443656830117, 432890.904163833765779 ], [ 434146.676463403447997, 432891.415278952335939 ], [ 434146.588465749577153, 432891.938670230621938 ], [ 434146.556442189554218, 432892.468440472264774 ], [ 434146.524142423004378, 432896.907655660412274 ], [ 434146.548092640936375, 432897.434183353558183 ], [ 434146.627336253528483, 432897.955264416814316 ], [ 434146.760992689814884, 432898.465108492586296 ], [ 434148.107245192572009, 432902.68069900124101 ], [ 434148.29316966800252, 432903.172141203365754 ], [ 434148.529640508990269, 432903.641358519729692 ], [ 434148.814046289015096, 432904.083169226767495 ], [ 434151.409925112791825, 432907.684772640350275 ], [ 434151.731786342919804, 432908.086073360871524 ], [ 434152.093177501868922, 432908.452179014973808 ], [ 434152.490273091883864, 432908.779214199807029 ], [ 434155.858429622079711, 432911.273795176355634 ], [ 434156.276510173105635, 432911.55205471557565 ], [ 434156.720395704440307, 432911.786970345827285 ], [ 434157.185607948806137, 432911.97617205302231 ], [ 434161.154760604084004, 432913.362485572579317 ], [ 434161.62517810089048, 432913.501307650818489 ], [ 434162.106933604402002, 432913.593371897703037 ], [ 434162.595391389739234, 432913.637792418710887 ], [ 434166.803942437574733, 432913.813069787458517 ], [ 434167.307624239998404, 432913.808653602842242 ], [ 434167.80830588855315, 432913.753583215060644 ], [ 434168.300906168238726, 432913.648417511139996 ], [ 434172.360502606548835, 432912.565326257492416 ], [ 434172.830551614169963, 432912.414702679903712 ], [ 434173.283459019265138, 432912.218467071361374 ], [ 434173.714811084675603, 432911.978531814762391 ], [ 434177.281999169907067, 432909.756961701903492 ], [ 434177.694281004369259, 432909.470510156126693 ], [ 434178.075759686529636, 432909.144159402931109 ], [ 434178.422589441353921, 432908.781199459859636 ] ], [ [ 434171.351206945779268, 432901.669814409979153 ], [ 434169.061755299451761, 432903.095636999292765 ], [ 434166.45903768989956, 432903.790036238613538 ], [ 434163.752235547697637, 432903.677303577947896 ], [ 434161.199915504374076, 432902.785849887528457 ], [ 434159.067350650846492, 432901.206393687345553 ], [ 434157.391392664867453, 432898.881117195996922 ], [ 434156.529681211104617, 432896.182795285247266 ], [ 434156.550332936807536, 432893.344463491579518 ], [ 434157.467009853629861, 432890.631715305964462 ], [ 434158.925135850266088, 432888.605096376384608 ], [ 434160.910054637177382, 432887.04559566831449 ], [ 434163.262750489986502, 432886.097324616857804 ], [ 434165.769630191323813, 432885.831647077808157 ], [ 434168.445013613672927, 432886.333062189165503 ], [ 434170.83318367524771, 432887.59292120160535 ], [ 434172.737169768253807, 432889.490182410285342 ], [ 434173.996832742122933, 432891.862310393131338 ], [ 434174.496350185538176, 432894.508661084342748 ], [ 434174.194813322275877, 432897.173335521365516 ], [ 434173.115001706290059, 432899.627919515245594 ], [ 434171.351206945779268, 432901.669814409979153 ] ] ] } },
{ "type": "Feature", "properties": { "highway": "tertiary", "name": "Temple Newsam Road", "osm_type": "way", "osm_id": 38422898, "lanes": "2", "name:note": null, "not:name": null, "surface": "asphalt", "source": null, "source:name": null, "maxspeed": "30 mph", "source:ref": null, "maxspeed:type": null, "lit": null }, "geometry": { "type": "Polygon", "coordinates": [ [ [ 434963.395060419396032, 432935.388943198253401 ], [ 434962.992115992878098, 432935.913120398181491 ], [ 434962.64042256004177, 432936.472975448297802 ], [ 434938.806247153319418, 432978.72065950644901 ], [ 434938.463810642075259, 432979.414727322699036 ], [ 434938.200088558893185, 432980.142356047115754 ], [ 434938.018304733501282, 432980.894650895323139 ], [ 434935.611438018502668, 432993.988732120371424 ], [ 434930.203569082252216, 433022.604160237533506 ], [ 434930.133138807141222, 433023.057958019373473 ], [ 434927.950280099874362, 433040.985241909336764 ], [ 434925.223275149357505, 433055.466942760569509 ], [ 434916.872504528961144, 433094.575859350268729 ], [ 434916.830239342933055, 433094.790111628186423 ], [ 434903.550366356153972, 433168.114856385916937 ], [ 434903.548260299605317, 433168.126541470061056 ], [ 434900.744145908742212, 433183.760621347464621 ], [ 434900.73666362313088, 433183.803090535046067 ], [ 434888.60769158648327, 433253.909767421719152 ], [ 434885.017254456644878, 433274.68023753457237 ], [ 434877.073827655636705, 433309.794510803651065 ], [ 434875.981354492832907, 433314.625800321344286 ], [ 434871.47184887091862, 433326.290605591377243 ], [ 434864.719009794527665, 433340.699788772501051 ], [ 434856.058413008286152, 433354.976422637701035 ], [ 434853.026748292089906, 433359.465843800979201 ], [ 434846.570018312893808, 433367.956415192631539 ], [ 434835.33484713564394, 433380.989730428555049 ], [ 434814.63279924809467, 433403.365305076877121 ], [ 434824.909128765692003, 433412.873041487007868 ], [ 434845.694684731308371, 433390.407208075688686 ], [ 434845.858479309536051, 433390.223813280346803 ], [ 434857.314016232790891, 433376.93486364511773 ], [ 434857.583960414514877, 433376.601593461295124 ], [ 434864.289677156426478, 433367.7836055769003 ], [ 434864.518932013947051, 433367.463871112035122 ], [ 434867.756082310283091, 433362.670157951244619 ], [ 434867.939804741297849, 433362.383281665621325 ], [ 434876.883239419257734, 433347.640401290729642 ], [ 434877.23681889573345, 433346.980317396577448 ], [ 434884.251827523694374, 433332.011717790621333 ], [ 434884.442455587675795, 433331.565294260857627 ], [ 434889.224763159698341, 433319.194828128674999 ], [ 434889.523294897400774, 433318.214635550277308 ], [ 434890.728865289594978, 433312.883191316097509 ], [ 434898.711850154970307, 433277.594049855135381 ], [ 434898.782066946674604, 433277.241914855549112 ], [ 434902.402843784191646, 433256.295930887106806 ], [ 434914.528056166484021, 433186.210985180397984 ], [ 434917.327315933187492, 433170.603971810196526 ], [ 434930.586669571290258, 433097.392524521797895 ], [ 434938.932353035488632, 433058.307432459900156 ], [ 434938.965770160546526, 433058.141083573689684 ], [ 434941.750565681431908, 433043.352487147785723 ], [ 434941.820147112943232, 433042.903189038333949 ], [ 434944.002728792955168, 433024.978180305333808 ], [ 434949.37118382594781, 432996.571308595186565 ], [ 434949.377593944373075, 432996.536919114587363 ], [ 434951.575690748635679, 432984.578609202231746 ], [ 434974.507902619778179, 432943.929716368613299 ], [ 435015.04934680700535, 432896.052003932185471 ], [ 435004.365189344098326, 432887.004972413182259 ], [ 434963.395060419396032, 432935.388943198253401 ] ] ] } },
{ "type": "Feature", "properties": { "highway": "tertiary", "name": "Halton Moor Road", "osm_type": "way", "osm_id": 39656201, "lanes": "2", "name:note": null, "not:name": null, "surface": "asphalt", "source": "survey", "source:name": null, "maxspeed": null, "source:ref": "GPS", "maxspeed:type": null, "lit": null }, "geometry": { "type": "Polygon", "coordinates": [ [ [ 434184.028615702292882, 432645.876884675526526 ], [ 434184.045650135842152, 432645.876438491686713 ], [ 434185.602096878108568, 432645.833774586091749 ], [ 434189.745970869553275, 432646.156073098478373 ], [ 434238.976083059213124, 432660.150281695416197 ], [ 434245.807536734151654, 432662.517627857218031 ], [ 434289.294088919356, 432677.562166963994969 ], [ 434327.079422216338571, 432692.553998855466489 ], [ 434357.754329257179052, 432706.419801448180806 ], [ 434368.811338385625277, 432711.412408473959658 ], [ 434382.058426390052773, 432718.118123753578402 ], [ 434401.373975516296923, 432729.848361291515175 ], [ 434439.962348112312611, 432753.274749117321335 ], [ 434462.525504164281301, 432766.975543224776629 ], [ 434468.943116697424557, 432771.709353012847714 ], [ 434514.258998271310702, 432807.131317154387943 ], [ 434540.036033749114722, 432829.068544242647476 ], [ 434550.115327191713732, 432837.642566955357324 ], [ 434553.880884046142455, 432841.794506895006634 ], [ 434555.827100313210394, 432844.18545247981092 ], [ 434556.997028245648835, 432847.509131369821262 ], [ 434570.202797824691515, 432842.860728437139187 ], [ 434568.628204952925444, 432838.387426327506546 ], [ 434568.40361787279835, 432837.827651661704294 ], [ 434568.131676874239929, 432837.289288284140639 ], [ 434567.814400908595417, 432836.776333125657402 ], [ 434567.454145503987093, 432836.292594480852131 ], [ 434564.620475063973572, 432832.811402826046105 ], [ 434564.376779983809683, 432832.52783853962319 ], [ 434560.181175383797381, 432827.901723735558335 ], [ 434559.531617716536857, 432827.272475383302663 ], [ 434549.108944281411823, 432818.406354267266579 ], [ 434523.221509417635389, 432796.375173147534952 ], [ 434522.995698931801599, 432796.190965171437711 ], [ 434477.487981270998716, 432760.619048943510279 ], [ 434477.332303881295957, 432760.500825307273772 ], [ 434470.582853666041046, 432755.522242800390813 ], [ 434470.060775262769312, 432755.172210598946549 ], [ 434447.228417869308032, 432741.307952118688263 ], [ 434408.640539213025477, 432717.881864212860819 ], [ 434389.094482295564376, 432706.011640432348941 ], [ 434388.622418931277934, 432705.749331450788304 ], [ 434374.995348097814713, 432698.851267734891735 ], [ 434374.7145837211865, 432698.716900319675915 ], [ 434363.519601234933361, 432693.661994385009166 ], [ 434332.696634599473327, 432679.729265261499677 ], [ 434332.394917571509723, 432679.601301227463409 ], [ 434294.311966274515726, 432664.491385449073277 ], [ 434294.019016286416445, 432664.382656960282475 ], [ 434250.389894941763487, 432649.288795840868261 ], [ 434243.372818627161905, 432646.857124710397329 ], [ 434242.994786650175229, 432646.737998976488598 ], [ 434192.900655248668045, 432632.498183279647492 ], [ 434192.221181871951558, 432632.341150467167608 ], [ 434191.529455352458172, 432632.252506256336346 ], [ 434186.320879540464375, 432631.847398321260698 ], [ 434185.586273519787937, 432631.82894973322982 ], [ 434183.670555868884549, 432631.881461646931712 ], [ 434173.675867809506599, 432632.131079934712034 ], [ 434174.025410147674847, 432646.126715688558761 ], [ 434184.028615702292882, 432645.876884675526526 ] ] ] } },
{ "type": "Feature", "properties": { "highway": "residential", "name": "Rathmell Road", "osm_type": "way", "osm_id": 82891920, "lanes": null, "name:note": null, "not:name": null, "surface": null, "source": null, "source:name": null, "maxspeed": null, "source:ref": null, "maxspeed:type": null, "lit": null }, "geometry": { "type": "Polygon", "coordinates": [ [ [ 434603.078960448794533, 432872.060075582878198 ], [ 434602.748149988125078, 432871.745785257779062 ], [ 434602.390064560808241, 432871.46296235191403 ], [ 434602.007686502358411, 432871.213962372450624 ], [ 434601.60420047090156, 432871.00085913046496 ], [ 434601.182966923573986, 432870.825427468749695 ], [ 434597.81225750525482, 432869.598923838464543 ], [ 434594.392878976650536, 432878.99614951829426 ], [ 434596.672200356028043, 432879.825528619054239 ], [ 434614.631686803884804, 432898.519775333523285 ], [ 434621.843052382930182, 432891.591845881950576 ], [ 434603.078960448794533, 432872.060075582878198 ] ] ] } },
{ "type": "Feature", "properties": { "highway": "residential", "name": "Temple Newsam View", "osm_type": "way", "osm_id": 82892415, "lanes": null, "name:note": null, "not:name": null, "surface": "asphalt", "source": null, "source:name": null, "maxspeed": "20 mph", "source:ref": null, "maxspeed:type": "GB:zone20", "lit": null }, "geometry": { "type": "Polygon", "coordinates": [ [ [ 434709.409922340651974, 432925.095607272931375 ], [ 434744.326893219084013, 432941.008461411169264 ], [ 434744.587432171218097, 432941.11840967432363 ], [ 434764.498653967224527, 432948.865231583535206 ], [ 434764.806308721541427, 432948.973515778605361 ], [ 434798.062668690166902, 432959.472802776668686 ], [ 434812.579981815244537, 432967.025998003140558 ], [ 434821.441979214258026, 432971.632783321489114 ], [ 434840.28320751467254, 432983.886852485826239 ], [ 434876.061209067120217, 433012.290667979919817 ], [ 434889.120703506167047, 433022.652161980804522 ], [ 434911.482398297463078, 433042.190205406222958 ], [ 434918.062018368334975, 433034.6596941537573 ], [ 434895.611067684541922, 433015.043665337667335 ], [ 434895.428960922930855, 433014.892011421674397 ], [ 434882.278358436771668, 433004.458231943484861 ], [ 434846.316048186970875, 432975.908095525752287 ], [ 434845.933261722442694, 432975.632604085432831 ], [ 434826.690151997725479, 432963.117156910535414 ], [ 434826.270264109130949, 432962.872253902023658 ], [ 434817.194735262717586, 432958.154467615822796 ], [ 434802.291471592150629, 432950.400466648454312 ], [ 434801.897469942923635, 432950.216774842643645 ], [ 434801.489001723180991, 432950.068000878032763 ], [ 434767.972506994206924, 432939.48658734804485 ], [ 434748.345170467160642, 432931.850216150749475 ], [ 434713.555931316339411, 432915.995573715830687 ], [ 434701.131002374517266, 432910.33958938968135 ], [ 434696.987941577623133, 432919.440965507237706 ], [ 434709.409922340651974, 432925.095607272931375 ] ] ] } },
{ "type": "Feature", "properties": { "highway": "residential", "name": "Levens Garth", "osm_type": "way", "osm_id": 82895500, "lanes": null, "name:note": null, "not:name": null, "surface": "asphalt", "source": null, "source:name": null, "maxspeed": null, "source:ref": null, "maxspeed:type": null, "lit": null }, "geometry": { "type": "Polygon", "coordinates": [ [ [ 434107.768369967059698, 432664.846365747740492 ], [ 434113.617544626351446, 432670.521304046327714 ], [ 434136.123892168165185, 432692.348778953659348 ], [ 434136.509616623108741, 432692.68627501395531 ], [ 434136.92786448134575, 432692.982510857284069 ], [ 434147.971892747504171, 432699.98349125077948 ], [ 434153.325922259886283, 432691.537523693405092 ], [ 434142.716489439539146, 432684.812040077173151 ], [ 434120.580560075235553, 432663.34381032694364 ], [ 434111.441221846849658, 432654.476716496341396 ], [ 434111.069695627840701, 432654.150331951852422 ], [ 434110.667744802311063, 432653.862244923133403 ], [ 434110.23930139146978, 432653.615273576637264 ], [ 434109.788556576240808, 432653.411833871039562 ], [ 434109.319919697532896, 432653.253915923531167 ], [ 434108.837975122442003, 432653.143064541800413 ], [ 434108.347437398682814, 432653.080364112276584 ], [ 434107.853105135145597, 432653.06642799207475 ], [ 434107.359814059978817, 432653.101392509124707 ], [ 434106.872389716329053, 432653.184915628517047 ], [ 434106.39560025674291, 432653.316180298337713 ], [ 434105.934109799913131, 432653.493902442394756 ], [ 434105.492432804137934, 432653.716343521547969 ], [ 434105.074889905867167, 432653.981327540648635 ], [ 434104.685565653373487, 432654.286262334790081 ], [ 434100.177007956779562, 432658.192263221601024 ], [ 434106.724957870901562, 432665.750328577356413 ], [ 434107.768369967059698, 432664.846365747740492 ] ] ] } },
{ "type": "Feature", "properties": { "highway": "residential", "name": "Levens Close", "osm_type": "way", "osm_id": 82895520, "lanes": null, "name:note": null, "not:name": null, "surface": "asphalt", "source": null, "source:name": null, "maxspeed": null, "source:ref": null, "maxspeed:type": null, "lit": null }, "geometry": { "type": "Polygon", "coordinates": [ [ [ 434042.386120989103802, 432731.602587217523251 ], [ 434059.605835864145774, 432751.40802394511411 ], [ 434080.581554364878684, 432775.966209490667097 ], [ 434088.185453991754912, 432769.471541642094962 ], [ 434067.195460961258505, 432744.896643603453413 ], [ 434067.166765533213038, 432744.863344762066845 ], [ 434046.800693398108706, 432721.439092038490344 ], [ 434046.471484825946391, 432721.095011238066945 ], [ 434046.111036019399762, 432720.783809472166467 ], [ 434045.722616535727866, 432720.508309588418342 ], [ 434045.309749648615252, 432720.271010589785874 ], [ 434044.87618038902292, 432720.074064966931473 ], [ 434044.425841574964579, 432719.919259173213504 ], [ 434043.962818137544673, 432719.807997420371976 ], [ 434043.491310067649465, 432719.741288940946106 ], [ 434043.015594318334479, 432719.719738833839074 ], [ 434042.53998600988416, 432719.743542575801257 ], [ 434042.068799287779257, 432719.812484247842804 ], [ 434041.606308190326672, 432719.92593849421246 ], [ 434041.156707879621536, 432720.082876194617711 ], [ 434040.724076587939635, 432720.281873799453024 ], [ 434040.312338625255506, 432720.521126242005266 ], [ 434039.925228782230988, 432720.798463312501553 ], [ 434027.089873726072256, 432730.952840890211519 ], [ 434033.294294187042397, 432738.79536387353437 ], [ 434042.386120989103802, 432731.602587217523251 ] ] ] } },
{ "type": "Feature", "properties": { "highway": "residential", "name": "Levens Bank", "osm_type": "way", "osm_id": 82895557, "lanes": null, "name:note": null, "not:name": null, "surface": null, "source": null, "source:name": null, "maxspeed": null, "source:ref": null, "maxspeed:type": null, "lit": null }, "geometry": { "type": "Polygon", "coordinates": [ [ [ 433981.3457442993531, 432786.483440499461722 ], [ 433996.852019081241451, 432801.612750076281372 ], [ 434012.971678892732598, 432817.339990167820361 ], [ 434019.482758559519425, 432823.68641936336644 ], [ 434026.462703058728948, 432816.525387678761035 ], [ 434019.954220852407161, 432810.181491076247767 ], [ 434003.835519091633614, 432794.455185713537503 ], [ 433984.706476504448801, 432775.791179607564118 ], [ 433984.335897751268931, 432775.463772933231667 ], [ 433983.934790827624965, 432775.174572347954381 ], [ 433983.507078940223437, 432774.926406508078799 ], [ 433983.056945517484564, 432774.721702711249236 ], [ 433982.588793291826732, 432774.562463154958095 ], [ 433982.107201236533001, 432774.450245353335049 ], [ 433981.616879779379815, 432774.386146903038025 ], [ 433981.122624729759991, 432774.370794747781474 ], [ 433980.629270371573512, 432774.404339046217501 ], [ 433980.141642178932671, 432774.486451703298371 ], [ 433979.664509618713055, 432774.616329579206649 ], [ 433979.20253950037295, 432774.792702344944701 ], [ 433978.76025033055339, 432775.013844907458406 ], [ 433978.341968117281795, 432775.277594282350037 ], [ 433977.951784057891928, 432775.581370750325732 ], [ 433977.59351452300325, 432775.922203088994138 ], [ 433965.431258663593326, 432788.696331174229272 ], [ 433972.673651660385076, 432795.59181837097276 ], [ 433981.3457442993531, 432786.483440499461722 ] ] ] } },
{ "type": "Feature", "properties": { "highway": "residential", "name": "Coniston Gardens", "osm_type": "way", "osm_id": 114506372, "lanes": null, "name:note": null, "not:name": null, "surface": null, "source": null, "source:name": null, "maxspeed": null, "source:ref": null, "maxspeed:type": null, "lit": null }, "geometry": { "type": "Polygon", "coordinates": [ [ [ 434249.571230818633921, 432820.352641265082639 ], [ 434249.971619864052627, 432820.066016735509038 ], [ 434250.341874338453636, 432819.741399063786957 ], [ 434250.678403291734867, 432819.381936586927623 ], [ 434250.977942864061333, 432818.991115587996319 ], [ 434251.237587940820958, 432818.572726483514998 ], [ 434251.454820328217465, 432818.130827062239405 ], [ 434251.62753317609895, 432817.669703130086418 ], [ 434251.75405141164083, 432817.193826943752356 ], [ 434251.833147984929383, 432816.707813836226705 ], [ 434251.864055769983679, 432816.216377454285976 ], [ 434251.846475004567765, 432815.724284043128137 ], [ 434251.780576197488699, 432815.236306220002007 ], [ 434251.666998474916909, 432814.75717668683501 ], [ 434234.868051507684868, 432756.777140736172441 ], [ 434225.263084010279272, 432759.560052767337766 ], [ 434241.025190433661919, 432813.961527982901316 ], [ 434207.777891959703993, 432835.367525727197062 ], [ 434213.191324144543614, 432843.775542852526996 ], [ 434249.571230818633921, 432820.352641265082639 ] ] ] } },
{ "type": "Feature", "properties": { "highway": "residential", "name": "Halton Moor Road", "osm_type": "way", "osm_id": 148309051, "lanes": null, "name:note": null, "not:name": null, "surface": "paving_stones", "source": null, "source:name": null, "maxspeed": null, "source:ref": null, "maxspeed:type": null, "lit": null }, "geometry": { "type": "Polygon", "coordinates": [ [ [ 434392.706431763945147, 432741.363338673661929 ], [ 434393.072280612424947, 432741.722042191191576 ], [ 434400.364468733198009, 432748.173191090580076 ], [ 434400.667380235216115, 432748.420734267740045 ], [ 434400.988717300468124, 432748.643838487972971 ], [ 434407.730057054432109, 432752.943556659447495 ], [ 434413.107510261237621, 432744.512483358324971 ], [ 434406.696748637885321, 432740.423612414102536 ], [ 434399.890356744581368, 432734.402230787090957 ], [ 434386.154666832298972, 432719.479485871910583 ], [ 434378.79701879399363, 432726.251857343188021 ], [ 434392.706431763945147, 432741.363338673661929 ] ] ] } },
{ "type": "Feature", "properties": { "highway": "tertiary", "name": "Ullswater Crescent", "osm_type": "way", "osm_id": 149851820, "lanes": "2", "name:note": null, "not:name": null, "surface": "asphalt", "source": "npe", "source:name": null, "maxspeed": null, "source:ref": null, "maxspeed:type": null, "lit": null }, "geometry": { "type": "Polygon", "coordinates": [ [ [ 434201.931771053641569, 433006.531623106449842 ], [ 434204.866797516238876, 433001.518208068795502 ], [ 434210.921829333296046, 432992.506281171808951 ], [ 434216.190221793367527, 432986.858263034606352 ], [ 434222.837819704145659, 432983.088512299349532 ], [ 434228.858976758026984, 432980.912531356094405 ], [ 434229.356731924461201, 432980.710737961053383 ], [ 434229.837549820833374, 432980.471374366257805 ], [ 434236.425522827368695, 432976.869945954123978 ], [ 434237.035420532047283, 432976.4947976853 ], [ 434237.60380324581638, 432976.059306555078365 ], [ 434238.124723696848378, 432975.568029324291274 ], [ 434238.592731234733947, 432975.026106471603271 ], [ 434242.19060697639361, 432970.401495328813326 ], [ 434242.569086145958863, 432969.864844400435686 ], [ 434242.895610569627024, 432969.29508787218947 ], [ 434243.16730656119762, 432968.697240074747242 ], [ 434243.381782970333006, 432968.07656256534392 ], [ 434250.698098570515867, 432943.17642144439742 ], [ 434255.371162585914135, 432932.193858150450978 ], [ 434255.399592390924226, 432932.126056746812537 ], [ 434259.780330879730172, 432921.522758608451113 ], [ 434266.456468221382238, 432910.285268822568469 ], [ 434279.92357304750476, 432897.695898217498325 ], [ 434280.420173327380326, 432897.18169815215515 ], [ 434280.861741620639805, 432896.619531817676034 ], [ 434281.243672878714278, 432896.01526196138002 ], [ 434290.619330281333532, 432879.354575622302946 ], [ 434307.527730748814065, 432864.360330545867328 ], [ 434321.899851451104041, 432854.036585051449947 ], [ 434330.396641878294758, 432849.084825430705678 ], [ 434334.674829122843221, 432846.594579696131404 ], [ 434349.799122591910418, 432840.734872219909448 ], [ 434361.725510932679754, 432836.71220590575831 ], [ 434369.904137011268176, 432834.222394980082754 ], [ 434371.342373738065362, 432833.785375537117943 ], [ 434388.115130187594332, 432831.090412083314732 ], [ 434406.934467980754562, 432831.565159772871993 ], [ 434418.106186027405784, 432833.217541627993342 ], [ 434428.84460697718896, 432835.702338867005892 ], [ 434463.924230399192311, 432847.814289760775864 ], [ 434464.106965796265285, 432847.874584812845569 ], [ 434515.389518928539474, 432864.017538069980219 ], [ 434544.836091369565111, 432873.289501825522166 ], [ 434548.256361194187775, 432877.739147994434461 ], [ 434550.758224668505136, 432884.744568427733611 ], [ 434563.942654586106073, 432880.03597970638657 ], [ 434561.070123163692188, 432871.992658986302558 ], [ 434560.789773441792931, 432871.320345141226426 ], [ 434560.441074995091185, 432870.680805254960433 ], [ 434560.027803742908873, 432870.080964655324351 ], [ 434554.591883226879872, 432863.009030527609866 ], [ 434554.129933233663905, 432862.467440812964924 ], [ 434553.615367942606099, 432861.975567072629929 ], [ 434553.053508559532929, 432861.538495855405927 ], [ 434552.450165366579313, 432861.160746988083702 ], [ 434551.811577636864968, 432860.846226834983099 ], [ 434551.144349113164935, 432860.598187901836354 ], [ 434519.593969071458559, 432850.663789567130152 ], [ 434468.402381929743569, 432834.549470970174298 ], [ 434433.065803178353235, 432822.34880104160402 ], [ 434432.359307018632535, 432822.145703833142761 ], [ 434420.987488414975815, 432819.514342704613227 ], [ 434420.43364273046609, 432819.409482043876778 ], [ 434408.561274440377019, 432817.653468702163082 ], [ 434407.713593831344042, 432817.580360503168777 ], [ 434387.82068580808118, 432817.078530299244449 ], [ 434387.175184853607789, 432817.092031253443565 ], [ 434386.533673538360745, 432817.164948949532118 ], [ 434368.651826004206669, 432820.038115667004604 ], [ 434367.72718101128703, 432820.251840056967922 ], [ 434365.83213157649152, 432820.827665602904744 ], [ 434357.548489565728232, 432823.349445423285943 ], [ 434357.349910961231217, 432823.413145784754306 ], [ 434345.177696516271681, 432827.518727090442553 ], [ 434344.88601524499245, 432827.62436318123946 ], [ 434329.101936965249479, 432833.739695556287188 ], [ 434328.596257144934498, 432833.958882820792496 ], [ 434328.109388870885596, 432834.217174170422368 ], [ 434323.352186503296252, 432836.986244860221632 ], [ 434314.562393957749009, 432842.108759150956757 ], [ 434314.003163230663631, 432842.471394679916557 ], [ 434299.068283894506749, 432853.199379536847118 ], [ 434298.507703934039455, 432853.647339144430589 ], [ 434280.451011678029317, 432869.659880926657934 ], [ 434279.899831051705405, 432870.20615682535572 ], [ 434279.412505032203626, 432870.810086283949204 ], [ 434278.995022930204868, 432871.464246917748824 ], [ 434269.573128015035763, 432888.207098022452556 ], [ 434256.167415804520715, 432900.739077347097918 ], [ 434255.706995558517519, 432901.212094520800747 ], [ 434255.293178366031498, 432901.726377887069248 ], [ 434254.929644092684612, 432902.277354185760487 ], [ 434247.485823394788895, 432914.807033366931137 ], [ 434247.0343049239018, 432915.709437513723969 ], [ 434242.474449586181436, 432926.746276561985724 ], [ 434237.655938569630962, 432938.070667164691258 ], [ 434237.381010596407577, 432938.838007893122267 ], [ 434230.324407749692909, 432962.854249990952667 ], [ 434228.435140752815641, 432965.282662152138073 ], [ 434223.594466869428288, 432967.928899536549579 ], [ 434217.521675685711671, 432970.123540495056659 ], [ 434216.974282000795938, 432970.347944873094093 ], [ 434216.447791891463567, 432970.617769512231462 ], [ 434208.350543444394134, 432975.209594814688899 ], [ 434207.751726806163788, 432975.590535337512847 ], [ 434207.194561092474032, 432976.030152688850649 ], [ 434206.684773705899715, 432976.523927808331791 ], [ 434200.303806385956705, 432983.36468984890962 ], [ 434199.94072635640623, 432983.786356193770189 ], [ 434199.612286071118433, 432984.235529426776338 ], [ 434193.125187490950339, 432993.890517202962656 ], [ 434192.89457038330147, 432994.257846410560887 ], [ 434189.853895705076866, 432999.451726644532755 ], [ 434185.612537474429701, 433006.684128558379598 ], [ 434197.68908911437029, 433013.766282220021822 ], [ 434201.931771053641569, 433006.531623106449842 ] ] ] } },
{ "type": "Feature", "properties": { "highway": "residential", "name": "Cotterdale View", "osm_type": "way", "osm_id": 190330410, "lanes": null, "name:note": null, "not:name": null, "surface": null, "source": "npe", "source:name": "OS_OpenData_Locator", "maxspeed": null, "source:ref": null, "maxspeed:type": null, "lit": null }, "geometry": { "type": "Polygon", "coordinates": [ [ [ 434450.128719506901689, 432896.494635459966958 ], [ 434462.627978367090691, 432900.225481312547345 ], [ 434465.48813870846061, 432890.643232994887512 ], [ 434452.992656778194942, 432886.913515221036505 ], [ 434413.709091547934804, 432875.165458885487169 ], [ 434410.843895454250742, 432884.746202663751319 ], [ 434450.128719506901689, 432896.494635459966958 ] ] ] } },
{ "type": "Feature", "properties": { "highway": "tertiary", "name": "Halton Moor Road", "osm_type": "way", "osm_id": 236099631, "lanes": "2", "name:note": null, "not:name": null, "surface": "asphalt", "source": "survey", "source:name": null, "maxspeed": null, "source:ref": "GPS", "maxspeed:type": null, "lit": null }, "geometry": { "type": "Polygon", "coordinates": [ [ [ 434556.364509634149726, 432847.98148587194737 ], [ 434555.567374055157416, 432849.884262598643545 ], [ 434543.898107542656362, 432862.527335885097273 ], [ 434554.185867835069075, 432872.022702553425916 ], [ 434566.691249154508114, 432858.473740214831196 ], [ 434567.08501261274796, 432858.007937695248984 ], [ 434567.436732738278806, 432857.509625943843275 ], [ 434567.743739174038637, 432856.982588282262441 ], [ 434568.003701041510794, 432856.430826127179898 ], [ 434569.713760364276823, 432852.348884276347235 ], [ 434569.965072218736168, 432851.645992517645936 ], [ 434570.140106598671991, 432850.920335960807279 ], [ 434570.236873061454389, 432850.180166571866721 ], [ 434570.579357765556779, 432845.720981445512734 ], [ 434556.620468304783572, 432844.648878361447714 ], [ 434556.364509634149726, 432847.98148587194737 ] ] ] } },
{ "type": "Feature", "properties": { "highway": "residential", "name": "Broadway", "osm_type": "way", "osm_id": 236099637, "lanes": null, "name:note": null, "not:name": null, "surface": "asphalt", "source": null, "source:name": null, "maxspeed": null, "source:ref": null, "maxspeed:type": null, "lit": null }, "geometry": { "type": "Polygon", "coordinates": [ [ [ 434806.24710675800452, 433052.031947133655194 ], [ 434805.900748115149327, 433051.666021009732503 ], [ 434791.319421986816451, 433037.738850471156184 ], [ 434791.034385479521006, 433037.486633366323076 ], [ 434790.730989727308042, 433037.256828457815573 ], [ 434694.765049527573865, 432970.159009181603324 ], [ 434689.958196425985079, 432964.453894094214775 ], [ 434671.065433160576504, 432935.183992412697989 ], [ 434666.857419884181581, 432928.665844024915714 ], [ 434658.456072155968286, 432934.089620969898533 ], [ 434662.663749637606088, 432940.607249185442924 ], [ 434681.728777437470853, 432970.144034324737731 ], [ 434682.105959821608849, 432970.654169333225582 ], [ 434687.539573617803399, 432977.10316858330043 ], [ 434687.833335705741774, 432977.422597588447388 ], [ 434688.153689785453025, 432977.715350585465785 ], [ 434688.498222552007064, 432977.979222195222974 ], [ 434784.688255107437726, 433045.233723189448938 ], [ 434798.811341358581558, 433058.723211663949769 ], [ 434812.40885224257363, 433074.622307006909978 ], [ 434820.008566620119382, 433068.122742299980018 ], [ 434806.24710675800452, 433052.031947133655194 ] ] ] } },
{ "type": "Feature", "properties": { "highway": "tertiary", "name": "Coronation Parade", "osm_type": "way", "osm_id": 236322823, "lanes": "2", "name:note": null, "not:name": null, "surface": "asphalt", "source": "npe", "source:name": "OS_OpenData_Locator", "maxspeed": null, "source:ref": null, "maxspeed:type": null, "lit": null }, "geometry": { "type": "Polygon", "coordinates": [ [ [ 433980.818223408306949, 432972.642067348468117 ], [ 434006.733191070205066, 432978.270335782668553 ], [ 434013.950436648388859, 432979.83614332875004 ], [ 434032.499946308205836, 432983.853806928149424 ], [ 434067.20831777760759, 432991.392999472562224 ], [ 434067.263466936943587, 432991.404746321728453 ], [ 434190.220103982719593, 433017.077436475898139 ], [ 434193.081522606080398, 433003.37297430250328 ], [ 434070.152483793965075, 432977.70604651235044 ], [ 434035.469624699151609, 432970.172395648434758 ], [ 434016.917549496109132, 432966.154175531177316 ], [ 434009.703727244632319, 432964.589110858738422 ], [ 433983.788284549314994, 432958.960739255766384 ], [ 433968.176857551035937, 432955.576053371478338 ], [ 433965.210461040202063, 432969.258176442875993 ], [ 433980.818223408306949, 432972.642067348468117 ] ] ] } },
{ "type": "Feature", "properties": { "highway": "residential", "name": "Rathmell Road", "osm_type": "way", "osm_id": 642939529, "lanes": null, "name:note": null, "not:name": null, "surface": null, "source": null, "source:name": null, "maxspeed": null, "source:ref": null, "maxspeed:type": null, "lit": null }, "geometry": { "type": "Polygon", "coordinates": [ [ [ 434576.530172120197676, 432880.784048947680276 ], [ 434591.6132348831743, 432878.903212103236001 ], [ 434595.641536396928132, 432879.276236271543894 ], [ 434596.563600084977224, 432869.318837085214909 ], [ 434591.994501875538845, 432868.895734679943416 ], [ 434591.4541716191452, 432868.875063136452809 ], [ 434590.914768786518835, 432868.912861057964619 ], [ 434574.739034294500016, 432870.929952539794613 ], [ 434574.192533166322391, 432871.029190572153311 ], [ 434573.660411179298535, 432871.188432090508286 ], [ 434555.65311526710866, 432877.687180402630474 ], [ 434559.047763987502549, 432887.093367731489707 ], [ 434576.530172120197676, 432880.784048947680276 ] ] ] } },
{ "type": "Feature", "properties": { "highway": "unclassified", "name": "Skelton Moor Way", "osm_type": "way", "osm_id": 670287014, "lanes": "2", "name:note": null, "not:name": null, "surface": "asphalt", "source": null, "source:name": null, "maxspeed": "30 mph", "source:ref": null, "maxspeed:type": null, "lit": "yes" }, "geometry": { "type": "Polygon", "coordinates": [ [ [ 434304.179113376361784, 431752.213482320425101 ], [ 434304.267164285120089, 431752.412222368235234 ], [ 434305.090294374676887, 431754.182796164415777 ], [ 434310.284947816748172, 431765.527690722490661 ], [ 434315.2834350427147, 431777.240881519974209 ], [ 434321.761564788117539, 431803.098117023706436 ], [ 434326.093864615773782, 431824.526740355533548 ], [ 434327.675966594950296, 431840.607391942001414 ], [ 434327.838075187406503, 431856.386198901513126 ], [ 434327.556577763403766, 431877.9788998781587 ], [ 434326.535981054592412, 431890.252540856308769 ], [ 434323.258124503132422, 431917.055413326132111 ], [ 434319.493950561271049, 431946.438375893805642 ], [ 434318.088200773287099, 431955.950588915671688 ], [ 434318.060307295294479, 431956.166301467572339 ], [ 434311.393940878973808, 432016.267054680036381 ], [ 434311.392641805578023, 432016.27887336211279 ], [ 434305.927674921113066, 432066.455652832635678 ], [ 434299.964382727979682, 432118.130881075107027 ], [ 434290.045218568528071, 432204.132867221953347 ], [ 434287.561841448419727, 432225.6780128586106 ], [ 434284.832407226611394, 432249.346085159049835 ], [ 434284.83109630306717, 432249.357549583772197 ], [ 434279.775764844380319, 432293.947800310852472 ], [ 434275.076966412249021, 432333.94544937054161 ], [ 434275.075398468819913, 432333.95892770611681 ], [ 434274.505644633434713, 432338.905363588070031 ], [ 434270.538602360582445, 432373.278407053498086 ], [ 434269.516369840828702, 432382.128863317659125 ], [ 434261.576170680462383, 432403.740233719232492 ], [ 434256.751761915453244, 432413.234173063596245 ], [ 434253.437230697949417, 432416.968578800268006 ], [ 434253.410928641795181, 432416.998411291802768 ], [ 434245.81263179203961, 432425.674399389652535 ], [ 434237.910639407928102, 432433.752328214235604 ], [ 434223.325714783917647, 432446.377233833249193 ], [ 434231.179422348330263, 432455.45023099478567 ], [ 434245.952535056741908, 432442.662427255592775 ], [ 434246.314772827143315, 432442.321604264434427 ], [ 434254.506465573678724, 432433.947524950955994 ], [ 434254.731078665994573, 432433.704882421938237 ], [ 434262.425236338400282, 432424.919437247968744 ], [ 434266.23867273691576, 432420.622926571697462 ], [ 434266.561505929683335, 432420.226372735807672 ], [ 434266.849401282321196, 432419.803770699538291 ], [ 434267.100267745088786, 432419.358189917868003 ], [ 434272.434794339700602, 432408.860391247086227 ], [ 434272.717703243542928, 432408.211472141498234 ], [ 434281.02665117039578, 432385.596453592472244 ], [ 434281.231857618899085, 432384.91580867668381 ], [ 434281.355119564628694, 432384.215670347039122 ], [ 434282.459382442175411, 432374.654997884936165 ], [ 434286.426592402625829, 432340.280501667119097 ], [ 434286.995800462551415, 432335.338805360137485 ], [ 434291.695224858878646, 432295.335827896255068 ], [ 434291.69801109097898, 432295.311688887886703 ], [ 434296.754061277490109, 432250.715098664804827 ], [ 434299.482853992260061, 432227.05258914193837 ], [ 434301.966215768130496, 432205.50757657783106 ], [ 434311.885291230108123, 432119.50635936204344 ], [ 434317.850764680071734, 432067.812229321280029 ], [ 434317.855047685327008, 432067.774041285738349 ], [ 434323.321451243769843, 432017.584070944169071 ], [ 434329.975170824269298, 431957.5973355207243 ], [ 434331.373487229109742, 431948.135421581042465 ], [ 434331.389316565939225, 431948.020660040958319 ], [ 434335.163032724289224, 431918.563211385684554 ], [ 434335.16729829373071, 431918.529141377308406 ], [ 434338.461344301467761, 431891.593888516305014 ], [ 434338.48507880885154, 431891.362750283675268 ], [ 434339.532695663336199, 431878.764166491222568 ], [ 434339.552822438941803, 431878.345174764166586 ], [ 434339.837967181869317, 431856.472700471873395 ], [ 434339.838160354061984, 431856.332847301557194 ], [ 434339.672625728650019, 431840.220568118907977 ], [ 434339.644112404144835, 431839.694731583120301 ], [ 434338.006389770540409, 431823.048745791427791 ], [ 434337.916232787305489, 431822.44723697489826 ], [ 434333.496241175744217, 431800.58486845419975 ], [ 434333.435350401618052, 431800.315711994539015 ], [ 434326.808347543992568, 431773.864254504791461 ], [ 434326.675254006171599, 431773.409883493557572 ], [ 434326.506748145096935, 431772.967421426903456 ], [ 434321.291320770280436, 431760.745864549884573 ], [ 434321.228113484685309, 431760.602933642046992 ], [ 434315.993707235378679, 431749.171220701944549 ], [ 434315.979179544083308, 431749.139733563817572 ], [ 434315.194565883371979, 431747.452009587548673 ], [ 434308.480732550262474, 431731.525267319637351 ], [ 434297.423054905957542, 431736.186572406790219 ], [ 434304.179113376361784, 431752.213482320425101 ] ] ] } },
{ "type": "Feature", "properties": { "highway": "tertiary", "name": "Rathmell Road", "osm_type": "way", "osm_id": 673612285, "lanes": "2", "name:note": null, "not:name": null, "surface": "asphalt", "source": "npe", "source:name": null, "maxspeed": null, "source:ref": null, "maxspeed:type": null, "lit": null }, "geometry": { "type": "Polygon", "coordinates": [ [ [ 434290.218124047853053, 433263.379811626800802 ], [ 434294.711298469512258, 433261.23580328602111 ], [ 434300.599445290572476, 433260.872176743869204 ], [ 434305.491252867039293, 433260.577177145925816 ], [ 434324.505657710076775, 433261.438980836013798 ], [ 434356.767294544086326, 433265.016544732498005 ], [ 434377.791321046708617, 433267.723361441225279 ], [ 434414.500895010423847, 433275.332159786659759 ], [ 434441.293169375334401, 433282.090592726948671 ], [ 434448.81755922245793, 433283.994400785595644 ], [ 434456.047612678434234, 433286.114452737325337 ], [ 434456.680780792084988, 433286.268507041968405 ], [ 434457.325530974601861, 433286.363015195354819 ], [ 434464.342831361282151, 433287.059879117412493 ], [ 434465.006589562981389, 433287.094086233584676 ], [ 434465.670600056415424, 433287.0651874144678 ], [ 434466.328876650368329, 433286.973443188937381 ], [ 434468.776270505331922, 433286.512979742954485 ], [ 434468.788772439118475, 433286.51061580789974 ], [ 434473.749597886926495, 433285.567924910516012 ], [ 434474.503582304343581, 433285.380767465394456 ], [ 434475.232184521621093, 433285.111213723255787 ], [ 434475.926430532475933, 433284.762583708274178 ], [ 434482.264100918953773, 433281.126284365076572 ], [ 434482.866462450940162, 433280.738403804542031 ], [ 434483.42602184030693, 433280.29098449985031 ], [ 434483.93691752263112, 433279.788713311951142 ], [ 434488.299916693591513, 433275.036393330141436 ], [ 434488.650950783398002, 433274.622968514740933 ], [ 434488.968923650973011, 433274.183607312967069 ], [ 434491.440197359072044, 433270.47440334816929 ], [ 434491.740407300181687, 433269.980813667643815 ], [ 434491.998893079755362, 433269.464149479521438 ], [ 434492.213894057320431, 433268.927929971192498 ], [ 434494.420477485691663, 433262.691076437768061 ], [ 434494.580810412706342, 433262.175458807265386 ], [ 434494.700921866868157, 433261.649016572046094 ], [ 434497.141588368744124, 433248.66012521320954 ], [ 434497.144625757879112, 433248.643854683963582 ], [ 434501.646007770730648, 433224.372047202952672 ], [ 434508.428653897542972, 433194.597167023399379 ], [ 434508.501204057363793, 433194.23474864353193 ], [ 434511.315228976600338, 433177.955510222527664 ], [ 434517.177182986808475, 433144.06325302150799 ], [ 434517.275893048907164, 433143.097796927206218 ], [ 434517.420604834216647, 433138.648278902517632 ], [ 434517.404333848622628, 433137.892359839112032 ], [ 434517.306627513724379, 433137.142605314322282 ], [ 434517.128625760145951, 433136.407762643357273 ], [ 434516.872405317553785, 433135.696405166294426 ], [ 434515.137066472962033, 433131.589109474094585 ], [ 434514.805058416852262, 433130.908533623733092 ], [ 434514.401477985607926, 433130.267803046270274 ], [ 434513.931047999649309, 433129.674415764922742 ], [ 434513.399273573129904, 433129.135315777268261 ], [ 434510.094516655837651, 433126.129127327934839 ], [ 434509.570875388744753, 433125.697279003041331 ], [ 434509.007871491427068, 433125.318175107124262 ], [ 434508.410798270895611, 433124.995379937405232 ], [ 434499.218020353990141, 433120.587375267990865 ], [ 434489.114493181114085, 433114.066397676884662 ], [ 434482.292462483688723, 433105.895745534624439 ], [ 434477.359593087050598, 433094.273826253367588 ], [ 434475.532422884949483, 433084.036562731082086 ], [ 434476.377647094021086, 433072.329783244582359 ], [ 434481.341605633555446, 433059.362688895780593 ], [ 434486.69962514936924, 433049.276294821174815 ], [ 434491.023812761064619, 433044.958330675435718 ], [ 434498.848905929189641, 433040.933471322117839 ], [ 434506.973316453921143, 433037.984783209045418 ], [ 434514.124301769305021, 433036.293250278686173 ], [ 434521.88397519395221, 433036.310087622259744 ], [ 434522.655105802696198, 433036.269166694313753 ], [ 434526.49238120240625, 433035.852335206873249 ], [ 434527.184272122336552, 433035.741906109673437 ], [ 434527.861657897941768, 433035.56286381976679 ], [ 434528.517752124229446, 433035.317002076422796 ], [ 434529.145981706038583, 433035.006784051307477 ], [ 434532.513083414174616, 433033.128931130398996 ], [ 434533.051799324515741, 433032.795666921359953 ], [ 434533.558181429223623, 433032.415066042391118 ], [ 434534.028082770295441, 433031.99024538055528 ], [ 434536.583067981235217, 433029.461085246293806 ], [ 434537.056319850322325, 433028.943144829128869 ], [ 434537.475348173989914, 433028.380432761274278 ], [ 434537.835943602141924, 433027.778601767902728 ], [ 434538.134483772679232, 433027.143697543710005 ], [ 434539.663971265079454, 433023.416462592489552 ], [ 434539.871596653130837, 433022.839823020389304 ], [ 434540.027987401292194, 433022.247232578520197 ], [ 434542.544053126359358, 433010.683107715507504 ], [ 434544.889869024103973, 432999.895840306824539 ], [ 434544.923851446423214, 432999.729930848872755 ], [ 434552.370125246292446, 432960.997915999905672 ], [ 434552.465999325155281, 432960.323832188732922 ], [ 434552.495931479381397, 432959.643622743315063 ], [ 434552.459638525848277, 432958.963723011722323 ], [ 434551.881909639341757, 432953.318359002179932 ], [ 434551.806584614620078, 432952.785504205559846 ], [ 434551.690547160978895, 432952.260010720405262 ], [ 434550.681918451038655, 432948.403001127648167 ], [ 434550.822005211142823, 432946.222346639086027 ], [ 434551.360110557579901, 432945.165663941239472 ], [ 434553.934514430467971, 432941.972410340677015 ], [ 434554.415034973819274, 432941.298400935775135 ], [ 434554.812632593791932, 432940.572381099220365 ], [ 434557.141538072319236, 432935.649379568989389 ], [ 434557.458269096910954, 432934.858659182093106 ], [ 434557.676614435797092, 432934.03532292926684 ], [ 434559.974387371796183, 432922.603118451894261 ], [ 434559.996628472290467, 432922.487430647423025 ], [ 434564.766745291766711, 432896.497777492797468 ], [ 434564.864564817165956, 432895.724324242793955 ], [ 434564.875769148173276, 432894.944790374080185 ], [ 434564.344458000385202, 432882.100952452106867 ], [ 434550.356421254226007, 432882.679595682013314 ], [ 434550.85535886476282, 432894.740840452082921 ], [ 434546.237273230799474, 432919.902162157057319 ], [ 434544.119893176481128, 432930.436850488418713 ], [ 434542.513122718664818, 432933.833353049529251 ], [ 434540.003535108524375, 432936.94620948843658 ], [ 434539.577840099285822, 432937.53420630848268 ], [ 434539.215328829595819, 432938.163127671286929 ], [ 434537.691211239376571, 432941.156052193779033 ], [ 434537.400908273877576, 432941.805850730335806 ], [ 434537.178086075233296, 432942.481768046040088 ], [ 434537.025047960807569, 432943.176817170460708 ], [ 434536.943375888571609, 432943.883813367399853 ], [ 434536.638312878319994, 432948.632563514343929 ], [ 434536.630231595365331, 432949.378669696510769 ], [ 434536.701612773700617, 432950.121397418901324 ], [ 434536.851645377813838, 432950.852307782683056 ], [ 434538.009557118988596, 432955.280177671054844 ], [ 434538.427617745532189, 432959.36531945632305 ], [ 434531.191604668449145, 432997.003656896122266 ], [ 434528.864025433897041, 433007.707062944886275 ], [ 434526.478715329198167, 433018.670220072730444 ], [ 434525.722748463740572, 433020.51244901336031 ], [ 434524.858710059372243, 433021.367753958969843 ], [ 434523.567878418194596, 433022.087658546923194 ], [ 434521.527657463215292, 433022.30928150768159 ], [ 434513.330341788008809, 433022.291494545177557 ], [ 434512.511556930548977, 433022.337757221830543 ], [ 434511.703801818774082, 433022.479463105672039 ], [ 434503.355479177203961, 433024.454220714396797 ], [ 434502.578665766108315, 433024.686215116409585 ], [ 434493.654492159199435, 433027.925170675502159 ], [ 434492.840889790852088, 433028.280346719548106 ], [ 434483.648856608313508, 433033.008295631618239 ], [ 434483.024599361524452, 433033.371268445043825 ], [ 434482.44105775502976, 433033.796621906221844 ], [ 434481.904441700142343, 433034.279829504492227 ], [ 434476.064179951150436, 433040.111685820214916 ], [ 434475.597617952618748, 433040.626279828720726 ], [ 434475.184353484248277, 433041.184580438886769 ], [ 434474.828455827140715, 433041.781090245814994 ], [ 434468.7760683078086, 433053.174622022313997 ], [ 434468.420612807909492, 433053.955948258982971 ], [ 434462.932976552983746, 433068.291019050171599 ], [ 434462.719775082659908, 433068.941599682206288 ], [ 434462.571146193542518, 433069.609895633882843 ], [ 434462.488511596689932, 433070.2895143131027 ], [ 434461.505763015418779, 433083.901075374335051 ], [ 434461.487999413744546, 433084.48093009396689 ], [ 434461.518311144260224, 433085.060264401952736 ], [ 434461.59649001667276, 433085.635099252453074 ], [ 434463.716211248887703, 433097.51146677613724 ], [ 434463.897628270788118, 433098.276562359475065 ], [ 434464.163708253763616, 433099.016484537860379 ], [ 434469.810618598130532, 433112.320695724803954 ], [ 434470.109453584300354, 433112.93862332572462 ], [ 434470.467370742582716, 433113.524312814115547 ], [ 434470.88092868583044, 433114.072132763103582 ], [ 434479.050464982981794, 433123.856673790258355 ], [ 434479.528473690152168, 433124.373898457561154 ], [ 434480.056036021560431, 433124.840472853626125 ], [ 434480.62781160720624, 433125.251673972583376 ], [ 434491.997226021601819, 433132.589675380615517 ], [ 434492.766581593896262, 433133.020155194855761 ], [ 434501.432690668443684, 433137.175618278095499 ], [ 434502.83995916909771, 433138.455747019033879 ], [ 434503.378043971024454, 433139.729315806995146 ], [ 434503.299102726625279, 433142.156557576090563 ], [ 434497.519990270142443, 433175.569846971950028 ], [ 434494.737283179187216, 433191.66791040712269 ], [ 434487.964130586886313, 433221.401115280750673 ], [ 434487.906646990333684, 433221.679434139747173 ], [ 434483.38085770548787, 433246.082847559591755 ], [ 434481.041660223214421, 433258.531734755379148 ], [ 434479.30618521157885, 433263.437011990579776 ], [ 434477.619395951216575, 433265.968761262891348 ], [ 434474.356884956301656, 433269.522393886814825 ], [ 434469.97987912845565, 433272.033743080799468 ], [ 434466.181414570601191, 433272.755553997238167 ], [ 434464.727095847367309, 433273.029175919364206 ], [ 434459.35958406154532, 433272.496146818622947 ], [ 434452.631206968857441, 433270.523200273455586 ], [ 434452.378565422841348, 433270.454224006389268 ], [ 434444.724768850253895, 433268.517673682654276 ], [ 434417.780164808675181, 433261.72081324912142 ], [ 434417.488721156027168, 433261.65388285217341 ], [ 434380.370982000720687, 433253.960484052426182 ], [ 434379.84415043523768, 433253.872103875211906 ], [ 434358.493911828787532, 433251.123287772468757 ], [ 434358.371564912202302, 433251.108629259979352 ], [ 434325.821980243024882, 433247.49913419445511 ], [ 434325.367404762480874, 433247.463666119787376 ], [ 434305.755834178940859, 433246.574796652828809 ], [ 434305.017525182047393, 433246.580311610188801 ], [ 434299.75165875343373, 433246.897868761618156 ], [ 434299.74155921023339, 433246.898485139012337 ], [ 434292.491855292639229, 433247.346195572754368 ], [ 434291.824944396619685, 433247.419596499355976 ], [ 434291.168124190240633, 433247.556509083486162 ], [ 434290.527428811474238, 433247.755675523600075 ], [ 434289.908744261309039, 433248.015266098664142 ], [ 434283.271591077907942, 433251.182316929218359 ], [ 434282.679106871190015, 433251.500845014757942 ], [ 434282.119932616536971, 433251.874772587209009 ], [ 434281.59923209057888, 433252.300646557705477 ], [ 434275.78355972020654, 433257.543227049289271 ], [ 434285.157435401051771, 433267.941806506132707 ], [ 434290.218124047853053, 433263.379811626800802 ] ] ] } },
{ "type": "Feature", "properties": { "highway": "residential", "name": "Halton Moor Road", "osm_type": "way", "osm_id": 678280649, "lanes": null, "name:note": null, "not:name": null, "surface": "paving_stones", "source": null, "source:name": null, "maxspeed": null, "source:ref": null, "maxspeed:type": null, "lit": null }, "geometry": { "type": "Polygon", "coordinates": [ [ [ 434425.740214414836373, 432762.505349174549337 ], [ 434426.153421158611309, 432762.704150536155794 ], [ 434426.583102892618626, 432762.864261128997896 ], [ 434434.523138632357586, 432765.414830550260376 ], [ 434434.603354182268959, 432765.439856489188969 ], [ 434446.127149121894035, 432768.929107903735712 ], [ 434446.596226977882907, 432769.046703624422662 ], [ 434447.074471237545367, 432769.1184337894083 ], [ 434454.928570435615256, 432769.910426961432677 ], [ 434455.931864351266995, 432759.960884192085359 ], [ 434448.560614152112976, 432759.217580640688539 ], [ 434437.541505255794618, 432755.881141429010313 ], [ 434430.079426155076362, 432753.484105521754827 ], [ 434421.756324231391773, 432748.99859556456795 ], [ 434417.012178029050119, 432757.801610775815789 ], [ 434425.740214414836373, 432762.505349174549337 ] ] ] } },
{ "type": "Feature", "properties": { "highway": "residential", "name": "Halton Moor Road", "osm_type": "way", "osm_id": 678280650, "lanes": null, "name:note": null, "not:name": null, "surface": "paving_stones", "source": null, "source:name": null, "maxspeed": null, "source:ref": null, "maxspeed:type": null, "lit": null }, "geometry": { "type": "Polygon", "coordinates": [ [ [ 434409.274126591335516, 432726.472126961220056 ], [ 434400.740849011868704, 432721.258378429571167 ], [ 434392.118616993364412, 432735.370278672198765 ], [ 434400.651894572831225, 432740.584027203847654 ], [ 434409.274126591335516, 432726.472126961220056 ] ] ] } },
{ "type": "Feature", "properties": { "highway": "residential", "name": "Halton Moor Road", "osm_type": "way", "osm_id": 678280651, "lanes": null, "name:note": null, "not:name": null, "surface": "paving_stones", "source": null, "source:name": null, "maxspeed": null, "source:ref": null, "maxspeed:type": null, "lit": null }, "geometry": { "type": "Polygon", "coordinates": [ [ [ 434447.949468223261647, 432749.749034165288322 ], [ 434439.241001280490309, 432744.833487043506466 ], [ 434431.698089784360491, 432758.19663742929697 ], [ 434440.406556727131829, 432763.112184551078826 ], [ 434447.949468223261647, 432749.749034165288322 ] ] ] } },
{ "type": "Feature", "properties": { "highway": "tertiary", "name": "Cartmell Drive", "osm_type": "way", "osm_id": 759460969, "lanes": "2", "name:note": null, "not:name": null, "surface": "asphalt", "source": null, "source:name": null, "maxspeed": null, "source:ref": null, "maxspeed:type": null, "lit": null }, "geometry": { "type": "Polygon", "coordinates": [ [ [ 433969.95698047883343, 432917.010254109103698 ], [ 433975.921979516395368, 432903.015941590594593 ], [ 433978.715160755964462, 432896.631639137398452 ], [ 433987.005483471963089, 432880.309737275936641 ], [ 433988.746382499055471, 432877.468304181296844 ], [ 433994.106868679635227, 432868.716883229732048 ], [ 433999.32424529583659, 432860.20121538406238 ], [ 434007.981499976187479, 432847.204566581989639 ], [ 434012.254527939134277, 432845.387122770654969 ], [ 434012.799382153782062, 432845.12708871968789 ], [ 434013.319803790131118, 432844.821073780069128 ], [ 434017.006757147086319, 432842.433352284366265 ], [ 434017.52756871964084, 432842.061198830662761 ], [ 434018.012206950399559, 432841.643025813275017 ], [ 434018.456619246280752, 432841.18233003676869 ], [ 434018.857089387194719, 432840.682963885075878 ], [ 434019.210268601949792, 432840.149103107862175 ], [ 434021.064280030899681, 432837.04713583830744 ], [ 434021.356470486789476, 432836.505543798906729 ], [ 434021.599965439934749, 432835.940382399479859 ], [ 434024.034956751391292, 432829.526539147191215 ], [ 434028.025016037921887, 432824.962239048676565 ], [ 434046.144426356710028, 432807.812332823057659 ], [ 434063.366421690559946, 432795.412627445010003 ], [ 434075.359524064289872, 432787.762571598519571 ], [ 434075.665943064319436, 432787.555529084347654 ], [ 434088.454382492403965, 432778.413429960899521 ], [ 434088.981029627495445, 432777.997394273756072 ], [ 434089.465413034311496, 432777.532834683253895 ], [ 434097.622319931455422, 432768.921906257863156 ], [ 434102.235807698627468, 432766.307068151130807 ], [ 434102.814129467704333, 432765.940812492161058 ], [ 434103.353911932965275, 432765.51982060802402 ], [ 434103.849993019539397, 432765.048118549631909 ], [ 434128.254829601384699, 432739.456637710216455 ], [ 434128.442337086307816, 432739.252041539177299 ], [ 434134.946070658392273, 432731.866864626179449 ], [ 434137.039402114518452, 432729.489100563747343 ], [ 434137.346807317459024, 432729.114546768716536 ], [ 434148.65470538137015, 432714.320736347348429 ], [ 434148.989530549210031, 432713.842620197159704 ], [ 434149.283358446729835, 432713.338271000015084 ], [ 434156.819816836621612, 432699.065286058874335 ], [ 434161.535553596098907, 432690.382414109073579 ], [ 434167.50322467071237, 432682.039247438195162 ], [ 434171.948820692137815, 432676.376040172413923 ], [ 434172.372349286626559, 432675.773805331089534 ], [ 434172.730280732153915, 432675.130417147534899 ], [ 434175.545917312672827, 432669.376290608779527 ], [ 434175.8485389953712, 432668.65945175557863 ], [ 434176.069732621253934, 432667.913454969995655 ], [ 434176.206765149894636, 432667.147517694276758 ], [ 434176.886390463390853, 432661.57811938400846 ], [ 434176.93699732265668, 432660.844711701618508 ], [ 434176.910407671239227, 432660.110041113337502 ], [ 434176.806914780871011, 432659.382210704206955 ], [ 434176.043419562745839, 432655.491677950834855 ], [ 434177.090903682576027, 432651.530060575401876 ], [ 434177.166777079808526, 432651.338252334622666 ], [ 434177.302123253175523, 432650.965568335319404 ], [ 434180.495220051903743, 432641.331065461912658 ], [ 434167.206057905277703, 432636.926730161358137 ], [ 434164.075354608939961, 432646.372973669029307 ], [ 434163.920098162430804, 432646.765462564537302 ], [ 434163.661898385849781, 432647.550948991789483 ], [ 434162.09686648612842, 432653.469948096084408 ], [ 434161.962897273071576, 432654.088576647569425 ], [ 434161.885357464198023, 432654.716777740221005 ], [ 434161.864881064626388, 432655.349414880969562 ], [ 434161.901635499903932, 432655.981315305281896 ], [ 434161.995320246962365, 432656.607312272477429 ], [ 434162.854724906093907, 432660.986569529573899 ], [ 434162.452628388884477, 432664.281672903511208 ], [ 434160.480013654741924, 432668.312972564366646 ], [ 434156.394480946299154, 432673.517498213448562 ], [ 434156.207164642110001, 432673.767402129305992 ], [ 434149.897100737376604, 432682.589254775492009 ], [ 434149.439238733903039, 432683.320821930363309 ], [ 434144.497580475057475, 432692.419672877702396 ], [ 434144.458839881932363, 432692.492011971364263 ], [ 434137.17648095212644, 432706.283768518536817 ], [ 434126.371195135754533, 432720.420025231549516 ], [ 434124.439102963020559, 432722.614641643012874 ], [ 434118.027445115381852, 432729.895263917220291 ], [ 434094.432441248151008, 432754.637535284215119 ], [ 434089.808558222546708, 432757.258265227952506 ], [ 434089.223866411775816, 432757.629011284559965 ], [ 434088.678657693380956, 432758.055701576755382 ], [ 434088.178265289636329, 432758.53416222758824 ], [ 434079.764749287103768, 432767.415982875681948 ], [ 434067.674660469521768, 432776.058850600325968 ], [ 434055.671575965825468, 432783.715273761074059 ], [ 434055.345930714276619, 432783.936109748727176 ], [ 434037.583325431682169, 432796.725050169450697 ], [ 434036.861561787431128, 432797.321922388859093 ], [ 434018.160862599266693, 432815.022014819434844 ], [ 434017.702575421251822, 432815.498793560604099 ], [ 434012.66692005522782, 432821.259169693628792 ], [ 434012.278768706601113, 432821.745167561923154 ], [ 434011.935289735614788, 432822.26370164367836 ], [ 434011.639194911404047, 432822.810678107955027 ], [ 434011.392821905086748, 432823.381778571289033 ], [ 434008.730511114699766, 432830.39438843895914 ], [ 434008.029043676273432, 432831.568021460087039 ], [ 434006.217850184533745, 432832.740975174005143 ], [ 434000.576094944204669, 432835.140578742139041 ], [ 433999.966119950520806, 432835.435657972993795 ], [ 433999.387532937631477, 432835.788331070798449 ], [ 433998.845755398564506, 432836.195293407596182 ], [ 433998.34586391330231, 432836.652731652953662 ], [ 433997.892542579618748, 432837.1563595054904 ], [ 433997.490039122640155, 432837.701457856688648 ], [ 433987.598967190540861, 432852.550366999814287 ], [ 433987.456000655889511, 432852.774076176225208 ], [ 433982.16905996267451, 432861.403284718166105 ], [ 433976.808588852640241, 432870.154681069951039 ], [ 433974.922043689643033, 432873.233832575788256 ], [ 433974.649758960469626, 432873.720805944234598 ], [ 433966.1417602726724, 432890.471266013977583 ], [ 433965.969754849909805, 432890.835500334447715 ], [ 433963.082495805923827, 432897.434834003390279 ], [ 433963.056151124997996, 432897.49583618802717 ], [ 433957.004312111006584, 432911.693881475192029 ], [ 433956.866100985498633, 432912.043936568021309 ], [ 433950.009964900731575, 432930.875895154837053 ], [ 433963.165243114635814, 432935.665326761372853 ], [ 433969.95698047883343, 432917.010254109103698 ] ] ] } },
{ "type": "Feature", "properties": { "highway": "unclassified", "name": "Nursery Pit Drive", "osm_type": "way", "osm_id": 759460978, "lanes": "2", "name:note": null, "not:name": null, "surface": "asphalt", "source": null, "source:name": null, "maxspeed": "30 mph", "source:ref": null, "maxspeed:type": null, "lit": "yes" }, "geometry": { "type": "Polygon", "coordinates": [ [ [ 433875.170905617473181, 432358.048987627029419 ], [ 433876.709433846175671, 432355.844835806870833 ], [ 433879.568548002687749, 432355.216167659440544 ], [ 433913.643134562706109, 432359.09919162694132 ], [ 433944.333764859766234, 432363.251722242217511 ], [ 433974.547053125628736, 432367.342245260777418 ], [ 433982.736449354793876, 432368.447504983807448 ], [ 433994.18163335340796, 432369.99883909476921 ], [ 434031.867100899980869, 432375.100872130831704 ], [ 434031.986242140294053, 432375.11578963213833 ], [ 434080.288695084804203, 432380.673369831813034 ], [ 434080.445227849471848, 432380.689303524442948 ], [ 434128.589364730520174, 432384.952961910399608 ], [ 434143.092177521379199, 432387.750693682173733 ], [ 434150.165393901173957, 432389.115078973816708 ], [ 434157.235562992922496, 432390.477876918739639 ], [ 434170.605645384755917, 432396.074880387808662 ], [ 434179.547901095065754, 432402.023647894151509 ], [ 434196.647049220453482, 432419.721387431723997 ], [ 434212.453194944828283, 432440.321366118150763 ], [ 434222.347174672351684, 432454.368744823092129 ], [ 434232.157962459896225, 432447.458720004942734 ], [ 434222.193405623838771, 432433.311136589793023 ], [ 434222.048218136478681, 432433.113692980201449 ], [ 434205.959554528060835, 432412.14551179256523 ], [ 434205.514334178820718, 432411.628927714715246 ], [ 434187.726737530494574, 432393.218639074999373 ], [ 434187.253176525584422, 432392.778617057832889 ], [ 434186.735025176196359, 432392.392095932678785 ], [ 434176.774767196387984, 432385.766110169759486 ], [ 434176.284433627035469, 432385.47260556666879 ], [ 434175.768401201756205, 432385.227080624375958 ], [ 434161.297183334245346, 432379.169118210033048 ], [ 434160.715738228871487, 432378.960198148153722 ], [ 434160.115891145658679, 432378.812179637316149 ], [ 434152.437829569622409, 432377.332208512874786 ], [ 434145.365143966395408, 432375.967925605771597 ], [ 434130.560945764940698, 432373.112053695891518 ], [ 434129.953732168651186, 432373.02682504162658 ], [ 434081.582179022370838, 432368.743026606854983 ], [ 434033.417533244530205, 432363.201302214351017 ], [ 433995.792963686515577, 432358.107513904571533 ], [ 433984.346546463028062, 432356.556012636516243 ], [ 433976.15577970223967, 432355.450567482737824 ], [ 433945.943485898373183, 432351.360179102572147 ], [ 433915.189618190459441, 432347.199092262366321 ], [ 433915.064474149490707, 432347.183497342630289 ], [ 433879.934866026160307, 432343.180246706819162 ], [ 433879.276515891950112, 432343.141700490145013 ], [ 433878.617912148300093, 432343.17563894810155 ], [ 433877.967011290311348, 432343.281652075180318 ], [ 433871.842769151495304, 432344.628263560065534 ], [ 433871.303450829407666, 432344.773466716753319 ], [ 433870.779971073265187, 432344.968189992476255 ], [ 433870.27686595445266, 432345.210746065771673 ], [ 433869.79849499365082, 432345.499033132917248 ], [ 433869.34900338423904, 432345.83055312075885 ], [ 433868.93228607357014, 432346.20243333291728 ], [ 433868.551954012131318, 432346.611451342643704 ], [ 433868.211302863957826, 432347.054062915558461 ], [ 433864.556204124062788, 432352.290491074498277 ], [ 433864.271173171349801, 432352.740096306079067 ], [ 433864.027115401346236, 432353.21319599240087 ], [ 433863.825952006445732, 432353.706065951788332 ], [ 433863.669266519718803, 432354.214826373325195 ], [ 433863.558292349800467, 432354.735472358530387 ], [ 433861.960716317174956, 432364.292672571609728 ], [ 433873.796496296185069, 432366.271134673501365 ], [ 433875.170905617473181, 432358.048987627029419 ] ] ] } },
{ "type": "Feature", "properties": { "highway": "unclassified", "name": "Skelton Moor Way", "osm_type": "way", "osm_id": 778706593, "lanes": "2", "name:note": null, "not:name": null, "surface": "asphalt", "source": null, "source:name": null, "maxspeed": "30 mph", "source:ref": null, "maxspeed:type": null, "lit": "yes" }, "geometry": { "type": "Polygon", "coordinates": [ [ [ 434212.601646364375483, 432455.076878473162651 ], [ 434212.144350258633494, 432455.488656608737074 ], [ 434211.731636407901533, 432455.945108401065227 ], [ 434204.411938088014722, 432464.926427996659186 ], [ 434213.713953444734216, 432472.507490607036743 ], [ 434220.643346900469624, 432464.005077732901555 ], [ 434231.033566288009752, 432455.572493647108786 ], [ 434223.471570844238158, 432446.254971180926077 ], [ 434212.601646364375483, 432455.076878473162651 ] ] ] } },
{ "type": "Feature", "properties": { "highway": "unclassified", "name": "Skelton Moor Way", "osm_type": "way", "osm_id": 814264711, "lanes": "2", "name:note": null, "not:name": null, "surface": "asphalt", "source": null, "source:name": null, "maxspeed": "30 mph", "source:ref": null, "maxspeed:type": null, "lit": "yes" }, "geometry": { "type": "Polygon", "coordinates": [ [ [ 434197.252739988791291, 432474.881065709399991 ], [ 434196.973951410735026, 432475.306427959585562 ], [ 434196.732187265763059, 432475.753872049157508 ], [ 434191.815872990235221, 432485.854238271596842 ], [ 434191.628129683085717, 432486.28140481171431 ], [ 434189.312181229586713, 432492.16154519788688 ], [ 434189.134289367997553, 432492.682002093177289 ], [ 434189.004805005271919, 432493.216562374262139 ], [ 434185.677892268286087, 432510.349293604376726 ], [ 434185.59194720943924, 432510.956070458167233 ], [ 434183.725957772752736, 432531.72275329666445 ], [ 434181.75681370170787, 432549.629301483684685 ], [ 434181.749982397421263, 432549.694720673956908 ], [ 434177.382955193519592, 432593.857125682989135 ], [ 434189.324711785302497, 432595.037993796635419 ], [ 434193.688502628938295, 432550.908317104971502 ], [ 434195.660582117270678, 432532.975075497117359 ], [ 434195.672459077904932, 432532.856188652222045 ], [ 434197.516336707398295, 432512.335589140304364 ], [ 434200.679584304278251, 432496.045690613915212 ], [ 434202.707774544309359, 432490.896161779004615 ], [ 434207.298720804974437, 432481.464250810502563 ], [ 434213.937252405274194, 432472.215692614088766 ], [ 434204.188639127474744, 432465.218225989607163 ], [ 434197.252739988791291, 432474.881065709399991 ] ] ] } }
]
}
