{
"type": "FeatureCollection",
"name": "se2839_rgb_250_03_original",
"crs": { "type": "name", "properties": { "name": "urn:ogc:def:crs:EPSG::27700" } },
"features": [
{ "type": "Feature", "properties": { }, "geometry": { "type": "Polygon", "coordinates": [ [ [ 428070.5, 439890.75 ], [ 428070.5, 439890.5 ], [ 428071.0, 439890.5 ], [ 428071.0, 439890.75 ], [ 428070.5, 439890.75 ] ] ] } },
{ "type": "Feature", "properties": { }, "geometry": { "type": "Polygon", "coordinates": [ [ [ 428128.0, 439911.0 ], [ 428128.0, 439893.75 ], [ 428129.0, 439893.75 ], [ 428129.0, 439893.5 ], [ 428129.5, 439893.5 ], [ 428129.5, 439893.0 ], [ 428129.75, 439893.0 ], [ 428129.75, 439892.75 ], [ 428130.0, 439892.75 ], [ 428130.0, 439892.25 ], [ 428130.25, 439892.25 ], [ 428130.25, 439891.75 ], [ 428130.5, 439891.75 ], [ 428130.5, 439891.0 ], [ 428130.75, 439891.0 ], [ 428130.75, 439890.25 ], [ 428131.0, 439890.25 ], [ 428131.0, 439890.0 ], [ 428131.25, 439890.0 ], [ 428131.25, 439889.75 ], [ 428131.75, 439889.75 ], [ 428131.75, 439890.0 ], [ 428133.75, 439890.0 ], [ 428133.75, 439889.5 ], [ 428134.25, 439889.5 ], [ 428134.25, 439889.25 ], [ 428134.5, 439889.25 ], [ 428134.5, 439889.5 ], [ 428134.75, 439889.5 ], [ 428134.75, 439889.75 ], [ 428135.0, 439889.75 ], [ 428135.0, 439890.0 ], [ 428135.25, 439890.0 ], [ 428135.25, 439890.25 ], [ 428135.5, 439890.25 ], [ 428135.5, 439890.0 ], [ 428135.75, 439890.0 ], [ 428135.75, 439889.75 ], [ 428136.0, 439889.75 ], [ 428136.0, 439889.5 ], [ 428136.25, 439889.5 ], [ 428136.25, 439889.25 ], [ 428136.5, 439889.25 ], [ 428136.5, 439889.0 ], [ 428138.0, 439889.0 ], [ 428138.0, 439889.25 ], [ 428138.5, 439889.25 ], [ 428138.5, 439889.5 ], [ 428138.75, 439889.5 ], [ 428138.75, 439889.75 ], [ 428139.0, 439889.75 ], [ 428139.0, 439890.25 ], [ 428139.25, 439890.25 ], [ 428139.25, 439890.5 ], [ 428139.5, 439890.5 ], [ 428139.5, 439890.75 ], [ 428139.75, 439890.75 ], [ 428139.75, 439891.25 ], [ 428140.0, 439891.25 ], [ 428140.0, 439892.5 ], [ 428139.75, 439892.5 ], [ 428139.75, 439892.75 ], [ 428139.25, 439892.75 ], [ 428139.25, 439893.0 ], [ 428137.5, 439893.0 ], [ 428137.5, 439893.25 ], [ 428137.25, 439893.25 ], [ 428137.25, 439893.75 ], [ 428137.75, 439893.75 ], [ 428137.75, 439894.0 ], [ 428138.25, 439894.0 ], [ 428138.25, 439894.25 ], [ 428140.0, 439894.25 ], [ 428140.0, 439894.5 ], [ 428140.5, 439894.5 ], [ 428140.5, 439895.0 ], [ 428140.75, 439895.0 ], [ 428140.75, 439895.5 ], [ 428141.0, 439895.5 ], [ 428141.0, 439896.25 ], [ 428141.25, 439896.25 ], [ 428141.25, 439896.5 ], [ 428141.5, 439896.5 ], [ 428141.5, 439897.0 ], [ 428141.75, 439897.0 ], [ 428141.75, 439898.5 ], [ 428142.0, 439898.5 ], [ 428142.0, 439899.25 ], [ 428142.25, 439899.25 ], [ 428142.25, 439901.0 ], [ 428142.5, 439901.0 ], [ 428142.5, 439903.25 ], [ 428142.75, 439903.25 ], [ 428142.75, 439904.25 ], [ 428143.0, 439904.25 ], [ 428143.0, 439907.25 ], [ 428142.75, 439907.25 ], [ 428142.75, 439908.25 ], [ 428142.5, 439908.25 ], [ 428142.5, 439909.0 ], [ 428142.25, 439909.0 ], [ 428142.25, 439909.5 ], [ 428141.75, 439909.5 ], [ 428141.75, 439909.75 ], [ 428141.25, 439909.75 ], [ 428141.25, 439910.0 ], [ 428140.0, 439910.0 ], [ 428140.0, 439910.25 ], [ 428137.0, 439910.25 ], [ 428137.0, 439910.0 ], [ 428136.25, 439910.0 ], [ 428136.25, 439909.75 ], [ 428135.5, 439909.75 ], [ 428135.5, 439909.5 ], [ 428135.0, 439909.5 ], [ 428135.0, 439909.25 ], [ 428134.75, 439909.25 ], [ 428134.75, 439909.0 ], [ 428134.25, 439909.0 ], [ 428134.25, 439909.25 ], [ 428134.0, 439909.25 ], [ 428134.0, 439909.5 ], [ 428133.5, 439909.5 ], [ 428133.5, 439909.75 ], [ 428133.0, 439909.75 ], [ 428133.0, 439910.0 ], [ 428132.0, 439910.0 ], [ 428132.0, 439910.25 ], [ 428131.25, 439910.25 ], [ 428131.25, 439910.5 ], [ 428130.75, 439910.5 ], [ 428130.75, 439910.75 ], [ 428129.75, 439910.75 ], [ 428129.75, 439911.0 ], [ 428128.0, 439911.0 ] ] ] } },
{ "type": "Feature", "properties": { }, "geometry": { "type": "Polygon", "coordinates": [ [ [ 428130.0, 439875.0 ], [ 428130.0, 439874.75 ], [ 428129.25, 439874.75 ], [ 428129.25, 439874.5 ], [ 428129.0, 439874.5 ], [ 428129.0, 439874.25 ], [ 428128.75, 439874.25 ], [ 428128.75, 439874.0 ], [ 428128.0, 439874.0 ], [ 428128.0, 439872.0 ], [ 428132.0, 439872.0 ], [ 428132.0, 439872.5 ], [ 428131.75, 439872.5 ], [ 428131.75, 439873.75 ], [ 428131.5, 439873.75 ], [ 428131.5, 439874.25 ], [ 428131.25, 439874.25 ], [ 428131.25, 439874.75 ], [ 428130.75, 439874.75 ], [ 428130.75, 439875.0 ], [ 428130.0, 439875.0 ] ] ] } },
{ "type": "Feature", "properties": { }, "geometry": { "type": "Polygon", "coordinates": [ [ [ 428221.75, 439759.0 ], [ 428221.75, 439758.25 ], [ 428222.0, 439758.25 ], [ 428222.0, 439757.75 ], [ 428222.25, 439757.75 ], [ 428222.25, 439757.25 ], [ 428223.0, 439757.25 ], [ 428223.0, 439757.5 ], [ 428223.25, 439757.5 ], [ 428223.25, 439757.75 ], [ 428223.0, 439757.75 ], [ 428223.0, 439758.0 ], [ 428222.75, 439758.0 ], [ 428222.75, 439758.75 ], [ 428222.5, 439758.75 ], [ 428222.5, 439759.0 ], [ 428221.75, 439759.0 ] ] ] } },
{ "type": "Feature", "properties": { }, "geometry": { "type": "Polygon", "coordinates": [ [ [ 428763.25, 439743.25 ], [ 428763.25, 439743.0 ], [ 428763.0, 439743.0 ], [ 428763.0, 439742.75 ], [ 428762.75, 439742.75 ], [ 428762.75, 439742.5 ], [ 428762.5, 439742.5 ], [ 428762.5, 439742.25 ], [ 428762.0, 439742.25 ], [ 428762.0, 439740.5 ], [ 428762.5, 439740.5 ], [ 428762.5, 439740.25 ], [ 428762.75, 439740.25 ], [ 428762.75, 439740.5 ], [ 428763.75, 439740.5 ], [ 428763.75, 439741.5 ], [ 428764.0, 439741.5 ], [ 428764.0, 439742.0 ], [ 428764.25, 439742.0 ], [ 428764.25, 439742.5 ], [ 428764.5, 439742.5 ], [ 428764.5, 439743.25 ], [ 428763.25, 439743.25 ] ] ] } },
{ "type": "Feature", "properties": { }, "geometry": { "type": "Polygon", "coordinates": [ [ [ 428256.75, 439753.0 ], [ 428256.75, 439752.75 ], [ 428256.0, 439752.75 ], [ 428256.0, 439740.5 ], [ 428256.75, 439740.5 ], [ 428256.75, 439740.75 ], [ 428258.0, 439740.75 ], [ 428258.0, 439740.5 ], [ 428258.25, 439740.5 ], [ 428258.25, 439740.0 ], [ 428258.5, 439740.0 ], [ 428258.5, 439739.75 ], [ 428259.5, 439739.75 ], [ 428259.5, 439740.0 ], [ 428260.0, 439740.0 ], [ 428260.0, 439740.25 ], [ 428260.5, 439740.25 ], [ 428260.5, 439740.5 ], [ 428260.75, 439740.5 ], [ 428260.75, 439740.75 ], [ 428261.25, 439740.75 ], [ 428261.25, 439741.0 ], [ 428261.75, 439741.0 ], [ 428261.75, 439741.25 ], [ 428262.25, 439741.25 ], [ 428262.25, 439741.5 ], [ 428262.5, 439741.5 ], [ 428262.5, 439743.0 ], [ 428262.25, 439743.0 ], [ 428262.25, 439744.0 ], [ 428263.75, 439744.0 ], [ 428263.75, 439744.75 ], [ 428264.0, 439744.75 ], [ 428264.0, 439745.75 ], [ 428263.75, 439745.75 ], [ 428263.75, 439746.5 ], [ 428263.5, 439746.5 ], [ 428263.5, 439747.0 ], [ 428263.25, 439747.0 ], [ 428263.25, 439747.5 ], [ 428263.0, 439747.5 ], [ 428263.0, 439748.0 ], [ 428262.75, 439748.0 ], [ 428262.75, 439748.75 ], [ 428262.5, 439748.75 ], [ 428262.5, 439749.0 ], [ 428262.25, 439749.0 ], [ 428262.25, 439749.25 ], [ 428262.0, 439749.25 ], [ 428262.0, 439749.75 ], [ 428261.75, 439749.75 ], [ 428261.75, 439750.0 ], [ 428261.5, 439750.0 ], [ 428261.5, 439750.5 ], [ 428261.0, 439750.5 ], [ 428261.0, 439750.75 ], [ 428260.5, 439750.75 ], [ 428260.5, 439751.0 ], [ 428260.25, 439751.0 ], [ 428260.25, 439751.25 ], [ 428260.0, 439751.25 ], [ 428260.0, 439751.5 ], [ 428259.75, 439751.5 ], [ 428259.75, 439751.75 ], [ 428259.5, 439751.75 ], [ 428259.5, 439752.0 ], [ 428259.0, 439752.0 ], [ 428259.0, 439752.25 ], [ 428258.75, 439752.25 ], [ 428258.75, 439752.5 ], [ 428258.5, 439752.5 ], [ 428258.5, 439752.75 ], [ 428257.75, 439752.75 ], [ 428257.75, 439753.0 ], [ 428256.75, 439753.0 ] ] ] } },
{ "type": "Feature", "properties": { }, "geometry": { "type": "Polygon", "coordinates": [ [ [ 428137.5, 439790.5 ], [ 428137.5, 439790.25 ], [ 428137.25, 439790.25 ], [ 428137.25, 439790.0 ], [ 428137.0, 439790.0 ], [ 428137.0, 439789.75 ], [ 428136.75, 439789.75 ], [ 428136.75, 439789.5 ], [ 428136.25, 439789.5 ], [ 428136.25, 439789.25 ], [ 428135.75, 439789.25 ], [ 428135.75, 439789.0 ], [ 428135.25, 439789.0 ], [ 428135.25, 439788.75 ], [ 428134.5, 439788.75 ], [ 428134.5, 439788.5 ], [ 428133.75, 439788.5 ], [ 428133.75, 439788.25 ], [ 428133.25, 439788.25 ], [ 428133.25, 439788.0 ], [ 428133.0, 439788.0 ], [ 428133.0, 439787.75 ], [ 428132.5, 439787.75 ], [ 428132.5, 439787.5 ], [ 428132.25, 439787.5 ], [ 428132.25, 439787.25 ], [ 428131.75, 439787.25 ], [ 428131.75, 439787.0 ], [ 428131.5, 439787.0 ], [ 428131.5, 439786.75 ], [ 428131.25, 439786.75 ], [ 428131.25, 439786.5 ], [ 428131.0, 439786.5 ], [ 428131.0, 439786.0 ], [ 428130.75, 439786.0 ], [ 428130.75, 439785.75 ], [ 428130.5, 439785.75 ], [ 428130.5, 439785.5 ], [ 428130.25, 439785.5 ], [ 428130.25, 439785.25 ], [ 428130.0, 439785.25 ], [ 428130.0, 439785.0 ], [ 428129.75, 439785.0 ], [ 428129.75, 439784.75 ], [ 428128.75, 439784.75 ], [ 428128.75, 439784.5 ], [ 428128.0, 439784.5 ], [ 428128.0, 439757.75 ], [ 428126.25, 439757.75 ], [ 428126.25, 439758.0 ], [ 428125.5, 439758.0 ], [ 428125.5, 439758.25 ], [ 428125.25, 439758.25 ], [ 428125.25, 439758.5 ], [ 428124.75, 439758.5 ], [ 428124.75, 439758.75 ], [ 428124.0, 439758.75 ], [ 428124.0, 439759.0 ], [ 428123.5, 439759.0 ], [ 428123.5, 439759.25 ], [ 428123.25, 439759.25 ], [ 428123.25, 439759.5 ], [ 428122.75, 439759.5 ], [ 428122.75, 439759.75 ], [ 428122.0, 439759.75 ], [ 428122.0, 439760.0 ], [ 428121.5, 439760.0 ], [ 428121.5, 439760.25 ], [ 428120.0, 439760.25 ], [ 428120.0, 439760.0 ], [ 428117.75, 439760.0 ], [ 428117.75, 439760.25 ], [ 428117.0, 439760.25 ], [ 428117.0, 439760.0 ], [ 428116.25, 439760.0 ], [ 428116.25, 439759.75 ], [ 428115.25, 439759.75 ], [ 428115.25, 439759.5 ], [ 428114.5, 439759.5 ], [ 428114.5, 439759.25 ], [ 428114.25, 439759.25 ], [ 428114.25, 439758.75 ], [ 428114.0, 439758.75 ], [ 428114.0, 439758.5 ], [ 428113.75, 439758.5 ], [ 428113.75, 439753.75 ], [ 428114.0, 439753.75 ], [ 428114.0, 439753.5 ], [ 428113.75, 439753.5 ], [ 428113.75, 439752.0 ], [ 428113.5, 439752.0 ], [ 428113.5, 439749.75 ], [ 428113.75, 439749.75 ], [ 428113.75, 439749.0 ], [ 428114.0, 439749.0 ], [ 428114.0, 439748.5 ], [ 428114.25, 439748.5 ], [ 428114.25, 439748.0 ], [ 428114.5, 439748.0 ], [ 428114.5, 439747.75 ], [ 428115.5, 439747.75 ], [ 428115.5, 439747.5 ], [ 428116.75, 439747.5 ], [ 428116.75, 439747.25 ], [ 428120.0, 439747.25 ], [ 428120.0, 439747.0 ], [ 428121.5, 439747.0 ], [ 428121.5, 439746.75 ], [ 428122.0, 439746.75 ], [ 428122.0, 439746.5 ], [ 428122.25, 439746.5 ], [ 428122.25, 439746.25 ], [ 428122.5, 439746.25 ], [ 428122.5, 439745.25 ], [ 428122.75, 439745.25 ], [ 428122.75, 439744.0 ], [ 428146.25, 439744.0 ], [ 428146.25, 439744.75 ], [ 428146.5, 439744.75 ], [ 428146.5, 439744.0 ], [ 428155.5, 439744.0 ], [ 428155.5, 439742.75 ], [ 428155.25, 439742.75 ], [ 428155.25, 439742.5 ], [ 428155.5, 439742.5 ], [ 428155.5, 439741.75 ], [ 428155.75, 439741.75 ], [ 428155.75, 439741.25 ], [ 428156.0, 439741.25 ], [ 428156.0, 439741.0 ], [ 428156.25, 439741.0 ], [ 428156.25, 439740.75 ], [ 428156.5, 439740.75 ], [ 428156.5, 439740.5 ], [ 428156.75, 439740.5 ], [ 428156.75, 439740.25 ], [ 428157.0, 439740.25 ], [ 428157.0, 439740.0 ], [ 428157.25, 439740.0 ], [ 428157.25, 439739.75 ], [ 428157.5, 439739.75 ], [ 428157.5, 439739.5 ], [ 428158.0, 439739.5 ], [ 428158.0, 439739.25 ], [ 428158.5, 439739.25 ], [ 428158.5, 439739.0 ], [ 428159.0, 439739.0 ], [ 428159.0, 439738.75 ], [ 428159.5, 439738.75 ], [ 428159.5, 439738.5 ], [ 428160.25, 439738.5 ], [ 428160.25, 439738.25 ], [ 428160.75, 439738.25 ], [ 428160.75, 439738.0 ], [ 428161.25, 439738.0 ], [ 428161.25, 439737.75 ], [ 428161.75, 439737.75 ], [ 428161.75, 439737.5 ], [ 428162.0, 439737.5 ], [ 428162.0, 439737.25 ], [ 428162.25, 439737.25 ], [ 428162.25, 439737.0 ], [ 428162.75, 439737.0 ], [ 428162.75, 439736.75 ], [ 428163.0, 439736.75 ], [ 428163.0, 439736.5 ], [ 428163.25, 439736.5 ], [ 428163.25, 439736.25 ], [ 428163.5, 439736.25 ], [ 428163.5, 439736.0 ], [ 428164.0, 439736.0 ], [ 428164.0, 439735.75 ], [ 428164.25, 439735.75 ], [ 428164.25, 439735.5 ], [ 428164.5, 439735.5 ], [ 428164.5, 439735.25 ], [ 428165.0, 439735.25 ], [ 428165.0, 439735.0 ], [ 428165.5, 439735.0 ], [ 428165.5, 439734.75 ], [ 428166.0, 439734.75 ], [ 428166.0, 439734.5 ], [ 428166.25, 439734.5 ], [ 428166.25, 439734.25 ], [ 428166.75, 439734.25 ], [ 428166.75, 439734.0 ], [ 428167.25, 439734.0 ], [ 428167.25, 439733.75 ], [ 428167.5, 439733.75 ], [ 428167.5, 439733.5 ], [ 428168.0, 439733.5 ], [ 428168.0, 439733.25 ], [ 428168.5, 439733.25 ], [ 428168.5, 439733.0 ], [ 428169.0, 439733.0 ], [ 428169.0, 439732.75 ], [ 428169.5, 439732.75 ], [ 428169.5, 439732.5 ], [ 428170.0, 439732.5 ], [ 428170.0, 439732.25 ], [ 428171.25, 439732.25 ], [ 428171.25, 439732.0 ], [ 428172.5, 439732.0 ], [ 428172.5, 439731.75 ], [ 428173.5, 439731.75 ], [ 428173.5, 439731.5 ], [ 428174.25, 439731.5 ], [ 428174.25, 439731.25 ], [ 428174.5, 439731.25 ], [ 428174.5, 439731.0 ], [ 428175.0, 439731.0 ], [ 428175.0, 439730.75 ], [ 428175.75, 439730.75 ], [ 428175.75, 439730.5 ], [ 428176.25, 439730.5 ], [ 428176.25, 439730.25 ], [ 428177.0, 439730.25 ], [ 428177.0, 439730.0 ], [ 428177.75, 439730.0 ], [ 428177.75, 439729.75 ], [ 428179.0, 439729.75 ], [ 428179.0, 439729.5 ], [ 428179.75, 439729.5 ], [ 428179.75, 439729.75 ], [ 428180.5, 439729.75 ], [ 428180.5, 439730.0 ], [ 428182.5, 439730.0 ], [ 428182.5, 439730.25 ], [ 428183.25, 439730.25 ], [ 428183.25, 439730.5 ], [ 428183.75, 439730.5 ], [ 428183.75, 439730.75 ], [ 428184.0, 439730.75 ], [ 428184.0, 439731.0 ], [ 428184.25, 439731.0 ], [ 428184.25, 439731.25 ], [ 428184.5, 439731.25 ], [ 428184.5, 439731.5 ], [ 428185.0, 439731.5 ], [ 428185.0, 439731.75 ], [ 428185.5, 439731.75 ], [ 428185.5, 439732.0 ], [ 428185.75, 439732.0 ], [ 428185.75, 439732.25 ], [ 428186.25, 439732.25 ], [ 428186.25, 439732.5 ], [ 428187.0, 439732.5 ], [ 428187.0, 439732.25 ], [ 428189.25, 439732.25 ], [ 428189.25, 439732.5 ], [ 428189.75, 439732.5 ], [ 428189.75, 439732.75 ], [ 428190.0, 439732.75 ], [ 428190.0, 439733.0 ], [ 428190.5, 439733.0 ], [ 428190.5, 439733.25 ], [ 428190.75, 439733.25 ], [ 428190.75, 439733.5 ], [ 428191.25, 439733.5 ], [ 428191.25, 439733.75 ], [ 428191.5, 439733.75 ], [ 428191.5, 439734.0 ], [ 428191.75, 439734.0 ], [ 428191.75, 439734.25 ], [ 428192.0, 439734.25 ], [ 428192.0, 439734.5 ], [ 428192.25, 439734.5 ], [ 428192.25, 439734.75 ], [ 428192.5, 439734.75 ], [ 428192.5, 439735.25 ], [ 428192.75, 439735.25 ], [ 428192.75, 439735.5 ], [ 428193.25, 439735.5 ], [ 428193.25, 439735.75 ], [ 428193.5, 439735.75 ], [ 428193.5, 439736.0 ], [ 428193.75, 439736.0 ], [ 428193.75, 439736.5 ], [ 428194.0, 439736.5 ], [ 428194.0, 439736.75 ], [ 428194.25, 439736.75 ], [ 428194.25, 439737.25 ], [ 428194.5, 439737.25 ], [ 428194.5, 439737.75 ], [ 428194.75, 439737.75 ], [ 428194.75, 439738.75 ], [ 428195.0, 439738.75 ], [ 428195.0, 439739.75 ], [ 428195.25, 439739.75 ], [ 428195.25, 439741.25 ], [ 428195.5, 439741.25 ], [ 428195.5, 439743.0 ], [ 428195.75, 439743.0 ], [ 428195.75, 439743.5 ], [ 428196.0, 439743.5 ], [ 428196.0, 439744.0 ], [ 428201.25, 439744.0 ], [ 428201.25, 439745.5 ], [ 428201.5, 439745.5 ], [ 428201.5, 439746.5 ], [ 428201.75, 439746.5 ], [ 428201.75, 439747.0 ], [ 428202.0, 439747.0 ], [ 428202.0, 439747.5 ], [ 428202.25, 439747.5 ], [ 428202.25, 439747.75 ], [ 428202.5, 439747.75 ], [ 428202.5, 439748.25 ], [ 428202.75, 439748.25 ], [ 428202.75, 439748.75 ], [ 428203.0, 439748.75 ], [ 428203.0, 439749.0 ], [ 428203.25, 439749.0 ], [ 428203.25, 439749.5 ], [ 428203.5, 439749.5 ], [ 428203.5, 439750.0 ], [ 428203.75, 439750.0 ], [ 428203.75, 439750.25 ], [ 428204.0, 439750.25 ], [ 428204.0, 439750.75 ], [ 428204.25, 439750.75 ], [ 428204.25, 439751.0 ], [ 428204.5, 439751.0 ], [ 428204.5, 439751.25 ], [ 428204.75, 439751.25 ], [ 428204.75, 439751.5 ], [ 428205.0, 439751.5 ], [ 428205.0, 439752.0 ], [ 428205.5, 439752.0 ], [ 428205.5, 439752.25 ], [ 428205.75, 439752.25 ], [ 428205.75, 439752.5 ], [ 428206.0, 439752.5 ], [ 428206.0, 439753.0 ], [ 428206.25, 439753.0 ], [ 428206.25, 439753.25 ], [ 428206.5, 439753.25 ], [ 428206.5, 439753.5 ], [ 428206.75, 439753.5 ], [ 428206.75, 439753.75 ], [ 428207.0, 439753.75 ], [ 428207.0, 439754.25 ], [ 428207.25, 439754.25 ], [ 428207.25, 439754.5 ], [ 428207.5, 439754.5 ], [ 428207.5, 439755.0 ], [ 428207.75, 439755.0 ], [ 428207.75, 439755.25 ], [ 428208.0, 439755.25 ], [ 428208.0, 439755.5 ], [ 428208.25, 439755.5 ], [ 428208.25, 439755.75 ], [ 428208.5, 439755.75 ], [ 428208.5, 439756.25 ], [ 428208.75, 439756.25 ], [ 428208.75, 439756.5 ], [ 428209.0, 439756.5 ], [ 428209.0, 439757.0 ], [ 428209.25, 439757.0 ], [ 428209.25, 439757.25 ], [ 428209.5, 439757.25 ], [ 428209.5, 439757.5 ], [ 428210.0, 439757.5 ], [ 428210.0, 439757.75 ], [ 428210.5, 439757.75 ], [ 428210.5, 439758.0 ], [ 428210.75, 439758.0 ], [ 428210.75, 439757.75 ], [ 428213.0, 439757.75 ], [ 428213.0, 439757.5 ], [ 428214.75, 439757.5 ], [ 428214.75, 439757.25 ], [ 428215.75, 439757.25 ], [ 428215.75, 439757.0 ], [ 428216.75, 439757.0 ], [ 428216.75, 439756.75 ], [ 428217.5, 439756.75 ], [ 428217.5, 439756.5 ], [ 428218.75, 439756.5 ], [ 428218.75, 439757.0 ], [ 428219.0, 439757.0 ], [ 428219.0, 439757.25 ], [ 428220.25, 439757.25 ], [ 428220.25, 439757.0 ], [ 428220.5, 439757.0 ], [ 428220.5, 439757.25 ], [ 428220.75, 439757.25 ], [ 428220.75, 439757.5 ], [ 428221.0, 439757.5 ], [ 428221.0, 439758.25 ], [ 428221.25, 439758.25 ], [ 428221.25, 439758.75 ], [ 428221.5, 439758.75 ], [ 428221.5, 439759.0 ], [ 428221.75, 439759.0 ], [ 428221.75, 439759.75 ], [ 428221.5, 439759.75 ], [ 428221.5, 439760.75 ], [ 428221.25, 439760.75 ], [ 428221.25, 439761.0 ], [ 428221.0, 439761.0 ], [ 428221.0, 439761.5 ], [ 428220.5, 439761.5 ], [ 428220.5, 439761.75 ], [ 428220.25, 439761.75 ], [ 428220.25, 439762.0 ], [ 428219.75, 439762.0 ], [ 428219.75, 439762.25 ], [ 428219.5, 439762.25 ], [ 428219.5, 439762.5 ], [ 428219.25, 439762.5 ], [ 428219.25, 439762.75 ], [ 428219.0, 439762.75 ], [ 428219.0, 439763.0 ], [ 428218.75, 439763.0 ], [ 428218.75, 439763.25 ], [ 428218.5, 439763.25 ], [ 428218.5, 439763.5 ], [ 428218.25, 439763.5 ], [ 428218.25, 439764.0 ], [ 428218.0, 439764.0 ], [ 428218.0, 439764.25 ], [ 428217.75, 439764.25 ], [ 428217.75, 439764.5 ], [ 428217.5, 439764.5 ], [ 428217.5, 439764.75 ], [ 428217.25, 439764.75 ], [ 428217.25, 439765.0 ], [ 428217.0, 439765.0 ], [ 428217.0, 439765.5 ], [ 428216.75, 439765.5 ], [ 428216.75, 439765.75 ], [ 428216.5, 439765.75 ], [ 428216.5, 439766.25 ], [ 428216.25, 439766.25 ], [ 428216.25, 439766.5 ], [ 428216.0, 439766.5 ], [ 428216.0, 439766.75 ], [ 428215.75, 439766.75 ], [ 428215.75, 439767.0 ], [ 428215.5, 439767.0 ], [ 428215.5, 439767.25 ], [ 428215.25, 439767.25 ], [ 428215.25, 439767.5 ], [ 428215.0, 439767.5 ], [ 428215.0, 439767.75 ], [ 428214.75, 439767.75 ], [ 428214.75, 439768.0 ], [ 428214.5, 439768.0 ], [ 428214.5, 439768.25 ], [ 428214.25, 439768.25 ], [ 428214.25, 439768.5 ], [ 428214.0, 439768.5 ], [ 428214.0, 439768.75 ], [ 428213.75, 439768.75 ], [ 428213.75, 439769.25 ], [ 428213.5, 439769.25 ], [ 428213.5, 439769.5 ], [ 428213.25, 439769.5 ], [ 428213.25, 439769.75 ], [ 428213.0, 439769.75 ], [ 428213.0, 439770.25 ], [ 428212.75, 439770.25 ], [ 428212.75, 439770.75 ], [ 428212.5, 439770.75 ], [ 428212.5, 439771.0 ], [ 428212.25, 439771.0 ], [ 428212.25, 439771.25 ], [ 428212.0, 439771.25 ], [ 428212.0, 439771.5 ], [ 428211.75, 439771.5 ], [ 428211.75, 439771.75 ], [ 428211.25, 439771.75 ], [ 428211.25, 439772.0 ], [ 428211.0, 439772.0 ], [ 428211.0, 439772.25 ], [ 428210.75, 439772.25 ], [ 428210.75, 439772.5 ], [ 428210.5, 439772.5 ], [ 428210.5, 439772.75 ], [ 428210.0, 439772.75 ], [ 428210.0, 439773.0 ], [ 428209.75, 439773.0 ], [ 428209.75, 439773.25 ], [ 428209.5, 439773.25 ], [ 428209.5, 439773.5 ], [ 428209.25, 439773.5 ], [ 428209.25, 439773.75 ], [ 428209.0, 439773.75 ], [ 428209.0, 439774.0 ], [ 428208.75, 439774.0 ], [ 428208.75, 439774.25 ], [ 428208.5, 439774.25 ], [ 428208.5, 439774.5 ], [ 428208.25, 439774.5 ], [ 428208.25, 439774.75 ], [ 428208.0, 439774.75 ], [ 428208.0, 439775.0 ], [ 428207.75, 439775.0 ], [ 428207.75, 439775.25 ], [ 428207.5, 439775.25 ], [ 428207.5, 439775.5 ], [ 428207.25, 439775.5 ], [ 428207.25, 439775.75 ], [ 428206.75, 439775.75 ], [ 428206.75, 439776.0 ], [ 428206.5, 439776.0 ], [ 428206.5, 439776.25 ], [ 428206.0, 439776.25 ], [ 428206.0, 439776.5 ], [ 428205.75, 439776.5 ], [ 428205.75, 439776.75 ], [ 428205.25, 439776.75 ], [ 428205.25, 439777.0 ], [ 428205.0, 439777.0 ], [ 428205.0, 439777.25 ], [ 428204.75, 439777.25 ], [ 428204.75, 439777.5 ], [ 428204.5, 439777.5 ], [ 428204.5, 439777.75 ], [ 428204.25, 439777.75 ], [ 428204.25, 439778.25 ], [ 428204.0, 439778.25 ], [ 428204.0, 439778.5 ], [ 428203.75, 439778.5 ], [ 428203.75, 439778.75 ], [ 428203.5, 439778.75 ], [ 428203.5, 439779.0 ], [ 428203.25, 439779.0 ], [ 428203.25, 439779.25 ], [ 428203.0, 439779.25 ], [ 428203.0, 439779.5 ], [ 428202.75, 439779.5 ], [ 428202.75, 439779.75 ], [ 428202.25, 439779.75 ], [ 428202.25, 439780.0 ], [ 428201.75, 439780.0 ], [ 428201.75, 439780.25 ], [ 428201.5, 439780.25 ], [ 428201.5, 439780.5 ], [ 428201.0, 439780.5 ], [ 428201.0, 439780.75 ], [ 428200.75, 439780.75 ], [ 428200.75, 439781.0 ], [ 428200.25, 439781.0 ], [ 428200.25, 439781.25 ], [ 428199.5, 439781.25 ], [ 428199.5, 439781.5 ], [ 428199.25, 439781.5 ], [ 428199.25, 439781.75 ], [ 428198.75, 439781.75 ], [ 428198.75, 439782.0 ], [ 428198.0, 439782.0 ], [ 428198.0, 439782.25 ], [ 428196.5, 439782.25 ], [ 428196.5, 439782.0 ], [ 428195.25, 439782.0 ], [ 428195.25, 439781.75 ], [ 428194.5, 439781.75 ], [ 428194.5, 439781.5 ], [ 428194.0, 439781.5 ], [ 428194.0, 439781.25 ], [ 428193.5, 439781.25 ], [ 428193.5, 439781.0 ], [ 428193.25, 439781.0 ], [ 428193.25, 439780.75 ], [ 428193.0, 439780.75 ], [ 428193.0, 439780.5 ], [ 428192.75, 439780.5 ], [ 428192.75, 439780.25 ], [ 428192.5, 439780.25 ], [ 428192.5, 439780.0 ], [ 428192.25, 439780.0 ], [ 428192.25, 439779.75 ], [ 428192.0, 439779.75 ], [ 428192.0, 439779.5 ], [ 428191.75, 439779.5 ], [ 428191.75, 439779.25 ], [ 428191.5, 439779.25 ], [ 428191.5, 439778.75 ], [ 428191.25, 439778.75 ], [ 428191.25, 439778.5 ], [ 428191.0, 439778.5 ], [ 428191.0, 439778.25 ], [ 428190.75, 439778.25 ], [ 428190.75, 439778.0 ], [ 428190.5, 439778.0 ], [ 428190.5, 439777.75 ], [ 428190.25, 439777.75 ], [ 428190.25, 439777.25 ], [ 428190.0, 439777.25 ], [ 428190.0, 439777.0 ], [ 428189.75, 439777.0 ], [ 428189.75, 439776.75 ], [ 428189.25, 439776.75 ], [ 428189.25, 439776.25 ], [ 428189.0, 439776.25 ], [ 428189.0, 439776.0 ], [ 428188.75, 439776.0 ], [ 428188.75, 439775.75 ], [ 428188.25, 439775.75 ], [ 428188.25, 439775.25 ], [ 428188.0, 439775.25 ], [ 428188.0, 439775.0 ], [ 428187.5, 439775.0 ], [ 428187.5, 439774.75 ], [ 428187.25, 439774.75 ], [ 428187.25, 439774.5 ], [ 428187.0, 439774.5 ], [ 428187.0, 439774.25 ], [ 428186.75, 439774.25 ], [ 428186.75, 439774.0 ], [ 428186.5, 439774.0 ], [ 428186.5, 439773.75 ], [ 428186.25, 439773.75 ], [ 428186.25, 439773.25 ], [ 428186.0, 439773.25 ], [ 428186.0, 439773.0 ], [ 428185.75, 439773.0 ], [ 428185.75, 439772.75 ], [ 428185.5, 439772.75 ], [ 428185.5, 439772.25 ], [ 428185.25, 439772.25 ], [ 428185.25, 439771.75 ], [ 428185.0, 439771.75 ], [ 428185.0, 439771.25 ], [ 428184.75, 439771.25 ], [ 428184.75, 439771.0 ], [ 428184.5, 439771.0 ], [ 428184.5, 439770.5 ], [ 428184.25, 439770.5 ], [ 428184.25, 439769.5 ], [ 428184.0, 439769.5 ], [ 428184.0, 439769.25 ], [ 428183.75, 439769.25 ], [ 428183.75, 439768.75 ], [ 428183.5, 439768.75 ], [ 428183.5, 439768.5 ], [ 428183.0, 439768.5 ], [ 428183.0, 439768.25 ], [ 428181.25, 439768.25 ], [ 428181.25, 439768.5 ], [ 428181.0, 439768.5 ], [ 428181.0, 439768.75 ], [ 428180.75, 439768.75 ], [ 428180.75, 439769.0 ], [ 428180.25, 439769.0 ], [ 428180.25, 439769.25 ], [ 428179.75, 439769.25 ], [ 428179.75, 439769.5 ], [ 428179.25, 439769.5 ], [ 428179.25, 439769.75 ], [ 428179.0, 439769.75 ], [ 428179.0, 439770.0 ], [ 428178.5, 439770.0 ], [ 428178.5, 439770.25 ], [ 428178.25, 439770.25 ], [ 428178.25, 439770.5 ], [ 428177.75, 439770.5 ], [ 428177.75, 439770.75 ], [ 428177.5, 439770.75 ], [ 428177.5, 439771.0 ], [ 428177.0, 439771.0 ], [ 428177.0, 439771.25 ], [ 428176.75, 439771.25 ], [ 428176.75, 439771.5 ], [ 428176.5, 439771.5 ], [ 428176.5, 439771.75 ], [ 428175.75, 439771.75 ], [ 428175.75, 439772.0 ], [ 428175.0, 439772.0 ], [ 428175.0, 439772.25 ], [ 428174.25, 439772.25 ], [ 428174.25, 439772.5 ], [ 428173.5, 439772.5 ], [ 428173.5, 439772.75 ], [ 428173.0, 439772.75 ], [ 428173.0, 439773.0 ], [ 428172.75, 439773.0 ], [ 428172.75, 439773.25 ], [ 428172.25, 439773.25 ], [ 428172.25, 439773.5 ], [ 428172.0, 439773.5 ], [ 428172.0, 439773.75 ], [ 428171.5, 439773.75 ], [ 428171.5, 439774.0 ], [ 428171.25, 439774.0 ], [ 428171.25, 439774.25 ], [ 428171.0, 439774.25 ], [ 428171.0, 439774.5 ], [ 428170.5, 439774.5 ], [ 428170.5, 439774.75 ], [ 428170.25, 439774.75 ], [ 428170.25, 439775.0 ], [ 428169.75, 439775.0 ], [ 428169.75, 439775.25 ], [ 428169.5, 439775.25 ], [ 428169.5, 439775.5 ], [ 428169.0, 439775.5 ], [ 428169.0, 439775.75 ], [ 428168.5, 439775.75 ], [ 428168.5, 439776.0 ], [ 428168.0, 439776.0 ], [ 428168.0, 439776.25 ], [ 428167.5, 439776.25 ], [ 428167.5, 439776.5 ], [ 428167.25, 439776.5 ], [ 428167.25, 439776.75 ], [ 428166.75, 439776.75 ], [ 428166.75, 439777.0 ], [ 428166.5, 439777.0 ], [ 428166.5, 439777.25 ], [ 428166.0, 439777.25 ], [ 428166.0, 439777.5 ], [ 428165.5, 439777.5 ], [ 428165.5, 439777.75 ], [ 428165.25, 439777.75 ], [ 428165.25, 439778.0 ], [ 428165.0, 439778.0 ], [ 428165.0, 439778.25 ], [ 428164.75, 439778.25 ], [ 428164.75, 439778.5 ], [ 428164.5, 439778.5 ], [ 428164.5, 439778.75 ], [ 428164.0, 439778.75 ], [ 428164.0, 439779.0 ], [ 428163.5, 439779.0 ], [ 428163.5, 439779.25 ], [ 428163.25, 439779.25 ], [ 428163.25, 439779.5 ], [ 428162.75, 439779.5 ], [ 428162.75, 439779.75 ], [ 428162.25, 439779.75 ], [ 428162.25, 439780.0 ], [ 428162.0, 439780.0 ], [ 428162.0, 439780.25 ], [ 428161.5, 439780.25 ], [ 428161.5, 439780.5 ], [ 428161.25, 439780.5 ], [ 428161.25, 439780.75 ], [ 428160.75, 439780.75 ], [ 428160.75, 439781.0 ], [ 428160.5, 439781.0 ], [ 428160.5, 439781.25 ], [ 428160.25, 439781.25 ], [ 428160.25, 439781.75 ], [ 428160.0, 439781.75 ], [ 428160.0, 439782.0 ], [ 428159.75, 439782.0 ], [ 428159.75, 439782.25 ], [ 428159.5, 439782.25 ], [ 428159.5, 439782.5 ], [ 428159.25, 439782.5 ], [ 428159.25, 439782.75 ], [ 428159.0, 439782.75 ], [ 428159.0, 439783.0 ], [ 428158.5, 439783.0 ], [ 428158.5, 439783.25 ], [ 428158.0, 439783.25 ], [ 428158.0, 439783.5 ], [ 428157.5, 439783.5 ], [ 428157.5, 439783.75 ], [ 428157.0, 439783.75 ], [ 428157.0, 439784.0 ], [ 428156.25, 439784.0 ], [ 428156.25, 439784.25 ], [ 428156.0, 439784.25 ], [ 428156.0, 439784.5 ], [ 428155.5, 439784.5 ], [ 428155.5, 439784.75 ], [ 428154.75, 439784.75 ], [ 428154.75, 439785.0 ], [ 428154.25, 439785.0 ], [ 428154.25, 439785.25 ], [ 428153.75, 439785.25 ], [ 428153.75, 439785.5 ], [ 428153.25, 439785.5 ], [ 428153.25, 439785.75 ], [ 428152.5, 439785.75 ], [ 428152.5, 439786.0 ], [ 428152.0, 439786.0 ], [ 428152.0, 439786.25 ], [ 428151.5, 439786.25 ], [ 428151.5, 439786.5 ], [ 428151.0, 439786.5 ], [ 428151.0, 439786.75 ], [ 428150.5, 439786.75 ], [ 428150.5, 439787.0 ], [ 428149.75, 439787.0 ], [ 428149.75, 439787.25 ], [ 428148.75, 439787.25 ], [ 428148.75, 439787.5 ], [ 428147.0, 439787.5 ], [ 428147.0, 439787.75 ], [ 428145.5, 439787.75 ], [ 428145.5, 439788.0 ], [ 428145.0, 439788.0 ], [ 428145.0, 439788.25 ], [ 428144.75, 439788.25 ], [ 428144.75, 439788.5 ], [ 428144.25, 439788.5 ], [ 428144.25, 439788.75 ], [ 428143.75, 439788.75 ], [ 428143.75, 439789.0 ], [ 428143.5, 439789.0 ], [ 428143.5, 439789.25 ], [ 428143.25, 439789.25 ], [ 428143.25, 439789.5 ], [ 428142.75, 439789.5 ], [ 428142.75, 439789.75 ], [ 428142.25, 439789.75 ], [ 428142.25, 439790.0 ], [ 428141.75, 439790.0 ], [ 428141.75, 439790.25 ], [ 428140.75, 439790.25 ], [ 428140.75, 439790.5 ], [ 428137.5, 439790.5 ] ] ] } },
{ "type": "Feature", "properties": { }, "geometry": { "type": "Polygon", "coordinates": [ [ [ 428765.25, 439720.5 ], [ 428765.25, 439720.0 ], [ 428765.0, 439720.0 ], [ 428765.0, 439719.5 ], [ 428764.75, 439719.5 ], [ 428764.75, 439719.25 ], [ 428764.5, 439719.25 ], [ 428764.5, 439719.0 ], [ 428764.25, 439719.0 ], [ 428764.25, 439719.25 ], [ 428763.25, 439719.25 ], [ 428763.25, 439718.75 ], [ 428763.0, 439718.75 ], [ 428763.0, 439718.5 ], [ 428762.75, 439718.5 ], [ 428762.75, 439718.0 ], [ 428762.5, 439718.0 ], [ 428762.5, 439717.5 ], [ 428762.25, 439717.5 ], [ 428762.25, 439715.5 ], [ 428762.5, 439715.5 ], [ 428762.5, 439715.25 ], [ 428762.75, 439715.25 ], [ 428762.75, 439715.0 ], [ 428763.0, 439715.0 ], [ 428763.0, 439714.75 ], [ 428763.25, 439714.75 ], [ 428763.25, 439714.5 ], [ 428768.0, 439714.5 ], [ 428768.0, 439720.25 ], [ 428767.25, 439720.25 ], [ 428767.25, 439720.0 ], [ 428766.25, 439720.0 ], [ 428766.25, 439720.25 ], [ 428765.75, 439720.25 ], [ 428765.75, 439720.5 ], [ 428765.25, 439720.5 ] ] ] } },
{ "type": "Feature", "properties": { }, "geometry": { "type": "Polygon", "coordinates": [ [ [ 428895.25, 439700.75 ], [ 428895.25, 439700.25 ], [ 428895.5, 439700.25 ], [ 428895.5, 439700.0 ], [ 428896.0, 439700.0 ], [ 428896.0, 439700.75 ], [ 428895.25, 439700.75 ] ] ] } },
{ "type": "Feature", "properties": { }, "geometry": { "type": "Polygon", "coordinates": [ [ [ 428767.0, 439712.5 ], [ 428767.0, 439712.25 ], [ 428766.25, 439712.25 ], [ 428766.25, 439712.0 ], [ 428766.0, 439712.0 ], [ 428766.0, 439711.75 ], [ 428764.5, 439711.75 ], [ 428764.5, 439712.0 ], [ 428763.5, 439712.0 ], [ 428763.5, 439712.25 ], [ 428762.5, 439712.25 ], [ 428762.5, 439712.0 ], [ 428762.25, 439712.0 ], [ 428762.25, 439711.75 ], [ 428762.0, 439711.75 ], [ 428762.0, 439711.5 ], [ 428761.75, 439711.5 ], [ 428761.75, 439711.0 ], [ 428761.5, 439711.0 ], [ 428761.5, 439710.25 ], [ 428761.25, 439710.25 ], [ 428761.25, 439709.5 ], [ 428761.0, 439709.5 ], [ 428761.0, 439705.5 ], [ 428761.25, 439705.5 ], [ 428761.25, 439705.0 ], [ 428761.5, 439705.0 ], [ 428761.5, 439704.25 ], [ 428761.75, 439704.25 ], [ 428761.75, 439704.0 ], [ 428762.0, 439704.0 ], [ 428762.0, 439703.5 ], [ 428762.25, 439703.5 ], [ 428762.25, 439703.0 ], [ 428762.5, 439703.0 ], [ 428762.5, 439702.5 ], [ 428762.75, 439702.5 ], [ 428762.75, 439702.0 ], [ 428763.0, 439702.0 ], [ 428763.0, 439701.75 ], [ 428763.25, 439701.75 ], [ 428763.25, 439701.0 ], [ 428763.5, 439701.0 ], [ 428763.5, 439700.0 ], [ 428763.75, 439700.0 ], [ 428763.75, 439699.25 ], [ 428764.0, 439699.25 ], [ 428764.0, 439698.75 ], [ 428764.25, 439698.75 ], [ 428764.25, 439698.0 ], [ 428764.5, 439698.0 ], [ 428764.5, 439697.5 ], [ 428764.75, 439697.5 ], [ 428764.75, 439697.25 ], [ 428765.0, 439697.25 ], [ 428765.0, 439696.75 ], [ 428765.25, 439696.75 ], [ 428765.25, 439696.5 ], [ 428765.5, 439696.5 ], [ 428765.5, 439696.0 ], [ 428766.0, 439696.0 ], [ 428766.0, 439695.75 ], [ 428768.0, 439695.75 ], [ 428768.0, 439712.5 ], [ 428767.0, 439712.5 ] ] ] } },
{ "type": "Feature", "properties": { }, "geometry": { "type": "Polygon", "coordinates": [ [ [ 428272.25, 439699.75 ], [ 428272.25, 439699.5 ], [ 428270.25, 439699.5 ], [ 428270.25, 439699.25 ], [ 428269.25, 439699.25 ], [ 428269.25, 439699.0 ], [ 428268.75, 439699.0 ], [ 428268.75, 439698.75 ], [ 428267.75, 439698.75 ], [ 428267.75, 439698.5 ], [ 428267.25, 439698.5 ], [ 428267.25, 439698.0 ], [ 428267.0, 439698.0 ], [ 428267.0, 439697.75 ], [ 428266.75, 439697.75 ], [ 428266.75, 439697.5 ], [ 428266.5, 439697.5 ], [ 428266.5, 439697.0 ], [ 428266.0, 439697.0 ], [ 428266.0, 439696.75 ], [ 428264.0, 439696.75 ], [ 428264.0, 439697.0 ], [ 428257.75, 439697.0 ], [ 428257.75, 439696.75 ], [ 428257.0, 439696.75 ], [ 428257.0, 439697.0 ], [ 428256.0, 439697.0 ], [ 428256.0, 439683.0 ], [ 428256.5, 439683.0 ], [ 428256.5, 439683.25 ], [ 428259.5, 439683.25 ], [ 428259.5, 439683.5 ], [ 428260.25, 439683.5 ], [ 428260.25, 439683.75 ], [ 428262.25, 439683.75 ], [ 428262.25, 439683.5 ], [ 428263.75, 439683.5 ], [ 428263.75, 439683.75 ], [ 428265.0, 439683.75 ], [ 428265.0, 439684.0 ], [ 428266.0, 439684.0 ], [ 428266.0, 439683.75 ], [ 428267.25, 439683.75 ], [ 428267.25, 439683.5 ], [ 428268.0, 439683.5 ], [ 428268.0, 439683.25 ], [ 428268.5, 439683.25 ], [ 428268.5, 439683.0 ], [ 428271.75, 439683.0 ], [ 428271.75, 439683.25 ], [ 428274.75, 439683.25 ], [ 428274.75, 439683.5 ], [ 428277.0, 439683.5 ], [ 428277.0, 439683.75 ], [ 428278.25, 439683.75 ], [ 428278.25, 439684.0 ], [ 428279.5, 439684.0 ], [ 428279.5, 439684.25 ], [ 428283.5, 439684.25 ], [ 428283.5, 439684.5 ], [ 428284.75, 439684.5 ], [ 428284.75, 439684.75 ], [ 428285.0, 439684.75 ], [ 428285.0, 439685.0 ], [ 428285.25, 439685.0 ], [ 428285.25, 439685.25 ], [ 428285.75, 439685.25 ], [ 428285.75, 439685.75 ], [ 428286.0, 439685.75 ], [ 428286.0, 439686.25 ], [ 428286.25, 439686.25 ], [ 428286.25, 439690.0 ], [ 428286.0, 439690.0 ], [ 428286.0, 439691.5 ], [ 428285.75, 439691.5 ], [ 428285.75, 439693.0 ], [ 428285.5, 439693.0 ], [ 428285.5, 439693.75 ], [ 428285.25, 439693.75 ], [ 428285.25, 439694.0 ], [ 428285.0, 439694.0 ], [ 428285.0, 439694.75 ], [ 428284.75, 439694.75 ], [ 428284.75, 439695.75 ], [ 428284.5, 439695.75 ], [ 428284.5, 439697.25 ], [ 428284.25, 439697.25 ], [ 428284.25, 439697.5 ], [ 428284.0, 439697.5 ], [ 428284.0, 439697.75 ], [ 428283.75, 439697.75 ], [ 428283.75, 439698.0 ], [ 428283.5, 439698.0 ], [ 428283.5, 439698.5 ], [ 428282.75, 439698.5 ], [ 428282.75, 439698.75 ], [ 428282.0, 439698.75 ], [ 428282.0, 439699.0 ], [ 428281.25, 439699.0 ], [ 428281.25, 439699.25 ], [ 428279.25, 439699.25 ], [ 428279.25, 439699.5 ], [ 428277.25, 439699.5 ], [ 428277.25, 439699.75 ], [ 428272.25, 439699.75 ] ] ] } },
{ "type": "Feature", "properties": { }, "geometry": { "type": "Polygon", "coordinates": [ [ [ 428109.5, 439711.0 ], [ 428109.5, 439710.75 ], [ 428109.25, 439710.75 ], [ 428109.25, 439710.0 ], [ 428109.0, 439710.0 ], [ 428109.0, 439709.5 ], [ 428108.75, 439709.5 ], [ 428108.75, 439709.25 ], [ 428108.5, 439709.25 ], [ 428108.5, 439709.0 ], [ 428108.25, 439709.0 ], [ 428108.25, 439707.75 ], [ 428108.5, 439707.75 ], [ 428108.5, 439707.25 ], [ 428109.75, 439707.25 ], [ 428109.75, 439707.0 ], [ 428110.25, 439707.0 ], [ 428110.25, 439706.75 ], [ 428110.75, 439706.75 ], [ 428110.75, 439705.75 ], [ 428110.5, 439705.75 ], [ 428110.5, 439705.0 ], [ 428110.25, 439705.0 ], [ 428110.25, 439703.75 ], [ 428110.5, 439703.75 ], [ 428110.5, 439703.5 ], [ 428110.75, 439703.5 ], [ 428110.75, 439703.25 ], [ 428111.0, 439703.25 ], [ 428111.0, 439703.0 ], [ 428111.5, 439703.0 ], [ 428111.5, 439702.75 ], [ 428112.0, 439702.75 ], [ 428112.0, 439702.25 ], [ 428111.5, 439702.25 ], [ 428111.5, 439702.0 ], [ 428111.25, 439702.0 ], [ 428111.25, 439701.75 ], [ 428111.0, 439701.75 ], [ 428111.0, 439701.5 ], [ 428110.75, 439701.5 ], [ 428110.75, 439701.25 ], [ 428110.0, 439701.25 ], [ 428110.0, 439701.5 ], [ 428109.5, 439701.5 ], [ 428109.5, 439701.75 ], [ 428109.25, 439701.75 ], [ 428109.25, 439701.5 ], [ 428108.25, 439701.5 ], [ 428108.25, 439701.25 ], [ 428108.0, 439701.25 ], [ 428108.0, 439701.0 ], [ 428107.5, 439701.0 ], [ 428107.5, 439700.75 ], [ 428107.25, 439700.75 ], [ 428107.25, 439700.5 ], [ 428107.0, 439700.5 ], [ 428107.0, 439700.0 ], [ 428106.75, 439700.0 ], [ 428106.75, 439699.75 ], [ 428106.5, 439699.75 ], [ 428106.5, 439698.5 ], [ 428106.25, 439698.5 ], [ 428106.25, 439698.0 ], [ 428106.0, 439698.0 ], [ 428106.0, 439697.5 ], [ 428105.75, 439697.5 ], [ 428105.75, 439697.25 ], [ 428105.5, 439697.25 ], [ 428105.5, 439697.0 ], [ 428105.25, 439697.0 ], [ 428105.25, 439696.75 ], [ 428105.0, 439696.75 ], [ 428105.0, 439696.5 ], [ 428104.75, 439696.5 ], [ 428104.75, 439696.25 ], [ 428104.25, 439696.25 ], [ 428104.25, 439696.0 ], [ 428104.0, 439696.0 ], [ 428104.0, 439695.75 ], [ 428103.75, 439695.75 ], [ 428103.75, 439695.5 ], [ 428103.5, 439695.5 ], [ 428103.5, 439694.5 ], [ 428103.25, 439694.5 ], [ 428103.25, 439694.0 ], [ 428103.0, 439694.0 ], [ 428103.0, 439693.75 ], [ 428102.75, 439693.75 ], [ 428102.75, 439693.5 ], [ 428102.5, 439693.5 ], [ 428102.5, 439693.25 ], [ 428102.25, 439693.25 ], [ 428102.25, 439692.75 ], [ 428102.0, 439692.75 ], [ 428102.0, 439692.25 ], [ 428101.75, 439692.25 ], [ 428101.75, 439692.0 ], [ 428101.5, 439692.0 ], [ 428101.5, 439691.75 ], [ 428101.25, 439691.75 ], [ 428101.25, 439691.25 ], [ 428101.0, 439691.25 ], [ 428101.0, 439690.75 ], [ 428100.75, 439690.75 ], [ 428100.75, 439690.25 ], [ 428101.0, 439690.25 ], [ 428101.0, 439689.75 ], [ 428101.25, 439689.75 ], [ 428101.25, 439689.25 ], [ 428101.5, 439689.25 ], [ 428101.5, 439688.5 ], [ 428101.75, 439688.5 ], [ 428101.75, 439687.75 ], [ 428102.0, 439687.75 ], [ 428102.0, 439687.25 ], [ 428102.25, 439687.25 ], [ 428102.25, 439687.0 ], [ 428102.5, 439687.0 ], [ 428102.5, 439686.5 ], [ 428102.75, 439686.5 ], [ 428102.75, 439686.25 ], [ 428103.0, 439686.25 ], [ 428103.0, 439686.0 ], [ 428103.25, 439686.0 ], [ 428103.25, 439685.75 ], [ 428103.5, 439685.75 ], [ 428103.5, 439685.5 ], [ 428103.75, 439685.5 ], [ 428103.75, 439685.25 ], [ 428104.25, 439685.25 ], [ 428104.25, 439685.0 ], [ 428104.75, 439685.0 ], [ 428104.75, 439684.75 ], [ 428105.0, 439684.75 ], [ 428105.0, 439684.5 ], [ 428105.25, 439684.5 ], [ 428105.25, 439684.25 ], [ 428105.75, 439684.25 ], [ 428105.75, 439684.0 ], [ 428106.5, 439684.0 ], [ 428106.5, 439683.75 ], [ 428106.75, 439683.75 ], [ 428106.75, 439683.5 ], [ 428107.0, 439683.5 ], [ 428107.0, 439683.25 ], [ 428107.25, 439683.25 ], [ 428107.25, 439683.0 ], [ 428107.5, 439683.0 ], [ 428107.5, 439682.75 ], [ 428108.0, 439682.75 ], [ 428108.0, 439682.5 ], [ 428108.25, 439682.5 ], [ 428108.25, 439682.25 ], [ 428108.5, 439682.25 ], [ 428108.5, 439682.0 ], [ 428109.0, 439682.0 ], [ 428109.0, 439681.75 ], [ 428109.5, 439681.75 ], [ 428109.5, 439681.5 ], [ 428109.75, 439681.5 ], [ 428109.75, 439681.25 ], [ 428110.25, 439681.25 ], [ 428110.25, 439681.0 ], [ 428110.75, 439681.0 ], [ 428110.75, 439680.75 ], [ 428111.25, 439680.75 ], [ 428111.25, 439680.5 ], [ 428111.5, 439680.5 ], [ 428111.5, 439680.25 ], [ 428112.0, 439680.25 ], [ 428112.0, 439680.0 ], [ 428112.25, 439680.0 ], [ 428112.25, 439679.75 ], [ 428112.5, 439679.75 ], [ 428112.5, 439679.5 ], [ 428113.0, 439679.5 ], [ 428113.0, 439679.25 ], [ 428113.5, 439679.25 ], [ 428113.5, 439679.0 ], [ 428114.0, 439679.0 ], [ 428114.0, 439678.75 ], [ 428114.75, 439678.75 ], [ 428114.75, 439678.5 ], [ 428119.25, 439678.5 ], [ 428119.25, 439678.75 ], [ 428120.0, 439678.75 ], [ 428120.0, 439679.0 ], [ 428120.75, 439679.0 ], [ 428120.75, 439679.25 ], [ 428122.0, 439679.25 ], [ 428122.0, 439679.0 ], [ 428122.5, 439679.0 ], [ 428122.5, 439678.75 ], [ 428123.0, 439678.75 ], [ 428123.0, 439678.5 ], [ 428123.5, 439678.5 ], [ 428123.5, 439678.25 ], [ 428124.5, 439678.25 ], [ 428124.5, 439678.0 ], [ 428124.75, 439678.0 ], [ 428124.75, 439677.75 ], [ 428125.5, 439677.75 ], [ 428125.5, 439677.5 ], [ 428128.0, 439677.5 ], [ 428128.0, 439706.75 ], [ 428125.25, 439706.75 ], [ 428125.25, 439707.0 ], [ 428124.25, 439707.0 ], [ 428124.25, 439707.25 ], [ 428124.0, 439707.25 ], [ 428124.0, 439707.5 ], [ 428123.75, 439707.5 ], [ 428123.75, 439708.0 ], [ 428123.5, 439708.0 ], [ 428123.5, 439708.25 ], [ 428121.5, 439708.25 ], [ 428121.5, 439708.0 ], [ 428120.5, 439708.0 ], [ 428120.5, 439707.75 ], [ 428120.0, 439707.75 ], [ 428120.0, 439707.5 ], [ 428119.75, 439707.5 ], [ 428119.75, 439707.25 ], [ 428119.5, 439707.25 ], [ 428119.5, 439707.0 ], [ 428119.25, 439707.0 ], [ 428119.25, 439706.75 ], [ 428119.0, 439706.75 ], [ 428119.0, 439706.5 ], [ 428118.75, 439706.5 ], [ 428118.75, 439706.25 ], [ 428118.5, 439706.25 ], [ 428118.5, 439706.0 ], [ 428117.75, 439706.0 ], [ 428117.75, 439705.75 ], [ 428117.0, 439705.75 ], [ 428117.0, 439706.0 ], [ 428116.0, 439706.0 ], [ 428116.0, 439706.25 ], [ 428115.75, 439706.25 ], [ 428115.75, 439706.5 ], [ 428115.5, 439706.5 ], [ 428115.5, 439706.75 ], [ 428115.25, 439706.75 ], [ 428115.25, 439707.25 ], [ 428115.0, 439707.25 ], [ 428115.0, 439707.5 ], [ 428114.75, 439707.5 ], [ 428114.75, 439708.25 ], [ 428114.5, 439708.25 ], [ 428114.5, 439708.75 ], [ 428114.25, 439708.75 ], [ 428114.25, 439709.5 ], [ 428114.0, 439709.5 ], [ 428114.0, 439710.0 ], [ 428113.75, 439710.0 ], [ 428113.75, 439710.25 ], [ 428113.5, 439710.25 ], [ 428113.5, 439710.5 ], [ 428113.0, 439710.5 ], [ 428113.0, 439710.75 ], [ 428112.25, 439710.75 ], [ 428112.25, 439711.0 ], [ 428109.5, 439711.0 ] ] ] } },
{ "type": "Feature", "properties": { }, "geometry": { "type": "Polygon", "coordinates": [ [ [ 428257.5, 439562.5 ], [ 428257.5, 439562.25 ], [ 428256.0, 439562.25 ], [ 428256.0, 439539.0 ], [ 428256.75, 439539.0 ], [ 428256.75, 439539.25 ], [ 428257.25, 439539.25 ], [ 428257.25, 439539.5 ], [ 428257.5, 439539.5 ], [ 428257.5, 439539.25 ], [ 428257.75, 439539.25 ], [ 428257.75, 439539.0 ], [ 428258.25, 439539.0 ], [ 428258.25, 439538.75 ], [ 428260.0, 439538.75 ], [ 428260.0, 439538.5 ], [ 428262.0, 439538.5 ], [ 428262.0, 439538.75 ], [ 428262.5, 439538.75 ], [ 428262.5, 439539.0 ], [ 428263.0, 439539.0 ], [ 428263.0, 439539.25 ], [ 428263.5, 439539.25 ], [ 428263.5, 439539.75 ], [ 428263.75, 439539.75 ], [ 428263.75, 439540.0 ], [ 428264.0, 439540.0 ], [ 428264.0, 439540.25 ], [ 428264.5, 439540.25 ], [ 428264.5, 439540.5 ], [ 428264.75, 439540.5 ], [ 428264.75, 439541.0 ], [ 428265.0, 439541.0 ], [ 428265.0, 439541.25 ], [ 428265.25, 439541.25 ], [ 428265.25, 439541.5 ], [ 428265.5, 439541.5 ], [ 428265.5, 439541.75 ], [ 428265.75, 439541.75 ], [ 428265.75, 439542.0 ], [ 428266.0, 439542.0 ], [ 428266.0, 439542.25 ], [ 428266.25, 439542.25 ], [ 428266.25, 439542.75 ], [ 428266.5, 439542.75 ], [ 428266.5, 439543.25 ], [ 428266.75, 439543.25 ], [ 428266.75, 439543.75 ], [ 428267.0, 439543.75 ], [ 428267.0, 439544.25 ], [ 428267.25, 439544.25 ], [ 428267.25, 439544.75 ], [ 428267.5, 439544.75 ], [ 428267.5, 439545.5 ], [ 428267.75, 439545.5 ], [ 428267.75, 439546.5 ], [ 428268.0, 439546.5 ], [ 428268.0, 439547.25 ], [ 428268.25, 439547.25 ], [ 428268.25, 439548.0 ], [ 428268.5, 439548.0 ], [ 428268.5, 439548.5 ], [ 428268.75, 439548.5 ], [ 428268.75, 439549.25 ], [ 428269.0, 439549.25 ], [ 428269.0, 439549.5 ], [ 428269.25, 439549.5 ], [ 428269.25, 439550.0 ], [ 428269.5, 439550.0 ], [ 428269.5, 439550.5 ], [ 428269.75, 439550.5 ], [ 428269.75, 439551.25 ], [ 428270.0, 439551.25 ], [ 428270.0, 439552.0 ], [ 428270.25, 439552.0 ], [ 428270.25, 439552.75 ], [ 428270.5, 439552.75 ], [ 428270.5, 439555.25 ], [ 428270.25, 439555.25 ], [ 428270.25, 439556.0 ], [ 428270.0, 439556.0 ], [ 428270.0, 439556.75 ], [ 428269.75, 439556.75 ], [ 428269.75, 439557.25 ], [ 428269.5, 439557.25 ], [ 428269.5, 439557.75 ], [ 428269.25, 439557.75 ], [ 428269.25, 439558.0 ], [ 428269.0, 439558.0 ], [ 428269.0, 439558.25 ], [ 428268.75, 439558.25 ], [ 428268.75, 439558.5 ], [ 428268.5, 439558.5 ], [ 428268.5, 439558.75 ], [ 428268.0, 439558.75 ], [ 428268.0, 439559.0 ], [ 428267.5, 439559.0 ], [ 428267.5, 439559.25 ], [ 428266.75, 439559.25 ], [ 428266.75, 439559.5 ], [ 428266.25, 439559.5 ], [ 428266.25, 439559.75 ], [ 428265.75, 439559.75 ], [ 428265.75, 439560.0 ], [ 428265.5, 439560.0 ], [ 428265.5, 439560.25 ], [ 428265.0, 439560.25 ], [ 428265.0, 439560.5 ], [ 428264.5, 439560.5 ], [ 428264.5, 439560.75 ], [ 428263.75, 439560.75 ], [ 428263.75, 439561.0 ], [ 428263.0, 439561.0 ], [ 428263.0, 439561.25 ], [ 428262.5, 439561.25 ], [ 428262.5, 439561.5 ], [ 428262.0, 439561.5 ], [ 428262.0, 439561.75 ], [ 428261.25, 439561.75 ], [ 428261.25, 439562.0 ], [ 428260.5, 439562.0 ], [ 428260.5, 439562.25 ], [ 428259.75, 439562.25 ], [ 428259.75, 439562.5 ], [ 428257.5, 439562.5 ] ] ] } },
{ "type": "Feature", "properties": { }, "geometry": { "type": "Polygon", "coordinates": [ [ [ 428934.5, 439483.5 ], [ 428934.5, 439483.25 ], [ 428934.75, 439483.25 ], [ 428934.75, 439483.5 ], [ 428934.5, 439483.5 ] ] ] } },
{ "type": "Feature", "properties": { }, "geometry": { "type": "Polygon", "coordinates": [ [ [ 428005.25, 439352.75 ], [ 428005.25, 439352.5 ], [ 428004.5, 439352.5 ], [ 428004.5, 439352.25 ], [ 428003.75, 439352.25 ], [ 428003.75, 439352.0 ], [ 428003.25, 439352.0 ], [ 428003.25, 439351.75 ], [ 428002.75, 439351.75 ], [ 428002.75, 439351.5 ], [ 428002.5, 439351.5 ], [ 428002.5, 439351.25 ], [ 428002.25, 439351.25 ], [ 428002.25, 439351.0 ], [ 428002.0, 439351.0 ], [ 428002.0, 439350.75 ], [ 428001.75, 439350.75 ], [ 428001.75, 439350.5 ], [ 428001.5, 439350.5 ], [ 428001.5, 439350.25 ], [ 428001.0, 439350.25 ], [ 428001.0, 439350.0 ], [ 428000.0, 439350.0 ], [ 428000.0, 439341.75 ], [ 428000.5, 439341.75 ], [ 428000.5, 439341.5 ], [ 428000.75, 439341.5 ], [ 428000.75, 439341.25 ], [ 428000.0, 439341.25 ], [ 428000.0, 439337.75 ], [ 428000.5, 439337.75 ], [ 428000.5, 439337.5 ], [ 428000.75, 439337.5 ], [ 428000.75, 439337.25 ], [ 428001.0, 439337.25 ], [ 428001.0, 439336.5 ], [ 428001.25, 439336.5 ], [ 428001.25, 439336.0 ], [ 428001.5, 439336.0 ], [ 428001.5, 439336.25 ], [ 428001.75, 439336.25 ], [ 428001.75, 439337.75 ], [ 428002.0, 439337.75 ], [ 428002.0, 439338.25 ], [ 428002.25, 439338.25 ], [ 428002.25, 439339.0 ], [ 428002.5, 439339.0 ], [ 428002.5, 439341.0 ], [ 428002.25, 439341.0 ], [ 428002.25, 439341.25 ], [ 428002.0, 439341.25 ], [ 428002.0, 439341.5 ], [ 428002.25, 439341.5 ], [ 428002.25, 439341.75 ], [ 428002.5, 439341.75 ], [ 428002.5, 439342.0 ], [ 428003.0, 439342.0 ], [ 428003.0, 439342.25 ], [ 428003.75, 439342.25 ], [ 428003.75, 439342.0 ], [ 428007.0, 439342.0 ], [ 428007.0, 439341.75 ], [ 428007.75, 439341.75 ], [ 428007.75, 439341.5 ], [ 428008.75, 439341.5 ], [ 428008.75, 439341.25 ], [ 428009.75, 439341.25 ], [ 428009.75, 439341.0 ], [ 428010.25, 439341.0 ], [ 428010.25, 439340.75 ], [ 428011.0, 439340.75 ], [ 428011.0, 439340.5 ], [ 428011.75, 439340.5 ], [ 428011.75, 439340.25 ], [ 428012.75, 439340.25 ], [ 428012.75, 439340.0 ], [ 428013.25, 439340.0 ], [ 428013.25, 439339.75 ], [ 428013.75, 439339.75 ], [ 428013.75, 439339.5 ], [ 428014.5, 439339.5 ], [ 428014.5, 439339.25 ], [ 428014.75, 439339.25 ], [ 428014.75, 439339.0 ], [ 428015.25, 439339.0 ], [ 428015.25, 439338.75 ], [ 428015.5, 439338.75 ], [ 428015.5, 439338.5 ], [ 428015.75, 439338.5 ], [ 428015.75, 439338.25 ], [ 428016.0, 439338.25 ], [ 428016.0, 439338.0 ], [ 428016.25, 439338.0 ], [ 428016.25, 439336.0 ], [ 428016.0, 439336.0 ], [ 428016.0, 439332.5 ], [ 428015.75, 439332.5 ], [ 428015.75, 439331.5 ], [ 428015.5, 439331.5 ], [ 428015.5, 439330.5 ], [ 428015.75, 439330.5 ], [ 428015.75, 439330.0 ], [ 428016.0, 439330.0 ], [ 428016.0, 439329.5 ], [ 428016.5, 439329.5 ], [ 428016.5, 439329.25 ], [ 428016.75, 439329.25 ], [ 428016.75, 439329.0 ], [ 428017.25, 439329.0 ], [ 428017.25, 439328.75 ], [ 428017.75, 439328.75 ], [ 428017.75, 439328.5 ], [ 428019.0, 439328.5 ], [ 428019.0, 439328.25 ], [ 428020.75, 439328.25 ], [ 428020.75, 439328.0 ], [ 428021.75, 439328.0 ], [ 428021.75, 439327.75 ], [ 428023.25, 439327.75 ], [ 428023.25, 439327.5 ], [ 428024.0, 439327.5 ], [ 428024.0, 439327.25 ], [ 428025.0, 439327.25 ], [ 428025.0, 439327.0 ], [ 428025.75, 439327.0 ], [ 428025.75, 439326.75 ], [ 428026.25, 439326.75 ], [ 428026.25, 439326.5 ], [ 428027.25, 439326.5 ], [ 428027.25, 439326.25 ], [ 428029.25, 439326.25 ], [ 428029.25, 439326.0 ], [ 428031.5, 439326.0 ], [ 428031.5, 439325.75 ], [ 428033.25, 439325.75 ], [ 428033.25, 439325.5 ], [ 428035.5, 439325.5 ], [ 428035.5, 439325.75 ], [ 428036.0, 439325.75 ], [ 428036.0, 439326.0 ], [ 428036.25, 439326.0 ], [ 428036.25, 439326.25 ], [ 428036.5, 439326.25 ], [ 428036.5, 439326.5 ], [ 428036.75, 439326.5 ], [ 428036.75, 439327.0 ], [ 428037.0, 439327.0 ], [ 428037.0, 439328.75 ], [ 428037.25, 439328.75 ], [ 428037.25, 439329.25 ], [ 428037.5, 439329.25 ], [ 428037.5, 439330.5 ], [ 428037.75, 439330.5 ], [ 428037.75, 439331.0 ], [ 428038.0, 439331.0 ], [ 428038.0, 439333.0 ], [ 428038.25, 439333.0 ], [ 428038.25, 439333.5 ], [ 428038.0, 439333.5 ], [ 428038.0, 439334.25 ], [ 428037.75, 439334.25 ], [ 428037.75, 439335.0 ], [ 428037.5, 439335.0 ], [ 428037.5, 439335.5 ], [ 428037.25, 439335.5 ], [ 428037.25, 439335.75 ], [ 428037.0, 439335.75 ], [ 428037.0, 439336.25 ], [ 428036.75, 439336.25 ], [ 428036.75, 439336.75 ], [ 428036.5, 439336.75 ], [ 428036.5, 439337.25 ], [ 428036.25, 439337.25 ], [ 428036.25, 439337.75 ], [ 428036.0, 439337.75 ], [ 428036.0, 439338.0 ], [ 428035.75, 439338.0 ], [ 428035.75, 439338.5 ], [ 428035.5, 439338.5 ], [ 428035.5, 439338.75 ], [ 428035.25, 439338.75 ], [ 428035.25, 439339.0 ], [ 428035.0, 439339.0 ], [ 428035.0, 439339.25 ], [ 428034.75, 439339.25 ], [ 428034.75, 439339.5 ], [ 428034.5, 439339.5 ], [ 428034.5, 439339.75 ], [ 428034.0, 439339.75 ], [ 428034.0, 439340.0 ], [ 428033.75, 439340.0 ], [ 428033.75, 439340.25 ], [ 428033.25, 439340.25 ], [ 428033.25, 439340.5 ], [ 428033.0, 439340.5 ], [ 428033.0, 439341.0 ], [ 428032.75, 439341.0 ], [ 428032.75, 439341.25 ], [ 428032.5, 439341.25 ], [ 428032.5, 439341.75 ], [ 428032.25, 439341.75 ], [ 428032.25, 439342.0 ], [ 428032.0, 439342.0 ], [ 428032.0, 439342.25 ], [ 428031.75, 439342.25 ], [ 428031.75, 439342.5 ], [ 428031.5, 439342.5 ], [ 428031.5, 439342.75 ], [ 428031.25, 439342.75 ], [ 428031.25, 439343.25 ], [ 428031.0, 439343.25 ], [ 428031.0, 439343.5 ], [ 428030.75, 439343.5 ], [ 428030.75, 439343.75 ], [ 428030.5, 439343.75 ], [ 428030.5, 439344.0 ], [ 428030.25, 439344.0 ], [ 428030.25, 439344.25 ], [ 428029.75, 439344.25 ], [ 428029.75, 439344.5 ], [ 428029.25, 439344.5 ], [ 428029.25, 439344.75 ], [ 428028.75, 439344.75 ], [ 428028.75, 439345.0 ], [ 428028.25, 439345.0 ], [ 428028.25, 439345.25 ], [ 428027.75, 439345.25 ], [ 428027.75, 439345.5 ], [ 428027.5, 439345.5 ], [ 428027.5, 439345.75 ], [ 428027.0, 439345.75 ], [ 428027.0, 439346.0 ], [ 428026.75, 439346.0 ], [ 428026.75, 439346.25 ], [ 428026.25, 439346.25 ], [ 428026.25, 439346.5 ], [ 428025.75, 439346.5 ], [ 428025.75, 439346.75 ], [ 428025.0, 439346.75 ], [ 428025.0, 439347.0 ], [ 428024.25, 439347.0 ], [ 428024.25, 439347.25 ], [ 428023.75, 439347.25 ], [ 428023.75, 439347.5 ], [ 428023.25, 439347.5 ], [ 428023.25, 439347.75 ], [ 428022.5, 439347.75 ], [ 428022.5, 439348.0 ], [ 428021.75, 439348.0 ], [ 428021.75, 439348.25 ], [ 428021.0, 439348.25 ], [ 428021.0, 439348.5 ], [ 428020.5, 439348.5 ], [ 428020.5, 439348.75 ], [ 428019.5, 439348.75 ], [ 428019.5, 439349.0 ], [ 428018.75, 439349.0 ], [ 428018.75, 439349.25 ], [ 428018.0, 439349.25 ], [ 428018.0, 439349.5 ], [ 428017.5, 439349.5 ], [ 428017.5, 439349.75 ], [ 428016.75, 439349.75 ], [ 428016.75, 439350.0 ], [ 428016.0, 439350.0 ], [ 428016.0, 439350.25 ], [ 428015.25, 439350.25 ], [ 428015.25, 439350.5 ], [ 428014.5, 439350.5 ], [ 428014.5, 439350.75 ], [ 428012.75, 439350.75 ], [ 428012.75, 439351.0 ], [ 428011.25, 439351.0 ], [ 428011.25, 439351.25 ], [ 428010.25, 439351.25 ], [ 428010.25, 439351.5 ], [ 428009.25, 439351.5 ], [ 428009.25, 439351.75 ], [ 428008.25, 439351.75 ], [ 428008.25, 439352.0 ], [ 428007.5, 439352.0 ], [ 428007.5, 439352.25 ], [ 428007.0, 439352.25 ], [ 428007.0, 439352.5 ], [ 428006.0, 439352.5 ], [ 428006.0, 439352.75 ], [ 428005.25, 439352.75 ] ] ] } },
{ "type": "Feature", "properties": { }, "geometry": { "type": "Polygon", "coordinates": [ [ [ 428008.25, 439277.0 ], [ 428008.25, 439276.75 ], [ 428008.0, 439276.75 ], [ 428008.0, 439276.0 ], [ 428008.25, 439276.0 ], [ 428008.25, 439275.75 ], [ 428008.5, 439275.75 ], [ 428008.5, 439276.0 ], [ 428008.75, 439276.0 ], [ 428008.75, 439277.0 ], [ 428008.25, 439277.0 ] ] ] } },
{ "type": "Feature", "properties": { }, "geometry": { "type": "Polygon", "coordinates": [ [ [ 428022.75, 439311.0 ], [ 428022.75, 439310.75 ], [ 428022.25, 439310.75 ], [ 428022.25, 439310.5 ], [ 428021.75, 439310.5 ], [ 428021.75, 439310.25 ], [ 428021.5, 439310.25 ], [ 428021.5, 439310.0 ], [ 428021.25, 439310.0 ], [ 428021.25, 439309.25 ], [ 428021.0, 439309.25 ], [ 428021.0, 439308.5 ], [ 428020.75, 439308.5 ], [ 428020.75, 439307.75 ], [ 428020.5, 439307.75 ], [ 428020.5, 439307.0 ], [ 428020.25, 439307.0 ], [ 428020.25, 439305.75 ], [ 428020.0, 439305.75 ], [ 428020.0, 439304.75 ], [ 428019.75, 439304.75 ], [ 428019.75, 439304.25 ], [ 428019.5, 439304.25 ], [ 428019.5, 439303.75 ], [ 428019.25, 439303.75 ], [ 428019.25, 439303.5 ], [ 428019.0, 439303.5 ], [ 428019.0, 439303.0 ], [ 428018.75, 439303.0 ], [ 428018.75, 439302.75 ], [ 428018.5, 439302.75 ], [ 428018.5, 439302.5 ], [ 428018.25, 439302.5 ], [ 428018.25, 439302.0 ], [ 428018.0, 439302.0 ], [ 428018.0, 439301.5 ], [ 428017.75, 439301.5 ], [ 428017.75, 439300.75 ], [ 428017.5, 439300.75 ], [ 428017.5, 439300.25 ], [ 428017.25, 439300.25 ], [ 428017.25, 439299.75 ], [ 428017.0, 439299.75 ], [ 428017.0, 439299.0 ], [ 428016.75, 439299.0 ], [ 428016.75, 439298.5 ], [ 428016.5, 439298.5 ], [ 428016.5, 439297.75 ], [ 428016.25, 439297.75 ], [ 428016.25, 439297.25 ], [ 428016.0, 439297.25 ], [ 428016.0, 439296.75 ], [ 428015.75, 439296.75 ], [ 428015.75, 439296.5 ], [ 428015.5, 439296.5 ], [ 428015.5, 439296.0 ], [ 428015.25, 439296.0 ], [ 428015.25, 439295.5 ], [ 428015.0, 439295.5 ], [ 428015.0, 439295.25 ], [ 428014.75, 439295.25 ], [ 428014.75, 439294.75 ], [ 428014.25, 439294.75 ], [ 428014.25, 439294.5 ], [ 428014.0, 439294.5 ], [ 428014.0, 439294.25 ], [ 428013.75, 439294.25 ], [ 428013.75, 439294.0 ], [ 428012.25, 439294.0 ], [ 428012.25, 439294.25 ], [ 428011.75, 439294.25 ], [ 428011.75, 439294.5 ], [ 428011.5, 439294.5 ], [ 428011.5, 439294.75 ], [ 428011.25, 439294.75 ], [ 428011.25, 439295.25 ], [ 428011.0, 439295.25 ], [ 428011.0, 439297.25 ], [ 428010.75, 439297.25 ], [ 428010.75, 439297.75 ], [ 428010.5, 439297.75 ], [ 428010.5, 439298.0 ], [ 428009.75, 439298.0 ], [ 428009.75, 439298.25 ], [ 428008.0, 439298.25 ], [ 428008.0, 439298.5 ], [ 428007.0, 439298.5 ], [ 428007.0, 439298.75 ], [ 428006.0, 439298.75 ], [ 428006.0, 439299.0 ], [ 428005.0, 439299.0 ], [ 428005.0, 439299.25 ], [ 428004.25, 439299.25 ], [ 428004.25, 439299.5 ], [ 428003.5, 439299.5 ], [ 428003.5, 439299.75 ], [ 428002.75, 439299.75 ], [ 428002.75, 439300.0 ], [ 428000.0, 439300.0 ], [ 428000.0, 439278.5 ], [ 428000.75, 439278.5 ], [ 428000.75, 439278.75 ], [ 428002.0, 439278.75 ], [ 428002.0, 439278.5 ], [ 428002.5, 439278.5 ], [ 428002.5, 439278.0 ], [ 428002.75, 439278.0 ], [ 428002.75, 439277.75 ], [ 428003.0, 439277.75 ], [ 428003.0, 439277.5 ], [ 428003.25, 439277.5 ], [ 428003.25, 439277.25 ], [ 428003.75, 439277.25 ], [ 428003.75, 439277.5 ], [ 428004.0, 439277.5 ], [ 428004.0, 439277.75 ], [ 428004.75, 439277.75 ], [ 428004.75, 439277.5 ], [ 428005.0, 439277.5 ], [ 428005.0, 439276.5 ], [ 428004.5, 439276.5 ], [ 428004.5, 439276.25 ], [ 428004.25, 439276.25 ], [ 428004.25, 439275.75 ], [ 428004.0, 439275.75 ], [ 428004.0, 439275.0 ], [ 428003.75, 439275.0 ], [ 428003.75, 439274.5 ], [ 428003.5, 439274.5 ], [ 428003.5, 439274.0 ], [ 428003.25, 439274.0 ], [ 428003.25, 439273.5 ], [ 428003.0, 439273.5 ], [ 428003.0, 439273.25 ], [ 428002.75, 439273.25 ], [ 428002.75, 439273.0 ], [ 428001.0, 439273.0 ], [ 428001.0, 439272.75 ], [ 428000.0, 439272.75 ], [ 428000.0, 439269.0 ], [ 428004.75, 439269.0 ], [ 428004.75, 439269.25 ], [ 428006.25, 439269.25 ], [ 428006.25, 439269.5 ], [ 428007.0, 439269.5 ], [ 428007.0, 439269.75 ], [ 428007.25, 439269.75 ], [ 428007.25, 439270.0 ], [ 428007.5, 439270.0 ], [ 428007.5, 439270.25 ], [ 428008.0, 439270.25 ], [ 428008.0, 439270.5 ], [ 428008.25, 439270.5 ], [ 428008.25, 439271.25 ], [ 428008.5, 439271.25 ], [ 428008.5, 439272.0 ], [ 428008.75, 439272.0 ], [ 428008.75, 439272.5 ], [ 428009.0, 439272.5 ], [ 428009.0, 439272.75 ], [ 428008.75, 439272.75 ], [ 428008.75, 439273.25 ], [ 428008.5, 439273.25 ], [ 428008.5, 439273.75 ], [ 428008.75, 439273.75 ], [ 428008.75, 439275.0 ], [ 428008.5, 439275.0 ], [ 428008.5, 439275.25 ], [ 428007.75, 439275.25 ], [ 428007.75, 439275.5 ], [ 428007.5, 439275.5 ], [ 428007.5, 439275.75 ], [ 428007.25, 439275.75 ], [ 428007.25, 439276.25 ], [ 428007.0, 439276.25 ], [ 428007.0, 439276.5 ], [ 428006.75, 439276.5 ], [ 428006.75, 439276.75 ], [ 428006.5, 439276.75 ], [ 428006.5, 439277.0 ], [ 428006.25, 439277.0 ], [ 428006.25, 439277.25 ], [ 428006.0, 439277.25 ], [ 428006.0, 439277.75 ], [ 428006.25, 439277.75 ], [ 428006.25, 439278.75 ], [ 428006.5, 439278.75 ], [ 428006.5, 439279.25 ], [ 428006.75, 439279.25 ], [ 428006.75, 439280.75 ], [ 428006.5, 439280.75 ], [ 428006.5, 439281.0 ], [ 428006.25, 439281.0 ], [ 428006.25, 439281.25 ], [ 428006.0, 439281.25 ], [ 428006.0, 439281.75 ], [ 428007.25, 439281.75 ], [ 428007.25, 439281.5 ], [ 428007.5, 439281.5 ], [ 428007.5, 439281.25 ], [ 428008.0, 439281.25 ], [ 428008.0, 439281.0 ], [ 428008.25, 439281.0 ], [ 428008.25, 439280.75 ], [ 428008.5, 439280.75 ], [ 428008.5, 439280.5 ], [ 428009.0, 439280.5 ], [ 428009.0, 439279.75 ], [ 428009.25, 439279.75 ], [ 428009.25, 439279.25 ], [ 428009.5, 439279.25 ], [ 428009.5, 439279.0 ], [ 428010.0, 439279.0 ], [ 428010.0, 439278.75 ], [ 428011.25, 439278.75 ], [ 428011.25, 439278.5 ], [ 428011.5, 439278.5 ], [ 428011.5, 439278.75 ], [ 428011.75, 439278.75 ], [ 428011.75, 439279.5 ], [ 428012.0, 439279.5 ], [ 428012.0, 439280.0 ], [ 428012.25, 439280.0 ], [ 428012.25, 439280.75 ], [ 428012.0, 439280.75 ], [ 428012.0, 439281.0 ], [ 428011.75, 439281.0 ], [ 428011.75, 439281.25 ], [ 428011.25, 439281.25 ], [ 428011.25, 439281.5 ], [ 428011.5, 439281.5 ], [ 428011.5, 439282.0 ], [ 428011.75, 439282.0 ], [ 428011.75, 439282.25 ], [ 428012.0, 439282.25 ], [ 428012.0, 439283.25 ], [ 428012.25, 439283.25 ], [ 428012.25, 439283.75 ], [ 428012.0, 439283.75 ], [ 428012.0, 439284.5 ], [ 428011.75, 439284.5 ], [ 428011.75, 439284.75 ], [ 428011.5, 439284.75 ], [ 428011.5, 439285.0 ], [ 428011.0, 439285.0 ], [ 428011.0, 439285.25 ], [ 428009.75, 439285.25 ], [ 428009.75, 439285.5 ], [ 428009.5, 439285.5 ], [ 428009.5, 439285.75 ], [ 428010.75, 439285.75 ], [ 428010.75, 439286.0 ], [ 428011.25, 439286.0 ], [ 428011.25, 439286.5 ], [ 428011.5, 439286.5 ], [ 428011.5, 439286.75 ], [ 428012.5, 439286.75 ], [ 428012.5, 439287.25 ], [ 428012.75, 439287.25 ], [ 428012.75, 439288.5 ], [ 428013.0, 439288.5 ], [ 428013.0, 439289.0 ], [ 428013.75, 439289.0 ], [ 428013.75, 439289.25 ], [ 428014.25, 439289.25 ], [ 428014.25, 439289.5 ], [ 428014.5, 439289.5 ], [ 428014.5, 439289.25 ], [ 428015.0, 439289.25 ], [ 428015.0, 439289.0 ], [ 428015.75, 439289.0 ], [ 428015.75, 439288.75 ], [ 428016.5, 439288.75 ], [ 428016.5, 439289.0 ], [ 428017.75, 439289.0 ], [ 428017.75, 439289.25 ], [ 428019.25, 439289.25 ], [ 428019.25, 439289.5 ], [ 428020.0, 439289.5 ], [ 428020.0, 439289.75 ], [ 428020.75, 439289.75 ], [ 428020.75, 439290.0 ], [ 428021.25, 439290.0 ], [ 428021.25, 439290.25 ], [ 428022.0, 439290.25 ], [ 428022.0, 439290.5 ], [ 428022.5, 439290.5 ], [ 428022.5, 439290.75 ], [ 428022.75, 439290.75 ], [ 428022.75, 439291.0 ], [ 428023.0, 439291.0 ], [ 428023.0, 439291.25 ], [ 428023.25, 439291.25 ], [ 428023.25, 439291.5 ], [ 428023.5, 439291.5 ], [ 428023.5, 439291.75 ], [ 428024.0, 439291.75 ], [ 428024.0, 439292.0 ], [ 428024.25, 439292.0 ], [ 428024.25, 439292.25 ], [ 428024.75, 439292.25 ], [ 428024.75, 439292.5 ], [ 428025.0, 439292.5 ], [ 428025.0, 439293.5 ], [ 428025.25, 439293.5 ], [ 428025.25, 439294.0 ], [ 428025.5, 439294.0 ], [ 428025.5, 439294.5 ], [ 428025.75, 439294.5 ], [ 428025.75, 439295.0 ], [ 428026.0, 439295.0 ], [ 428026.0, 439295.5 ], [ 428026.25, 439295.5 ], [ 428026.25, 439296.25 ], [ 428026.5, 439296.25 ], [ 428026.5, 439297.25 ], [ 428026.75, 439297.25 ], [ 428026.75, 439298.0 ], [ 428027.0, 439298.0 ], [ 428027.0, 439298.75 ], [ 428027.25, 439298.75 ], [ 428027.25, 439300.25 ], [ 428027.5, 439300.25 ], [ 428027.5, 439301.0 ], [ 428027.75, 439301.0 ], [ 428027.75, 439301.5 ], [ 428028.0, 439301.5 ], [ 428028.0, 439302.5 ], [ 428028.25, 439302.5 ], [ 428028.25, 439304.0 ], [ 428028.5, 439304.0 ], [ 428028.5, 439305.0 ], [ 428028.75, 439305.0 ], [ 428028.75, 439306.75 ], [ 428029.0, 439306.75 ], [ 428029.0, 439309.0 ], [ 428028.75, 439309.0 ], [ 428028.75, 439309.75 ], [ 428028.5, 439309.75 ], [ 428028.5, 439310.0 ], [ 428028.25, 439310.0 ], [ 428028.25, 439310.25 ], [ 428028.0, 439310.25 ], [ 428028.0, 439310.5 ], [ 428027.75, 439310.5 ], [ 428027.75, 439310.75 ], [ 428027.0, 439310.75 ], [ 428027.0, 439311.0 ], [ 428022.75, 439311.0 ] ], [ [ 428012.25, 439290.75 ], [ 428012.75, 439290.75 ], [ 428012.75, 439290.5 ], [ 428013.0, 439290.5 ], [ 428013.0, 439290.0 ], [ 428012.75, 439290.0 ], [ 428012.75, 439289.25 ], [ 428012.5, 439289.25 ], [ 428012.5, 439289.75 ], [ 428012.25, 439289.75 ], [ 428012.25, 439290.75 ] ] ] } },
{ "type": "Feature", "properties": { }, "geometry": { "type": "Polygon", "coordinates": [ [ [ 428000.0, 439147.0 ], [ 428000.0, 439141.0 ], [ 428005.0, 439141.0 ], [ 428005.0, 439141.25 ], [ 428005.75, 439141.25 ], [ 428005.75, 439141.5 ], [ 428006.0, 439141.5 ], [ 428006.0, 439141.75 ], [ 428006.25, 439141.75 ], [ 428006.25, 439142.0 ], [ 428006.5, 439142.0 ], [ 428006.5, 439143.25 ], [ 428006.25, 439143.25 ], [ 428006.25, 439143.75 ], [ 428006.0, 439143.75 ], [ 428006.0, 439144.0 ], [ 428005.75, 439144.0 ], [ 428005.75, 439144.75 ], [ 428005.5, 439144.75 ], [ 428005.5, 439145.25 ], [ 428005.0, 439145.25 ], [ 428005.0, 439145.5 ], [ 428004.5, 439145.5 ], [ 428004.5, 439145.75 ], [ 428003.5, 439145.75 ], [ 428003.5, 439146.0 ], [ 428003.25, 439146.0 ], [ 428003.25, 439146.25 ], [ 428003.0, 439146.25 ], [ 428003.0, 439146.5 ], [ 428002.5, 439146.5 ], [ 428002.5, 439146.75 ], [ 428000.75, 439146.75 ], [ 428000.75, 439147.0 ], [ 428000.0, 439147.0 ] ] ] } }
]
}
