{
"type": "FeatureCollection",
"name": "se2839_rgb_250_03_osm_road_buffers",
"crs": { "type": "name", "properties": { "name": "urn:ogc:def:crs:EPSG::27700" } },
"features": [
{ "type": "Feature", "properties": { "highway": "tertiary", "lanes": "2", "maxspeed": "30 mph", "name": "King Lane", "surface": "asphalt", "osm_type": "way", "osm_id": 38892961, "source": null, "source:name": null, "lit": null }, "geometry": { "type": "Polygon", "coordinates": [ [ [ 428848.397500545019284, 440112.630082221177872 ], [ 428851.907759750145487, 440100.598936939029954 ], [ 428858.463983698340598, 440086.140033066330943 ], [ 428862.651518213097006, 440076.90917535033077 ], [ 428865.699931060778908, 440070.18337090627756 ], [ 428870.447754817258101, 440059.709682812506799 ], [ 428873.02835466718534, 440054.018016825895756 ], [ 428875.589061720238533, 440048.370495760929771 ], [ 428878.122856944275554, 440042.779027638374828 ], [ 428880.397962774557527, 440037.76702352805296 ], [ 428892.333166791766416, 440016.074955220217817 ], [ 428904.533693712379318, 439998.057166615559254 ], [ 428928.811751010012813, 439964.661723526252899 ], [ 428981.89290805940982, 439922.125558214436751 ], [ 428994.379690475063398, 439913.33946239342913 ], [ 428994.610870267613791, 439913.169609505333938 ], [ 429004.186909311043564, 439905.827056868234649 ], [ 429073.466813898878172, 439854.815194300492294 ], [ 429100.382876353571191, 439834.999318496033084 ], [ 429100.58168568025576, 439834.847400178958196 ], [ 429180.117584726540372, 439771.787751424184535 ], [ 429180.417261020571459, 439771.536200204573106 ], [ 429226.530491382989567, 439730.577847712032963 ], [ 429234.986045315105002, 439723.063305598625448 ], [ 429235.197746920224745, 439722.867206596711185 ], [ 429302.877351259230636, 439657.532638807955664 ], [ 429303.290662754501682, 439657.097926925111096 ], [ 429303.665240300411824, 439656.629426684696227 ], [ 429316.085378308373038, 439639.651749182550702 ], [ 429323.449417649186216, 439629.596490233263467 ], [ 429330.696761473140214, 439619.692636199120898 ], [ 429330.81021857453743, 439619.532950174587313 ], [ 429334.355355584120844, 439614.392470661376137 ], [ 429360.526915832946543, 439576.424710627296008 ], [ 429367.107170417788438, 439566.873518386448268 ], [ 429375.432949617737904, 439554.786185977805872 ], [ 429363.903375394293107, 439546.844591791217681 ], [ 429355.578177420306019, 439558.931080437032506 ], [ 429348.999587585509289, 439568.479856681253295 ], [ 429322.82989509915933, 439606.444907433236949 ], [ 429319.3408285555779, 439611.504084282787517 ], [ 429312.153700766328257, 439621.325650983839296 ], [ 429304.78937452432001, 439631.381301683548372 ], [ 429292.721145321556833, 439647.877936689881608 ], [ 429225.578120184887666, 439712.694517256168183 ], [ 429217.232623997319024, 439720.111250221554656 ], [ 429171.266444028296974, 439760.938990700989962 ], [ 429091.981946466956288, 439823.799317017372232 ], [ 429065.166453545039985, 439843.541152520629112 ], [ 428995.831128950696439, 439894.593821673828643 ], [ 428995.722239957423881, 439894.675643904134631 ], [ 428986.206003785657231, 439901.9723419106449 ], [ 428973.657880110025872, 439910.801599386148155 ], [ 428973.308724127709866, 439911.06393468537135 ], [ 428919.324509237136226, 439954.323758254700806 ], [ 428918.856939244433306, 439954.733846215996891 ], [ 428918.42761372163659, 439955.183816692326218 ], [ 428918.039921657938976, 439955.670117728528567 ], [ 428893.14111967763165, 439989.919420064776205 ], [ 428893.006853032333311, 439990.110745660203975 ], [ 428880.559703963459469, 440008.492746873234864 ], [ 428880.222926174697932, 440009.043143036775291 ], [ 428868.00224304018775, 440031.254065693821758 ], [ 428867.761170076264534, 440031.735111908754334 ], [ 428865.373845828929916, 440036.994330526678823 ], [ 428862.838216710428242, 440042.589842498593498 ], [ 428860.277804693963844, 440048.236712874029763 ], [ 428857.697018677776214, 440053.928789458586834 ], [ 428852.948789019777905, 440064.40337292291224 ], [ 428849.901583009865135, 440071.126515608571935 ], [ 428845.714285061054397, 440080.356851846678182 ], [ 428838.951980539713986, 440095.27023951796582 ], [ 428838.607378023327328, 440096.200405698327813 ], [ 428834.958976055553649, 440108.705026637995616 ], [ 428828.777495486428961, 440129.861553264141548 ], [ 428842.215645441669039, 440133.787890715466347 ], [ 428848.397500545019284, 440112.630082221177872 ] ] ] } },
{ "type": "Feature", "properties": { "highway": "residential", "lanes": null, "maxspeed": null, "name": "Deanswood Hill", "surface": null, "osm_type": "way", "osm_id": 54905558, "source": "OS7", "source:name": null, "lit": null }, "geometry": { "type": "Polygon", "coordinates": [ [ [ 428930.532683383498807, 439109.443862020387314 ], [ 428930.951410553592723, 439109.700445896305609 ], [ 428931.393288715742528, 439109.914715395250823 ], [ 428931.854055199830327, 439110.084603521740064 ], [ 428982.025960404367652, 439125.831046477658674 ], [ 429036.840712483623065, 439143.612023067718837 ], [ 429058.6473524448229, 439151.314252265263349 ], [ 429058.803118897369131, 439151.366408150061034 ], [ 429102.468162819684949, 439165.193515560007654 ], [ 429111.924442458141129, 439169.260917912237346 ], [ 429112.392664844577666, 439169.435143510811031 ], [ 429157.332404028158635, 439183.644806451979093 ], [ 429157.785385544761084, 439183.76500066218432 ], [ 429158.247630794357974, 439183.842254994029645 ], [ 429158.715078695386183, 439183.875890725234058 ], [ 429159.183622458018363, 439183.865612347319257 ], [ 429159.649145664763637, 439183.811510161380284 ], [ 429169.844147897034418, 439182.139227877720259 ], [ 429168.225482888927218, 439172.271101227146573 ], [ 429159.208756257372443, 439173.750111418543383 ], [ 429115.645951782527845, 439159.97582657384919 ], [ 429106.190654418896884, 439155.908846724661998 ], [ 429105.724465896142647, 439155.735264698276296 ], [ 429061.900316546903923, 439141.857774473377503 ], [ 429040.110182835487649, 439134.161375377094373 ], [ 429039.987749603227712, 439134.119903413986322 ], [ 428985.088779604295269, 439116.311607958108652 ], [ 428985.043243687599897, 439116.297077064635232 ], [ 428935.556784695363604, 439100.765761272748932 ], [ 428927.927871162944939, 439095.559011285658926 ], [ 428922.290646930632647, 439103.81865431391634 ], [ 428930.532683383498807, 439109.443862020387314 ] ] ] } },
{ "type": "Feature", "properties": { "highway": "residential", "lanes": null, "maxspeed": null, "name": "Deanswood Rise", "surface": null, "osm_type": "way", "osm_id": 54905783, "source": "OS7", "source:name": null, "lit": null }, "geometry": { "type": "Polygon", "coordinates": [ [ [ 429027.430311272153631, 439245.687671036168467 ], [ 429027.409213451202959, 439245.689749811368529 ], [ 428964.414703806454781, 439252.031492764304858 ], [ 428965.416354475251865, 439261.981201098591555 ], [ 429028.400317417166661, 439255.640519896580372 ], [ 429101.270513332099654, 439248.616547844896559 ], [ 429100.311058305203915, 439238.662681960209738 ], [ 429027.430311272153631, 439245.687671036168467 ] ] ] } },
{ "type": "Feature", "properties": { "highway": "residential", "lanes": null, "maxspeed": null, "name": "Buck Stone Road", "surface": null, "osm_type": "way", "osm_id": 55027600, "source": "OS7", "source:name": null, "lit": null }, "geometry": { "type": "Polygon", "coordinates": [ [ [ 429198.860369877889752, 439697.915705968276598 ], [ 429120.550194980227388, 439763.679591749911197 ], [ 429072.918802416126709, 439799.134799169376493 ], [ 429047.199313736346085, 439818.013690503896214 ], [ 429023.402810261526611, 439835.479294770746492 ], [ 429023.312559814890847, 439835.547115612658672 ], [ 428961.523506492609158, 439883.080849713122007 ], [ 428931.53852493269369, 439904.633293089573272 ], [ 428931.448808106419165, 439904.699307207483798 ], [ 428892.806834050570615, 439933.801254685618915 ], [ 428892.316489457443822, 439934.222897701140027 ], [ 428885.248384191945661, 439941.144462237425614 ], [ 428843.55363103619311, 439982.000879213213921 ], [ 428843.075095500447787, 439982.543001664336771 ], [ 428819.290091510280035, 440013.778477374755312 ], [ 428815.124775898410007, 440015.94136763329152 ], [ 428813.488672608567867, 440016.784377654315904 ], [ 428818.068963847064879, 440025.673749520210549 ], [ 428819.712092881265562, 440024.827119450899772 ], [ 428819.726132890442386, 440024.819857161201071 ], [ 428824.893212529248558, 440022.136788876086939 ], [ 428825.367514486890286, 440021.856287980976049 ], [ 428825.808069701248314, 440021.525298249616753 ], [ 428826.209527310333215, 440021.147839791956358 ], [ 428826.567011320788879, 440020.728497114148922 ], [ 428850.811448820692021, 439988.889673839032184 ], [ 428892.245570117956959, 439948.288647968089208 ], [ 428899.081594658782706, 439941.594352502259426 ], [ 428937.420243258180562, 439912.720844738127198 ], [ 428967.426015794451814, 439891.153457335778512 ], [ 428967.556472289841622, 439891.05643330165185 ], [ 429029.365222668333445, 439843.507546442269813 ], [ 429053.116314828861505, 439826.075272115878761 ], [ 429078.849563653231598, 439807.186280421505217 ], [ 429078.87643739010673, 439807.166415738989599 ], [ 429126.638883113802876, 439771.613656753092073 ], [ 429126.868846571247559, 439771.431762590014841 ], [ 429205.292112690338399, 439705.572904243425 ], [ 429213.427788805507589, 439698.735033083532471 ], [ 429206.993714565120172, 439691.079793788201641 ], [ 429198.860369877889752, 439697.915705968276598 ] ] ] } },
{ "type": "Feature", "properties": { "highway": "residential", "lanes": null, "maxspeed": null, "name": "Buck Stone Oval", "surface": null, "osm_type": "way", "osm_id": 55027636, "source": "OS7", "source:name": null, "lit": null }, "geometry": { "type": "Polygon", "coordinates": [ [ [ 428720.321662425179966, 439913.226766415056773 ], [ 428720.666025743877981, 439913.538263532391284 ], [ 428721.037801293830853, 439913.816471170401201 ], [ 428721.433782636537217, 439914.058989882236347 ], [ 428721.850554566830397, 439914.26372802600963 ], [ 428744.845649101829622, 439924.262757366115693 ], [ 428745.364126223896164, 439924.454870532732457 ], [ 428745.900645439280197, 439924.588560945063364 ], [ 428746.44864563329611, 439924.662193697702605 ], [ 428774.931444747315254, 439926.895406800031196 ], [ 428775.415531309903599, 439926.909835153026506 ], [ 428775.898742936784402, 439926.877362070721574 ], [ 428776.376546175626572, 439926.798292212886736 ], [ 428776.844458315055817, 439926.673367406590842 ], [ 428802.905619812489022, 439918.344013776513748 ], [ 428803.406319769099355, 439918.153871156973764 ], [ 428840.291775432182476, 439901.835730878636241 ], [ 428840.321219633566216, 439901.822591071366332 ], [ 428859.048574908694718, 439893.392784759867936 ], [ 428859.458657950337511, 439893.185016808798537 ], [ 428859.8479251783574, 439892.940462831640616 ], [ 428884.483419770898763, 439875.835147447534837 ], [ 428884.938613620877732, 439875.478368171316106 ], [ 428911.848224205255974, 439851.750355838623364 ], [ 428938.747910809936002, 439829.433780172839761 ], [ 428939.171545537130442, 439829.038726304133888 ], [ 428961.901881868834607, 439805.235061935440172 ], [ 428962.103307342214976, 439805.010979557060637 ], [ 428976.324321245076135, 439788.197835762286559 ], [ 428976.671412798110396, 439787.735761472838931 ], [ 428976.962867255730089, 439787.236722902860492 ], [ 428989.821924743009731, 439761.970235715503804 ], [ 428980.9097401216859, 439757.434492636821233 ], [ 428968.314131475053728, 439782.183334828529041 ], [ 428954.565550080384128, 439798.43793365964666 ], [ 428932.139660198125057, 439821.92277559672948 ], [ 428905.405322133214213, 439844.102174452506006 ], [ 428905.290935304365121, 439844.200016250542831 ], [ 428878.54213016142603, 439867.786235617240891 ], [ 428854.52338216494536, 439884.463321521412581 ], [ 428836.231262938410509, 439892.697213592182379 ], [ 428799.605801307421643, 439908.900332407152746 ], [ 428774.734807119355537, 439916.849299138528295 ], [ 428748.065255089197308, 439914.758254898537416 ], [ 428726.700111971003935, 439905.46798246371327 ], [ 428712.538038377475459, 439891.408029667451046 ], [ 428705.49260319705354, 439898.504637527395971 ], [ 428720.321662425179966, 439913.226766415056773 ] ] ] } },
{ "type": "Feature", "properties": { "highway": "residential", "lanes": null, "maxspeed": null, "name": "Buck Stone Way", "surface": null, "osm_type": "way", "osm_id": 55027661, "source": "OS7", "source:name": null, "lit": null }, "geometry": { "type": "Polygon", "coordinates": [ [ [ 428986.222863129281905, 439733.537344523298088 ], [ 428986.117962577205617, 439733.044739090371877 ], [ 428985.96403695497429, 439732.565186026331503 ], [ 428980.41072182188509, 439717.855081960617099 ], [ 428980.114333347708452, 439717.211961119843181 ], [ 428970.421442359103821, 439699.583402543736156 ], [ 428970.144944594416302, 439699.137641506968066 ], [ 428969.823267907195259, 439698.723301037447527 ], [ 428950.12347342754947, 439675.925908561213873 ], [ 428949.837128386134282, 439675.621272763179149 ], [ 428949.52633382671047, 439675.341624423163012 ], [ 428918.626946701202542, 439649.793729060096666 ], [ 428918.531682433444075, 439649.716907009424176 ], [ 428871.715486465254799, 439612.90020849154098 ], [ 428865.533892964362167, 439620.760736577503849 ], [ 428912.301986689621117, 439657.539607037382666 ], [ 428942.831149585021194, 439682.781397627142724 ], [ 428961.912475521094166, 439704.86307349341223 ], [ 428971.180560947686899, 439721.71903391048545 ], [ 428976.429946714197285, 439735.624063439026941 ], [ 428980.429242712911218, 439760.496141186391469 ], [ 428990.302422151784413, 439758.908587165933568 ], [ 428986.222863129281905, 439733.537344523298088 ] ] ] } },
{ "type": "Feature", "properties": { "highway": "residential", "lanes": null, "maxspeed": null, "name": "Buck Stone Crescent", "surface": null, "osm_type": "way", "osm_id": 55027685, "source": "OS7", "source:name": null, "lit": null }, "geometry": { "type": "Polygon", "coordinates": [ [ [ 428993.270123838679865, 439715.864822510862723 ], [ 429014.31621522072237, 439705.097275168343913 ], [ 429045.668583533202764, 439694.218591989949346 ], [ 429062.054332718369551, 439690.053183727199212 ], [ 429077.170933901623357, 439687.237045665213373 ], [ 429096.690080505853985, 439685.339981409895699 ], [ 429120.449001923145261, 439683.641721124760807 ], [ 429126.770818491582759, 439683.429480134975165 ], [ 429150.529893067781813, 439685.440628007578198 ], [ 429173.297357083298266, 439687.956709462159779 ], [ 429182.288684696657583, 439688.951288677111734 ], [ 429199.008319651591592, 439694.280810593627393 ], [ 429207.006939006503671, 439698.836753096198663 ], [ 429226.578595035010949, 439721.129730020591523 ], [ 429234.093442704179324, 439714.532225605391432 ], [ 429213.968175519898068, 439691.60866122826701 ], [ 429213.580195975897368, 439691.21324977237964 ], [ 429213.150856052292511, 439690.86318466992816 ], [ 429212.685425954055972, 439690.562763016845565 ], [ 429203.501588850514963, 439685.331731017387938 ], [ 429203.034478408808354, 439685.097114302858245 ], [ 429202.545426324941218, 439684.912546627572738 ], [ 429184.851558741414919, 439679.272480003652163 ], [ 429184.372274469293188, 439679.145506467903033 ], [ 429183.882771028962452, 439679.066626342362724 ], [ 429174.396551855199505, 439678.017304504173808 ], [ 429151.564663303026464, 439675.494103329256177 ], [ 429151.437175784027204, 439675.481665175582748 ], [ 429127.319971350196283, 439673.440202481637243 ], [ 429126.730472302529961, 439673.425200596568175 ], [ 429120.019011819793377, 439673.650523017742671 ], [ 429119.830296513391659, 439673.660431893484201 ], [ 429095.913449687999673, 439675.369980504561681 ], [ 429095.786263786780182, 439675.380704889073968 ], [ 429075.986234606010839, 439677.305068098939955 ], [ 429075.554187975707464, 439677.36618838692084 ], [ 429060.063697436009534, 439680.25197994010523 ], [ 429059.747548610612284, 439680.32153578940779 ], [ 429042.998664421960711, 439684.579256312455982 ], [ 429042.591488000762183, 439684.701410503417719 ], [ 429010.709502936864737, 439695.763860751234461 ], [ 429010.071203337633051, 439696.036322001426015 ], [ 428988.669527411984745, 439706.98579259699909 ], [ 428988.578197185997851, 439707.033713634940796 ], [ 428973.364285963529255, 439715.217678794404492 ], [ 428978.10163058998296, 439724.024356141220778 ], [ 428993.270123838679865, 439715.864822510862723 ] ] ] } },
{ "type": "Feature", "properties": { "highway": "residential", "lanes": null, "maxspeed": null, "name": "Buck Stone Avenue", "surface": null, "osm_type": "way", "osm_id": 55027731, "source": "OS7", "source:name": null, "lit": null }, "geometry": { "type": "Polygon", "coordinates": [ [ [ 429097.013627245440148, 439630.381089608999901 ], [ 429096.978529975342099, 439630.079163069778588 ], [ 429094.220048480492551, 439611.336254743218888 ], [ 429094.106167189311236, 439610.782202889153268 ], [ 429093.930436784110498, 439610.24455874087289 ], [ 429087.733164685138036, 439594.38430815236643 ], [ 429087.519838200241793, 439593.912122324574739 ], [ 429087.258791323227342, 439593.464548673480749 ], [ 429086.95282735984074, 439593.046393560885917 ], [ 429070.539207494934089, 439572.894728926185053 ], [ 429070.236532254202757, 439572.555816613137722 ], [ 429069.904338776657823, 439572.245782178302761 ], [ 429069.545370633131824, 439571.967186181864236 ], [ 429069.162592525070067, 439571.722329535463359 ], [ 429068.759165799419861, 439571.513234498852398 ], [ 429041.194649793498684, 439558.780604350788053 ], [ 429040.721895849506836, 439558.590815847448539 ], [ 429040.232284075347707, 439558.450116600142792 ], [ 429039.730896954017226, 439558.359967156953644 ], [ 428999.094421911519021, 439553.173912793106865 ], [ 428975.450937313609757, 439548.801945132610854 ], [ 428974.968417196359951, 439548.736829753033817 ], [ 428943.322052367206197, 439546.026699502603151 ], [ 428942.818737728171982, 439546.00905320054153 ], [ 428942.316201109264512, 439546.042128335277084 ], [ 428941.819540986150969, 439546.125589343777392 ], [ 428910.725971720938105, 439552.976684490742628 ], [ 428910.24600979371462, 439553.107787280518096 ], [ 428909.781453930889256, 439553.28594239091035 ], [ 428909.336904190422501, 439553.509385719953571 ], [ 428908.916762528649997, 439553.77590471948497 ], [ 428908.525189211708494, 439554.082860303402413 ], [ 428908.166061620460823, 439554.427212980517652 ], [ 428907.842935856198892, 439554.805552951351274 ], [ 428880.805730213993229, 439589.853965359914582 ], [ 428880.61825858335942, 439590.113792105403263 ], [ 428877.983357729157433, 439594.023821551352739 ], [ 428864.548815229267348, 439613.93179578112904 ], [ 428851.070967490260955, 439631.930619407154154 ], [ 428850.841053212643601, 439632.265144583187066 ], [ 428827.808409162564203, 439668.877469066064805 ], [ 428809.284788951743394, 439695.849886051204521 ], [ 428791.458495201717597, 439720.34083389810985 ], [ 428791.335823596746195, 439720.517211691068951 ], [ 428730.741689277172554, 439811.761047718988266 ], [ 428701.423123652813956, 439851.21845783048775 ], [ 428701.149807698151562, 439851.626769071270246 ], [ 428700.917887275514659, 439852.059934857010376 ], [ 428700.729601991130039, 439852.51377219799906 ], [ 428700.586770075897221, 439852.983898483566009 ], [ 428700.49077082722215, 439853.465773804229684 ], [ 428697.245471272384748, 439875.309323460794985 ], [ 428697.197122087003663, 439875.800532254390419 ], [ 428697.197439795301761, 439876.294114690972492 ], [ 428697.246421301388182, 439876.785260834905785 ], [ 428697.343589282885659, 439877.269184492120985 ], [ 428697.487996842770372, 439877.741169851331506 ], [ 428704.312132030550856, 439896.653394444554579 ], [ 428713.718509543978143, 439893.259272750292439 ], [ 428707.322090466506779, 439875.532409073493909 ], [ 428710.197884121153038, 439856.175939682521857 ], [ 428738.847183726320509, 439817.619238839368336 ], [ 428738.999020122573711, 439817.403204290370923 ], [ 428799.606778702174779, 439726.138852584466804 ], [ 428817.410159762774128, 439701.67938371404307 ], [ 428817.489263371971902, 439701.56751609389903 ], [ 428836.108637605444528, 439674.455670779047068 ], [ 428836.219191069074441, 439674.28754062531516 ], [ 428859.19725785870105, 439637.761971287138294 ], [ 428872.626958802808076, 439619.827444697788451 ], [ 428872.769255510647781, 439619.627359082864132 ], [ 428886.273402118415106, 439599.616242019168567 ], [ 428888.82146854797611, 439595.835071379784495 ], [ 428914.651419876026921, 439562.351626432850026 ], [ 428943.227582630235702, 439556.055211624596268 ], [ 428973.872313518601004, 439558.679563983692788 ], [ 428997.41361161362147, 439563.032636117830407 ], [ 428997.689790399046615, 439563.075759043393191 ], [ 429037.700671894883271, 439568.181974736740813 ], [ 429063.515950262255501, 439580.106595199904405 ], [ 429078.70425326412078, 439598.753888787934557 ], [ 429084.409379758813884, 439613.354625111911446 ], [ 429087.062964245327748, 439631.384795283374842 ], [ 429091.288123977836221, 439680.783360553905368 ], [ 429101.251744817942381, 439679.931151803815737 ], [ 429097.013627245440148, 439630.381089608999901 ] ] ] } },
{ "type": "Feature", "properties": { "highway": "residential", "lanes": null, "maxspeed": null, "name": "Buck Stone Grove", "surface": null, "osm_type": "way", "osm_id": 55027758, "source": "OS7", "source:name": null, "lit": null }, "geometry": { "type": "Polygon", "coordinates": [ [ [ 428759.932717146642972, 439838.976044725393876 ], [ 428760.3209605331067, 439839.230458261736203 ], [ 428760.731123971112538, 439839.447771695908159 ], [ 428761.159672521695029, 439839.626112141064368 ], [ 428779.728213959897403, 439846.360348978312686 ], [ 428780.203546781442128, 439846.506433314876631 ], [ 428780.691039607045241, 439846.604579479724634 ], [ 428781.18587051006034, 439846.653816681820899 ], [ 428781.683144980983343, 439846.653657902497798 ], [ 428782.177944340277463, 439846.604104712198023 ], [ 428782.665374390489887, 439846.505647255282383 ], [ 428783.140613825875334, 439846.359259401680902 ], [ 428804.758993745839689, 439838.503315382753499 ], [ 428805.302316724555567, 439838.268606244877446 ], [ 428805.814099419862032, 439837.97134085604921 ], [ 428846.687197266146541, 439810.873991015716456 ], [ 428847.117130838567391, 439810.554539678618312 ], [ 428901.0258871774422, 439765.824639735859819 ], [ 428901.382161956338678, 439765.498731206520461 ], [ 428901.705338896310423, 439765.139976759848651 ], [ 428901.992404073942453, 439764.751722112298012 ], [ 428902.240680341317784, 439764.337588097027037 ], [ 428902.447852293029428, 439763.901436896179803 ], [ 428902.611987859301735, 439763.44733602256747 ], [ 428906.935102939547505, 439749.399064837547485 ], [ 428907.046571823186241, 439748.970031208184082 ], [ 428907.119603820203338, 439748.532811018172652 ], [ 428907.153624913247768, 439748.090840733668301 ], [ 428907.148367703077383, 439747.64759415568551 ], [ 428905.879668283043429, 439725.097624037007336 ], [ 428905.830761389457621, 439724.62696347682504 ], [ 428905.737580591696315, 439724.163033971388359 ], [ 428905.600960466312245, 439723.709990719042253 ], [ 428905.422124655626249, 439723.271891415352002 ], [ 428905.202674907806795, 439722.852659909694921 ], [ 428904.944576731184497, 439722.456051061628386 ], [ 428904.650141789752524, 439722.085617110191379 ], [ 428904.322007198818028, 439721.7446758581209 ], [ 428903.963111905730329, 439721.436280955909751 ], [ 428835.062556619232055, 439667.682886278373189 ], [ 428828.911458787682932, 439675.567300997790881 ], [ 428896.022922317497432, 439727.924919474229682 ], [ 428897.113811371615157, 439747.314473204954993 ], [ 428893.492874549352564, 439759.080965995206498 ], [ 428840.938050355936866, 439802.687463108624797 ], [ 428800.784388161438983, 439829.30785376142012 ], [ 428781.431214781594463, 439836.340640085982159 ], [ 428765.228122011700179, 439830.464278468047269 ], [ 428737.765476864587981, 439810.586779180914164 ], [ 428731.902167585038114, 439818.687495463527739 ], [ 428759.932717146642972, 439838.976044725393876 ] ] ] } },
{ "type": "Feature", "properties": { "highway": "residential", "lanes": null, "maxspeed": null, "name": "Buck Stone Drive", "surface": null, "osm_type": "way", "osm_id": 55027784, "source": "OS7", "source:name": "OS_OpenData_Locator", "lit": null }, "geometry": { "type": "Polygon", "coordinates": [ [ [ 428891.896791531646159, 439940.901591562374961 ], [ 428899.73280245863134, 439934.688948585942853 ], [ 428860.914251563546713, 439885.727083219389897 ], [ 428853.078240636561532, 439891.939726195822004 ], [ 428891.896791531646159, 439940.901591562374961 ] ] ] } },
{ "type": "Feature", "properties": { "highway": "residential", "lanes": null, "maxspeed": null, "name": "Buck Stone Green", "surface": null, "osm_type": "way", "osm_id": 55027798, "source": "OS7", "source:name": "OS_OpenData_Locator", "lit": null }, "geometry": { "type": "Polygon", "coordinates": [ [ [ 429003.242022950318642, 439559.010889232973568 ], [ 428993.403497034334578, 439557.22108259529341 ], [ 428982.384556346922182, 439617.791946084587835 ], [ 428992.223082262906246, 439619.581752722267993 ], [ 429003.242022950318642, 439559.010889232973568 ] ] ] } },
{ "type": "Feature", "properties": { "highway": "residential", "lanes": null, "maxspeed": null, "name": "Buck Stone View", "surface": null, "osm_type": "way", "osm_id": 55027818, "source": "OS7", "source:name": "OS_OpenData_Locator", "lit": null }, "geometry": { "type": "Polygon", "coordinates": [ [ [ 428907.809850836754777, 439560.870192065834999 ], [ 428915.793858844321221, 439554.848928399849683 ], [ 428893.385919468419161, 439525.13669898500666 ], [ 428885.401911460852716, 439531.157962650991976 ], [ 428907.809850836754777, 439560.870192065834999 ] ] ] } },
{ "type": "Feature", "properties": { "highway": "residential", "lanes": null, "maxspeed": null, "name": "Buck Stone Rise", "surface": null, "osm_type": "way", "osm_id": 55027841, "source": "OS7", "source:name": "OS_OpenData_Locator", "lit": null }, "geometry": { "type": "Polygon", "coordinates": [ [ [ 428798.235069435380865, 439719.096993688377552 ], [ 428792.766973553632852, 439727.469563630060293 ], [ 428822.932831779762637, 439747.170779180829413 ], [ 428828.40092766151065, 439738.798209239146672 ], [ 428798.235069435380865, 439719.096993688377552 ] ] ] } },
{ "type": "Feature", "properties": { "highway": "residential", "lanes": null, "maxspeed": null, "name": null, "surface": null, "osm_type": "way", "osm_id": 55027859, "source": "OS7", "source:name": null, "lit": null }, "geometry": { "type": "Polygon", "coordinates": [ [ [ 428973.122596521920059, 439918.569675308535807 ], [ 428982.24951992550632, 439914.483201377908699 ], [ 428969.071231377951335, 439885.050190864014439 ], [ 428959.944307974365074, 439889.136664794641547 ], [ 428973.122596521920059, 439918.569675308535807 ] ] ] } },
{ "type": "Feature", "properties": { "highway": "residential", "lanes": null, "maxspeed": null, "name": "Deanswood Green", "surface": null, "osm_type": "way", "osm_id": 55028405, "source": "OS7", "source:name": null, "lit": null }, "geometry": { "type": "Polygon", "coordinates": [ [ [ 428977.40629157226067, 439418.265970979002304 ], [ 428976.988325155340135, 439418.503824095765594 ], [ 428976.595142502395902, 439418.780730997561477 ], [ 428976.230380868073553, 439419.094130073790438 ], [ 428968.183418135275133, 439426.710484169772826 ], [ 428967.791744330257643, 439427.126106178446207 ], [ 428967.45001990388846, 439427.583680697076488 ], [ 428967.162702993315179, 439428.077238208032213 ], [ 428962.14782387582818, 439437.948757639736868 ], [ 428961.918663844175171, 439438.47185642918339 ], [ 428961.750648657151032, 439439.017674677772447 ], [ 428961.645970218349248, 439439.579091713530943 ], [ 428960.24264830769971, 439450.552200140897185 ], [ 428960.202659823058639, 439451.122860203497112 ], [ 428960.228116438724101, 439451.694352938968223 ], [ 428960.318684925499838, 439452.259197461942676 ], [ 428962.692620516754687, 439463.066503581765573 ], [ 428962.805983547470532, 439463.492150802747346 ], [ 428962.956368487153668, 439463.906169043213595 ], [ 428963.142608187859878, 439464.305345078755636 ], [ 428965.528733786952216, 439468.881929426628631 ], [ 428965.711074230901431, 439469.202269775676541 ], [ 428965.916518641402945, 439469.50830665405374 ], [ 428969.406456447439268, 439474.314244964509271 ], [ 428969.690534854540601, 439474.670153001148719 ], [ 428970.005816132295877, 439474.998739044414833 ], [ 428970.349685072083957, 439475.297277524659876 ], [ 428979.037212360126432, 439482.17149531369796 ], [ 428979.503079156274907, 439482.498788108117878 ], [ 428980.003133692254778, 439482.770997413608711 ], [ 428980.530892212118488, 439482.984593737812247 ], [ 428991.034838584309909, 439486.55438991234405 ], [ 428991.584602681803517, 439486.706851961091161 ], [ 428992.14815596328117, 439486.795694169879425 ], [ 428992.718161297903862, 439486.819759865524247 ], [ 429003.804401397705078, 439486.654704110580496 ], [ 429004.371027673536446, 439486.613992126949597 ], [ 429004.929378565459047, 439486.509268282679841 ], [ 429005.472246370918583, 439486.341884448716883 ], [ 429015.864298749365844, 439482.478583262010943 ], [ 429016.334135145123582, 439482.275989541900344 ], [ 429016.780807118979283, 439482.026440745044965 ], [ 429017.199637292535044, 439481.732550051121507 ], [ 429017.586239836120512, 439481.397394971281756 ], [ 429028.367213994555641, 439471.038691974303219 ], [ 429021.438774933980312, 439463.827816009230446 ], [ 429011.406510820030235, 439473.46713457320584 ], [ 429002.794679758371785, 439476.668628941115458 ], [ 428993.433902355318423, 439476.807995414070319 ], [ 428984.565672451397404, 439473.794102152984124 ], [ 428977.094030148116872, 439467.881983004277572 ], [ 428974.225141951115802, 439463.931282315403223 ], [ 428972.317127539252397, 439460.271714312722906 ], [ 428970.271856903505977, 439450.960650465858635 ], [ 428971.455378894053865, 439441.706241317209788 ], [ 428975.686158736469224, 439433.378179075429216 ], [ 428982.576683073595632, 439426.856380105891731 ], [ 428995.391626674507279, 439420.35876804694999 ], [ 428990.869371955224779, 439411.439731537713669 ], [ 428977.40629157226067, 439418.265970979002304 ] ] ] } },
{ "type": "Feature", "properties": { "highway": "residential", "lanes": null, "maxspeed": "20 mph", "name": "King Drive", "surface": "asphalt", "osm_type": "way", "osm_id": 55028975, "source": "OS7", "source:name": null, "lit": null }, "geometry": { "type": "Polygon", "coordinates": [ [ [ 429062.632277371827513, 439979.66317348316079 ], [ 429056.116531429986935, 439991.895139321277384 ], [ 429055.921736840216909, 439992.304549299471546 ], [ 429055.764829304302111, 439992.729921474878211 ], [ 429051.534233431972098, 440006.027025870338548 ], [ 429048.694073325314093, 440014.339345857209992 ], [ 429044.381134142109659, 440021.404020492744166 ], [ 429038.917536806024145, 440027.752694203925785 ], [ 429033.736828885041177, 440030.891033805557527 ], [ 429027.772907166043296, 440032.861873984336853 ], [ 429019.408620798029006, 440033.529778364289086 ], [ 429009.978073026402853, 440033.461062196060084 ], [ 428997.129865482333116, 440030.656122754910029 ], [ 428995.883977095130831, 440030.169472074019723 ], [ 428945.587251733464655, 440010.334548461076338 ], [ 428915.265252503042575, 439998.386317525000777 ], [ 428909.489446987223346, 439995.332511748885736 ], [ 428901.641982062952593, 439989.91969063016586 ], [ 428895.964100642711855, 439998.151437867432833 ], [ 428904.053558098850772, 440003.731174327549525 ], [ 428904.555435803253204, 440004.035497142060194 ], [ 428910.836698516446631, 440007.356550162716303 ], [ 428911.34071386087453, 440007.588228219654411 ], [ 428941.91926498390967, 440019.637551936553791 ], [ 428992.2229227257194, 440039.475209390104283 ], [ 428992.238058055168949, 440039.48114971263567 ], [ 428993.858902508451138, 440040.114260242378805 ], [ 428994.230782016180456, 440040.242894934490323 ], [ 428994.611625555029605, 440040.341887111833785 ], [ 429008.354194202111103, 440043.342077814566437 ], [ 429008.866217707050964, 440043.426299224724062 ], [ 429009.384212638717145, 440043.457000467577018 ], [ 429019.553311778348871, 440043.531098128063604 ], [ 429019.987736348586623, 440043.515365862112958 ], [ 429029.168561424536165, 440042.782259293308016 ], [ 429029.761086598853581, 440042.699029733310454 ], [ 429030.339427031343803, 440042.545616611489095 ], [ 429037.412085454387125, 440040.208382816752419 ], [ 429037.936251542007085, 440040.001732766104396 ], [ 429038.433840042212978, 440039.737422313599382 ], [ 429044.779109151451848, 440035.89362149866065 ], [ 429045.213759346515872, 440035.598017051059287 ], [ 429045.614973996358458, 440035.258414951269515 ], [ 429045.978318832116202, 440034.878568519372493 ], [ 429052.226375097467098, 440027.61835732194595 ], [ 429052.47859046672238, 440027.299993938417174 ], [ 429052.704133585211821, 440026.962209779303521 ], [ 429057.515474410785828, 440019.081143979448825 ], [ 429057.774475730664562, 440018.599500791809987 ], [ 429057.979327926586848, 440018.09245304093929 ], [ 429061.014249594591092, 440009.210122787684668 ], [ 429061.047474993625656, 440009.109402780828532 ], [ 429065.156263617624063, 439996.195148401428014 ], [ 429071.458234574238304, 439984.364500898809638 ], [ 429074.293596326664556, 439979.041246321692597 ], [ 429065.467515871801879, 439974.340150300005917 ], [ 429062.632277371827513, 439979.66317348316079 ] ] ] } },
{ "type": "Feature", "properties": { "highway": "residential", "lanes": null, "maxspeed": null, "name": "King Close", "surface": null, "osm_type": "way", "osm_id": 55028978, "source": "OS7", "source:name": null, "lit": null }, "geometry": { "type": "Polygon", "coordinates": [ [ [ 429020.517742383060977, 439936.348085751931649 ], [ 429021.590168238326441, 439939.49912092712475 ], [ 429021.68805051286472, 439942.491296840249561 ], [ 429021.132055839581881, 439944.865550215938129 ], [ 429010.92692898074165, 439960.602495681960136 ], [ 429000.872889914200641, 439975.939993219973985 ], [ 429009.236167734256014, 439981.422290558170062 ], [ 429019.2969756196253, 439966.074467146012466 ], [ 429019.310462178778835, 439966.053782095084898 ], [ 429029.996684110607021, 439949.574957862379961 ], [ 429030.215601035859436, 439949.203159767494071 ], [ 429030.401649510604329, 439948.813872715923935 ], [ 429030.553444155084435, 439948.409995470428839 ], [ 429030.669854655163363, 439947.994535437494051 ], [ 429031.575273028807715, 439944.128144744725432 ], [ 429031.656329892866779, 439943.697966982843354 ], [ 429031.699450338841416, 439943.2623481710325 ], [ 429031.704303851816803, 439942.824627294845413 ], [ 429031.560504114546347, 439938.42879452224588 ], [ 429031.520238916273229, 439937.938405416207388 ], [ 429031.431968985474668, 439937.454348414612468 ], [ 429031.296549138030969, 439936.981311178824399 ], [ 429029.733099606004544, 439932.387534885725472 ], [ 429029.541961181210354, 439931.908490797271952 ], [ 429029.302490279253107, 439931.451685780659318 ], [ 429029.017235034669284, 439931.021980554331094 ], [ 429003.999105152557604, 439897.254116041702218 ], [ 428995.964090574765578, 439903.207143904524855 ], [ 429020.517742383060977, 439936.348085751931649 ] ] ] } },
{ "type": "Feature", "properties": { "highway": "residential", "lanes": null, "maxspeed": null, "name": "East Causeway Vale", "surface": null, "osm_type": "way", "osm_id": 55066151, "source": "OS7", "source:name": "OS_OpenData_Locator", "lit": null }, "geometry": { "type": "Polygon", "coordinates": [ [ [ 428116.810076671594288, 439894.712365596496966 ], [ 428109.875882676336914, 439892.942726297478657 ], [ 428094.899417048029136, 439887.119583487394266 ], [ 428094.471651243395172, 439886.975131467042957 ], [ 428081.495592831401154, 439883.236772055912297 ], [ 428081.059414809744339, 439883.132050802058075 ], [ 428075.113047791586723, 439881.983783221978229 ], [ 428074.59583561756881, 439881.91168195422506 ], [ 428074.073924214229919, 439881.89391927421093 ], [ 428062.587179329246283, 439882.103280970128253 ], [ 428061.883558020927012, 439882.166015580238309 ], [ 428056.134046113176737, 439883.091654373158235 ], [ 428053.241954749042634, 439883.108134173729923 ], [ 428050.501822853111662, 439882.535537477117032 ], [ 428045.282894354430027, 439880.486314148816746 ], [ 428044.657070869812742, 439880.286930591682903 ], [ 428020.294680346443783, 439874.255336692323908 ], [ 428019.770268949272577, 439874.15487468248466 ], [ 428019.238134761457331, 439874.110907250083983 ], [ 428018.704346239857841, 439874.123935799580067 ], [ 428012.873357638716698, 439874.578639198327437 ], [ 428012.376684994786046, 439874.642522588022985 ], [ 428011.888893387222197, 439874.755766352929641 ], [ 428011.414875654678326, 439874.917234591033775 ], [ 428004.880371068429668, 439877.515138349554036 ], [ 428004.356453350454103, 439877.75938954798039 ], [ 428003.864227900689002, 439878.062477868050337 ], [ 427999.094875437673181, 439881.394154189503752 ], [ 427998.753389812482055, 439881.655242146982346 ], [ 427998.435591667308472, 439881.944696275808383 ], [ 427998.143829903565347, 439882.260377170052379 ], [ 427994.785017789923586, 439886.223564343294129 ], [ 427994.451419104705565, 439886.664469964802265 ], [ 427994.168539714883082, 439887.139512174122501 ], [ 427992.464422177174129, 439890.398685501830187 ], [ 427990.068750050035305, 439893.566928761603776 ], [ 427986.609303104924038, 439895.323641131340992 ], [ 427980.477012329560239, 439896.217636530229356 ], [ 427965.842763844644651, 439894.752536466927268 ], [ 427964.846598910167813, 439904.702795530087315 ], [ 427980.092223954387009, 439906.229103234945796 ], [ 427980.702754648809787, 439906.252709083084483 ], [ 427981.311606244009454, 439906.201672821771353 ], [ 427988.863321117591113, 439905.100746822310612 ], [ 427989.394213758700062, 439904.993710265436675 ], [ 427989.910415486432612, 439904.829882315534633 ], [ 427990.405870143265929, 439904.611185027169995 ], [ 427995.625020483392291, 439901.960892622824758 ], [ 427996.019514409010299, 439901.737517830973957 ], [ 427996.392154443776235, 439901.479329606052488 ], [ 427996.739877162268385, 439901.188450479879975 ], [ 427997.059823981195223, 439900.86727173201507 ], [ 427997.34936465928331, 439900.518433731340338 ], [ 428000.691157977154944, 439896.098958280228544 ], [ 428000.926977477269247, 439895.758671071496792 ], [ 428001.133836096443702, 439895.400040714826901 ], [ 428002.772918254660908, 439892.265249402669724 ], [ 428005.353275617817417, 439889.220589904638473 ], [ 428009.114650264789816, 439886.593046030553523 ], [ 428014.405680827389006, 439884.489506580343004 ], [ 428018.676003689761274, 439884.15650467411615 ], [ 428041.93437358160736, 439889.914767263864633 ], [ 428047.239177232782822, 439891.997709652699996 ], [ 428047.636471723672003, 439892.134733599552419 ], [ 428048.04386978544062, 439892.237909632502124 ], [ 428051.716474293440115, 439893.005362181924284 ], [ 428052.239292931510136, 439893.086024884425569 ], [ 428052.767707635066472, 439893.110998890479095 ], [ 428056.576598952175118, 439893.089294953271747 ], [ 428056.960944710823242, 439893.072303585708141 ], [ 428057.342846306448337, 439893.025811220926698 ], [ 428063.123444820812438, 439892.095167660736479 ], [ 428073.731883773521986, 439891.901814296317752 ], [ 428078.942960983666126, 439892.908094433310907 ], [ 428091.486134290578775, 439896.521741080738138 ], [ 428106.534169920836575, 439902.372711707605049 ], [ 428107.109724651381839, 439902.55730058636982 ], [ 428114.610498022579122, 439904.471533637843095 ], [ 428115.163031458214391, 439904.579824699903838 ], [ 428132.265220255241729, 439906.941124185919762 ], [ 428133.632945267483592, 439897.035099337808788 ], [ 428116.810076671594288, 439894.712365596496966 ] ] ] } },
{ "type": "Feature", "properties": { "highway": "residential", "lanes": null, "maxspeed": null, "name": "East Causeway Vale", "surface": null, "osm_type": "way", "osm_id": 55066285, "source": "OS7", "source:name": "OS_OpenData_Locator", "lit": null }, "geometry": { "type": "Polygon", "coordinates": [ [ [ 428056.735804736672435, 439903.449244039598852 ], [ 428056.816514486738015, 439902.96940151497256 ], [ 428057.488538526755292, 439897.298953564837575 ], [ 428057.521710957633331, 439896.83601449651178 ], [ 428057.737641430168878, 439888.236589874140918 ], [ 428047.740792469179723, 439887.985570251941681 ], [ 428047.530693518230692, 439896.352754700172227 ], [ 428046.914677259745076, 439901.550616565800738 ], [ 428044.193792588019278, 439913.991301027825102 ], [ 428053.962877187121194, 439916.127883835928515 ], [ 428056.735804736672435, 439903.449244039598852 ] ] ] } },
{ "type": "Feature", "properties": { "highway": "residential", "lanes": null, "maxspeed": null, "name": "Mulberry Avenue", "surface": null, "osm_type": "way", "osm_id": 55067172, "source": "OS7", "source:name": null, "lit": null }, "geometry": { "type": "Polygon", "coordinates": [ [ [ 427999.857613341358956, 439613.440340960398316 ], [ 427999.929910672479309, 439613.100167563708965 ], [ 428001.284921183425467, 439605.419914245780092 ], [ 428001.343929624301381, 439604.963607976795174 ], [ 428001.985638046695385, 439597.210255187179428 ], [ 428003.259883999009617, 439584.458480272267479 ], [ 428005.829214522673283, 439577.617865250678733 ], [ 428012.892625892884098, 439564.399307486484759 ], [ 428013.150752571236808, 439563.834394965553656 ], [ 428014.808059951232281, 439559.516127105802298 ], [ 428015.013050929759629, 439558.844314009009395 ], [ 428016.289616208465304, 439553.288740109361243 ], [ 428016.375110182736535, 439552.811859482550062 ], [ 428016.414048901584465, 439552.328943208151031 ], [ 428016.406066770316102, 439551.844525374588557 ], [ 428016.014443312189542, 439545.82279908657074 ], [ 428015.955777819384821, 439545.318271342955995 ], [ 428015.84622852737084, 439544.822298726008739 ], [ 428015.686925940506626, 439544.339999472489581 ], [ 428015.479513997095637, 439543.876350715523586 ], [ 428014.660208187706303, 439542.269251784891821 ], [ 428013.462479394162074, 439539.923082146269735 ], [ 428013.216803178365808, 439539.495351974735968 ], [ 428012.930177012574859, 439539.093910392781254 ], [ 428012.605390456155874, 439538.722664388886187 ], [ 428012.245604460535105, 439538.385227076185402 ], [ 428007.29724537191214, 439534.183256163552869 ], [ 428006.93424257094739, 439533.902625761926174 ], [ 428006.547043012978975, 439533.656453143281396 ], [ 428006.138907297106925, 439533.446811321948189 ], [ 428005.7132723252289, 439533.275465687096585 ], [ 427998.892307657108176, 439530.887044363596942 ], [ 427998.350283106788993, 439530.730959057342261 ], [ 427997.79412751988275, 439530.636915455281269 ], [ 427987.991863364120945, 439529.543616691429634 ], [ 427987.590068701072596, 439529.515128055587411 ], [ 427987.187284665124025, 439529.519074444426224 ], [ 427981.442038165288977, 439529.807087290391792 ], [ 427979.164822937804274, 439529.915549042692874 ], [ 427978.786499901325442, 439529.948002736142371 ], [ 427978.411730645981152, 439530.009072920540348 ], [ 427973.280756081978325, 439531.046580626047216 ], [ 427972.90901721001137, 439531.136674790759571 ], [ 427968.827740515291225, 439532.292756291164551 ], [ 427962.206977074907627, 439532.970736204064451 ], [ 427938.428598488622811, 439532.172216197417583 ], [ 427929.81553198012989, 439531.696457559533883 ], [ 427916.568687679362483, 439530.222432482754812 ], [ 427901.565007049473934, 439527.044769376458135 ], [ 427899.493044840171933, 439536.827763427572791 ], [ 427914.736331919382792, 439540.056173320102971 ], [ 427915.21935740794288, 439540.134006237960421 ], [ 427928.847895798215177, 439541.650503819691949 ], [ 427929.125087551190518, 439541.673563513671979 ], [ 427937.931019672192633, 439542.15997543989215 ], [ 427938.038969290792011, 439542.164768846880179 ], [ 427962.210716679343022, 439542.976498873613309 ], [ 427962.887877709930763, 439542.953304756782018 ], [ 427970.280233869154472, 439542.196312148589641 ], [ 427970.710467092634644, 439542.13324873521924 ], [ 427971.133594173996244, 439542.033043477335013 ], [ 427975.450286271341611, 439540.810277110314928 ], [ 427980.020679857814685, 439539.886121571471449 ], [ 427981.924021825485397, 439539.795467072690371 ], [ 427981.936484701873269, 439539.79485788976308 ], [ 427987.284681939112488, 439539.526749374810606 ], [ 427996.122381377383135, 439540.51246509491466 ], [ 428001.53216315805912, 439542.40674820431741 ], [ 428005.010603042377625, 439545.360515898501035 ], [ 428005.7517785547534, 439546.812365629244596 ], [ 428006.102403087832499, 439547.500128740095533 ], [ 428006.379630914132576, 439551.762871573562734 ], [ 428005.345876287901774, 439556.261740778223611 ], [ 428003.926202877832111, 439559.960831322416198 ], [ 427996.854322639643215, 439573.195237833657302 ], [ 427996.58349101227941, 439573.793611813569441 ], [ 427993.668860424484592, 439581.553557681851089 ], [ 427993.534386973478831, 439581.964829105592798 ], [ 427993.435974969819654, 439582.386186875868589 ], [ 427993.374361430061981, 439582.814475405670237 ], [ 427992.030963463243097, 439596.258276002306957 ], [ 427992.023223132826388, 439596.343018474872224 ], [ 427991.397000749246217, 439603.909263354202267 ], [ 427990.112233006220777, 439611.191377877432387 ], [ 427989.22416276281001, 439614.755466084810905 ], [ 427998.927475725708064, 439617.173257958493195 ], [ 427999.857613341358956, 439613.440340960398316 ] ] ] } },
{ "type": "Feature", "properties": { "highway": "residential", "lanes": null, "maxspeed": null, "name": "Tile Lane", "surface": null, "osm_type": "way", "osm_id": 55068275, "source": "OS7", "source:name": null, "lit": null }, "geometry": { "type": "Polygon", "coordinates": [ [ [ 427887.819376893748995, 439414.489716110692825 ], [ 427891.885677933285479, 439410.912380206165835 ], [ 427896.329852622235194, 439409.045454233535565 ], [ 427896.388399703952018, 439409.020419780048542 ], [ 427904.676425177254714, 439405.413904915156309 ], [ 427920.56446685292758, 439402.054507631575689 ], [ 427931.884389250539243, 439402.026967691199388 ], [ 427950.289120952598751, 439402.70113593217684 ], [ 427950.398548975994345, 439402.70394525595475 ], [ 427966.916617271781433, 439402.947117634117603 ], [ 427967.190458734461572, 439402.943648087210022 ], [ 427986.03682601446053, 439402.188277333159931 ], [ 427986.659409063286148, 439402.124119894055184 ], [ 427994.449965682812035, 439400.824346967216115 ], [ 427995.07843628275441, 439400.677256273513194 ], [ 428013.925910134217702, 439394.960489451012108 ], [ 428028.283978084393311, 439391.090828566346318 ], [ 428035.522151348006446, 439389.978509561973624 ], [ 428045.940065297298133, 439391.965299227798823 ], [ 428047.813392883166671, 439382.142334107484203 ], [ 428036.550045015115757, 439379.994312607625034 ], [ 428035.987051026604604, 439379.919777631002944 ], [ 428035.4192364331102, 439379.909565809473861 ], [ 428034.853926444833633, 439379.963808882748708 ], [ 428026.49106377910357, 439381.248963401070796 ], [ 428025.949388649722096, 439381.363210985029582 ], [ 428011.248231872334145, 439385.325338169408496 ], [ 428011.098066687700339, 439385.368336275860202 ], [ 427992.485324466426391, 439391.013904909894336 ], [ 427985.323039917624556, 439392.208857209887356 ], [ 427966.926849053415935, 439392.946184693661053 ], [ 427950.600478404900059, 439392.70583441137569 ], [ 427932.152881721500307, 439392.030096019327175 ], [ 427931.957689345988911, 439392.026759767031763 ], [ 427920.023462609562557, 439392.055794232233893 ], [ 427919.509588148677722, 439392.083528115181252 ], [ 427919.001286250946578, 439392.163935269985814 ], [ 427902.11182854231447, 439395.735073834832292 ], [ 427901.623716475442052, 439395.864341218315531 ], [ 427901.151131200604141, 439396.0421799212927 ], [ 427892.427517472242471, 439399.838239994714968 ], [ 427887.259746763738804, 439402.00913696247153 ], [ 427886.774409918754827, 439402.244580960017629 ], [ 427886.317261766875163, 439402.530939644726459 ], [ 427885.893623251584359, 439402.864879964850843 ], [ 427880.893848222855013, 439407.263441347982734 ], [ 427880.586663908790797, 439407.557795634202193 ], [ 427880.305615497869439, 439407.877198889269494 ], [ 427871.046752097143326, 439419.349078636383638 ], [ 427878.828446472703945, 439425.629622613312677 ], [ 427887.819376893748995, 439414.489716110692825 ] ] ] } },
{ "type": "Feature", "properties": { "highway": "unclassified", "lanes": null, "maxspeed": null, "name": "Spring Hill", "surface": null, "osm_type": "way", "osm_id": 55068550, "source": null, "source:name": null, "lit": null }, "geometry": { "type": "Polygon", "coordinates": [ [ [ 428081.78138662566198, 439403.569198258395772 ], [ 428090.231308959540911, 439409.227383535471745 ], [ 428093.635502095858101, 439415.093074096250348 ], [ 428093.706871228059754, 439415.212206446041819 ], [ 428110.895053171319887, 439443.020029529987369 ], [ 428111.140369175525848, 439443.380722669593524 ], [ 428111.416189272422343, 439443.718661653692834 ], [ 428136.440422293380834, 439471.784687786770519 ], [ 428162.150021623296198, 439509.66376573801972 ], [ 428162.561504831595812, 439510.190473033348098 ], [ 428185.384013941162266, 439535.688558615685906 ], [ 428193.39537985244533, 439544.82065773330396 ], [ 428204.530696840200108, 439558.285969606367871 ], [ 428206.754960406862665, 439562.032204109127633 ], [ 428219.024629866355099, 439589.994352902460378 ], [ 428222.77130127052078, 439601.52079091523774 ], [ 428224.884867287008092, 439610.531096400693059 ], [ 428225.014855487155728, 439610.986882414435968 ], [ 428225.187415970372967, 439611.428312705771532 ], [ 428225.400998192257248, 439611.851420797174796 ], [ 428225.653683006938081, 439612.252404845377896 ], [ 428225.943199911795091, 439612.627661803096998 ], [ 428226.266947448893916, 439612.97381979401689 ], [ 428226.622016580658965, 439613.28776841115905 ], [ 428227.005216828722041, 439613.566686665057205 ], [ 428227.413104942359496, 439613.80806833220413 ], [ 428227.842015837668441, 439614.009744474547915 ], [ 428228.288095530238934, 439614.16990292846458 ], [ 428228.747335765277967, 439614.287104588060174 ], [ 428258.623107844672631, 439620.419785037345719 ], [ 428258.913861587061547, 439620.470575454062782 ], [ 428276.37488755438244, 439622.992155615356751 ], [ 428330.677561850112397, 439634.172555759432726 ], [ 428332.694166809611488, 439624.378000923315994 ], [ 428278.245430645765737, 439613.167528040590696 ], [ 428277.951774281507824, 439613.116140898433514 ], [ 428260.489280571986455, 439610.594348777667619 ], [ 428233.890370341774542, 439605.134318613214418 ], [ 428232.459125163382851, 439599.032802889938466 ], [ 428232.346356946742162, 439598.629022426786833 ], [ 428228.45808754756581, 439586.666965610929765 ], [ 428228.281592976651154, 439586.20353979896754 ], [ 428215.789162021072116, 439557.733725324855186 ], [ 428215.50986201595515, 439557.190157384902705 ], [ 428212.930865228932817, 439552.84646049089497 ], [ 428212.720086563029326, 439552.520915822358802 ], [ 428212.484710178279784, 439552.212687117164023 ], [ 428201.055235202948097, 439538.391666551935486 ], [ 428200.960726700490341, 439538.280715939239599 ], [ 428192.884866967622656, 439529.075100772315636 ], [ 428192.851819222792983, 439529.037806399050169 ], [ 428170.236076549685095, 439503.770727331691887 ], [ 428144.529180992161855, 439465.895632966654375 ], [ 428144.124084528128151, 439465.376074939733371 ], [ 428119.17128165991744, 439437.390161573071964 ], [ 428102.249617276713252, 439410.013522728520911 ], [ 428098.299380857730284, 439403.206956958631054 ], [ 428098.053470694518182, 439402.824433204776142 ], [ 428097.773823165043723, 439402.46583386027487 ], [ 428097.462751471553929, 439402.134125204756856 ], [ 428097.12282875215169, 439401.832051082281396 ], [ 428096.756866796407849, 439401.562110204366036 ], [ 428086.764209446613677, 439394.870888147968799 ], [ 428086.367911516688764, 439394.631329209078103 ], [ 428085.951150176406372, 439394.429461629304569 ], [ 428085.517500246874988, 439394.267016952333506 ], [ 428048.411992052278947, 439382.295353928755503 ], [ 428045.341466128185857, 439391.812279406527523 ], [ 428081.78138662566198, 439403.569198258395772 ] ] ] } },
{ "type": "Feature", "properties": { "highway": "residential", "lanes": null, "maxspeed": null, "name": "Dunstarn Drive", "surface": null, "osm_type": "way", "osm_id": 55068916, "source": "OS7", "source:name": null, "lit": null }, "geometry": { "type": "Polygon", "coordinates": [ [ [ 428049.787693637714256, 438958.855535282869823 ], [ 428020.464033483702224, 439038.516098274209071 ], [ 428017.371764555224217, 439044.707359796972014 ], [ 428011.7914588652784, 439045.910639716777951 ], [ 427763.612968706234824, 439042.169632425007876 ], [ 427740.198507285735104, 439041.819613435363863 ], [ 427740.05847270716913, 439041.819481270504184 ], [ 427714.258848229015712, 439042.156446638633497 ], [ 427714.38944572332548, 439052.155593817005865 ], [ 427740.119051987770945, 439051.819542947167065 ], [ 427763.462559475621674, 439052.168501219071914 ], [ 428012.211763534578495, 439055.918111371051054 ], [ 428012.779587779485155, 439055.894368192588445 ], [ 428013.341049629903864, 439055.806341480114497 ], [ 428021.826190034509636, 439053.976692777592689 ], [ 428022.306341727089603, 439053.84787581814453 ], [ 428022.771328180795535, 439053.672014922020026 ], [ 428023.216552735655569, 439053.450848575856071 ], [ 428023.637614089471754, 439053.186563136987388 ], [ 428024.030349807289895, 439052.881771219661459 ], [ 428024.390877469442785, 439052.539485868357588 ], [ 428024.715633051469922, 439052.163090771646239 ], [ 428025.001406156690791, 439051.756306812691037 ], [ 428025.245371752651408, 439051.323155286198016 ], [ 428029.533807373372838, 439042.736959497386124 ], [ 428029.752892771561164, 439042.230066637916025 ], [ 428059.508252810919657, 438961.396749095234554 ], [ 428059.652352494827937, 438960.938484618032817 ], [ 428059.751809129898902, 438960.468506503966637 ], [ 428059.805704647616949, 438959.9911530467798 ], [ 428059.813541546987835, 438959.510830620711204 ], [ 428059.547809325973503, 438951.142189680889715 ], [ 428049.552846886799671, 438951.459563025913667 ], [ 428049.787693637714256, 438958.855535282869823 ] ] ] } },
{ "type": "Feature", "properties": { "highway": "residential", "lanes": null, "maxspeed": null, "name": "Dunstarn Gardens", "surface": null, "osm_type": "way", "osm_id": 55068922, "source": "OS7", "source:name": null, "lit": null }, "geometry": { "type": "Polygon", "coordinates": [ [ [ 428039.334758929384407, 439115.127156316360924 ], [ 428041.743489140120801, 439089.394138942589052 ], [ 428041.765033678908367, 439088.881554930412676 ], [ 428041.733939196506981, 439088.369461511378177 ], [ 428040.490781936387066, 439077.313512230291963 ], [ 428040.413989320921246, 439076.838106747425627 ], [ 428040.291818016965408, 439076.372293854306918 ], [ 428040.125401321973186, 439075.920394570683129 ], [ 428034.889733367657755, 439063.572161070886068 ], [ 428034.613648806989659, 439063.018947056843899 ], [ 428025.099487870233133, 439046.584007799974643 ], [ 428016.44504146440886, 439051.594053449458443 ], [ 428025.804025319812354, 439067.760936918493826 ], [ 428030.634717635752168, 439079.154042287846096 ], [ 428031.739009164914023, 439088.974996989127249 ], [ 428029.376288034836762, 439114.216488800360821 ], [ 428029.372481958125718, 439114.259115170396399 ], [ 428025.147344692377374, 439163.979981381038669 ], [ 428035.111433489015326, 439164.82670120120747 ], [ 428039.334758929384407, 439115.127156316360924 ] ] ] } },
{ "type": "Feature", "properties": { "highway": "residential", "lanes": null, "maxspeed": null, "name": "Mulberry Garth", "surface": null, "osm_type": "way", "osm_id": 123501452, "source": "OS7", "source:name": "OS_OpenData_Locator", "lit": null }, "geometry": { "type": "Polygon", "coordinates": [ [ [ 427993.217890848114621, 439428.469953276508022 ], [ 427993.467191015020944, 439428.73749052232597 ], [ 427998.479270233074203, 439433.736499789869413 ], [ 428001.091995136172045, 439438.113090156111866 ], [ 428002.860562637681141, 439448.882214349054266 ], [ 428004.234928380814381, 439460.937626924132928 ], [ 428004.828078911988996, 439482.677956796309445 ], [ 428014.824359063873999, 439482.405224095506128 ], [ 428014.225324952800293, 439460.449247500335332 ], [ 428014.195005906862207, 439460.019262180954684 ], [ 428012.782252963399515, 439447.627131712913979 ], [ 428012.748340593301691, 439447.383208530722186 ], [ 428010.805903368338477, 439435.555360458674841 ], [ 428010.708251397882123, 439435.096532779803965 ], [ 428010.568029004090931, 439434.648876185412519 ], [ 428010.386470473487861, 439434.216331105446443 ], [ 428010.165173947869334, 439433.802704953006469 ], [ 428006.745522982848343, 439428.074428144609556 ], [ 428006.518740016152151, 439427.727990640792996 ], [ 428006.264069791941438, 439427.401505518704653 ], [ 428005.98325883311918, 439427.097211806220002 ], [ 428000.658566292200703, 439421.786404414509889 ], [ 427994.891411167627666, 439415.124721093976405 ], [ 427987.330980654398445, 439421.669939994404558 ], [ 427993.217890848114621, 439428.469953276508022 ] ] ] } },
{ "type": "Feature", "properties": { "highway": "residential", "lanes": null, "maxspeed": null, "name": "Buck Stone Mount", "surface": null, "osm_type": "way", "osm_id": 189100857, "source": "OS7", "source:name": "OS_Locator", "lit": null }, "geometry": { "type": "Polygon", "coordinates": [ [ [ 428644.927076397230849, 439948.038323687156662 ], [ 428650.054455407196656, 439940.097445795778185 ], [ 428711.780622721416876, 439899.122039445559494 ], [ 428706.250018853112124, 439890.790627749287523 ], [ 428643.654626692761667, 439932.343047752394341 ], [ 428643.241531615378335, 439932.648987747903448 ], [ 428642.862031790544279, 439932.99572497815825 ], [ 428642.52013848326169, 439933.379594474565238 ], [ 428642.219465462374501, 439933.796538785391022 ], [ 428636.12968802137766, 439943.22790302633075 ], [ 428635.88729851791868, 439943.646417736716103 ], [ 428635.686477629642468, 439944.086392969067674 ], [ 428635.52910429489566, 439944.543712187674828 ], [ 428632.841388390341308, 439953.784472601721063 ], [ 428642.443482172384392, 439956.577283909311518 ], [ 428644.927076397230849, 439948.038323687156662 ] ] ] } },
{ "type": "Feature", "properties": { "highway": "residential", "lanes": null, "maxspeed": null, "name": "Deanswood Gardens", "surface": null, "osm_type": "way", "osm_id": 189100860, "source": "OS7", "source:name": null, "lit": null }, "geometry": { "type": "Polygon", "coordinates": [ [ [ 428934.60046374873491, 439483.9380635136622 ], [ 428940.112397775810678, 439492.281838635273743 ], [ 428972.718283374852035, 439470.742249217175413 ], [ 428967.206349347776268, 439462.39847409556387 ], [ 428934.60046374873491, 439483.9380635136622 ] ] ] } },
{ "type": "Feature", "properties": { "highway": "residential", "lanes": null, "maxspeed": null, "name": "Scotland Wood Road", "surface": null, "osm_type": "way", "osm_id": 189100864, "source": "OS7", "source:name": null, "lit": null }, "geometry": { "type": "Polygon", "coordinates": [ [ [ 428902.314845070126466, 438639.684777765127365 ], [ 428901.960787768417504, 438639.413189926068299 ], [ 428901.583926739695016, 438639.174249991774559 ], [ 428901.187263554194942, 438638.969861037854571 ], [ 428878.314394302724395, 438628.447968753695022 ], [ 428877.842230456299148, 438628.259226526424754 ], [ 428877.35333840054227, 438628.119416354922578 ], [ 428876.85277449816931, 438628.02998422482051 ], [ 428856.898152362497058, 438625.503803328261711 ], [ 428856.327948398306035, 438625.464545733702835 ], [ 428855.75698961771559, 438625.490618522686418 ], [ 428855.192736709781457, 438625.58168100338662 ], [ 428833.462529264506884, 438630.37696709256852 ], [ 428832.998275585356168, 438630.503117051033769 ], [ 428832.548294674896169, 438630.673300689493772 ], [ 428812.590659495908767, 438639.340446519374382 ], [ 428812.123667191306595, 438639.572918453312013 ], [ 428811.68343754648231, 438639.852780691580847 ], [ 428811.274762461252976, 438640.176986933569424 ], [ 428798.585664250713307, 438651.370059191947803 ], [ 428798.221615168033168, 438651.725728208723012 ], [ 428797.895608868624549, 438652.11656331049744 ], [ 428789.841728136234451, 438662.837450138176791 ], [ 428789.56412953871768, 438663.247845524165314 ], [ 428782.458253552322276, 438674.96481789421523 ], [ 428782.199515643995255, 438675.449705139442813 ], [ 428781.995559144997969, 438675.960060596233234 ], [ 428776.151477322157007, 438693.292500415933318 ], [ 428776.022788216068875, 438693.742821402673144 ], [ 428775.936798770388123, 438694.203207862447016 ], [ 428775.894263456051704, 438694.669620366708841 ], [ 428775.015267730865162, 438714.591622062784154 ], [ 428775.014547820494045, 438715.015440805873368 ], [ 428775.049722734838724, 438715.437797965947539 ], [ 428775.120539745083079, 438715.855658943240996 ], [ 428780.192429307557177, 438739.619431724015158 ], [ 428780.353960965760052, 438740.201469022314996 ], [ 428780.584499839053024, 438740.759780513471924 ], [ 428815.573733604338486, 438812.818003047374077 ], [ 428815.825784992892295, 438813.274776951526292 ], [ 428849.474110978248063, 438867.373597523663193 ], [ 428859.406403678411152, 438883.41887430899078 ], [ 428859.632664070813917, 438883.753401876601856 ], [ 428899.383024143287912, 438937.694422827975359 ], [ 428899.542819430935197, 438937.899846629006788 ], [ 428921.40013393224217, 438964.537801535800099 ], [ 428921.551187314034905, 438964.713433417084161 ], [ 428948.513386883889325, 438994.631937743455637 ], [ 428948.802727199101355, 438994.927452853473369 ], [ 428961.584717291349079, 439006.945070411951747 ], [ 428968.434588035510387, 438999.659518216794822 ], [ 428955.803384265513159, 438987.783669846132398 ], [ 428929.057300219021272, 438958.104977305280045 ], [ 428907.356049263093155, 438931.657220223743934 ], [ 428867.802803602069616, 438877.983682449383195 ], [ 428857.974066113587469, 438862.105695542006288 ], [ 428857.968427678686567, 438862.096608573105186 ], [ 428824.455234541615937, 438808.215050747327041 ], [ 428789.845391355920583, 438736.938160293851979 ], [ 428785.03373103030026, 438714.393662573944312 ], [ 428785.853360546985641, 438695.81716651818715 ], [ 428791.295012594317086, 438679.678257192543242 ], [ 428797.985973515198566, 438668.645443731045816 ], [ 428805.583989772130735, 438658.531378833344206 ], [ 428817.297998022171669, 438648.198434868187178 ], [ 428836.088845257414505, 438640.037998433981556 ], [ 428856.50166827935027, 438635.533424488967285 ], [ 428874.8338811728172, 438637.854214413615409 ], [ 428896.396138502692338, 438647.773203873774037 ], [ 428921.017121937766206, 438668.46810911729699 ], [ 428927.451463141769636, 438660.813094207376707 ], [ 428902.314845070126466, 438639.684777765127365 ] ] ] } },
{ "type": "Feature", "properties": { "highway": "residential", "lanes": null, "maxspeed": null, "name": "East Causeway Crescent", "surface": null, "osm_type": "way", "osm_id": 189937865, "source": "bing", "source:name": "OS_OpenData_Locator", "lit": null }, "geometry": { "type": "Polygon", "coordinates": [ [ [ 428003.510326058138162, 439960.134211250115186 ], [ 428003.980326903052628, 439960.003064938820899 ], [ 428004.435306146973744, 439959.826729926047847 ], [ 428004.870930564939044, 439959.606885627435986 ], [ 428009.99288970453199, 439956.700121077417862 ], [ 428010.442985818197485, 439956.411837460938841 ], [ 428010.859736472310033, 439956.077154256519862 ], [ 428011.238379141199403, 439955.699896142818034 ], [ 428011.574586787959561, 439955.284374334325548 ], [ 428011.864517312904354, 439954.83533731388161 ], [ 428014.809359300474171, 439949.690282394934911 ], [ 428006.130425626353826, 439944.722776956565212 ], [ 428003.865979334048461, 439948.679084488190711 ], [ 428000.576663932937663, 439950.545804846799001 ], [ 427990.888380038551986, 439952.745867951889522 ], [ 427993.102849482325837, 439962.497592162690125 ], [ 428003.510326058138162, 439960.134211250115186 ] ] ] } },
{ "type": "Feature", "properties": { "highway": "unclassified", "lanes": null, "maxspeed": null, "name": "East Moor Lane", "surface": null, "osm_type": "way", "osm_id": 226979791, "source": "OS7", "source:name": null, "lit": null }, "geometry": { "type": "Polygon", "coordinates": [ [ [ 428028.903955628746189, 439832.089328016387299 ], [ 428022.183541021659039, 439817.014822875557002 ], [ 428021.956024392449763, 439816.566546690068208 ], [ 428021.684644281223882, 439816.143382194568403 ], [ 428021.372143964807037, 439815.74960699561052 ], [ 428021.021682388382033, 439815.389201614831109 ], [ 428020.636802232824266, 439815.065809251158498 ], [ 428009.242220531625208, 439806.430365928914398 ], [ 428008.859537399373949, 439806.167399204452522 ], [ 428008.454110305057839, 439805.94106593442848 ], [ 428008.029435617558192, 439805.753317997849081 ], [ 428007.589175695320591, 439805.605774516938254 ], [ 427991.434030062402599, 439801.014190991409123 ], [ 427990.977821160340682, 439800.907351823814679 ], [ 427990.513614441733807, 439800.843686351261567 ], [ 427990.045486405899283, 439800.823753661417868 ], [ 427989.577547987981234, 439800.847728796128649 ], [ 427989.113908457919024, 439800.915401214268059 ], [ 427971.386151807848364, 439804.358050216862466 ], [ 427961.797162770526484, 439802.944367188611068 ], [ 427939.769512787112035, 439782.696031659434084 ], [ 427939.415217136382125, 439782.399359771166928 ], [ 427939.035045277501922, 439782.13666417717468 ], [ 427938.632244480482768, 439781.910188714158721 ], [ 427929.810850738489535, 439777.473808653187007 ], [ 427925.317918419197667, 439786.407652124762535 ], [ 427933.515835456433706, 439790.530478601984214 ], [ 427956.162260348617565, 439811.347606625116896 ], [ 427956.544634113437496, 439811.665506946796086 ], [ 427956.956693773972802, 439811.943854116252623 ], [ 427957.394363725441508, 439812.179895053734072 ], [ 427957.853315056359861, 439812.371295122720767 ], [ 427958.329008365282789, 439812.516161220904905 ], [ 427958.8167386589339, 439812.613060504954774 ], [ 427970.772115869564004, 439814.375614804856014 ], [ 427971.333172674349044, 439814.426252231525723 ], [ 427971.896364594227634, 439814.413455803354736 ], [ 427972.454542496008798, 439814.337387957726605 ], [ 427989.848395609471481, 439810.959581489907578 ], [ 428003.95125395024661, 439814.967867982108146 ], [ 428013.573092345672194, 439822.259828520764131 ], [ 428020.878454139805399, 439838.646423747355584 ], [ 428021.10372133331839, 439839.090766631183214 ], [ 428021.372088169388007, 439839.510486952553038 ], [ 428021.680890453455504, 439839.90141796466196 ], [ 428022.027062570443377, 439840.259678724862169 ], [ 428022.407167918747291, 439840.581712622311898 ], [ 428022.817433026677463, 439840.864322685927618 ], [ 428023.253785013628658, 439841.104703322343994 ], [ 428023.711892022984102, 439841.300468168104999 ], [ 428024.187206226633862, 439841.449673780240119 ], [ 428024.675008973106742, 439841.550838929484598 ], [ 428035.065521846699994, 439843.17068428453058 ], [ 428036.605881698371377, 439833.290031900862232 ], [ 428028.903955628746189, 439832.089328016387299 ] ] ] } },
{ "type": "Feature", "properties": { "highway": "residential", "lanes": null, "maxspeed": null, "name": null, "surface": null, "osm_type": "way", "osm_id": 226981786, "source": null, "source:name": null, "lit": null }, "geometry": { "type": "Polygon", "coordinates": [ [ [ 428174.098088408412877, 439552.721796241647098 ], [ 428163.648079165664967, 439549.005595306574833 ], [ 428160.297468542063143, 439558.427559456846211 ], [ 428173.282269898627419, 439563.045175558596384 ], [ 428173.754769177525304, 439563.187363339064177 ], [ 428174.238982484908774, 439563.282286499452312 ], [ 428174.730194107512943, 439563.329020590987056 ], [ 428175.223620175849646, 439563.327110474172514 ], [ 428175.714455254259519, 439563.276574751536828 ], [ 428176.19791914045345, 439563.177905586315319 ], [ 428176.66930341970874, 439563.032063909282442 ], [ 428177.124017319409177, 439562.840470060473308 ], [ 428177.557632418465801, 439562.604989956598729 ], [ 428177.965925775293726, 439562.327916918904521 ], [ 428200.210435274988413, 439545.571803532307968 ], [ 428194.193734145257622, 439537.584356661420316 ], [ 428174.098088408412877, 439552.721796241647098 ] ] ] } },
{ "type": "Feature", "properties": { "highway": "residential", "lanes": "2", "maxspeed": null, "name": "Black Moor Road", "surface": "asphalt", "osm_type": "way", "osm_id": 236289091, "source": "OS7", "source:name": null, "lit": "yes" }, "geometry": { "type": "Polygon", "coordinates": [ [ [ 429197.021227262448519, 438697.919167777290568 ], [ 429173.656630803830922, 438747.952261323807761 ], [ 429165.864298825501464, 438764.629058739810716 ], [ 429145.001722792512737, 438797.138321426871698 ], [ 429128.399523388710804, 438818.785787561791949 ], [ 429121.285530657565687, 438828.050293599662837 ], [ 429099.742603307939135, 438851.658721505256835 ], [ 429065.033662637346424, 438882.452294876391534 ], [ 429059.079523365071509, 438887.733574985642917 ], [ 429058.993509630789049, 438887.81136677484028 ], [ 429027.50795854307944, 438916.845347540569492 ], [ 429018.414568845299073, 438925.23504317709012 ], [ 429018.092627639009152, 438925.555463529424742 ], [ 428995.506353498320095, 438949.804775011725724 ], [ 428995.041469732357655, 438950.369273715827148 ], [ 428982.890880462771747, 438967.106130423780996 ], [ 428982.821476957120467, 438967.203765881829895 ], [ 428960.084844026830979, 438999.875012608245015 ], [ 428959.773312541190535, 439000.373003935441375 ], [ 428941.158543617639225, 439033.648387653520331 ], [ 428940.885302359296475, 439034.201859644963406 ], [ 428924.304766701767221, 439072.652530377847143 ], [ 428924.160996065940708, 439073.018470416194759 ], [ 428918.449685203260742, 439089.083149552461691 ], [ 428918.289504961867351, 439089.608830243756529 ], [ 428918.178093457361683, 439090.146961617690977 ], [ 428918.116385301982518, 439090.693029381334782 ], [ 428918.104898154910188, 439091.242452664766461 ], [ 428918.143728379975073, 439091.790622449188959 ], [ 428919.149950207094662, 439100.386427347373683 ], [ 428931.068567886482924, 439098.991238252201583 ], [ 428930.224989087844733, 439091.784836469043512 ], [ 428935.401812850905117, 439077.223553657007869 ], [ 428951.782097863731906, 439039.237269103410654 ], [ 428970.102430159051437, 439006.488214335462544 ], [ 428992.636879823636264, 438974.107493448071182 ], [ 429004.537070499267429, 438957.715548850421328 ], [ 429026.71876832988346, 438933.900602810608689 ], [ 429035.643409969867207, 438925.666596357070375 ], [ 429067.085760192363523, 438896.672452692699153 ], [ 429072.996769306191709, 438891.429428733885288 ], [ 429107.943256694881711, 438860.425105325819459 ], [ 429108.393414262041915, 438859.98120136995567 ], [ 429130.321373835962731, 438835.95082498161355 ], [ 429130.648141511541326, 438835.560711434925906 ], [ 429137.918320976546966, 438826.092804438783787 ], [ 429154.676671424647793, 438804.241736018972006 ], [ 429154.965279703668784, 438803.830904155503958 ], [ 429176.180085447267629, 438770.772776928846724 ], [ 429176.566326710861176, 438770.072157669055741 ], [ 429184.528656926297117, 438753.031537694099825 ], [ 429208.049968022212852, 438702.662854795402382 ], [ 429208.319691611512098, 438701.978772761125583 ], [ 429219.294805694255047, 438668.211722275184002 ], [ 429207.882478602929041, 438664.502437929215375 ], [ 429197.021227262448519, 438697.919167777290568 ] ] ] } },
{ "type": "Feature", "properties": { "highway": "residential", "lanes": null, "maxspeed": null, "name": "Deanswood Drive", "surface": null, "osm_type": "way", "osm_id": 236289095, "source": "OS7", "source:name": null, "lit": null }, "geometry": { "type": "Polygon", "coordinates": [ [ [ 429187.106328339141328, 439506.866674161690753 ], [ 429178.957361637672875, 439506.27886242675595 ], [ 429172.72252892900724, 439505.519792337494437 ], [ 429132.832374480203725, 439500.677582517091651 ], [ 429100.562402285460848, 439494.0233902768814 ], [ 429056.026980571157765, 439482.351510186912492 ], [ 429028.209397408354562, 439463.631564120936673 ], [ 429016.906689043506049, 439451.039134526334237 ], [ 429010.090148003189825, 439439.303262152185198 ], [ 428997.854278803803027, 439414.179261212761048 ], [ 428984.891395503713284, 439362.370822953700554 ], [ 428984.573614105000161, 439361.090141741908155 ], [ 428972.36652305239113, 439292.437924842874054 ], [ 428969.912687690404709, 439256.793171506375074 ], [ 428969.240739375527482, 439216.156431655865163 ], [ 428975.396782102179714, 439168.067383455345407 ], [ 428988.291683937248308, 439122.659381459408905 ], [ 429003.034264786576387, 439084.71040041919332 ], [ 429023.622138178325258, 439042.443618794786744 ], [ 429014.631935040932149, 439038.064549538888969 ], [ 428993.953440479177516, 439080.517375886323862 ], [ 428993.787881898926571, 439080.896317524078768 ], [ 428978.885343238827772, 439119.257047089922708 ], [ 428978.736184652720112, 439119.701754383626394 ], [ 428965.674941083590966, 439165.695510803139769 ], [ 428965.586431037751026, 439166.058213986631017 ], [ 428965.52523164905142, 439166.426510419347323 ], [ 428959.275938381557353, 439215.244002192164771 ], [ 428959.236149966891389, 439215.96155441069277 ], [ 428959.916212556592654, 439257.089013069693465 ], [ 428959.927335047046654, 439257.349741285841446 ], [ 428962.408565070363693, 439293.392433278553654 ], [ 428962.473974462249316, 439293.924362166493665 ], [ 428974.757488915638532, 439363.006381371465977 ], [ 428974.827438673819415, 439363.335214684077073 ], [ 428975.18690092646284, 439364.783872645872179 ], [ 428975.189260797051247, 439364.793343531491701 ], [ 428988.280024241714273, 439417.112877232895698 ], [ 428988.432251521735452, 439417.609941954666283 ], [ 428988.635266199358739, 439418.088514334813226 ], [ 429001.179620153969154, 439443.845929309085477 ], [ 429001.351254695793614, 439444.167938422237057 ], [ 429008.518147852330003, 439456.50700348574901 ], [ 429008.798195373849012, 439456.936766193073709 ], [ 429009.120800881821197, 439457.33557477517752 ], [ 429021.18204892007634, 439470.773098936828319 ], [ 429021.469296264578588, 439471.067771383852232 ], [ 429021.779802503820974, 439471.33782464399701 ], [ 429022.111464356945362, 439471.58142945333384 ], [ 429051.147501457366161, 439491.121338629047386 ], [ 429051.628655637323391, 439491.407366937492043 ], [ 429052.13876543880906, 439491.637821984128095 ], [ 429052.671437726356089, 439491.809815507789608 ], [ 429098.155325214145705, 439503.730270290689077 ], [ 429098.413144192716572, 439503.790591988770757 ], [ 429131.015077030635439, 439510.513235788966995 ], [ 429131.422331842535641, 439510.57982595305657 ], [ 429171.514861755422316, 439515.446601531584747 ], [ 429177.87079744314542, 439516.220415504707489 ], [ 429178.115337152092252, 439516.244106734695379 ], [ 429186.387659696047194, 439516.840816531737801 ], [ 429328.419363499328028, 439527.040515193773899 ], [ 429329.135647193936165, 439517.066201299137902 ], [ 429187.106328339141328, 439506.866674161690753 ] ] ] } },
{ "type": "Feature", "properties": { "highway": "residential", "lanes": null, "maxspeed": null, "name": "Buck Stone Road", "surface": null, "osm_type": "way", "osm_id": 236289098, "source": "OS7", "source:name": null, "lit": null }, "geometry": { "type": "Polygon", "coordinates": [ [ [ 428769.973908285377547, 440009.720882322464604 ], [ 428715.414854423201177, 440001.376485721208155 ], [ 428680.120689337782096, 439988.188650953408796 ], [ 428658.056484682369046, 439976.082604383002035 ], [ 428646.778357893403154, 439965.771482606243808 ], [ 428642.345752162043937, 439953.484172529715579 ], [ 428632.939118400681764, 439956.877583981317002 ], [ 428637.790483364253305, 439970.325706646486651 ], [ 428637.976462027174421, 439970.772282382939011 ], [ 428638.204726219526492, 439971.198795465927105 ], [ 428638.47313922457397, 439971.601253426691983 ], [ 428638.779188503860496, 439971.975888969784137 ], [ 428639.120009216363542, 439972.319195237418171 ], [ 428651.75164151925128, 439983.867770754557569 ], [ 428652.215250895707868, 439984.243390347925015 ], [ 428652.720304021553602, 439984.561108891444746 ], [ 428675.627107537933625, 439997.129467211139854 ], [ 428676.282143765885849, 439997.429648769670166 ], [ 428712.398389998881612, 440010.924658117583022 ], [ 428712.888810277509037, 440011.079665672441479 ], [ 428713.392559870902915, 440011.183471928874496 ], [ 428768.490940397139639, 440019.610354483651463 ], [ 428768.548743960447609, 440019.618849792168476 ], [ 428815.080699364829343, 440026.180086719221435 ], [ 428816.476937090803403, 440016.278040455305018 ], [ 428769.973908285377547, 440009.720882322464604 ] ] ] } },
{ "type": "Feature", "properties": { "highway": "residential", "lanes": null, "maxspeed": null, "name": "Black Moor Road", "surface": null, "osm_type": "way", "osm_id": 816857652, "source": "OS7", "source:name": null, "lit": null }, "geometry": { "type": "Polygon", "coordinates": [ [ [ 428915.718886385206133, 439106.15769859123975 ], [ 428915.525852636026684, 439106.536665346880909 ], [ 428915.36572274233913, 439106.930665660765953 ], [ 428915.239655262033921, 439107.336848895996809 ], [ 428910.04579495015787, 439126.987439230782911 ], [ 428909.997441135870758, 439127.186860228015576 ], [ 428906.274873355636373, 439144.042674225347582 ], [ 428906.25470467377454, 439144.138439482601825 ], [ 428902.582315433770418, 439162.463253486028407 ], [ 428902.545292700175196, 439162.67056164611131 ], [ 428899.68268915056251, 439180.911361397476867 ], [ 428899.653024455590639, 439181.132497005164623 ], [ 428898.322826601273846, 439193.062942169141024 ], [ 428898.315074254816864, 439193.137549948121887 ], [ 428897.464548237039708, 439201.966682412370574 ], [ 428897.450720072374679, 439202.142763146781363 ], [ 428897.018722945009358, 439209.249881616095081 ], [ 428897.013203681271989, 439209.745347345422488 ], [ 428897.239995969342999, 439215.643748611269984 ], [ 428897.274094293476082, 439216.065216280461755 ], [ 428897.343681883998215, 439216.482295720314141 ], [ 428898.615691957180388, 439222.520659808244091 ], [ 428898.746412865526509, 439223.014569892489817 ], [ 428898.92685471434379, 439223.492561384395231 ], [ 428901.852756811480504, 439230.186458563024644 ], [ 428902.063020149304066, 439230.611379864043556 ], [ 428905.745894454128575, 439237.243189754197374 ], [ 428905.974251454696059, 439237.615156296582427 ], [ 428908.745077624451369, 439241.715645175601821 ], [ 428909.008798956871033, 439242.070951278088614 ], [ 428909.302900200302247, 439242.401550470793154 ], [ 428912.774374407192226, 439245.972295637184288 ], [ 428913.14336575177731, 439246.315416737692431 ], [ 428918.667490522027947, 439250.95584093243815 ], [ 428918.966137252748013, 439251.188024023955222 ], [ 428924.121025652275421, 439254.891556525893975 ], [ 428924.55893869738793, 439255.172821433865465 ], [ 428925.023717026342638, 439255.407041177735664 ], [ 428933.251530410605483, 439259.029412407544442 ], [ 428933.880064215511084, 439259.257291715068277 ], [ 428941.957943347922992, 439261.588086709321942 ], [ 428942.488812632160261, 439261.710375582159031 ], [ 428943.029835053195711, 439261.774183930479921 ], [ 428951.257064424629789, 439262.292308769770898 ], [ 428951.682151268702, 439262.300966202048585 ], [ 428965.026354403351434, 439262.005118556669913 ], [ 428964.804703878355213, 439252.007575306226499 ], [ 428951.673228378931526, 439252.298706673725974 ], [ 428944.204487517650705, 439251.828349037677981 ], [ 428936.974272419174667, 439249.742139417212456 ], [ 428929.531375349324662, 439246.465334882028401 ], [ 428924.954612253757659, 439243.177156833466142 ], [ 428919.768567262392025, 439238.820729407598265 ], [ 428916.782284196582623, 439235.749050003651064 ], [ 428914.382233543554321, 439232.197264215210453 ], [ 428910.920628106512595, 439225.963896667701192 ], [ 428908.295206414477434, 439219.957440445490647 ], [ 428907.216322214459069, 439214.83586495986674 ], [ 428907.015350476256572, 439209.609003124118317 ], [ 428907.426938953984063, 439202.837643116014078 ], [ 428908.265399301599246, 439194.133761846867856 ], [ 428909.579076376627199, 439182.351490317669231 ], [ 428912.408051963837352, 439164.324971348862164 ], [ 428916.050130811170675, 439146.151402834919281 ], [ 428919.740015197603498, 439129.443579482322093 ], [ 428924.743693911761511, 439110.512527302547824 ], [ 428929.464026351226494, 439102.145660372916609 ], [ 428920.754491742351092, 439097.232005226658657 ], [ 428915.718886385206133, 439106.15769859123975 ] ] ] } },
{ "type": "Feature", "properties": { "highway": "residential", "lanes": null, "maxspeed": null, "name": "Spring Hill", "surface": null, "osm_type": "way", "osm_id": 1157031802, "source": "OS7", "source:name": null, "lit": null }, "geometry": { "type": "Polygon", "coordinates": [ [ [ 428315.654675711004529, 439703.648278522945475 ], [ 428325.547503343375865, 439705.108402297424618 ], [ 428336.632278146047611, 439630.005340228613932 ], [ 428326.739450513676275, 439628.545216454134788 ], [ 428315.654675711004529, 439703.648278522945475 ] ] ] } }
]
}
