{
"type": "FeatureCollection",
"name": "se2739_rgb_250_03_removal",
"crs": { "type": "name", "properties": { "name": "urn:ogc:def:crs:EPSG::27700" } },
"features": [
{ "type": "Feature", "properties": { }, "geometry": { "type": "Polygon", "coordinates": [ [ [ 427892.5, 439995.5 ], [ 427892.5, 439995.25 ], [ 427892.25, 439995.25 ], [ 427892.25, 439995.0 ], [ 427892.0, 439995.0 ], [ 427892.0, 439994.75 ], [ 427891.75, 439994.75 ], [ 427891.75, 439994.25 ], [ 427891.5, 439994.25 ], [ 427891.5, 439994.0 ], [ 427891.25, 439994.0 ], [ 427891.25, 439993.75 ], [ 427890.75, 439993.75 ], [ 427890.75, 439993.5 ], [ 427889.25, 439993.5 ], [ 427889.25, 439994.25 ], [ 427889.0, 439994.25 ], [ 427889.0, 439995.0 ], [ 427888.75, 439995.0 ], [ 427888.75, 439996.0 ], [ 427888.5, 439996.0 ], [ 427888.5, 439996.75 ], [ 427888.75, 439996.75 ], [ 427888.75, 439996.759439506218769 ], [ 427892.75, 439996.744807369716 ], [ 427892.75, 439995.5 ], [ 427892.5, 439995.5 ] ] ] } },
{ "type": "Feature", "properties": { }, "geometry": { "type": "Polygon", "coordinates": [ [ [ 427998.25, 439979.75 ], [ 427998.25, 439978.75 ], [ 427998.5, 439978.75 ], [ 427998.5, 439978.5 ], [ 427998.25, 439978.5 ], [ 427998.25, 439978.25 ], [ 427998.155155767686665, 439978.25 ], [ 427998.280781692883465, 439980.5 ], [ 427998.5, 439980.5 ], [ 427998.5, 439979.75 ], [ 427998.25, 439979.75 ] ] ] } },
{ "type": "Feature", "properties": { }, "geometry": { "type": "Polygon", "coordinates": [ [ [ 427127.0, 439833.25 ], [ 427127.0, 439834.0 ], [ 427127.25, 439834.0 ], [ 427127.25, 439834.25 ], [ 427127.5, 439834.25 ], [ 427127.5, 439834.5 ], [ 427128.0, 439834.5 ], [ 427128.0, 439833.25 ], [ 427127.0, 439833.25 ] ] ] } },
{ "type": "Feature", "properties": { }, "geometry": { "type": "Polygon", "coordinates": [ [ [ 427691.25, 439741.0 ], [ 427691.25, 439740.75 ], [ 427691.5, 439740.75 ], [ 427691.5, 439740.5 ], [ 427692.0, 439740.5 ], [ 427692.0, 439740.25 ], [ 427692.25, 439740.25 ], [ 427692.25, 439740.0 ], [ 427692.5, 439740.0 ], [ 427692.5, 439739.75 ], [ 427693.0, 439739.75 ], [ 427693.0, 439739.25 ], [ 427693.25, 439739.25 ], [ 427693.25, 439739.0 ], [ 427693.5, 439739.0 ], [ 427693.5, 439738.75 ], [ 427693.75, 439738.75 ], [ 427693.75, 439738.25 ], [ 427694.0, 439738.25 ], [ 427694.0, 439737.5 ], [ 427694.25, 439737.5 ], [ 427694.25, 439736.75 ], [ 427694.5, 439736.75 ], [ 427694.5, 439735.5 ], [ 427694.75, 439735.5 ], [ 427694.75, 439732.25 ], [ 427695.0, 439732.25 ], [ 427695.0, 439730.0 ], [ 427695.25, 439730.0 ], [ 427695.25, 439728.75 ], [ 427695.5, 439728.75 ], [ 427695.5, 439727.25 ], [ 427695.75, 439727.25 ], [ 427695.75, 439724.5 ], [ 427695.5, 439724.5 ], [ 427695.5, 439723.25 ], [ 427695.25, 439723.25 ], [ 427695.25, 439722.5 ], [ 427695.0, 439722.5 ], [ 427695.0, 439722.0 ], [ 427694.75, 439722.0 ], [ 427694.75, 439721.75 ], [ 427694.5, 439721.75 ], [ 427694.5, 439721.5 ], [ 427694.0, 439721.5 ], [ 427694.0, 439721.25 ], [ 427693.5, 439721.25 ], [ 427693.5, 439721.0 ], [ 427692.75, 439721.0 ], [ 427692.75, 439720.75 ], [ 427691.75, 439720.75 ], [ 427691.75, 439720.5 ], [ 427691.0, 439720.5 ], [ 427691.0, 439720.25 ], [ 427690.5, 439720.25 ], [ 427690.5, 439720.0 ], [ 427690.25, 439720.0 ], [ 427690.25, 439719.75 ], [ 427690.0, 439719.75 ], [ 427690.0, 439719.5 ], [ 427689.5, 439719.5 ], [ 427689.5, 439719.25 ], [ 427689.25, 439719.25 ], [ 427689.25, 439719.0 ], [ 427689.0, 439719.0 ], [ 427689.0, 439718.75 ], [ 427688.75, 439718.75 ], [ 427688.75, 439718.5 ], [ 427688.0, 439718.5 ], [ 427688.0, 439718.25 ], [ 427687.25, 439718.25 ], [ 427687.25, 439717.75 ], [ 427687.0, 439717.75 ], [ 427687.0, 439717.5 ], [ 427686.75, 439717.5 ], [ 427686.75, 439717.25 ], [ 427685.75, 439717.25 ], [ 427685.75, 439717.5 ], [ 427685.5, 439717.5 ], [ 427685.5, 439718.0 ], [ 427685.25, 439718.0 ], [ 427685.25, 439718.75 ], [ 427685.0, 439718.75 ], [ 427685.0, 439719.25 ], [ 427684.75, 439719.25 ], [ 427684.75, 439720.25 ], [ 427684.5, 439720.25 ], [ 427684.5, 439721.25 ], [ 427684.25, 439721.25 ], [ 427684.25, 439723.0 ], [ 427684.0, 439723.0 ], [ 427684.0, 439724.5 ], [ 427683.75, 439724.5 ], [ 427683.75, 439725.75 ], [ 427683.5, 439725.75 ], [ 427683.5, 439726.5 ], [ 427683.25, 439726.5 ], [ 427683.25, 439727.75 ], [ 427683.0, 439727.75 ], [ 427683.0, 439728.5 ], [ 427682.75, 439728.5 ], [ 427682.75, 439731.75 ], [ 427683.0, 439731.75 ], [ 427683.0, 439732.75 ], [ 427683.25, 439732.75 ], [ 427683.25, 439733.25 ], [ 427683.5, 439733.25 ], [ 427683.5, 439735.5 ], [ 427683.25, 439735.5 ], [ 427683.25, 439737.75 ], [ 427683.5, 439737.75 ], [ 427683.5, 439738.25 ], [ 427683.75, 439738.25 ], [ 427683.75, 439738.5 ], [ 427684.0, 439738.5 ], [ 427684.0, 439738.75 ], [ 427684.5, 439738.75 ], [ 427684.5, 439739.0 ], [ 427685.0, 439739.0 ], [ 427685.0, 439739.25 ], [ 427685.5, 439739.25 ], [ 427685.5, 439739.5 ], [ 427686.0, 439739.5 ], [ 427686.0, 439739.75 ], [ 427686.5, 439739.75 ], [ 427686.5, 439740.0 ], [ 427687.25, 439740.0 ], [ 427687.25, 439740.25 ], [ 427687.75, 439740.25 ], [ 427687.75, 439740.5 ], [ 427688.0, 439740.5 ], [ 427688.0, 439740.75 ], [ 427688.5, 439740.75 ], [ 427688.5, 439741.0 ], [ 427689.0, 439741.0 ], [ 427689.0, 439741.25 ], [ 427690.75, 439741.25 ], [ 427690.75, 439741.0 ], [ 427691.25, 439741.0 ] ] ] } },
{ "type": "Feature", "properties": { }, "geometry": { "type": "Polygon", "coordinates": [ [ [ 427816.0, 439699.25 ], [ 427816.0, 439699.5 ], [ 427815.75, 439699.5 ], [ 427815.75, 439699.75 ], [ 427815.5, 439699.75 ], [ 427815.5, 439700.25 ], [ 427815.25, 439700.25 ], [ 427815.25, 439700.75 ], [ 427815.0, 439700.75 ], [ 427815.0, 439701.25 ], [ 427814.75, 439701.25 ], [ 427814.75, 439706.5 ], [ 427815.0, 439706.5 ], [ 427815.0, 439708.75 ], [ 427815.25, 439708.75 ], [ 427815.25, 439710.25 ], [ 427815.5, 439710.25 ], [ 427815.5, 439711.25 ], [ 427815.75, 439711.25 ], [ 427815.75, 439712.0 ], [ 427816.0, 439712.0 ], [ 427816.0, 439712.75 ], [ 427816.25, 439712.75 ], [ 427816.25, 439713.75 ], [ 427816.5, 439713.75 ], [ 427816.5, 439714.75 ], [ 427816.75, 439714.75 ], [ 427816.75, 439715.25 ], [ 427817.0, 439715.25 ], [ 427817.0, 439715.75 ], [ 427817.25, 439715.75 ], [ 427817.25, 439716.25 ], [ 427817.5, 439716.25 ], [ 427817.5, 439716.75 ], [ 427818.0, 439716.75 ], [ 427818.0, 439717.0 ], [ 427818.25, 439717.0 ], [ 427818.25, 439717.25 ], [ 427818.5, 439717.25 ], [ 427818.5, 439717.5 ], [ 427818.75, 439717.5 ], [ 427818.75, 439717.75 ], [ 427819.0, 439717.75 ], [ 427819.0, 439718.0 ], [ 427819.25, 439718.0 ], [ 427819.25, 439718.25 ], [ 427819.5, 439718.25 ], [ 427819.5, 439718.75 ], [ 427819.75, 439718.75 ], [ 427819.75, 439719.0 ], [ 427820.0, 439719.0 ], [ 427820.0, 439719.25 ], [ 427820.25, 439719.25 ], [ 427820.25, 439719.5 ], [ 427820.5, 439719.5 ], [ 427820.5, 439719.75 ], [ 427821.0, 439719.75 ], [ 427821.0, 439720.0 ], [ 427821.25, 439720.0 ], [ 427821.25, 439720.25 ], [ 427821.5, 439720.25 ], [ 427821.5, 439720.5 ], [ 427822.25, 439720.5 ], [ 427822.25, 439720.75 ], [ 427825.25, 439720.75 ], [ 427825.25, 439721.0 ], [ 427826.0, 439721.0 ], [ 427826.0, 439720.75 ], [ 427827.75, 439720.75 ], [ 427827.75, 439720.5 ], [ 427829.0, 439720.5 ], [ 427829.0, 439720.25 ], [ 427829.5, 439720.25 ], [ 427829.5, 439720.0 ], [ 427830.0, 439720.0 ], [ 427830.0, 439719.75 ], [ 427830.25, 439719.75 ], [ 427830.25, 439719.5 ], [ 427830.5, 439719.5 ], [ 427830.5, 439719.25 ], [ 427830.75, 439719.25 ], [ 427830.75, 439719.0 ], [ 427831.0, 439719.0 ], [ 427831.0, 439718.5 ], [ 427831.25, 439718.5 ], [ 427831.25, 439718.0 ], [ 427831.5, 439718.0 ], [ 427831.5, 439717.75 ], [ 427831.75, 439717.75 ], [ 427831.75, 439717.25 ], [ 427832.0, 439717.25 ], [ 427832.0, 439717.0 ], [ 427832.25, 439717.0 ], [ 427832.25, 439716.75 ], [ 427832.5, 439716.75 ], [ 427832.5, 439716.5 ], [ 427832.75, 439716.5 ], [ 427832.75, 439716.25 ], [ 427833.0, 439716.25 ], [ 427833.0, 439716.0 ], [ 427833.25, 439716.0 ], [ 427833.25, 439715.75 ], [ 427834.0, 439715.75 ], [ 427834.0, 439715.5 ], [ 427837.75, 439715.5 ], [ 427837.75, 439715.25 ], [ 427838.75, 439715.25 ], [ 427838.75, 439715.0 ], [ 427839.75, 439715.0 ], [ 427839.75, 439714.75 ], [ 427841.0, 439714.75 ], [ 427841.0, 439714.5 ], [ 427842.25, 439714.5 ], [ 427842.25, 439714.25 ], [ 427842.5, 439714.25 ], [ 427842.5, 439714.5 ], [ 427844.0, 439714.5 ], [ 427844.0, 439714.75 ], [ 427845.5, 439714.75 ], [ 427845.5, 439715.0 ], [ 427848.75, 439715.0 ], [ 427848.75, 439715.25 ], [ 427850.25, 439715.25 ], [ 427850.25, 439715.5 ], [ 427851.0, 439715.5 ], [ 427851.0, 439715.75 ], [ 427851.5, 439715.75 ], [ 427851.5, 439716.0 ], [ 427852.0, 439716.0 ], [ 427852.0, 439716.25 ], [ 427852.25, 439716.25 ], [ 427852.25, 439716.5 ], [ 427852.75, 439716.5 ], [ 427852.75, 439716.75 ], [ 427853.0, 439716.75 ], [ 427853.0, 439717.0 ], [ 427853.25, 439717.0 ], [ 427853.25, 439717.25 ], [ 427853.5, 439717.25 ], [ 427853.5, 439717.5 ], [ 427854.25, 439717.5 ], [ 427854.25, 439717.75 ], [ 427858.0, 439717.75 ], [ 427858.0, 439718.0 ], [ 427859.0, 439718.0 ], [ 427859.0, 439718.25 ], [ 427859.5, 439718.25 ], [ 427859.5, 439718.5 ], [ 427860.5, 439718.5 ], [ 427860.5, 439718.75 ], [ 427864.5, 439718.75 ], [ 427864.5, 439718.5 ], [ 427867.75, 439718.5 ], [ 427867.75, 439718.25 ], [ 427868.25, 439718.25 ], [ 427868.25, 439718.0 ], [ 427869.25, 439718.0 ], [ 427869.25, 439717.75 ], [ 427869.75, 439717.75 ], [ 427869.75, 439717.5 ], [ 427870.0, 439717.5 ], [ 427870.0, 439717.25 ], [ 427870.25, 439717.25 ], [ 427870.25, 439717.0 ], [ 427870.5, 439717.0 ], [ 427870.5, 439716.75 ], [ 427870.75, 439716.75 ], [ 427870.75, 439716.0 ], [ 427871.0, 439716.0 ], [ 427871.0, 439715.25 ], [ 427871.25, 439715.25 ], [ 427871.25, 439713.0 ], [ 427871.0, 439713.0 ], [ 427871.0, 439711.5 ], [ 427870.75, 439711.5 ], [ 427870.75, 439710.265161347109824 ], [ 427865.278398954542354, 439702.5 ], [ 427864.0, 439702.5 ], [ 427864.0, 439702.25 ], [ 427862.25, 439702.25 ], [ 427862.25, 439702.0 ], [ 427862.0, 439702.0 ], [ 427862.0, 439701.5 ], [ 427861.75, 439701.5 ], [ 427861.75, 439701.25 ], [ 427861.5, 439701.25 ], [ 427861.5, 439701.0 ], [ 427861.25, 439701.0 ], [ 427861.25, 439700.5 ], [ 427861.0, 439700.5 ], [ 427861.0, 439700.25 ], [ 427860.75, 439700.25 ], [ 427860.75, 439699.75 ], [ 427860.25, 439699.75 ], [ 427860.25, 439699.5 ], [ 427859.5, 439699.5 ], [ 427859.5, 439699.25 ], [ 427859.0, 439699.25 ], [ 427859.0, 439699.0 ], [ 427858.25, 439699.0 ], [ 427858.25, 439698.75 ], [ 427857.75, 439698.75 ], [ 427857.75, 439698.5 ], [ 427857.0, 439698.5 ], [ 427857.0, 439698.25 ], [ 427856.5, 439698.25 ], [ 427856.5, 439698.0 ], [ 427856.25, 439698.0 ], [ 427856.25, 439697.75 ], [ 427855.75, 439697.75 ], [ 427855.75, 439697.5 ], [ 427855.25, 439697.5 ], [ 427855.25, 439697.25 ], [ 427854.75, 439697.25 ], [ 427854.75, 439697.0 ], [ 427854.25, 439697.0 ], [ 427854.25, 439697.25 ], [ 427853.25, 439697.25 ], [ 427853.25, 439697.5 ], [ 427852.75, 439697.5 ], [ 427852.75, 439697.75 ], [ 427852.0, 439697.75 ], [ 427852.0, 439698.0 ], [ 427851.75, 439698.0 ], [ 427851.75, 439698.25 ], [ 427851.25, 439698.25 ], [ 427851.25, 439698.5 ], [ 427850.5, 439698.5 ], [ 427850.5, 439698.75 ], [ 427845.5, 439698.75 ], [ 427845.5, 439698.5 ], [ 427841.75, 439698.5 ], [ 427841.75, 439698.75 ], [ 427841.25, 439698.75 ], [ 427841.25, 439699.0 ], [ 427840.5, 439699.0 ], [ 427840.5, 439699.25 ], [ 427840.0, 439699.25 ], [ 427840.0, 439699.5 ], [ 427839.5, 439699.5 ], [ 427839.5, 439699.75 ], [ 427839.25, 439699.75 ], [ 427839.25, 439700.0 ], [ 427838.75, 439700.0 ], [ 427838.75, 439700.25 ], [ 427838.5, 439700.25 ], [ 427838.5, 439700.5 ], [ 427838.0, 439700.5 ], [ 427838.0, 439700.75 ], [ 427837.75, 439700.75 ], [ 427837.75, 439701.0 ], [ 427837.5, 439701.0 ], [ 427837.5, 439701.25 ], [ 427836.75, 439701.25 ], [ 427836.75, 439701.5 ], [ 427836.25, 439701.5 ], [ 427836.25, 439701.75 ], [ 427835.75, 439701.75 ], [ 427835.75, 439702.0 ], [ 427835.25, 439702.0 ], [ 427835.25, 439702.25 ], [ 427834.5, 439702.25 ], [ 427834.5, 439702.5 ], [ 427833.25, 439702.5 ], [ 427833.25, 439702.403383646276779 ], [ 427831.30131684767548, 439703.716906263143755 ], [ 427827.771807395096403, 439698.5 ], [ 427827.75, 439698.5 ], [ 427827.75, 439698.467766870278865 ], [ 427827.602669343003072, 439698.25 ], [ 427827.500812689249869, 439698.25 ], [ 427829.039725792710669, 439702.111825137166306 ], [ 427830.736470953735989, 439703.931284761172719 ], [ 427833.45800657622749, 439704.756129563611466 ], [ 427837.798736803233624, 439704.426960052805953 ], [ 427851.410456151759718, 439700.123766310804058 ], [ 427854.424799138621893, 439709.658635809493717 ], [ 427840.261166295793373, 439714.136310866742861 ], [ 427839.702915207075421, 439714.278005374770146 ], [ 427839.132073022134136, 439714.354561312007718 ], [ 427833.281223772908561, 439714.798247301368974 ], [ 427832.819128234928939, 439714.811856165935751 ], [ 427832.357750935712829, 439714.782727567944676 ], [ 427831.901036051218398, 439714.711110518896021 ], [ 427831.452887899708003, 439714.59761725156568 ], [ 427826.547636800270993, 439713.110930529306643 ], [ 427826.053191842627712, 439712.93218971969327 ], [ 427825.580249391205143, 439712.702517059573438 ], [ 427825.134038753516506, 439712.424452031147666 ], [ 427824.719493664451875, 439712.101069189491682 ], [ 427824.341197734000161, 439711.735944166837726 ], [ 427821.085868577938527, 439708.245178376964759 ], [ 427820.785521789453924, 439707.891546519298572 ], [ 427820.519247311516665, 439707.511597066710237 ], [ 427820.289337913156487, 439707.108601591957267 ], [ 427820.097773240064271, 439706.686030106677208 ], [ 427818.071451538009569, 439701.601077572675422 ], [ 427816.779265188844875, 439699.031214635760989 ], [ 427816.634322298457846, 439699.055188627389725 ], [ 427816.25, 439699.084246631013229 ], [ 427816.25, 439699.25 ], [ 427816.0, 439699.25 ] ] ] } },
{ "type": "Feature", "properties": { }, "geometry": { "type": "Polygon", "coordinates": [ [ [ 427827.433531290967949, 439698.0 ], [ 427827.401189256750513, 439698.0 ], [ 427827.5, 439698.247960597160272 ], [ 427827.5, 439698.098246237670537 ], [ 427827.433531290967949, 439698.0 ] ] ] } },
{ "type": "Feature", "properties": { }, "geometry": { "type": "Polygon", "coordinates": [ [ [ 427781.25, 439691.5 ], [ 427781.25, 439691.0 ], [ 427781.0, 439691.0 ], [ 427781.0, 439690.5 ], [ 427780.75, 439690.5 ], [ 427780.75, 439690.25 ], [ 427780.5, 439690.25 ], [ 427780.5, 439690.0 ], [ 427780.25, 439690.0 ], [ 427780.25, 439689.744948547100648 ], [ 427775.768776301585604, 439689.9690288832644 ], [ 427775.344332546112128, 439681.5 ], [ 427775.0, 439681.5 ], [ 427775.0, 439681.25 ], [ 427774.75, 439681.25 ], [ 427774.75, 439681.194175729993731 ], [ 427768.0, 439681.53013809985714 ], [ 427768.0, 439690.518785462423693 ], [ 427773.020465289242566, 439690.673165345855523 ], [ 427773.463453167001717, 439690.706531759933569 ], [ 427773.901730927173048, 439690.779086445108987 ], [ 427781.5, 439692.38665701681748 ], [ 427781.5, 439691.5 ], [ 427781.25, 439691.5 ] ] ] } },
{ "type": "Feature", "properties": { }, "geometry": { "type": "Polygon", "coordinates": [ [ [ 427644.0, 439699.5 ], [ 427645.75, 439699.5 ], [ 427645.75, 439699.25 ], [ 427646.75, 439699.25 ], [ 427646.75, 439699.0 ], [ 427648.25, 439699.0 ], [ 427648.25, 439698.75 ], [ 427649.25, 439698.75 ], [ 427649.25, 439698.5 ], [ 427649.75, 439698.5 ], [ 427649.75, 439698.0 ], [ 427650.0, 439698.0 ], [ 427650.0, 439697.5 ], [ 427650.25, 439697.5 ], [ 427650.25, 439696.5 ], [ 427650.0, 439696.5 ], [ 427650.0, 439695.0 ], [ 427649.75, 439695.0 ], [ 427649.75, 439694.0 ], [ 427650.0, 439694.0 ], [ 427650.0, 439693.25 ], [ 427650.25, 439693.25 ], [ 427650.25, 439693.0 ], [ 427650.5, 439693.0 ], [ 427650.5, 439692.75 ], [ 427650.75, 439692.75 ], [ 427650.75, 439692.25 ], [ 427651.0, 439692.25 ], [ 427651.0, 439691.75 ], [ 427651.25, 439691.75 ], [ 427651.25, 439691.25 ], [ 427651.5, 439691.25 ], [ 427651.5, 439691.0 ], [ 427651.75, 439691.0 ], [ 427651.75, 439690.75 ], [ 427652.0, 439690.75 ], [ 427652.0, 439690.25 ], [ 427652.25, 439690.25 ], [ 427652.25, 439689.75 ], [ 427652.5, 439689.75 ], [ 427652.5, 439689.25 ], [ 427652.75, 439689.25 ], [ 427652.75, 439689.0 ], [ 427653.0, 439689.0 ], [ 427653.0, 439688.5 ], [ 427653.25, 439688.5 ], [ 427653.25, 439687.75 ], [ 427653.5, 439687.75 ], [ 427653.5, 439686.75 ], [ 427653.75, 439686.75 ], [ 427653.75, 439685.5 ], [ 427654.0, 439685.5 ], [ 427654.0, 439684.0 ], [ 427654.25, 439684.0 ], [ 427654.25, 439682.75 ], [ 427654.5, 439682.75 ], [ 427654.5, 439682.25 ], [ 427654.25, 439682.25 ], [ 427654.25, 439681.25 ], [ 427654.5, 439681.25 ], [ 427654.5, 439680.75 ], [ 427654.75, 439680.75 ], [ 427654.75, 439677.75 ], [ 427654.5, 439677.75 ], [ 427654.5, 439676.75 ], [ 427654.25, 439676.75 ], [ 427654.25, 439676.0 ], [ 427654.0, 439676.0 ], [ 427654.0, 439675.25 ], [ 427653.75, 439675.25 ], [ 427653.75, 439674.25 ], [ 427653.5, 439674.25 ], [ 427653.5, 439673.75 ], [ 427653.25, 439673.75 ], [ 427653.25, 439673.25 ], [ 427652.75, 439673.25 ], [ 427652.75, 439673.0 ], [ 427652.25, 439673.0 ], [ 427652.25, 439672.75 ], [ 427651.75, 439672.75 ], [ 427651.75, 439672.5 ], [ 427651.25, 439672.5 ], [ 427651.25, 439672.75 ], [ 427651.0, 439672.75 ], [ 427651.0, 439673.0 ], [ 427650.75, 439673.0 ], [ 427650.75, 439673.25 ], [ 427650.5, 439673.25 ], [ 427650.5, 439673.5 ], [ 427650.25, 439673.5 ], [ 427650.25, 439673.75 ], [ 427650.0, 439673.75 ], [ 427650.0, 439674.0 ], [ 427649.75, 439674.0 ], [ 427649.75, 439674.25 ], [ 427648.5, 439674.25 ], [ 427648.5, 439674.0 ], [ 427647.75, 439674.0 ], [ 427647.75, 439673.75 ], [ 427647.0, 439673.75 ], [ 427647.0, 439673.5 ], [ 427646.0, 439673.5 ], [ 427646.0, 439673.25 ], [ 427645.0, 439673.25 ], [ 427645.0, 439673.5 ], [ 427644.0, 439673.5 ], [ 427644.0, 439673.25 ], [ 427643.75, 439673.25 ], [ 427643.75, 439673.0 ], [ 427643.5, 439673.0 ], [ 427643.5, 439672.75 ], [ 427643.0, 439672.75 ], [ 427643.0, 439672.5 ], [ 427642.75, 439672.5 ], [ 427642.75, 439672.25 ], [ 427642.0, 439672.25 ], [ 427642.0, 439672.5 ], [ 427641.75, 439672.5 ], [ 427641.75, 439672.75 ], [ 427640.0, 439672.75 ], [ 427640.0, 439675.5 ], [ 427639.0, 439675.5 ], [ 427639.0, 439675.75 ], [ 427638.5, 439675.75 ], [ 427638.5, 439676.0 ], [ 427638.25, 439676.0 ], [ 427638.25, 439676.5 ], [ 427638.0, 439676.5 ], [ 427638.0, 439677.0 ], [ 427637.75, 439677.0 ], [ 427637.75, 439677.5 ], [ 427637.5, 439677.5 ], [ 427637.5, 439678.25 ], [ 427637.25, 439678.25 ], [ 427637.25, 439679.25 ], [ 427637.0, 439679.25 ], [ 427637.0, 439680.75 ], [ 427636.75, 439680.75 ], [ 427636.75, 439681.75 ], [ 427636.5, 439681.75 ], [ 427636.5, 439683.0 ], [ 427636.25, 439683.0 ], [ 427636.25, 439684.0 ], [ 427636.0, 439684.0 ], [ 427636.0, 439684.75 ], [ 427635.75, 439684.75 ], [ 427635.75, 439685.25 ], [ 427635.5, 439685.25 ], [ 427635.5, 439685.5 ], [ 427635.25, 439685.5 ], [ 427635.25, 439686.0 ], [ 427635.0, 439686.0 ], [ 427635.0, 439686.25 ], [ 427634.75, 439686.25 ], [ 427634.75, 439686.5 ], [ 427634.5, 439686.5 ], [ 427634.5, 439686.75 ], [ 427634.25, 439686.75 ], [ 427634.25, 439687.0 ], [ 427634.0, 439687.0 ], [ 427634.0, 439687.25 ], [ 427633.75, 439687.25 ], [ 427633.75, 439687.5 ], [ 427633.5, 439687.5 ], [ 427633.5, 439687.75 ], [ 427633.0, 439687.75 ], [ 427633.0, 439688.0 ], [ 427632.5, 439688.0 ], [ 427632.5, 439688.25 ], [ 427632.0, 439688.25 ], [ 427632.0, 439688.5 ], [ 427631.5, 439688.5 ], [ 427631.5, 439688.75 ], [ 427631.0, 439688.75 ], [ 427631.0, 439689.0 ], [ 427630.25, 439689.0 ], [ 427630.25, 439689.25 ], [ 427629.5, 439689.25 ], [ 427629.5, 439689.5 ], [ 427628.75, 439689.5 ], [ 427628.75, 439689.75 ], [ 427628.25, 439689.75 ], [ 427628.25, 439690.0 ], [ 427627.75, 439690.0 ], [ 427627.75, 439690.25 ], [ 427627.25, 439690.25 ], [ 427627.25, 439690.5 ], [ 427626.75, 439690.5 ], [ 427626.75, 439690.75 ], [ 427626.5, 439690.75 ], [ 427626.5, 439691.0 ], [ 427626.25, 439691.0 ], [ 427626.25, 439691.5 ], [ 427626.0, 439691.5 ], [ 427626.0, 439691.75 ], [ 427625.75, 439691.75 ], [ 427625.75, 439692.25 ], [ 427625.5, 439692.25 ], [ 427625.5, 439692.75 ], [ 427625.25, 439692.75 ], [ 427625.25, 439693.5 ], [ 427625.0, 439693.5 ], [ 427625.0, 439695.25 ], [ 427624.75, 439695.25 ], [ 427624.75, 439696.75 ], [ 427624.5, 439696.75 ], [ 427624.5, 439700.0 ], [ 427624.25, 439700.0 ], [ 427624.25, 439704.75 ], [ 427624.0, 439704.75 ], [ 427624.0, 439707.0 ], [ 427623.75, 439707.0 ], [ 427623.75, 439708.75 ], [ 427623.5, 439708.75 ], [ 427623.5, 439713.75 ], [ 427623.75, 439713.75 ], [ 427623.75, 439714.25 ], [ 427624.0, 439714.25 ], [ 427624.0, 439714.5 ], [ 427624.25, 439714.5 ], [ 427624.25, 439714.75 ], [ 427624.75, 439714.75 ], [ 427624.75, 439715.0 ], [ 427625.25, 439715.0 ], [ 427625.25, 439715.25 ], [ 427628.0, 439715.25 ], [ 427628.0, 439715.5 ], [ 427631.0, 439715.5 ], [ 427631.0, 439715.75 ], [ 427632.0, 439715.75 ], [ 427632.0, 439716.0 ], [ 427633.0, 439716.0 ], [ 427633.0, 439716.25 ], [ 427633.5, 439716.25 ], [ 427633.5, 439716.5 ], [ 427634.0, 439716.5 ], [ 427634.0, 439716.704502356413286 ], [ 427636.166688669705763, 439716.904161791782826 ], [ 427636.763819029321894, 439710.465496657998301 ], [ 427639.630398348672315, 439710.738307727850042 ], [ 427640.0, 439706.768008105165791 ], [ 427640.0, 439699.75 ], [ 427644.0, 439699.75 ], [ 427644.0, 439699.5 ] ] ] } },
{ "type": "Feature", "properties": { }, "geometry": { "type": "Polygon", "coordinates": [ [ [ 427750.75, 439689.25 ], [ 427750.75, 439689.0 ], [ 427751.25, 439689.0 ], [ 427751.25, 439688.75 ], [ 427752.75, 439688.75 ], [ 427752.75, 439688.5 ], [ 427753.25, 439688.5 ], [ 427753.25, 439688.25 ], [ 427753.75, 439688.25 ], [ 427753.75, 439688.0 ], [ 427754.5, 439688.0 ], [ 427754.5, 439687.75 ], [ 427755.0, 439687.75 ], [ 427755.0, 439687.5 ], [ 427755.25, 439687.5 ], [ 427755.25, 439687.25 ], [ 427755.5, 439687.25 ], [ 427755.5, 439687.0 ], [ 427756.0, 439687.0 ], [ 427756.0, 439686.75 ], [ 427756.25, 439686.75 ], [ 427756.25, 439686.5 ], [ 427756.5, 439686.5 ], [ 427756.5, 439686.25 ], [ 427756.75, 439686.25 ], [ 427756.75, 439685.5 ], [ 427757.0, 439685.5 ], [ 427757.0, 439684.75 ], [ 427757.25, 439684.75 ], [ 427757.25, 439681.75 ], [ 427757.0, 439681.75 ], [ 427757.0, 439679.25 ], [ 427756.75, 439679.25 ], [ 427756.75, 439678.0 ], [ 427756.5, 439678.0 ], [ 427756.5, 439677.0 ], [ 427756.25, 439677.0 ], [ 427756.25, 439676.0 ], [ 427756.0, 439676.0 ], [ 427756.0, 439675.25 ], [ 427755.75, 439675.25 ], [ 427755.75, 439674.75 ], [ 427755.5, 439674.75 ], [ 427755.5, 439674.25 ], [ 427755.25, 439674.25 ], [ 427755.25, 439673.75 ], [ 427755.0, 439673.75 ], [ 427755.0, 439673.25 ], [ 427754.75, 439673.25 ], [ 427754.75, 439672.75 ], [ 427754.5, 439672.75 ], [ 427754.5, 439672.5 ], [ 427754.25, 439672.5 ], [ 427754.25, 439672.25 ], [ 427754.0, 439672.25 ], [ 427754.0, 439672.0 ], [ 427753.5, 439672.0 ], [ 427753.5, 439671.75 ], [ 427753.25, 439671.75 ], [ 427753.25, 439671.5 ], [ 427752.75, 439671.5 ], [ 427752.75, 439671.25 ], [ 427752.25, 439671.25 ], [ 427752.25, 439671.0 ], [ 427751.75, 439671.0 ], [ 427751.75, 439670.75 ], [ 427751.25, 439670.75 ], [ 427751.25, 439670.5 ], [ 427750.75, 439670.5 ], [ 427750.75, 439670.25 ], [ 427745.0, 439670.25 ], [ 427745.0, 439670.5 ], [ 427744.0, 439670.5 ], [ 427744.0, 439670.75 ], [ 427743.25, 439670.75 ], [ 427743.25, 439671.0 ], [ 427743.0, 439671.0 ], [ 427743.0, 439671.25 ], [ 427742.5, 439671.25 ], [ 427742.5, 439671.5 ], [ 427742.25, 439671.5 ], [ 427742.25, 439672.0 ], [ 427742.0, 439672.0 ], [ 427742.0, 439672.25 ], [ 427741.75, 439672.25 ], [ 427741.75, 439672.5 ], [ 427741.5, 439672.5 ], [ 427741.5, 439673.25 ], [ 427741.25, 439673.25 ], [ 427741.25, 439674.75 ], [ 427741.5, 439674.75 ], [ 427741.5, 439676.25 ], [ 427741.75, 439676.25 ], [ 427741.75, 439676.75 ], [ 427742.0, 439676.75 ], [ 427742.0, 439677.0 ], [ 427742.25, 439677.0 ], [ 427742.25, 439677.75 ], [ 427742.5, 439677.75 ], [ 427742.5, 439678.75 ], [ 427742.75, 439678.75 ], [ 427742.75, 439680.25 ], [ 427743.0, 439680.25 ], [ 427743.0, 439684.0 ], [ 427743.25, 439684.0 ], [ 427743.25, 439685.5 ], [ 427743.5, 439685.5 ], [ 427743.5, 439686.5 ], [ 427743.75, 439686.5 ], [ 427743.75, 439687.0 ], [ 427744.0, 439687.0 ], [ 427744.0, 439687.5 ], [ 427744.25, 439687.5 ], [ 427744.25, 439687.75 ], [ 427744.5, 439687.75 ], [ 427744.5, 439688.0 ], [ 427744.75, 439688.0 ], [ 427744.75, 439688.5 ], [ 427745.0, 439688.5 ], [ 427745.0, 439688.75 ], [ 427745.5, 439688.75 ], [ 427745.5, 439689.0 ], [ 427746.0, 439689.0 ], [ 427746.0, 439689.25 ], [ 427749.25, 439689.25 ], [ 427749.25, 439689.5 ], [ 427750.0, 439689.5 ], [ 427750.0, 439689.25 ], [ 427750.75, 439689.25 ] ] ] } },
{ "type": "Feature", "properties": { }, "geometry": { "type": "Polygon", "coordinates": [ [ [ 427805.75, 439686.25 ], [ 427805.75, 439685.75 ], [ 427805.5, 439685.75 ], [ 427805.5, 439685.5 ], [ 427805.25, 439685.5 ], [ 427805.25, 439685.0 ], [ 427805.0, 439685.0 ], [ 427805.0, 439684.5 ], [ 427804.75, 439684.5 ], [ 427804.75, 439683.75 ], [ 427804.5, 439683.75 ], [ 427804.5, 439683.25 ], [ 427804.25, 439683.25 ], [ 427804.25, 439683.0 ], [ 427804.0, 439683.0 ], [ 427804.0, 439682.0 ], [ 427803.75, 439682.0 ], [ 427803.75, 439681.25 ], [ 427804.0, 439681.25 ], [ 427804.0, 439680.0 ], [ 427804.25, 439680.0 ], [ 427804.25, 439678.75 ], [ 427804.5, 439678.75 ], [ 427804.5, 439677.5 ], [ 427804.75, 439677.5 ], [ 427804.75, 439676.25 ], [ 427805.0, 439676.25 ], [ 427805.0, 439675.25 ], [ 427805.25, 439675.25 ], [ 427805.25, 439674.25 ], [ 427805.5, 439674.25 ], [ 427805.5, 439673.37299957923824 ], [ 427799.933754552796017, 439676.318518563522957 ], [ 427804.933199711667839, 439688.007199133862741 ], [ 427805.462333803705405, 439687.972640194057021 ], [ 427806.0, 439687.966665620333515 ], [ 427806.0, 439686.25 ], [ 427805.75, 439686.25 ] ] ] } },
{ "type": "Feature", "properties": { }, "geometry": { "type": "Polygon", "coordinates": [ [ [ 427805.75, 439672.0 ], [ 427805.75, 439671.25 ], [ 427806.0, 439671.25 ], [ 427806.0, 439669.5 ], [ 427806.25, 439669.5 ], [ 427806.25, 439665.75 ], [ 427806.5, 439665.75 ], [ 427806.5, 439664.0 ], [ 427806.75, 439664.0 ], [ 427806.75, 439663.0 ], [ 427807.0, 439663.0 ], [ 427807.0, 439662.25 ], [ 427806.75, 439662.25 ], [ 427806.75, 439662.0 ], [ 427806.5, 439662.0 ], [ 427806.5, 439661.75 ], [ 427806.25, 439661.75 ], [ 427806.25, 439661.5 ], [ 427806.0, 439661.5 ], [ 427806.0, 439661.25 ], [ 427805.0, 439661.25 ], [ 427805.0, 439661.0 ], [ 427803.5, 439661.0 ], [ 427803.5, 439661.25 ], [ 427802.25, 439661.25 ], [ 427802.25, 439661.5 ], [ 427802.0, 439661.5 ], [ 427802.0, 439661.75 ], [ 427801.5, 439661.75 ], [ 427801.5, 439662.0 ], [ 427801.25, 439662.0 ], [ 427801.25, 439662.25 ], [ 427801.0, 439662.25 ], [ 427801.0, 439662.5 ], [ 427800.75, 439662.5 ], [ 427800.75, 439662.75 ], [ 427800.5, 439662.75 ], [ 427800.5, 439663.0 ], [ 427800.25, 439663.0 ], [ 427800.25, 439663.25 ], [ 427799.75, 439663.25 ], [ 427799.75, 439663.5 ], [ 427799.0, 439663.5 ], [ 427799.0, 439663.75 ], [ 427798.0, 439663.75 ], [ 427798.0, 439664.0 ], [ 427797.5, 439664.0 ], [ 427797.5, 439664.25 ], [ 427797.0, 439664.25 ], [ 427797.0, 439664.5 ], [ 427796.5, 439664.5 ], [ 427796.5, 439664.75 ], [ 427796.0, 439664.75 ], [ 427796.0, 439665.0 ], [ 427795.5, 439665.0 ], [ 427795.5, 439665.25 ], [ 427795.0, 439665.25 ], [ 427795.0, 439665.5 ], [ 427794.75, 439665.5 ], [ 427794.75, 439665.75 ], [ 427794.25, 439665.75 ], [ 427794.25, 439666.0 ], [ 427793.75, 439666.0 ], [ 427793.75, 439666.25 ], [ 427793.25, 439666.25 ], [ 427793.25, 439666.5 ], [ 427793.0, 439666.5 ], [ 427793.0, 439666.75 ], [ 427792.5, 439666.75 ], [ 427792.5, 439667.0 ], [ 427792.0, 439667.0 ], [ 427792.0, 439667.25 ], [ 427791.5, 439667.25 ], [ 427791.5, 439667.5 ], [ 427791.0, 439667.5 ], [ 427791.0, 439667.75 ], [ 427790.5, 439667.75 ], [ 427790.5, 439668.0 ], [ 427790.0, 439668.0 ], [ 427790.0, 439668.25 ], [ 427789.75, 439668.25 ], [ 427789.75, 439668.5 ], [ 427789.25, 439668.5 ], [ 427789.25, 439668.75 ], [ 427789.0, 439668.75 ], [ 427789.0, 439669.0 ], [ 427788.75, 439669.0 ], [ 427788.75, 439669.25 ], [ 427788.5, 439669.25 ], [ 427788.5, 439670.0 ], [ 427788.25, 439670.0 ], [ 427788.25, 439674.0 ], [ 427788.5, 439674.0 ], [ 427788.5, 439674.5 ], [ 427788.549850101757329, 439674.5 ], [ 427788.526422474067658, 439674.088789917179383 ], [ 427788.547394871828146, 439673.593353244126774 ], [ 427788.617339143704157, 439673.102430503466167 ], [ 427788.735567325318698, 439672.620850358973257 ], [ 427788.900916536862496, 439672.153349581756629 ], [ 427789.111760421132203, 439671.704526459623594 ], [ 427789.366025140043348, 439671.278795569087379 ], [ 427789.66120977292303, 439670.880344353790861 ], [ 427789.994410915125627, 439670.513091937464196 ], [ 427790.362351235758979, 439670.180650575843174 ], [ 427790.761411712970585, 439669.886290126712993 ], [ 427791.187667230376974, 439669.632905888138339 ], [ 427801.251422725326847, 439664.3074161761906 ], [ 427805.5, 439672.336094327270985 ], [ 427805.5, 439672.0 ], [ 427805.75, 439672.0 ] ] ] } },
{ "type": "Feature", "properties": { }, "geometry": { "type": "Polygon", "coordinates": [ [ [ 427707.5, 439649.5 ], [ 427707.5, 439649.75 ], [ 427708.0, 439649.75 ], [ 427708.0, 439650.0 ], [ 427708.5, 439650.0 ], [ 427708.5, 439650.25 ], [ 427709.0, 439650.25 ], [ 427709.0, 439650.5 ], [ 427709.5, 439650.5 ], [ 427709.5, 439650.75 ], [ 427710.5, 439650.75 ], [ 427710.5, 439651.0 ], [ 427711.5, 439651.0 ], [ 427711.5, 439651.25 ], [ 427712.25, 439651.25 ], [ 427712.25, 439651.5 ], [ 427713.25, 439651.5 ], [ 427713.25, 439651.75 ], [ 427715.25, 439651.75 ], [ 427715.25, 439651.5 ], [ 427715.75, 439651.5 ], [ 427715.75, 439651.25 ], [ 427716.0, 439651.25 ], [ 427716.0, 439651.0 ], [ 427716.25, 439651.0 ], [ 427716.25, 439650.75 ], [ 427716.75, 439650.75 ], [ 427716.75, 439650.5 ], [ 427717.25, 439650.5 ], [ 427717.25, 439650.25 ], [ 427717.5, 439650.25 ], [ 427717.5, 439650.0 ], [ 427717.75, 439650.0 ], [ 427717.75, 439649.75 ], [ 427718.0, 439649.75 ], [ 427718.0, 439649.5 ], [ 427718.25, 439649.5 ], [ 427718.25, 439649.25 ], [ 427718.5, 439649.25 ], [ 427718.5, 439648.75 ], [ 427718.75, 439648.75 ], [ 427718.75, 439648.0 ], [ 427719.0, 439648.0 ], [ 427719.0, 439647.25 ], [ 427719.25, 439647.25 ], [ 427719.25, 439646.5 ], [ 427719.5, 439646.5 ], [ 427719.5, 439643.25 ], [ 427719.25, 439643.25 ], [ 427719.25, 439642.75 ], [ 427719.0, 439642.75 ], [ 427719.0, 439642.5 ], [ 427718.75, 439642.5 ], [ 427718.75, 439642.0 ], [ 427718.5, 439642.0 ], [ 427718.5, 439641.75 ], [ 427718.25, 439641.75 ], [ 427718.25, 439641.5 ], [ 427717.75, 439641.5 ], [ 427717.75, 439641.25 ], [ 427717.5, 439641.25 ], [ 427717.5, 439641.0 ], [ 427717.0, 439641.0 ], [ 427717.0, 439640.75 ], [ 427716.75, 439640.75 ], [ 427716.75, 439640.5 ], [ 427716.0, 439640.5 ], [ 427716.0, 439640.25 ], [ 427715.25, 439640.25 ], [ 427715.25, 439640.0 ], [ 427714.75, 439640.0 ], [ 427714.75, 439639.75 ], [ 427714.0, 439639.75 ], [ 427714.0, 439639.5 ], [ 427713.25, 439639.5 ], [ 427713.25, 439639.25 ], [ 427712.75, 439639.25 ], [ 427712.75, 439639.0 ], [ 427712.5, 439639.0 ], [ 427712.5, 439638.75 ], [ 427712.0, 439638.75 ], [ 427712.0, 439638.5 ], [ 427711.75, 439638.5 ], [ 427711.75, 439638.25 ], [ 427711.25, 439638.25 ], [ 427711.25, 439638.0 ], [ 427710.75, 439638.0 ], [ 427710.75, 439637.75 ], [ 427710.5, 439637.75 ], [ 427710.5, 439637.5 ], [ 427710.163040122191887, 439637.5 ], [ 427710.029245899291709, 439637.864384538028389 ], [ 427701.344649981881958, 439634.686529568163678 ], [ 427701.780316083750222, 439633.5 ], [ 427701.75, 439633.5 ], [ 427701.75, 439633.25 ], [ 427701.0, 439633.25 ], [ 427701.0, 439633.0 ], [ 427700.5, 439633.0 ], [ 427700.5, 439632.75 ], [ 427700.0, 439632.75 ], [ 427700.0, 439632.5 ], [ 427699.0, 439632.5 ], [ 427699.0, 439632.25 ], [ 427698.0, 439632.25 ], [ 427698.0, 439632.0 ], [ 427697.0, 439632.0 ], [ 427697.0, 439631.75 ], [ 427695.75, 439631.75 ], [ 427695.75, 439631.5 ], [ 427694.5, 439631.5 ], [ 427694.5, 439631.25 ], [ 427693.75, 439631.25 ], [ 427693.75, 439631.0 ], [ 427693.25, 439631.0 ], [ 427693.25, 439630.75 ], [ 427693.0, 439630.75 ], [ 427693.0, 439630.5 ], [ 427692.5, 439630.5 ], [ 427692.5, 439630.25 ], [ 427692.25, 439630.25 ], [ 427692.25, 439630.0 ], [ 427691.75, 439630.0 ], [ 427691.75, 439629.75 ], [ 427691.5, 439629.75 ], [ 427691.5, 439629.5 ], [ 427691.0, 439629.5 ], [ 427691.0, 439629.25 ], [ 427690.5, 439629.25 ], [ 427690.5, 439629.0 ], [ 427689.75, 439629.0 ], [ 427689.75, 439628.75 ], [ 427689.25, 439628.75 ], [ 427689.25, 439628.5 ], [ 427688.75, 439628.5 ], [ 427688.75, 439628.25 ], [ 427688.0, 439628.25 ], [ 427688.0, 439628.0 ], [ 427687.25, 439628.0 ], [ 427687.25, 439627.75 ], [ 427686.5, 439627.75 ], [ 427686.5, 439627.5 ], [ 427685.0, 439627.5 ], [ 427685.0, 439627.25 ], [ 427683.0, 439627.25 ], [ 427683.0, 439627.5 ], [ 427682.25, 439627.5 ], [ 427682.25, 439627.75 ], [ 427681.75, 439627.75 ], [ 427681.75, 439628.0 ], [ 427681.5, 439628.0 ], [ 427681.5, 439628.25 ], [ 427681.25, 439628.25 ], [ 427681.25, 439628.5 ], [ 427681.0, 439628.5 ], [ 427681.0, 439629.0 ], [ 427680.75, 439629.0 ], [ 427680.75, 439629.25 ], [ 427680.5, 439629.25 ], [ 427680.5, 439629.75 ], [ 427680.25, 439629.75 ], [ 427680.25, 439630.25 ], [ 427680.0, 439630.25 ], [ 427680.0, 439631.25 ], [ 427679.75, 439631.25 ], [ 427679.75, 439632.0 ], [ 427679.5, 439632.0 ], [ 427679.5, 439632.5 ], [ 427679.25, 439632.5 ], [ 427679.25, 439633.25 ], [ 427679.0, 439633.25 ], [ 427679.0, 439634.0 ], [ 427678.75, 439634.0 ], [ 427678.75, 439634.5 ], [ 427678.5, 439634.5 ], [ 427678.5, 439635.0 ], [ 427678.25, 439635.0 ], [ 427678.25, 439635.5 ], [ 427678.0, 439635.5 ], [ 427678.0, 439636.25 ], [ 427677.75, 439636.25 ], [ 427677.75, 439637.0 ], [ 427677.5, 439637.0 ], [ 427677.5, 439637.5 ], [ 427677.25, 439637.5 ], [ 427677.25, 439639.0 ], [ 427677.0, 439639.0 ], [ 427677.0, 439640.25 ], [ 427676.75, 439640.25 ], [ 427676.75, 439641.5 ], [ 427676.5, 439641.5 ], [ 427676.5, 439641.75 ], [ 427676.75, 439641.75 ], [ 427676.75, 439642.75 ], [ 427677.0, 439642.75 ], [ 427677.0, 439643.25 ], [ 427677.25, 439643.25 ], [ 427677.25, 439643.75 ], [ 427677.5, 439643.75 ], [ 427677.5, 439644.0 ], [ 427677.75, 439644.0 ], [ 427677.75, 439644.25 ], [ 427678.25, 439644.25 ], [ 427678.25, 439644.5 ], [ 427678.75, 439644.5 ], [ 427678.75, 439644.75 ], [ 427679.25, 439644.75 ], [ 427679.25, 439645.0 ], [ 427680.0, 439645.0 ], [ 427680.0, 439645.25 ], [ 427680.75, 439645.25 ], [ 427680.75, 439645.5 ], [ 427681.5, 439645.5 ], [ 427681.5, 439645.75 ], [ 427682.25, 439645.75 ], [ 427682.25, 439646.0 ], [ 427682.75, 439646.0 ], [ 427682.75, 439646.25 ], [ 427683.5, 439646.25 ], [ 427683.5, 439646.5 ], [ 427684.0, 439646.5 ], [ 427684.0, 439646.75 ], [ 427684.75, 439646.75 ], [ 427684.75, 439647.0 ], [ 427685.25, 439647.0 ], [ 427685.25, 439647.25 ], [ 427685.556617259106133, 439647.25 ], [ 427685.567675728700124, 439647.221775134559721 ], [ 427685.641054265899584, 439647.25 ], [ 427685.75, 439647.25 ], [ 427685.75, 439647.29190569621278 ], [ 427686.940945975366049, 439647.75 ], [ 427687.0, 439647.75 ], [ 427687.0, 439647.772714978549629 ], [ 427687.590891830099281, 439648.0 ], [ 427687.75, 439648.0 ], [ 427687.75, 439648.061200547963381 ], [ 427688.240837684832513, 439648.25 ], [ 427688.5, 439648.25 ], [ 427688.5, 439648.34968611743534 ], [ 427688.890783539565746, 439648.5 ], [ 427689.25, 439648.5 ], [ 427689.25, 439648.638171686849091 ], [ 427689.540729394298978, 439648.75 ], [ 427690.25, 439648.75 ], [ 427690.25, 439649.0 ], [ 427691.0, 439649.0 ], [ 427691.0, 439649.25 ], [ 427691.75, 439649.25 ], [ 427691.75, 439649.5 ], [ 427692.25, 439649.5 ], [ 427692.25, 439649.75 ], [ 427693.0, 439649.75 ], [ 427693.0, 439650.0 ], [ 427693.75, 439650.0 ], [ 427693.75, 439650.25 ], [ 427695.5, 439650.25 ], [ 427695.5, 439650.5 ], [ 427696.5, 439650.5 ], [ 427696.5, 439650.75 ], [ 427697.490658303489909, 439650.75 ], [ 427699.749178808764555, 439645.291686762473546 ], [ 427707.067382722336333, 439648.138795709121041 ], [ 427706.632189982396085, 439649.25 ], [ 427707.0, 439649.25 ], [ 427707.0, 439649.5 ], [ 427707.5, 439649.5 ] ] ] } },
{ "type": "Feature", "properties": { }, "geometry": { "type": "Polygon", "coordinates": [ [ [ 427151.25, 439608.75 ], [ 427151.25, 439608.5 ], [ 427151.5, 439608.5 ], [ 427151.5, 439608.25 ], [ 427151.75, 439608.25 ], [ 427151.75, 439608.0 ], [ 427152.25, 439608.0 ], [ 427152.25, 439607.75 ], [ 427152.5, 439607.75 ], [ 427152.5, 439607.5 ], [ 427152.75, 439607.5 ], [ 427152.75, 439607.25 ], [ 427153.0, 439607.25 ], [ 427153.0, 439607.0 ], [ 427153.25, 439607.0 ], [ 427153.25, 439606.75 ], [ 427153.5, 439606.75 ], [ 427153.5, 439606.5 ], [ 427153.75, 439606.5 ], [ 427153.75, 439606.25 ], [ 427154.0, 439606.25 ], [ 427154.0, 439606.0 ], [ 427154.25, 439606.0 ], [ 427154.25, 439605.75 ], [ 427154.5, 439605.75 ], [ 427154.5, 439605.5 ], [ 427155.0, 439605.5 ], [ 427155.0, 439605.25 ], [ 427155.5, 439605.25 ], [ 427155.5, 439605.0 ], [ 427156.0, 439605.0 ], [ 427156.0, 439604.75 ], [ 427156.5, 439604.75 ], [ 427156.5, 439604.5 ], [ 427157.25, 439604.5 ], [ 427157.25, 439604.25 ], [ 427159.25, 439604.25 ], [ 427159.25, 439604.0 ], [ 427160.0, 439604.0 ], [ 427160.0, 439604.25 ], [ 427160.75, 439604.25 ], [ 427160.75, 439604.0 ], [ 427165.5, 439604.0 ], [ 427165.5, 439603.75 ], [ 427168.0, 439603.75 ], [ 427168.0, 439603.5 ], [ 427169.25, 439603.5 ], [ 427169.25, 439603.25 ], [ 427170.0, 439603.25 ], [ 427170.0, 439603.0 ], [ 427170.75, 439603.0 ], [ 427170.75, 439602.75 ], [ 427171.0, 439602.75 ], [ 427171.0, 439602.5 ], [ 427171.25, 439602.5 ], [ 427171.25, 439602.25 ], [ 427171.5, 439602.25 ], [ 427171.5, 439602.0 ], [ 427171.75, 439602.0 ], [ 427171.75, 439601.75 ], [ 427172.0, 439601.75 ], [ 427172.0, 439601.5 ], [ 427172.25, 439601.5 ], [ 427172.25, 439600.25 ], [ 427172.5, 439600.25 ], [ 427172.5, 439599.75 ], [ 427172.75, 439599.75 ], [ 427172.75, 439599.0 ], [ 427173.0, 439599.0 ], [ 427173.0, 439597.75 ], [ 427173.25, 439597.75 ], [ 427173.25, 439597.5 ], [ 427173.0, 439597.5 ], [ 427173.0, 439595.5 ], [ 427172.75, 439595.5 ], [ 427172.75, 439594.25 ], [ 427172.5, 439594.25 ], [ 427172.5, 439593.75 ], [ 427172.25, 439593.75 ], [ 427172.25, 439593.0 ], [ 427172.0, 439593.0 ], [ 427172.0, 439592.5 ], [ 427171.75, 439592.5 ], [ 427171.75, 439592.0 ], [ 427171.5, 439592.0 ], [ 427171.5, 439591.25 ], [ 427171.25, 439591.25 ], [ 427171.25, 439591.0 ], [ 427171.0, 439591.0 ], [ 427171.0, 439590.5 ], [ 427170.75, 439590.5 ], [ 427170.75, 439590.25 ], [ 427170.5, 439590.25 ], [ 427170.5, 439590.0 ], [ 427170.0, 439590.0 ], [ 427170.0, 439589.75 ], [ 427169.0, 439589.75 ], [ 427169.0, 439589.5 ], [ 427167.25, 439589.5 ], [ 427167.25, 439589.25 ], [ 427158.5, 439589.25 ], [ 427158.5, 439589.5 ], [ 427152.75, 439589.5 ], [ 427152.75, 439589.75 ], [ 427151.0, 439589.75 ], [ 427151.0, 439590.0 ], [ 427147.0, 439590.0 ], [ 427147.0, 439590.25 ], [ 427144.75, 439590.25 ], [ 427144.75, 439590.5 ], [ 427143.5, 439590.5 ], [ 427143.5, 439590.75 ], [ 427143.0, 439590.75 ], [ 427143.0, 439591.0 ], [ 427142.5, 439591.0 ], [ 427142.5, 439591.25 ], [ 427142.0, 439591.25 ], [ 427142.0, 439591.5 ], [ 427141.5, 439591.5 ], [ 427141.5, 439591.75 ], [ 427141.0, 439591.75 ], [ 427141.0, 439592.0 ], [ 427140.75, 439592.0 ], [ 427140.75, 439592.25 ], [ 427140.5, 439592.25 ], [ 427140.5, 439592.5 ], [ 427140.25, 439592.5 ], [ 427140.25, 439592.75 ], [ 427140.0, 439592.75 ], [ 427140.0, 439593.0 ], [ 427139.75, 439593.0 ], [ 427139.75, 439593.25 ], [ 427139.5, 439593.25 ], [ 427139.5, 439593.5 ], [ 427139.25, 439593.5 ], [ 427139.25, 439593.75 ], [ 427138.75, 439593.75 ], [ 427138.75, 439594.0 ], [ 427138.5, 439594.0 ], [ 427138.5, 439594.25 ], [ 427138.25, 439594.25 ], [ 427138.25, 439594.5 ], [ 427137.5, 439594.5 ], [ 427137.5, 439594.75 ], [ 427135.0, 439594.75 ], [ 427135.0, 439595.0 ], [ 427130.75, 439595.0 ], [ 427130.75, 439595.25 ], [ 427128.0, 439595.25 ], [ 427128.0, 439596.25 ], [ 427127.25, 439596.25 ], [ 427127.25, 439596.5 ], [ 427114.75, 439596.5 ], [ 427114.75, 439596.25 ], [ 427114.0, 439596.25 ], [ 427114.0, 439596.5 ], [ 427113.25, 439596.5 ], [ 427113.25, 439596.25 ], [ 427108.5, 439596.25 ], [ 427108.5, 439596.5 ], [ 427105.75, 439596.5 ], [ 427105.75, 439596.75 ], [ 427104.25, 439596.75 ], [ 427104.25, 439597.0 ], [ 427103.25, 439597.0 ], [ 427103.25, 439597.25 ], [ 427101.75, 439597.25 ], [ 427101.75, 439597.5 ], [ 427100.75, 439597.5 ], [ 427100.75, 439597.75 ], [ 427100.0, 439597.75 ], [ 427100.0, 439598.0 ], [ 427099.25, 439598.0 ], [ 427099.25, 439598.25 ], [ 427098.5, 439598.25 ], [ 427098.5, 439598.5 ], [ 427098.0, 439598.5 ], [ 427098.0, 439598.75 ], [ 427097.25, 439598.75 ], [ 427097.25, 439599.0 ], [ 427096.75, 439599.0 ], [ 427096.75, 439599.25 ], [ 427096.5, 439599.25 ], [ 427096.5, 439599.5 ], [ 427095.75, 439599.5 ], [ 427095.75, 439599.75 ], [ 427095.5, 439599.75 ], [ 427095.5, 439600.0 ], [ 427095.0, 439600.0 ], [ 427095.0, 439600.25 ], [ 427094.5, 439600.25 ], [ 427094.5, 439600.5 ], [ 427094.25, 439600.5 ], [ 427094.25, 439600.75 ], [ 427094.0, 439600.75 ], [ 427094.0, 439601.0 ], [ 427093.75, 439601.0 ], [ 427093.75, 439601.25 ], [ 427093.5, 439601.25 ], [ 427093.5, 439601.5 ], [ 427092.0, 439601.5 ], [ 427092.0, 439601.75 ], [ 427091.5, 439601.75 ], [ 427091.5, 439602.0 ], [ 427091.0, 439602.0 ], [ 427091.0, 439602.25 ], [ 427090.5, 439602.25 ], [ 427090.5, 439602.5 ], [ 427090.25, 439602.5 ], [ 427090.25, 439602.75 ], [ 427090.0, 439602.75 ], [ 427090.0, 439603.0 ], [ 427089.75, 439603.0 ], [ 427089.75, 439603.25 ], [ 427089.5, 439603.25 ], [ 427089.5, 439603.5 ], [ 427089.25, 439603.5 ], [ 427089.25, 439603.75 ], [ 427089.0, 439603.75 ], [ 427089.0, 439604.0 ], [ 427088.75, 439604.0 ], [ 427088.75, 439604.25 ], [ 427088.5, 439604.25 ], [ 427088.5, 439605.0 ], [ 427088.25, 439605.0 ], [ 427088.25, 439606.75 ], [ 427088.5, 439606.75 ], [ 427088.5, 439607.5 ], [ 427088.75, 439607.5 ], [ 427088.75, 439608.0 ], [ 427089.0, 439608.0 ], [ 427089.0, 439608.5 ], [ 427089.25, 439608.5 ], [ 427089.25, 439609.0 ], [ 427089.5, 439609.0 ], [ 427089.5, 439609.25 ], [ 427089.75, 439609.25 ], [ 427089.75, 439609.75 ], [ 427090.0, 439609.75 ], [ 427090.0, 439610.5 ], [ 427090.25, 439610.5 ], [ 427090.25, 439611.5 ], [ 427090.5, 439611.5 ], [ 427090.5, 439612.0 ], [ 427090.75, 439612.0 ], [ 427090.75, 439612.75 ], [ 427091.0, 439612.75 ], [ 427091.0, 439614.0 ], [ 427091.25, 439614.0 ], [ 427091.25, 439615.0 ], [ 427091.0, 439615.0 ], [ 427091.0, 439616.0 ], [ 427095.25, 439616.0 ], [ 427095.25, 439618.5 ], [ 427095.5, 439618.5 ], [ 427095.5, 439619.25 ], [ 427095.75, 439619.25 ], [ 427095.75, 439619.75 ], [ 427096.0, 439619.75 ], [ 427096.0, 439620.25 ], [ 427096.25, 439620.25 ], [ 427096.25, 439620.75 ], [ 427096.5, 439620.75 ], [ 427096.5, 439621.25 ], [ 427096.75, 439621.25 ], [ 427096.75, 439621.75 ], [ 427097.0, 439621.75 ], [ 427097.0, 439622.0 ], [ 427097.25, 439622.0 ], [ 427097.25, 439622.5 ], [ 427097.5, 439622.5 ], [ 427097.5, 439622.75 ], [ 427097.75, 439622.75 ], [ 427097.75, 439623.0 ], [ 427098.0, 439623.0 ], [ 427098.0, 439623.25 ], [ 427098.25, 439623.25 ], [ 427098.25, 439623.5 ], [ 427098.75, 439623.5 ], [ 427098.75, 439623.75 ], [ 427099.0, 439623.75 ], [ 427099.0, 439624.0 ], [ 427099.25, 439624.0 ], [ 427099.25, 439624.25 ], [ 427099.5, 439624.25 ], [ 427099.5, 439624.5 ], [ 427099.75, 439624.5 ], [ 427099.75, 439624.75 ], [ 427100.0, 439624.75 ], [ 427100.0, 439625.0 ], [ 427100.25, 439625.0 ], [ 427100.25, 439625.25 ], [ 427100.5, 439625.25 ], [ 427100.5, 439625.75 ], [ 427100.75, 439625.75 ], [ 427100.75, 439626.0 ], [ 427101.0, 439626.0 ], [ 427101.0, 439626.25 ], [ 427101.25, 439626.25 ], [ 427101.25, 439626.5 ], [ 427101.5, 439626.5 ], [ 427101.5, 439626.75 ], [ 427101.75, 439626.75 ], [ 427101.75, 439627.0 ], [ 427102.0, 439627.0 ], [ 427102.0, 439627.25 ], [ 427102.25, 439627.25 ], [ 427102.25, 439627.5 ], [ 427102.5, 439627.5 ], [ 427102.5, 439627.75 ], [ 427102.75, 439627.75 ], [ 427102.75, 439628.0 ], [ 427103.0, 439628.0 ], [ 427103.0, 439628.25 ], [ 427103.25, 439628.25 ], [ 427103.25, 439628.75 ], [ 427103.5, 439628.75 ], [ 427103.5, 439629.0 ], [ 427104.0, 439629.0 ], [ 427104.0, 439629.25 ], [ 427104.25, 439629.25 ], [ 427104.25, 439629.5 ], [ 427104.5, 439629.5 ], [ 427104.5, 439629.75 ], [ 427104.75, 439629.75 ], [ 427104.75, 439630.0 ], [ 427105.25, 439630.0 ], [ 427105.25, 439630.25 ], [ 427105.75, 439630.25 ], [ 427105.75, 439630.5 ], [ 427106.5, 439630.5 ], [ 427106.5, 439630.75 ], [ 427107.25, 439630.75 ], [ 427107.25, 439631.0 ], [ 427108.5, 439631.0 ], [ 427108.5, 439631.25 ], [ 427112.0, 439631.25 ], [ 427112.0, 439631.5 ], [ 427116.5, 439631.5 ], [ 427116.5, 439631.75 ], [ 427118.5, 439631.75 ], [ 427118.5, 439632.0 ], [ 427120.0, 439632.0 ], [ 427120.0, 439632.25 ], [ 427122.0, 439632.25 ], [ 427122.0, 439632.5 ], [ 427124.5, 439632.5 ], [ 427124.5, 439632.75 ], [ 427126.25, 439632.75 ], [ 427126.25, 439633.0 ], [ 427128.0, 439633.0 ], [ 427128.0, 439634.25 ], [ 427130.0, 439634.25 ], [ 427130.0, 439634.5 ], [ 427130.75, 439634.5 ], [ 427130.75, 439634.25 ], [ 427132.5, 439634.25 ], [ 427132.5, 439634.0 ], [ 427138.25, 439634.0 ], [ 427138.25, 439633.75 ], [ 427139.25, 439633.75 ], [ 427139.25, 439633.5 ], [ 427140.5, 439633.5 ], [ 427140.5, 439633.25 ], [ 427141.0, 439633.25 ], [ 427141.0, 439633.0 ], [ 427141.25, 439633.0 ], [ 427141.25, 439632.75 ], [ 427141.75, 439632.75 ], [ 427141.75, 439632.5 ], [ 427142.0, 439632.5 ], [ 427142.0, 439632.25 ], [ 427142.25, 439632.25 ], [ 427142.25, 439632.0 ], [ 427142.5, 439632.0 ], [ 427142.5, 439631.75 ], [ 427142.75, 439631.75 ], [ 427142.75, 439631.5 ], [ 427143.0, 439631.5 ], [ 427143.0, 439631.0 ], [ 427143.25, 439631.0 ], [ 427143.25, 439630.75 ], [ 427143.5, 439630.75 ], [ 427143.5, 439629.75 ], [ 427143.75, 439629.75 ], [ 427143.75, 439628.75 ], [ 427144.0, 439628.75 ], [ 427144.0, 439627.75 ], [ 427144.25, 439627.75 ], [ 427144.25, 439623.0 ], [ 427144.5, 439623.0 ], [ 427144.5, 439622.968269057571888 ], [ 427141.027369914576411, 439623.119385822443292 ], [ 427140.411045496177394, 439609.129946650005877 ], [ 427145.75, 439608.89761389530031 ], [ 427145.75, 439608.75 ], [ 427149.142134148452897, 439608.75 ], [ 427149.662812594382558, 439608.727341882651672 ], [ 427149.675530446053017, 439609.0 ], [ 427150.75, 439609.0 ], [ 427150.75, 439608.75 ], [ 427151.25, 439608.75 ] ] ] } },
{ "type": "Feature", "properties": { }, "geometry": { "type": "Polygon", "coordinates": [ [ [ 427939.75, 439487.5 ], [ 427939.75, 439487.25 ], [ 427940.25, 439487.25 ], [ 427940.25, 439487.0 ], [ 427940.5, 439487.0 ], [ 427940.5, 439486.75 ], [ 427941.0, 439486.75 ], [ 427941.0, 439486.5 ], [ 427941.25, 439486.5 ], [ 427941.25, 439486.25 ], [ 427942.0, 439486.25 ], [ 427942.0, 439486.0 ], [ 427942.75, 439486.0 ], [ 427942.75, 439486.25 ], [ 427943.0, 439486.25 ], [ 427943.0, 439487.5 ], [ 427943.25, 439487.5 ], [ 427943.25, 439488.0 ], [ 427948.0, 439488.0 ], [ 427948.0, 439486.5 ], [ 427948.25, 439486.5 ], [ 427948.25, 439485.25 ], [ 427948.0, 439485.25 ], [ 427948.0, 439485.0 ], [ 427947.5, 439485.0 ], [ 427947.5, 439484.75 ], [ 427946.25, 439484.75 ], [ 427946.25, 439484.25 ], [ 427947.25, 439484.25 ], [ 427947.25, 439484.0 ], [ 427947.5, 439484.0 ], [ 427947.5, 439483.75 ], [ 427947.75, 439483.75 ], [ 427947.75, 439483.25 ], [ 427947.5, 439483.25 ], [ 427947.5, 439483.0 ], [ 427947.25, 439483.0 ], [ 427947.25, 439482.0 ], [ 427947.5, 439482.0 ], [ 427947.5, 439481.75 ], [ 427947.75, 439481.75 ], [ 427947.75, 439476.75 ], [ 427947.5, 439476.75 ], [ 427947.5, 439475.0 ], [ 427947.25, 439475.0 ], [ 427947.25, 439474.75 ], [ 427947.0, 439474.75 ], [ 427947.0, 439474.25 ], [ 427946.75, 439474.25 ], [ 427946.75, 439474.0 ], [ 427946.5, 439474.0 ], [ 427946.5, 439473.75 ], [ 427945.75, 439473.75 ], [ 427945.75, 439473.5 ], [ 427943.68913368252106, 439473.5 ], [ 427943.501136909530032, 439483.313183292571921 ], [ 427933.502971467503812, 439483.121642710582819 ], [ 427933.577142744441517, 439479.25 ], [ 427933.5, 439479.25 ], [ 427933.5, 439479.5 ], [ 427933.0, 439479.5 ], [ 427933.0, 439479.75 ], [ 427930.0, 439479.75 ], [ 427930.0, 439480.0 ], [ 427929.75, 439480.0 ], [ 427929.75, 439480.5 ], [ 427929.5, 439480.5 ], [ 427929.5, 439484.182863451715093 ], [ 427932.679825366241857, 439484.328731241868809 ], [ 427932.510607181524392, 439488.0 ], [ 427939.5, 439488.0 ], [ 427939.5, 439487.5 ], [ 427939.75, 439487.5 ] ], [ [ 427941.25, 439484.75 ], [ 427941.0, 439484.75 ], [ 427941.0, 439484.25 ], [ 427941.25, 439484.25 ], [ 427941.25, 439484.0 ], [ 427942.0, 439484.0 ], [ 427942.0, 439483.75 ], [ 427943.75, 439483.75 ], [ 427943.75, 439484.0 ], [ 427944.0, 439484.0 ], [ 427944.0, 439484.25 ], [ 427944.5, 439484.25 ], [ 427944.5, 439484.75 ], [ 427944.25, 439484.75 ], [ 427944.25, 439485.0 ], [ 427943.5, 439485.0 ], [ 427943.5, 439485.25 ], [ 427942.25, 439485.25 ], [ 427942.25, 439485.0 ], [ 427941.25, 439485.0 ], [ 427941.25, 439484.75 ] ] ] } },
{ "type": "Feature", "properties": { }, "geometry": { "type": "Polygon", "coordinates": [ [ [ 427702.75, 439429.25 ], [ 427702.500902819971088, 439429.25 ], [ 427702.641026192868594, 439429.75 ], [ 427702.75, 439429.75 ], [ 427702.75, 439429.25 ] ] ] } },
{ "type": "Feature", "properties": { }, "geometry": { "type": "Polygon", "coordinates": [ [ [ 427702.430841133522335, 439429.0 ], [ 427702.5, 439429.246778481872752 ], [ 427702.5, 439429.0 ], [ 427702.430841133522335, 439429.0 ] ] ] } },
{ "type": "Feature", "properties": { }, "geometry": { "type": "Polygon", "coordinates": [ [ [ 427696.25, 439394.75 ], [ 427696.25, 439394.5 ], [ 427696.5, 439394.5 ], [ 427696.5, 439394.0 ], [ 427696.75, 439394.0 ], [ 427696.75, 439393.25 ], [ 427696.5, 439393.25 ], [ 427696.5, 439392.5 ], [ 427696.25, 439392.5 ], [ 427696.25, 439392.25 ], [ 427696.0, 439392.25 ], [ 427696.0, 439392.0 ], [ 427695.944033719948493, 439392.0 ], [ 427693.25, 439392.191859722021036 ], [ 427693.25, 439394.0 ], [ 427693.5, 439394.0 ], [ 427693.5, 439394.5 ], [ 427693.75, 439394.5 ], [ 427693.75, 439394.75 ], [ 427694.25, 439394.75 ], [ 427694.25, 439395.0 ], [ 427695.5, 439395.0 ], [ 427695.5, 439394.75 ], [ 427696.25, 439394.75 ] ] ] } },
{ "type": "Feature", "properties": { }, "geometry": { "type": "Polygon", "coordinates": [ [ [ 427900.5, 439375.75 ], [ 427900.5, 439375.5 ], [ 427901.5, 439375.5 ], [ 427901.5, 439375.25 ], [ 427901.75, 439375.25 ], [ 427901.75, 439375.0 ], [ 427902.25, 439375.0 ], [ 427902.25, 439374.75 ], [ 427902.5, 439374.75 ], [ 427902.5, 439374.5 ], [ 427902.75, 439374.5 ], [ 427902.75, 439373.5 ], [ 427903.0, 439373.5 ], [ 427903.0, 439372.5 ], [ 427902.75, 439372.5 ], [ 427902.75, 439371.75 ], [ 427902.5, 439371.75 ], [ 427902.5, 439371.25 ], [ 427902.25, 439371.25 ], [ 427902.25, 439370.75 ], [ 427902.0, 439370.75 ], [ 427902.0, 439370.0 ], [ 427901.75, 439370.0 ], [ 427901.75, 439368.5 ], [ 427901.5, 439368.5 ], [ 427901.5, 439368.0 ], [ 427901.25, 439368.0 ], [ 427901.25, 439367.5 ], [ 427901.0, 439367.5 ], [ 427901.0, 439366.804520236037206 ], [ 427896.0, 439368.696153269556817 ], [ 427896.0, 439375.75 ], [ 427897.0, 439375.75 ], [ 427897.0, 439376.0 ], [ 427899.5, 439376.0 ], [ 427899.5, 439375.75 ], [ 427900.5, 439375.75 ] ] ] } },
{ "type": "Feature", "properties": { }, "geometry": { "type": "Polygon", "coordinates": [ [ [ 427823.75, 439379.25 ], [ 427823.75, 439379.0 ], [ 427824.25, 439379.0 ], [ 427824.25, 439378.75 ], [ 427824.75, 439378.75 ], [ 427824.75, 439378.5 ], [ 427825.0, 439378.5 ], [ 427825.0, 439378.25 ], [ 427825.5, 439378.25 ], [ 427825.5, 439377.75 ], [ 427825.75, 439377.75 ], [ 427825.75, 439375.75 ], [ 427826.0, 439375.75 ], [ 427826.0, 439373.0 ], [ 427825.75, 439373.0 ], [ 427825.75, 439372.25 ], [ 427825.5, 439372.25 ], [ 427825.5, 439372.0 ], [ 427825.25, 439372.0 ], [ 427825.25, 439371.969500341103412 ], [ 427821.347384394495748, 439373.362958339566831 ], [ 427820.82563485915307, 439373.51780150574632 ], [ 427820.290146716928575, 439373.615019987919368 ], [ 427819.747264409612399, 439373.653461945592426 ], [ 427817.5, 439373.689964736346155 ], [ 427817.5, 439375.25 ], [ 427817.75, 439375.25 ], [ 427817.75, 439377.0 ], [ 427817.5, 439377.0 ], [ 427817.5, 439377.75 ], [ 427817.75, 439377.75 ], [ 427817.75, 439378.75 ], [ 427818.0, 439378.75 ], [ 427818.0, 439379.0 ], [ 427818.25, 439379.0 ], [ 427818.25, 439379.5 ], [ 427819.0, 439379.5 ], [ 427819.0, 439379.25 ], [ 427823.75, 439379.25 ] ] ] } },
{ "type": "Feature", "properties": { }, "geometry": { "type": "Polygon", "coordinates": [ [ [ 427829.75, 439370.5 ], [ 427829.75, 439370.75 ], [ 427830.25, 439370.75 ], [ 427830.25, 439371.0 ], [ 427830.5, 439371.0 ], [ 427830.5, 439371.25 ], [ 427830.75, 439371.25 ], [ 427830.75, 439371.5 ], [ 427831.0, 439371.5 ], [ 427831.0, 439371.75 ], [ 427831.25, 439371.75 ], [ 427831.25, 439372.0 ], [ 427831.75, 439372.0 ], [ 427831.75, 439372.25 ], [ 427832.75, 439372.25 ], [ 427832.75, 439372.5 ], [ 427838.0, 439372.5 ], [ 427838.0, 439372.25 ], [ 427838.75, 439372.25 ], [ 427838.75, 439372.0 ], [ 427839.5, 439372.0 ], [ 427839.5, 439371.75 ], [ 427840.0, 439371.75 ], [ 427840.0, 439371.5 ], [ 427840.5, 439371.5 ], [ 427840.5, 439371.0 ], [ 427840.75, 439371.0 ], [ 427840.75, 439370.75 ], [ 427841.0, 439370.75 ], [ 427841.0, 439370.25 ], [ 427841.25, 439370.25 ], [ 427841.25, 439370.0 ], [ 427841.5, 439370.0 ], [ 427841.5, 439369.5 ], [ 427841.75, 439369.5 ], [ 427841.75, 439369.0 ], [ 427842.0, 439369.0 ], [ 427842.0, 439368.5 ], [ 427842.25, 439368.5 ], [ 427842.25, 439367.75 ], [ 427842.5, 439367.75 ], [ 427842.5, 439367.0 ], [ 427842.75, 439367.0 ], [ 427842.75, 439366.25 ], [ 427843.0, 439366.25 ], [ 427843.0, 439365.75 ], [ 427843.25, 439365.75 ], [ 427843.25, 439365.542466139420867 ], [ 427829.5, 439370.452006154577248 ], [ 427829.5, 439370.5 ], [ 427829.75, 439370.5 ] ] ] } },
{ "type": "Feature", "properties": { }, "geometry": { "type": "Polygon", "coordinates": [ [ [ 427816.25, 439362.0 ], [ 427816.5, 439362.0 ], [ 427816.5, 439363.25 ], [ 427816.75, 439363.25 ], [ 427816.75, 439363.700828022265341 ], [ 427818.760853053594474, 439363.6681653111591 ], [ 427829.034172523999587, 439360.0 ], [ 427816.25, 439360.0 ], [ 427816.25, 439362.0 ] ] ] } },
{ "type": "Feature", "properties": { }, "geometry": { "type": "Polygon", "coordinates": [ [ [ 427447.5, 439369.75 ], [ 427447.5, 439370.0 ], [ 427449.0, 439370.0 ], [ 427449.0, 439370.25 ], [ 427451.75, 439370.25 ], [ 427451.75, 439370.0 ], [ 427452.75, 439370.0 ], [ 427452.75, 439369.75 ], [ 427453.5, 439369.75 ], [ 427453.5, 439369.5 ], [ 427454.0, 439369.5 ], [ 427454.0, 439369.25 ], [ 427454.5, 439369.25 ], [ 427454.5, 439369.0 ], [ 427454.75, 439369.0 ], [ 427454.75, 439368.75 ], [ 427455.25, 439368.75 ], [ 427455.25, 439368.5 ], [ 427455.5, 439368.5 ], [ 427455.5, 439368.25 ], [ 427455.75, 439368.25 ], [ 427455.75, 439367.75 ], [ 427455.9159681739402, 439367.75 ], [ 427454.452747255563736, 439360.0 ], [ 427443.25, 439360.0 ], [ 427443.25, 439361.0 ], [ 427443.5, 439361.0 ], [ 427443.5, 439361.087854741024785 ], [ 427444.820155862427782, 439360.825603349483572 ], [ 427446.554674830869772, 439369.5 ], [ 427446.75, 439369.5 ], [ 427446.75, 439369.75 ], [ 427447.5, 439369.75 ] ] ] } },
{ "type": "Feature", "properties": { }, "geometry": { "type": "Polygon", "coordinates": [ [ [ 427893.25, 439353.0 ], [ 427893.25, 439353.25 ], [ 427892.75, 439353.25 ], [ 427892.75, 439353.5 ], [ 427892.25, 439353.5 ], [ 427892.25, 439354.0 ], [ 427892.0, 439354.0 ], [ 427892.0, 439354.25 ], [ 427891.5, 439354.25 ], [ 427891.5, 439354.5 ], [ 427891.25, 439354.5 ], [ 427891.25, 439354.75 ], [ 427891.0, 439354.75 ], [ 427891.0, 439355.0 ], [ 427890.75, 439355.0 ], [ 427890.75, 439355.25 ], [ 427890.25, 439355.25 ], [ 427890.25, 439355.5 ], [ 427889.75, 439355.5 ], [ 427889.75, 439355.75 ], [ 427889.0, 439355.75 ], [ 427889.0, 439356.0 ], [ 427888.25, 439356.0 ], [ 427888.25, 439356.25 ], [ 427887.5, 439356.25 ], [ 427887.5, 439356.5 ], [ 427887.0, 439356.5 ], [ 427887.0, 439356.75 ], [ 427886.75, 439356.75 ], [ 427886.75, 439357.0 ], [ 427886.5, 439357.0 ], [ 427886.5, 439360.0 ], [ 427890.725252614647616, 439360.0 ], [ 427896.0, 439358.004422720521688 ], [ 427896.0, 439353.0 ], [ 427893.25, 439353.0 ] ] ] } },
{ "type": "Feature", "properties": { }, "geometry": { "type": "Polygon", "coordinates": [ [ [ 427382.5, 439352.25 ], [ 427379.0, 439352.25 ], [ 427379.0, 439352.5 ], [ 427377.5, 439352.5 ], [ 427377.5, 439352.75 ], [ 427377.25, 439352.75 ], [ 427377.25, 439353.0 ], [ 427377.0, 439353.0 ], [ 427377.0, 439353.25 ], [ 427376.5, 439353.25 ], [ 427376.5, 439353.5 ], [ 427376.0, 439353.5 ], [ 427376.0, 439354.0 ], [ 427375.75, 439354.0 ], [ 427375.75, 439354.25 ], [ 427375.5, 439354.25 ], [ 427375.5, 439354.75 ], [ 427375.25, 439354.75 ], [ 427375.25, 439355.0 ], [ 427375.0, 439355.0 ], [ 427375.0, 439355.5 ], [ 427374.75, 439355.5 ], [ 427374.75, 439356.0 ], [ 427374.5, 439356.0 ], [ 427374.5, 439356.25 ], [ 427374.25, 439356.25 ], [ 427374.25, 439357.299698392977007 ], [ 427376.376272814290132, 439356.93169586872682 ], [ 427376.911230928904843, 439360.0 ], [ 427379.675008801918011, 439360.0 ], [ 427378.570451825624332, 439354.096154936007224 ], [ 427384.0, 439353.082567140227184 ], [ 427384.0, 439352.0 ], [ 427382.5, 439352.0 ], [ 427382.5, 439352.25 ] ] ] } },
{ "type": "Feature", "properties": { }, "geometry": { "type": "Polygon", "coordinates": [ [ [ 427981.5, 439336.0 ], [ 427981.5, 439335.75 ], [ 427981.0, 439335.75 ], [ 427981.0, 439335.5 ], [ 427980.5, 439335.5 ], [ 427980.5, 439335.25 ], [ 427980.0, 439335.25 ], [ 427980.0, 439335.0 ], [ 427979.75, 439335.0 ], [ 427979.75, 439334.75 ], [ 427979.0, 439334.75 ], [ 427979.0, 439335.0 ], [ 427978.25, 439335.0 ], [ 427978.25, 439334.75 ], [ 427978.0, 439334.75 ], [ 427978.0, 439334.5 ], [ 427977.5, 439334.5 ], [ 427977.5, 439334.25 ], [ 427977.25, 439334.25 ], [ 427977.25, 439334.5 ], [ 427976.75, 439334.5 ], [ 427976.75, 439334.75 ], [ 427976.5, 439334.75 ], [ 427976.5, 439335.0 ], [ 427976.25, 439335.0 ], [ 427976.25, 439335.25 ], [ 427975.75, 439335.25 ], [ 427975.75, 439335.5 ], [ 427974.75, 439335.5 ], [ 427974.75, 439335.75 ], [ 427973.25, 439335.75 ], [ 427973.25, 439336.0 ], [ 427972.5, 439336.0 ], [ 427972.5, 439336.25 ], [ 427972.0, 439336.25 ], [ 427972.0, 439336.5 ], [ 427971.25, 439336.5 ], [ 427971.25, 439336.75 ], [ 427971.0, 439336.75 ], [ 427971.0, 439337.0 ], [ 427970.5, 439337.0 ], [ 427970.5, 439337.25 ], [ 427970.25, 439337.25 ], [ 427970.25, 439337.5 ], [ 427970.0, 439337.5 ], [ 427970.0, 439337.75 ], [ 427969.75, 439337.75 ], [ 427969.75, 439338.0 ], [ 427969.25, 439338.0 ], [ 427969.25, 439338.25 ], [ 427969.0, 439338.25 ], [ 427969.0, 439338.75 ], [ 427968.75, 439338.75 ], [ 427968.75, 439339.0 ], [ 427968.5, 439339.0 ], [ 427968.5, 439339.5 ], [ 427968.25, 439339.5 ], [ 427968.25, 439340.25 ], [ 427968.0, 439340.25 ], [ 427968.0, 439342.25 ], [ 427968.25, 439342.25 ], [ 427968.25, 439343.0 ], [ 427968.5, 439343.0 ], [ 427968.5, 439343.5 ], [ 427968.75, 439343.5 ], [ 427968.75, 439344.25 ], [ 427969.0, 439344.25 ], [ 427969.0, 439345.0 ], [ 427969.25, 439345.0 ], [ 427969.25, 439346.0 ], [ 427969.0, 439346.0 ], [ 427969.0, 439346.75 ], [ 427968.75, 439346.75 ], [ 427968.75, 439347.0 ], [ 427968.5, 439347.0 ], [ 427968.5, 439347.25 ], [ 427968.25, 439347.25 ], [ 427968.25, 439347.5 ], [ 427967.75, 439347.5 ], [ 427967.75, 439347.75 ], [ 427967.5, 439347.75 ], [ 427967.5, 439348.0 ], [ 427967.25, 439348.0 ], [ 427967.25, 439348.25 ], [ 427967.0, 439348.25 ], [ 427967.0, 439348.5 ], [ 427966.5, 439348.5 ], [ 427966.5, 439348.75 ], [ 427966.0, 439348.75 ], [ 427966.0, 439349.0 ], [ 427965.5, 439349.0 ], [ 427965.5, 439349.25 ], [ 427965.25, 439349.25 ], [ 427965.25, 439349.5 ], [ 427964.75, 439349.5 ], [ 427964.75, 439349.75 ], [ 427964.5, 439349.75 ], [ 427964.5, 439350.0 ], [ 427964.0, 439350.0 ], [ 427964.0, 439350.25 ], [ 427963.75, 439350.25 ], [ 427963.75, 439350.5 ], [ 427963.5, 439350.5 ], [ 427963.5, 439350.75 ], [ 427963.25, 439350.75 ], [ 427963.25, 439351.0 ], [ 427963.0, 439351.0 ], [ 427963.0, 439351.25 ], [ 427962.75, 439351.25 ], [ 427962.75, 439351.5 ], [ 427962.5, 439351.5 ], [ 427962.5, 439351.75 ], [ 427962.25, 439351.75 ], [ 427962.25, 439352.25 ], [ 427962.0, 439352.25 ], [ 427962.0, 439352.5 ], [ 427961.75, 439352.5 ], [ 427961.75, 439353.0 ], [ 427961.5, 439353.0 ], [ 427961.5, 439353.75 ], [ 427961.25, 439353.75 ], [ 427961.25, 439356.75 ], [ 427961.0, 439356.75 ], [ 427961.0, 439360.0 ], [ 427960.5, 439360.0 ], [ 427960.5, 439361.75 ], [ 427960.25, 439361.75 ], [ 427960.25, 439364.75 ], [ 427960.5, 439364.75 ], [ 427960.5, 439370.25 ], [ 427960.25, 439370.25 ], [ 427960.25, 439375.0 ], [ 427960.5, 439375.0 ], [ 427960.5, 439375.75 ], [ 427960.75, 439375.75 ], [ 427960.75, 439376.0 ], [ 427961.0, 439376.0 ], [ 427961.0, 439376.25 ], [ 427961.25, 439376.25 ], [ 427961.25, 439376.5 ], [ 427961.5, 439376.5 ], [ 427961.5, 439376.75 ], [ 427961.75, 439376.75 ], [ 427961.75, 439377.0 ], [ 427962.25, 439377.0 ], [ 427962.25, 439377.25 ], [ 427963.0, 439377.25 ], [ 427963.0, 439377.5 ], [ 427965.75, 439377.5 ], [ 427965.75, 439377.25 ], [ 427966.25, 439377.25 ], [ 427966.25, 439377.0 ], [ 427966.5, 439377.0 ], [ 427966.5, 439376.75 ], [ 427966.75, 439376.75 ], [ 427966.75, 439376.5 ], [ 427967.0, 439376.5 ], [ 427967.0, 439376.0 ], [ 427967.25, 439376.0 ], [ 427967.25, 439375.5 ], [ 427967.5, 439375.5 ], [ 427967.5, 439375.25 ], [ 427967.75, 439375.25 ], [ 427967.75, 439374.75 ], [ 427968.0, 439374.75 ], [ 427968.0, 439374.25 ], [ 427968.25, 439374.25 ], [ 427968.25, 439373.75 ], [ 427968.5, 439373.75 ], [ 427968.5, 439373.0 ], [ 427968.75, 439373.0 ], [ 427968.75, 439372.5 ], [ 427969.0, 439372.5 ], [ 427969.0, 439371.5 ], [ 427969.25, 439371.5 ], [ 427969.25, 439370.75 ], [ 427969.5, 439370.75 ], [ 427969.5, 439370.25 ], [ 427969.75, 439370.25 ], [ 427969.75, 439369.75 ], [ 427970.0, 439369.75 ], [ 427970.0, 439369.5 ], [ 427970.25, 439369.5 ], [ 427970.25, 439369.0 ], [ 427970.5, 439369.0 ], [ 427970.5, 439368.75 ], [ 427970.75, 439368.75 ], [ 427970.75, 439368.25 ], [ 427971.0, 439368.25 ], [ 427971.0, 439368.0 ], [ 427971.25, 439368.0 ], [ 427971.25, 439367.75 ], [ 427971.5, 439367.75 ], [ 427971.5, 439367.5 ], [ 427971.75, 439367.5 ], [ 427971.75, 439367.0 ], [ 427972.0, 439367.0 ], [ 427972.0, 439366.75 ], [ 427972.25, 439366.75 ], [ 427972.25, 439366.0 ], [ 427972.5, 439366.0 ], [ 427972.5, 439365.5 ], [ 427972.75, 439365.5 ], [ 427972.75, 439364.75 ], [ 427973.0, 439364.75 ], [ 427973.0, 439364.25 ], [ 427973.25, 439364.25 ], [ 427973.25, 439363.5 ], [ 427973.5, 439363.5 ], [ 427973.5, 439363.0 ], [ 427973.75, 439363.0 ], [ 427973.75, 439362.5 ], [ 427974.0, 439362.5 ], [ 427974.0, 439361.25 ], [ 427974.25, 439361.25 ], [ 427974.25, 439360.0 ], [ 427975.75, 439360.0 ], [ 427975.75, 439361.0 ], [ 427976.0, 439361.0 ], [ 427976.0, 439361.25 ], [ 427977.0, 439361.25 ], [ 427977.0, 439360.75 ], [ 427977.25, 439360.75 ], [ 427977.25, 439360.0 ], [ 427978.0, 439360.0 ], [ 427978.0, 439361.25 ], [ 427978.25, 439361.25 ], [ 427978.25, 439363.0 ], [ 427978.5, 439363.0 ], [ 427978.5, 439363.5 ], [ 427978.75, 439363.5 ], [ 427978.75, 439363.75 ], [ 427979.0, 439363.75 ], [ 427979.0, 439364.25 ], [ 427979.25, 439364.25 ], [ 427979.25, 439364.5 ], [ 427979.5, 439364.5 ], [ 427979.5, 439364.75 ], [ 427980.0, 439364.75 ], [ 427980.0, 439365.0 ], [ 427980.25, 439365.0 ], [ 427980.25, 439365.25 ], [ 427980.75, 439365.25 ], [ 427980.75, 439365.5 ], [ 427983.0, 439365.5 ], [ 427983.0, 439365.25 ], [ 427984.0, 439365.25 ], [ 427984.0, 439365.0 ], [ 427985.25, 439365.0 ], [ 427985.25, 439364.75 ], [ 427986.75, 439364.75 ], [ 427986.75, 439364.5 ], [ 427988.75, 439364.5 ], [ 427988.75, 439364.25 ], [ 427990.0, 439364.25 ], [ 427990.0, 439364.0 ], [ 427990.5, 439364.0 ], [ 427990.5, 439363.75 ], [ 427991.0, 439363.75 ], [ 427991.0, 439363.5 ], [ 427991.25, 439363.5 ], [ 427991.25, 439363.25 ], [ 427991.5, 439363.25 ], [ 427991.5, 439363.0 ], [ 427991.75, 439363.0 ], [ 427991.75, 439362.75 ], [ 427992.0, 439362.75 ], [ 427992.0, 439362.5 ], [ 427992.25, 439362.5 ], [ 427992.25, 439361.75 ], [ 427992.5, 439361.75 ], [ 427992.5, 439361.0 ], [ 427992.75, 439361.0 ], [ 427992.75, 439360.5 ], [ 427993.0, 439360.5 ], [ 427993.0, 439360.0 ], [ 427999.75, 439360.0 ], [ 427999.75, 439354.5 ], [ 428000.0, 439354.5 ], [ 428000.0, 439346.277341711509507 ], [ 427999.59374347247649, 439346.404534918256104 ], [ 427996.882126406533644, 439337.776502175489441 ], [ 427983.94347257365007, 439341.827132876031101 ], [ 427982.352217969018966, 439336.75 ], [ 427982.25, 439336.75 ], [ 427982.25, 439336.423858470283449 ], [ 427982.19550997618353, 439336.25 ], [ 427981.75, 439336.25 ], [ 427981.75, 439336.0 ], [ 427981.5, 439336.0 ] ] ] } },
{ "type": "Feature", "properties": { }, "geometry": { "type": "Polygon", "coordinates": [ [ [ 427560.0, 439329.0 ], [ 427558.75, 439329.0 ], [ 427558.75, 439329.25 ], [ 427558.5, 439329.25 ], [ 427558.5, 439329.5 ], [ 427558.25, 439329.5 ], [ 427558.25, 439333.0 ], [ 427558.0, 439333.0 ], [ 427558.0, 439333.75 ], [ 427558.25, 439333.75 ], [ 427558.25, 439334.75 ], [ 427558.5, 439334.75 ], [ 427558.5, 439335.25 ], [ 427558.75, 439335.25 ], [ 427558.75, 439335.5 ], [ 427559.25, 439335.5 ], [ 427559.25, 439335.75 ], [ 427559.75, 439335.75 ], [ 427559.75, 439336.0 ], [ 427561.0, 439336.0 ], [ 427561.0, 439336.25 ], [ 427561.742062967037782, 439336.25 ], [ 427560.929568440828007, 439333.281027982709929 ], [ 427560.812108718964737, 439332.732665412302595 ], [ 427560.19020134449238, 439328.75 ], [ 427560.0, 439328.75 ], [ 427560.0, 439329.0 ] ] ] } },
{ "type": "Feature", "properties": { }, "geometry": { "type": "Polygon", "coordinates": [ [ [ 427775.0, 439327.750163503806107 ], [ 427775.492476613610052, 439327.881038292136509 ], [ 427775.460862750303932, 439328.0 ], [ 427777.5, 439328.0 ], [ 427777.5, 439327.75 ], [ 427777.75, 439327.75 ], [ 427777.75, 439327.25 ], [ 427778.0, 439327.25 ], [ 427778.0, 439326.0 ], [ 427777.75, 439326.0 ], [ 427777.75, 439325.75 ], [ 427777.5, 439325.75 ], [ 427777.5, 439325.5 ], [ 427777.25, 439325.5 ], [ 427777.25, 439325.25 ], [ 427776.75, 439325.25 ], [ 427776.75, 439325.0 ], [ 427776.5, 439325.0 ], [ 427776.5, 439324.5 ], [ 427776.25, 439324.5 ], [ 427776.25, 439324.0 ], [ 427776.0, 439324.0 ], [ 427776.0, 439323.558723611640744 ], [ 427773.605283563432749, 439323.452580528333783 ], [ 427773.711361513007432, 439321.094412841019221 ], [ 427768.0, 439320.83241719880607 ], [ 427768.0, 439325.889925894967746 ], [ 427774.999384741589893, 439327.75 ], [ 427775.0, 439327.75 ], [ 427775.0, 439327.750163503806107 ] ] ] } },
{ "type": "Feature", "properties": { }, "geometry": { "type": "Polygon", "coordinates": [ [ [ 427758.75, 439309.75 ], [ 427758.5, 439309.75 ], [ 427758.5, 439309.25 ], [ 427758.25, 439309.25 ], [ 427758.25, 439309.0 ], [ 427758.0, 439309.0 ], [ 427758.0, 439308.75 ], [ 427757.75, 439308.75 ], [ 427757.75, 439308.5 ], [ 427757.403504158428404, 439308.5 ], [ 427753.840058751055039, 439310.827187086397316 ], [ 427753.455389245238621, 439311.054556494753342 ], [ 427753.2703628934687, 439311.142667808453552 ], [ 427756.988862036843784, 439318.586846892023459 ], [ 427758.958074521971866, 439321.597373360476922 ], [ 427759.75, 439322.31019619764993 ], [ 427759.75, 439320.453967324167024 ], [ 427758.393114250095095, 439320.391723294858821 ], [ 427758.801075925235637, 439311.49302176584024 ], [ 427759.0, 439311.502094829862472 ], [ 427759.0, 439310.75 ], [ 427758.75, 439310.75 ], [ 427758.75, 439309.75 ] ] ] } },
{ "type": "Feature", "properties": { }, "geometry": { "type": "Polygon", "coordinates": [ [ [ 427518.5, 439298.5 ], [ 427518.5, 439297.75 ], [ 427518.25, 439297.75 ], [ 427518.25, 439297.25 ], [ 427518.0, 439297.25 ], [ 427518.0, 439296.75 ], [ 427517.75, 439296.75 ], [ 427517.75, 439296.25 ], [ 427517.5, 439296.25 ], [ 427517.5, 439296.0 ], [ 427517.25, 439296.0 ], [ 427517.25, 439295.75 ], [ 427517.0, 439295.75 ], [ 427517.0, 439295.5 ], [ 427516.5, 439295.5 ], [ 427516.5, 439295.25 ], [ 427516.0, 439295.25 ], [ 427516.0, 439295.0 ], [ 427515.5, 439295.0 ], [ 427515.5, 439294.75 ], [ 427514.75, 439294.75 ], [ 427514.75, 439294.5 ], [ 427514.0, 439294.5 ], [ 427514.0, 439294.75 ], [ 427512.0, 439294.75 ], [ 427512.0, 439301.030788576230407 ], [ 427518.75, 439299.151842930994462 ], [ 427518.75, 439298.5 ], [ 427518.5, 439298.5 ] ] ] } },
{ "type": "Feature", "properties": { }, "geometry": { "type": "Polygon", "coordinates": [ [ [ 427512.373537706153002, 439311.25 ], [ 427512.0, 439309.908088102180045 ], [ 427512.0, 439311.25 ], [ 427512.373537706153002, 439311.25 ] ] ] } },
{ "type": "Feature", "properties": { }, "geometry": { "type": "Polygon", "coordinates": [ [ [ 427743.25, 439277.75 ], [ 427743.25, 439277.5 ], [ 427744.0, 439277.5 ], [ 427744.0, 439277.25 ], [ 427744.5, 439277.25 ], [ 427744.5, 439277.0 ], [ 427745.75, 439277.0 ], [ 427745.75, 439276.75 ], [ 427745.788934296637308, 439276.75 ], [ 427745.843218801019248, 439274.486517002456822 ], [ 427750.5, 439274.598199334344827 ], [ 427750.5, 439274.0 ], [ 427750.75, 439274.0 ], [ 427750.75, 439271.75 ], [ 427750.5, 439271.75 ], [ 427750.5, 439271.5 ], [ 427750.0, 439271.5 ], [ 427750.0, 439271.75 ], [ 427749.25, 439271.75 ], [ 427749.25, 439272.0 ], [ 427748.75, 439272.0 ], [ 427748.75, 439272.25 ], [ 427747.5, 439272.25 ], [ 427747.5, 439272.5 ], [ 427747.0, 439272.5 ], [ 427747.0, 439272.75 ], [ 427746.25, 439272.75 ], [ 427746.25, 439273.0 ], [ 427745.25, 439273.0 ], [ 427745.25, 439273.25 ], [ 427744.75, 439273.25 ], [ 427744.75, 439273.5 ], [ 427744.0, 439273.5 ], [ 427744.0, 439273.75 ], [ 427743.5, 439273.75 ], [ 427743.5, 439274.0 ], [ 427743.25, 439274.0 ], [ 427743.25, 439274.25 ], [ 427743.0, 439274.25 ], [ 427743.0, 439276.0 ], [ 427742.75, 439276.0 ], [ 427742.75, 439276.75 ], [ 427742.5, 439276.75 ], [ 427742.5, 439277.25 ], [ 427742.25, 439277.25 ], [ 427742.25, 439278.0 ], [ 427742.5, 439278.0 ], [ 427742.5, 439278.25 ], [ 427742.75, 439278.25 ], [ 427742.75, 439277.75 ], [ 427743.25, 439277.75 ] ] ] } },
{ "type": "Feature", "properties": { }, "geometry": { "type": "Polygon", "coordinates": [ [ [ 427767.25, 439231.5 ], [ 427767.25, 439231.25 ], [ 427766.75, 439231.25 ], [ 427766.75, 439231.0 ], [ 427766.25, 439231.0 ], [ 427766.25, 439231.5 ], [ 427766.0, 439231.5 ], [ 427766.0, 439232.0 ], [ 427768.0, 439232.0 ], [ 427768.0, 439231.5 ], [ 427767.25, 439231.5 ] ] ] } },
{ "type": "Feature", "properties": { }, "geometry": { "type": "Polygon", "coordinates": [ [ [ 427764.0, 439230.75 ], [ 427764.0, 439230.25 ], [ 427763.75, 439230.25 ], [ 427763.75, 439229.75 ], [ 427763.5, 439229.75 ], [ 427763.5, 439229.5 ], [ 427763.0, 439229.5 ], [ 427763.0, 439229.25 ], [ 427761.25, 439229.25 ], [ 427761.25, 439229.0 ], [ 427759.5, 439229.0 ], [ 427759.5, 439228.75 ], [ 427759.25, 439228.75 ], [ 427759.25, 439228.5 ], [ 427759.0, 439228.5 ], [ 427759.0, 439228.25 ], [ 427758.5, 439228.25 ], [ 427758.5, 439228.0 ], [ 427757.75, 439228.0 ], [ 427757.75, 439228.25 ], [ 427756.0, 439228.25 ], [ 427756.0, 439228.5 ], [ 427755.5, 439228.5 ], [ 427755.5, 439228.75 ], [ 427755.0, 439228.75 ], [ 427755.0, 439229.0 ], [ 427754.75, 439229.0 ], [ 427754.75, 439229.25 ], [ 427754.5, 439229.25 ], [ 427754.5, 439229.5 ], [ 427754.25, 439229.5 ], [ 427754.25, 439229.75 ], [ 427753.25, 439229.75 ], [ 427753.25, 439229.25 ], [ 427753.0, 439229.25 ], [ 427753.0, 439229.0 ], [ 427752.75, 439229.0 ], [ 427752.75, 439228.75 ], [ 427752.5, 439228.75 ], [ 427752.5, 439228.5 ], [ 427751.75, 439228.5 ], [ 427751.75, 439228.25 ], [ 427752.0, 439228.25 ], [ 427752.0, 439228.0 ], [ 427752.25, 439228.0 ], [ 427752.25, 439227.5 ], [ 427752.0, 439227.5 ], [ 427752.0, 439227.25 ], [ 427751.75, 439227.25 ], [ 427751.75, 439227.0 ], [ 427751.25, 439227.0 ], [ 427751.25, 439226.75 ], [ 427750.75, 439226.75 ], [ 427750.75, 439226.5 ], [ 427750.25, 439226.5 ], [ 427750.25, 439226.75 ], [ 427749.5, 439226.75 ], [ 427749.5, 439227.0 ], [ 427749.0, 439227.0 ], [ 427749.0, 439227.25 ], [ 427748.5, 439227.25 ], [ 427748.5, 439227.5 ], [ 427748.0, 439227.5 ], [ 427748.0, 439227.75 ], [ 427747.5, 439227.75 ], [ 427747.5, 439228.0 ], [ 427747.0, 439228.0 ], [ 427747.0, 439228.25 ], [ 427746.5, 439228.25 ], [ 427746.5, 439228.5 ], [ 427746.25, 439228.5 ], [ 427746.25, 439228.75 ], [ 427746.0, 439228.75 ], [ 427746.0, 439229.0 ], [ 427745.75, 439229.0 ], [ 427745.75, 439229.75 ], [ 427745.5, 439229.75 ], [ 427745.5, 439230.0 ], [ 427745.0, 439230.0 ], [ 427745.0, 439230.25 ], [ 427744.75, 439230.25 ], [ 427744.75, 439232.0 ], [ 427763.75, 439232.0 ], [ 427763.75, 439230.75 ], [ 427764.0, 439230.75 ] ] ] } },
{ "type": "Feature", "properties": { }, "geometry": { "type": "Polygon", "coordinates": [ [ [ 427029.0, 439189.25 ], [ 427029.0, 439189.0 ], [ 427028.5, 439189.0 ], [ 427028.5, 439188.75 ], [ 427028.0, 439188.75 ], [ 427028.0, 439188.5 ], [ 427027.5, 439188.5 ], [ 427027.5, 439188.25 ], [ 427026.25, 439188.25 ], [ 427026.25, 439188.0 ], [ 427025.5, 439188.0 ], [ 427025.5, 439187.75 ], [ 427024.75, 439187.75 ], [ 427024.75, 439187.5 ], [ 427024.25, 439187.5 ], [ 427024.25, 439187.25 ], [ 427023.25, 439187.25 ], [ 427023.25, 439187.0 ], [ 427022.25, 439187.0 ], [ 427022.25, 439186.75 ], [ 427018.0, 439186.75 ], [ 427018.0, 439187.0 ], [ 427017.5, 439187.0 ], [ 427017.5, 439187.25 ], [ 427017.0, 439187.25 ], [ 427017.0, 439187.5 ], [ 427016.5, 439187.5 ], [ 427016.5, 439187.75 ], [ 427016.25, 439187.75 ], [ 427016.25, 439188.0 ], [ 427016.0, 439188.0 ], [ 427016.0, 439188.25 ], [ 427015.75, 439188.25 ], [ 427015.75, 439188.75 ], [ 427015.5, 439188.75 ], [ 427015.5, 439189.75 ], [ 427015.25, 439189.75 ], [ 427015.25, 439190.75 ], [ 427015.5, 439190.75 ], [ 427015.5, 439192.25 ], [ 427015.75, 439192.25 ], [ 427015.75, 439193.25 ], [ 427016.0, 439193.25 ], [ 427016.0, 439194.5 ], [ 427016.25, 439194.5 ], [ 427016.25, 439195.25 ], [ 427016.5, 439195.25 ], [ 427016.5, 439196.0 ], [ 427016.75, 439196.0 ], [ 427016.75, 439196.5 ], [ 427017.0, 439196.5 ], [ 427017.0, 439196.75 ], [ 427017.25, 439196.75 ], [ 427017.25, 439197.25 ], [ 427017.5, 439197.25 ], [ 427017.5, 439197.5 ], [ 427020.118027640564833, 439197.5 ], [ 427019.089675053255633, 439195.370291910076048 ], [ 427028.094831079710275, 439191.022054917935748 ], [ 427030.0127768504899, 439194.994101737684105 ], [ 427030.185212249925826, 439195.395017032977194 ], [ 427030.322030210576486, 439195.809441798948683 ], [ 427030.422188359836582, 439196.234218665224034 ], [ 427031.277849303616676, 439200.734208528476302 ], [ 427031.358484760217834, 439201.396740361582488 ], [ 427031.602371134387795, 439205.882077196030878 ], [ 427031.601444919302594, 439206.441545973997563 ], [ 427031.569224580598529, 439207.0 ], [ 427031.75, 439207.0 ], [ 427031.75, 439206.75 ], [ 427032.25, 439206.75 ], [ 427032.25, 439206.5 ], [ 427032.5, 439206.5 ], [ 427032.5, 439206.25 ], [ 427032.75, 439206.25 ], [ 427032.75, 439206.0 ], [ 427033.0, 439206.0 ], [ 427033.0, 439205.75 ], [ 427033.25, 439205.75 ], [ 427033.25, 439205.5 ], [ 427033.5, 439205.5 ], [ 427033.5, 439205.0 ], [ 427033.75, 439205.0 ], [ 427033.75, 439204.75 ], [ 427034.0, 439204.75 ], [ 427034.0, 439204.25 ], [ 427034.25, 439204.25 ], [ 427034.25, 439204.0 ], [ 427034.5, 439204.0 ], [ 427034.5, 439203.5 ], [ 427034.75, 439203.5 ], [ 427034.75, 439203.0 ], [ 427035.0, 439203.0 ], [ 427035.0, 439202.75 ], [ 427035.25, 439202.75 ], [ 427035.25, 439201.5 ], [ 427035.0, 439201.5 ], [ 427035.0, 439200.75 ], [ 427034.75, 439200.75 ], [ 427034.75, 439200.0 ], [ 427034.5, 439200.0 ], [ 427034.5, 439199.25 ], [ 427034.25, 439199.25 ], [ 427034.25, 439197.459516916016582 ], [ 427033.284860783140175, 439197.491204255027696 ], [ 427033.161168009741232, 439193.75 ], [ 427033.0, 439193.75 ], [ 427033.0, 439193.5 ], [ 427032.75, 439193.5 ], [ 427032.75, 439193.25 ], [ 427032.5, 439193.25 ], [ 427032.5, 439193.0 ], [ 427032.25, 439193.0 ], [ 427032.25, 439192.75 ], [ 427032.0, 439192.75 ], [ 427032.0, 439192.5 ], [ 427031.75, 439192.5 ], [ 427031.75, 439192.282912887283601 ], [ 427029.630181801330764, 439192.35199727024883 ], [ 427029.535816056071781, 439189.5 ], [ 427029.5, 439189.5 ], [ 427029.5, 439189.25 ], [ 427029.0, 439189.25 ] ] ] } },
{ "type": "Feature", "properties": { }, "geometry": { "type": "Polygon", "coordinates": [ [ [ 427018.0, 439207.25 ], [ 427017.25, 439207.25 ], [ 427017.25, 439207.5 ], [ 427014.75, 439207.5 ], [ 427014.75, 439207.75 ], [ 427010.25, 439207.75 ], [ 427010.25, 439208.0 ], [ 427006.25, 439208.0 ], [ 427006.25, 439208.25 ], [ 427005.75, 439208.25 ], [ 427005.75, 439208.5 ], [ 427005.5, 439208.5 ], [ 427005.5, 439208.75 ], [ 427005.25, 439208.75 ], [ 427005.25, 439209.5 ], [ 427005.0, 439209.5 ], [ 427005.0, 439210.75 ], [ 427004.75, 439210.75 ], [ 427004.75, 439214.0 ], [ 427004.5, 439214.0 ], [ 427004.5, 439215.0 ], [ 427004.75, 439215.0 ], [ 427004.75, 439215.75 ], [ 427004.5, 439215.75 ], [ 427004.5, 439220.0 ], [ 427004.25, 439220.0 ], [ 427004.25, 439223.5 ], [ 427004.5, 439223.5 ], [ 427004.5, 439224.25 ], [ 427004.75, 439224.25 ], [ 427004.75, 439224.75 ], [ 427005.0, 439224.75 ], [ 427005.0, 439225.25 ], [ 427005.25, 439225.25 ], [ 427005.25, 439225.305342713312712 ], [ 427011.800567551341373, 439222.114706014341209 ], [ 427016.74608046101639, 439217.83193160983501 ], [ 427019.896248343982734, 439213.573595578956883 ], [ 427021.36947149207117, 439210.173951128846966 ], [ 427021.523746700026095, 439207.5 ], [ 427018.0, 439207.5 ], [ 427018.0, 439207.25 ] ] ] } },
{ "type": "Feature", "properties": { }, "geometry": { "type": "Polygon", "coordinates": [ [ [ 427018.25, 439231.0 ], [ 427018.5, 439231.0 ], [ 427018.5, 439230.5 ], [ 427018.75, 439230.5 ], [ 427018.75, 439230.25 ], [ 427019.5, 439230.25 ], [ 427019.5, 439230.0 ], [ 427021.0, 439230.0 ], [ 427021.0, 439229.75 ], [ 427021.75, 439229.75 ], [ 427021.75, 439229.5 ], [ 427022.25, 439229.5 ], [ 427022.25, 439229.25 ], [ 427023.0, 439229.25 ], [ 427023.0, 439229.0 ], [ 427023.75, 439229.0 ], [ 427023.75, 439228.75 ], [ 427024.25, 439228.75 ], [ 427024.25, 439228.5 ], [ 427025.25, 439228.5 ], [ 427025.25, 439228.25 ], [ 427026.0, 439228.25 ], [ 427026.0, 439228.0 ], [ 427026.5, 439228.0 ], [ 427026.5, 439227.75 ], [ 427026.75, 439227.75 ], [ 427026.75, 439227.5 ], [ 427027.25, 439227.5 ], [ 427027.25, 439227.25 ], [ 427027.5, 439227.25 ], [ 427027.5, 439227.0 ], [ 427027.75, 439227.0 ], [ 427027.75, 439226.75 ], [ 427028.0, 439226.75 ], [ 427028.0, 439226.25 ], [ 427028.25, 439226.25 ], [ 427028.25, 439226.0 ], [ 427028.5, 439226.0 ], [ 427028.5, 439225.5 ], [ 427028.75, 439225.5 ], [ 427028.75, 439224.75 ], [ 427029.0, 439224.75 ], [ 427029.0, 439224.0 ], [ 427029.25, 439224.0 ], [ 427029.25, 439223.25 ], [ 427029.5, 439223.25 ], [ 427029.5, 439222.5 ], [ 427029.75, 439222.5 ], [ 427029.75, 439216.75 ], [ 427029.5, 439216.75 ], [ 427029.5, 439216.5615561552695 ], [ 427028.844132761703804, 439218.075050848536193 ], [ 427028.588202759739943, 439218.584017867629882 ], [ 427028.276037403033115, 439219.060568371322006 ], [ 427024.456720808928367, 439224.223446690943092 ], [ 427024.105695934966207, 439224.647062717238441 ], [ 427023.710255761921871, 439225.029549409111496 ], [ 427017.851948540483136, 439230.102796346240211 ], [ 427017.51189328340115, 439230.372371055826079 ], [ 427017.149744658789132, 439230.6114452611655 ], [ 427016.768230487534311, 439230.818218177766539 ], [ 427014.34196188102942, 439232.0 ], [ 427018.25, 439232.0 ], [ 427018.25, 439231.0 ] ] ] } },
{ "type": "Feature", "properties": { }, "geometry": { "type": "Polygon", "coordinates": [ [ [ 427256.75, 439184.25 ], [ 427256.75, 439184.75 ], [ 427256.5, 439184.75 ], [ 427256.5, 439185.25 ], [ 427256.0, 439185.25 ], [ 427256.0, 439185.75 ], [ 427256.75, 439185.75 ], [ 427256.75, 439186.0 ], [ 427257.75, 439186.0 ], [ 427257.75, 439184.305895683413837 ], [ 427257.354461908922531, 439184.302082074573264 ], [ 427257.357587148260791, 439184.0 ], [ 427257.25, 439184.0 ], [ 427257.25, 439184.25 ], [ 427256.75, 439184.25 ] ] ] } },
{ "type": "Feature", "properties": { }, "geometry": { "type": "Polygon", "coordinates": [ [ [ 427256.0, 439180.75 ], [ 427256.0, 439183.25 ], [ 427256.75, 439183.25 ], [ 427256.75, 439183.0 ], [ 427257.25, 439183.0 ], [ 427257.25, 439182.75 ], [ 427257.37051922705723, 439182.75 ], [ 427257.393796968855895, 439180.5 ], [ 427257.0, 439180.5 ], [ 427257.0, 439180.75 ], [ 427256.0, 439180.75 ] ] ] } },
{ "type": "Feature", "properties": { }, "geometry": { "type": "Polygon", "coordinates": [ [ [ 427388.5, 439139.0 ], [ 427388.5, 439138.75 ], [ 427388.75, 439138.75 ], [ 427388.75, 439138.5 ], [ 427389.0, 439138.5 ], [ 427389.0, 439137.0 ], [ 427388.75, 439137.0 ], [ 427388.75, 439136.5 ], [ 427388.5, 439136.5 ], [ 427388.5, 439136.25 ], [ 427388.0, 439136.25 ], [ 427388.0, 439136.0 ], [ 427387.25, 439136.0 ], [ 427387.25, 439135.75 ], [ 427386.75, 439135.75 ], [ 427386.75, 439135.5 ], [ 427385.5, 439135.5 ], [ 427385.5, 439135.75 ], [ 427385.0, 439135.75 ], [ 427385.0, 439136.0 ], [ 427384.75, 439136.0 ], [ 427384.75, 439136.25 ], [ 427384.0, 439136.25 ], [ 427384.0, 439139.0 ], [ 427385.5, 439139.0 ], [ 427385.5, 439139.25 ], [ 427388.25, 439139.25 ], [ 427388.25, 439139.0 ], [ 427388.5, 439139.0 ] ] ] } },
{ "type": "Feature", "properties": { }, "geometry": { "type": "Polygon", "coordinates": [ [ [ 427766.25, 439072.0 ], [ 427766.25, 439071.75 ], [ 427768.0, 439071.75 ], [ 427768.0, 439060.5 ], [ 427770.25, 439060.5 ], [ 427770.25, 439060.25 ], [ 427770.75, 439060.25 ], [ 427770.75, 439060.0 ], [ 427771.25, 439060.0 ], [ 427771.25, 439059.75 ], [ 427771.5, 439059.75 ], [ 427771.5, 439059.5 ], [ 427772.0, 439059.5 ], [ 427772.0, 439059.75 ], [ 427772.5, 439059.75 ], [ 427772.5, 439059.5 ], [ 427772.75, 439059.5 ], [ 427772.75, 439059.25 ], [ 427772.5, 439059.25 ], [ 427772.5, 439059.0 ], [ 427772.25, 439059.0 ], [ 427772.25, 439058.25 ], [ 427772.5, 439058.25 ], [ 427772.5, 439058.0 ], [ 427772.75, 439058.0 ], [ 427772.75, 439057.25 ], [ 427772.25, 439057.25 ], [ 427772.25, 439057.0 ], [ 427771.0, 439057.0 ], [ 427771.0, 439056.75 ], [ 427769.5, 439056.75 ], [ 427769.5, 439056.5 ], [ 427768.0, 439056.5 ], [ 427768.0, 439053.0 ], [ 427763.25, 439053.0 ], [ 427763.25, 439053.25 ], [ 427759.25, 439053.25 ], [ 427759.25, 439053.5 ], [ 427758.0, 439053.5 ], [ 427758.0, 439053.75 ], [ 427757.0, 439053.75 ], [ 427757.0, 439054.0 ], [ 427755.25, 439054.0 ], [ 427755.25, 439054.25 ], [ 427754.0, 439054.25 ], [ 427754.0, 439054.5 ], [ 427753.0, 439054.5 ], [ 427753.0, 439054.75 ], [ 427752.5, 439054.75 ], [ 427752.5, 439055.0 ], [ 427752.25, 439055.0 ], [ 427752.25, 439055.25 ], [ 427751.75, 439055.25 ], [ 427751.75, 439055.5 ], [ 427751.5, 439055.5 ], [ 427751.5, 439055.75 ], [ 427751.25, 439055.75 ], [ 427751.25, 439056.0 ], [ 427751.0, 439056.0 ], [ 427751.0, 439056.25 ], [ 427750.75, 439056.25 ], [ 427750.75, 439056.5 ], [ 427750.5, 439056.5 ], [ 427750.5, 439056.75 ], [ 427750.25, 439056.75 ], [ 427750.25, 439057.25 ], [ 427750.0, 439057.25 ], [ 427750.0, 439058.0 ], [ 427749.75, 439058.0 ], [ 427749.75, 439059.25 ], [ 427749.5, 439059.25 ], [ 427749.5, 439061.5 ], [ 427749.75, 439061.5 ], [ 427749.75, 439063.25 ], [ 427750.0, 439063.25 ], [ 427750.0, 439065.0 ], [ 427750.25, 439065.0 ], [ 427750.25, 439066.0 ], [ 427750.5, 439066.0 ], [ 427750.5, 439066.75 ], [ 427750.75, 439066.75 ], [ 427750.75, 439067.25 ], [ 427751.0, 439067.25 ], [ 427751.0, 439068.0 ], [ 427751.25, 439068.0 ], [ 427751.25, 439068.5 ], [ 427751.5, 439068.5 ], [ 427751.5, 439068.75 ], [ 427752.0, 439068.75 ], [ 427752.0, 439069.0 ], [ 427752.25, 439069.0 ], [ 427752.25, 439069.25 ], [ 427752.5, 439069.25 ], [ 427752.5, 439069.5 ], [ 427752.75, 439069.5 ], [ 427752.75, 439069.75 ], [ 427753.0, 439069.75 ], [ 427753.0, 439070.25 ], [ 427753.25, 439070.25 ], [ 427753.25, 439070.5 ], [ 427753.75, 439070.5 ], [ 427753.75, 439070.75 ], [ 427754.75, 439070.75 ], [ 427754.75, 439071.0 ], [ 427756.0, 439071.0 ], [ 427756.0, 439071.25 ], [ 427759.0, 439071.25 ], [ 427759.0, 439071.5 ], [ 427759.75, 439071.5 ], [ 427759.75, 439071.75 ], [ 427760.5, 439071.75 ], [ 427760.5, 439072.0 ], [ 427761.75, 439072.0 ], [ 427761.75, 439071.75 ], [ 427762.25, 439071.75 ], [ 427762.25, 439071.5 ], [ 427762.75, 439071.5 ], [ 427762.75, 439071.75 ], [ 427763.25, 439071.75 ], [ 427763.25, 439072.0 ], [ 427765.0, 439072.0 ], [ 427765.0, 439072.25 ], [ 427765.75, 439072.25 ], [ 427765.75, 439072.0 ], [ 427766.25, 439072.0 ] ] ] } },
{ "type": "Feature", "properties": { }, "geometry": { "type": "Polygon", "coordinates": [ [ [ 427379.75, 439053.070326789573301 ], [ 427379.75, 439053.25 ], [ 427379.25, 439053.25 ], [ 427379.25, 439053.5 ], [ 427379.0, 439053.5 ], [ 427379.0, 439054.0 ], [ 427378.75, 439054.0 ], [ 427378.75, 439054.25 ], [ 427378.5, 439054.25 ], [ 427378.5, 439054.5 ], [ 427378.25, 439054.5 ], [ 427378.25, 439055.25 ], [ 427378.0, 439055.25 ], [ 427378.0, 439056.25 ], [ 427377.75, 439056.25 ], [ 427377.75, 439056.75 ], [ 427377.5, 439056.75 ], [ 427377.5, 439061.5 ], [ 427377.75, 439061.5 ], [ 427377.75, 439062.0 ], [ 427378.0, 439062.0 ], [ 427378.0, 439062.5 ], [ 427378.25, 439062.5 ], [ 427378.25, 439063.0 ], [ 427378.75, 439063.0 ], [ 427378.75, 439063.25 ], [ 427384.0, 439063.25 ], [ 427384.0, 439053.100715044827666 ], [ 427379.75, 439053.070326789573301 ] ] ] } }
]
}
