{
"type": "FeatureCollection",
"name": "se2530_rgb_250_05_original",
"crs": { "type": "name", "properties": { "name": "urn:ogc:def:crs:EPSG::27700" } },
"features": [
{ "type": "Feature", "properties": { }, "geometry": { "type": "Polygon", "coordinates": [ [ [ 425764.0, 430024.0 ], [ 425764.0, 430023.75 ], [ 425763.5, 430023.75 ], [ 425763.5, 430023.5 ], [ 425763.25, 430023.5 ], [ 425763.25, 430023.25 ], [ 425763.0, 430023.25 ], [ 425763.0, 430022.75 ], [ 425762.75, 430022.75 ], [ 425762.75, 430022.5 ], [ 425760.25, 430022.5 ], [ 425760.25, 430022.25 ], [ 425760.0, 430022.25 ], [ 425760.0, 430022.0 ], [ 425759.75, 430022.0 ], [ 425759.75, 430021.25 ], [ 425759.0, 430021.25 ], [ 425759.0, 430021.5 ], [ 425758.0, 430021.5 ], [ 425758.0, 430020.25 ], [ 425757.5, 430020.25 ], [ 425757.5, 430020.0 ], [ 425756.75, 430020.0 ], [ 425756.75, 430020.25 ], [ 425756.0, 430020.25 ], [ 425756.0, 430020.5 ], [ 425755.75, 430020.5 ], [ 425755.75, 430020.75 ], [ 425755.25, 430020.75 ], [ 425755.25, 430020.0 ], [ 425755.0, 430020.0 ], [ 425755.0, 430019.5 ], [ 425754.75, 430019.5 ], [ 425754.75, 430019.0 ], [ 425754.5, 430019.0 ], [ 425754.5, 430018.75 ], [ 425754.0, 430018.75 ], [ 425754.0, 430018.25 ], [ 425754.25, 430018.25 ], [ 425754.25, 430017.75 ], [ 425754.5, 430017.75 ], [ 425754.5, 430017.5 ], [ 425754.25, 430017.5 ], [ 425754.25, 430017.25 ], [ 425754.0, 430017.25 ], [ 425754.0, 430017.0 ], [ 425753.25, 430017.0 ], [ 425753.25, 430016.75 ], [ 425753.0, 430016.75 ], [ 425753.0, 430016.25 ], [ 425752.75, 430016.25 ], [ 425752.75, 430014.75 ], [ 425753.0, 430014.75 ], [ 425753.0, 430014.25 ], [ 425753.25, 430014.25 ], [ 425753.25, 430014.0 ], [ 425753.5, 430014.0 ], [ 425753.5, 430013.75 ], [ 425754.0, 430013.75 ], [ 425754.0, 430012.5 ], [ 425754.25, 430012.5 ], [ 425754.25, 430012.25 ], [ 425754.5, 430012.25 ], [ 425754.5, 430011.75 ], [ 425754.75, 430011.75 ], [ 425754.75, 430012.75 ], [ 425755.0, 430012.75 ], [ 425755.0, 430013.0 ], [ 425755.5, 430013.0 ], [ 425755.5, 430013.25 ], [ 425756.0, 430013.25 ], [ 425756.0, 430013.5 ], [ 425757.0, 430013.5 ], [ 425757.0, 430013.75 ], [ 425757.75, 430013.75 ], [ 425757.75, 430014.0 ], [ 425758.0, 430014.0 ], [ 425758.0, 430014.75 ], [ 425758.25, 430014.75 ], [ 425758.25, 430015.0 ], [ 425759.0, 430015.0 ], [ 425759.0, 430014.75 ], [ 425759.25, 430014.75 ], [ 425759.25, 430014.25 ], [ 425759.0, 430014.25 ], [ 425759.0, 430014.0 ], [ 425758.75, 430014.0 ], [ 425758.75, 430013.75 ], [ 425758.5, 430013.75 ], [ 425758.5, 430013.25 ], [ 425757.75, 430013.25 ], [ 425757.75, 430013.0 ], [ 425757.25, 430013.0 ], [ 425757.25, 430012.25 ], [ 425757.0, 430012.25 ], [ 425757.0, 430011.25 ], [ 425757.25, 430011.25 ], [ 425757.25, 430011.0 ], [ 425757.5, 430011.0 ], [ 425757.5, 430010.75 ], [ 425758.0, 430010.75 ], [ 425758.0, 430010.5 ], [ 425758.25, 430010.5 ], [ 425758.25, 430010.25 ], [ 425758.75, 430010.25 ], [ 425758.75, 430011.0 ], [ 425759.0, 430011.0 ], [ 425759.0, 430011.5 ], [ 425759.75, 430011.5 ], [ 425759.75, 430011.25 ], [ 425760.25, 430011.25 ], [ 425760.25, 430011.0 ], [ 425761.0, 430011.0 ], [ 425761.0, 430011.25 ], [ 425761.5, 430011.25 ], [ 425761.5, 430011.5 ], [ 425761.75, 430011.5 ], [ 425761.75, 430012.25 ], [ 425762.0, 430012.25 ], [ 425762.0, 430013.0 ], [ 425762.25, 430013.0 ], [ 425762.25, 430013.5 ], [ 425762.5, 430013.5 ], [ 425762.5, 430013.75 ], [ 425763.75, 430013.75 ], [ 425763.75, 430013.5 ], [ 425764.0, 430013.5 ], [ 425764.0, 430013.25 ], [ 425764.25, 430013.25 ], [ 425764.25, 430013.0 ], [ 425764.5, 430013.0 ], [ 425764.5, 430012.75 ], [ 425764.75, 430012.75 ], [ 425764.75, 430012.5 ], [ 425765.0, 430012.5 ], [ 425765.0, 430011.75 ], [ 425765.5, 430011.75 ], [ 425765.5, 430011.5 ], [ 425767.5, 430011.5 ], [ 425767.5, 430011.75 ], [ 425768.0, 430011.75 ], [ 425768.0, 430023.25 ], [ 425767.5, 430023.25 ], [ 425767.5, 430023.5 ], [ 425767.25, 430023.5 ], [ 425767.25, 430023.75 ], [ 425767.0, 430023.75 ], [ 425767.0, 430024.0 ], [ 425764.0, 430024.0 ] ], [ [ 425760.0, 430014.75 ], [ 425760.75, 430014.75 ], [ 425760.75, 430014.25 ], [ 425760.25, 430014.25 ], [ 425760.25, 430014.5 ], [ 425760.0, 430014.5 ], [ 425760.0, 430014.75 ] ] ] } }
]
}
