{
"type": "FeatureCollection",
"name": "se3239_rgb_250_03_original",
"crs": { "type": "name", "properties": { "name": "urn:ogc:def:crs:EPSG::27700" } },
"features": [
{ "type": "Feature", "properties": { }, "geometry": { "type": "Polygon", "coordinates": [ [ [ 432846.25, 439981.5 ], [ 432846.25, 439981.25 ], [ 432846.0, 439981.25 ], [ 432846.0, 439981.0 ], [ 432845.75, 439981.0 ], [ 432845.75, 439980.75 ], [ 432845.5, 439980.75 ], [ 432845.5, 439980.25 ], [ 432846.0, 439980.25 ], [ 432846.0, 439980.0 ], [ 432846.75, 439980.0 ], [ 432846.75, 439980.25 ], [ 432847.0, 439980.25 ], [ 432847.0, 439981.0 ], [ 432846.75, 439981.0 ], [ 432846.75, 439981.5 ], [ 432846.25, 439981.5 ] ] ] } },
{ "type": "Feature", "properties": { }, "geometry": { "type": "Polygon", "coordinates": [ [ [ 432845.75, 439979.0 ], [ 432845.75, 439978.75 ], [ 432845.25, 439978.75 ], [ 432845.25, 439978.5 ], [ 432845.0, 439978.5 ], [ 432845.0, 439978.0 ], [ 432844.75, 439978.0 ], [ 432844.75, 439977.25 ], [ 432845.0, 439977.25 ], [ 432845.0, 439976.75 ], [ 432845.25, 439976.75 ], [ 432845.25, 439975.5 ], [ 432845.75, 439975.5 ], [ 432845.75, 439976.0 ], [ 432846.0, 439976.0 ], [ 432846.0, 439976.25 ], [ 432846.5, 439976.25 ], [ 432846.5, 439976.5 ], [ 432846.75, 439976.5 ], [ 432846.75, 439977.0 ], [ 432847.0, 439977.0 ], [ 432847.0, 439978.75 ], [ 432846.75, 439978.75 ], [ 432846.75, 439979.0 ], [ 432845.75, 439979.0 ] ] ] } },
{ "type": "Feature", "properties": { }, "geometry": { "type": "Polygon", "coordinates": [ [ [ 432845.5, 439972.5 ], [ 432845.5, 439972.25 ], [ 432845.0, 439972.25 ], [ 432845.0, 439972.0 ], [ 432844.75, 439972.0 ], [ 432844.75, 439971.75 ], [ 432844.5, 439971.75 ], [ 432844.5, 439971.5 ], [ 432844.25, 439971.5 ], [ 432844.25, 439970.25 ], [ 432844.0, 439970.25 ], [ 432844.0, 439970.0 ], [ 432843.75, 439970.0 ], [ 432843.75, 439969.75 ], [ 432843.5, 439969.75 ], [ 432843.5, 439969.5 ], [ 432843.25, 439969.5 ], [ 432843.25, 439968.5 ], [ 432843.5, 439968.5 ], [ 432843.5, 439967.75 ], [ 432843.75, 439967.75 ], [ 432843.75, 439967.0 ], [ 432844.0, 439967.0 ], [ 432844.0, 439966.5 ], [ 432844.25, 439966.5 ], [ 432844.25, 439966.25 ], [ 432845.0, 439966.25 ], [ 432845.0, 439966.0 ], [ 432845.75, 439966.0 ], [ 432845.75, 439965.75 ], [ 432846.25, 439965.75 ], [ 432846.25, 439965.5 ], [ 432849.0, 439965.5 ], [ 432849.0, 439965.25 ], [ 432849.5, 439965.25 ], [ 432849.5, 439965.5 ], [ 432850.5, 439965.5 ], [ 432850.5, 439965.75 ], [ 432850.75, 439965.75 ], [ 432850.75, 439966.0 ], [ 432851.25, 439966.0 ], [ 432851.25, 439966.25 ], [ 432851.5, 439966.25 ], [ 432851.5, 439966.5 ], [ 432851.75, 439966.5 ], [ 432851.75, 439966.75 ], [ 432851.5, 439966.75 ], [ 432851.5, 439967.0 ], [ 432851.25, 439967.0 ], [ 432851.25, 439967.25 ], [ 432851.0, 439967.25 ], [ 432851.0, 439967.5 ], [ 432850.75, 439967.5 ], [ 432850.75, 439968.0 ], [ 432850.5, 439968.0 ], [ 432850.5, 439969.0 ], [ 432850.75, 439969.0 ], [ 432850.75, 439969.75 ], [ 432850.25, 439969.75 ], [ 432850.25, 439970.0 ], [ 432849.75, 439970.0 ], [ 432849.75, 439970.25 ], [ 432848.5, 439970.25 ], [ 432848.5, 439970.5 ], [ 432848.0, 439970.5 ], [ 432848.0, 439970.75 ], [ 432848.5, 439970.75 ], [ 432848.5, 439971.0 ], [ 432848.75, 439971.0 ], [ 432848.75, 439971.25 ], [ 432849.0, 439971.25 ], [ 432849.0, 439971.75 ], [ 432848.5, 439971.75 ], [ 432848.5, 439972.0 ], [ 432848.0, 439972.0 ], [ 432848.0, 439972.25 ], [ 432847.75, 439972.25 ], [ 432847.75, 439972.5 ], [ 432845.5, 439972.5 ] ] ] } },
{ "type": "Feature", "properties": { }, "geometry": { "type": "Polygon", "coordinates": [ [ [ 432680.75, 439952.0 ], [ 432680.75, 439951.75 ], [ 432679.25, 439951.75 ], [ 432679.25, 439951.5 ], [ 432678.25, 439951.5 ], [ 432678.25, 439951.25 ], [ 432677.5, 439951.25 ], [ 432677.5, 439951.0 ], [ 432675.75, 439951.0 ], [ 432675.75, 439950.75 ], [ 432675.0, 439950.75 ], [ 432675.0, 439950.5 ], [ 432674.5, 439950.5 ], [ 432674.5, 439950.25 ], [ 432674.25, 439950.25 ], [ 432674.25, 439950.0 ], [ 432674.0, 439950.0 ], [ 432674.0, 439949.75 ], [ 432673.75, 439949.75 ], [ 432673.75, 439949.25 ], [ 432673.5, 439949.25 ], [ 432673.5, 439948.75 ], [ 432673.25, 439948.75 ], [ 432673.25, 439948.25 ], [ 432673.0, 439948.25 ], [ 432673.0, 439947.5 ], [ 432672.75, 439947.5 ], [ 432672.75, 439945.5 ], [ 432673.0, 439945.5 ], [ 432673.0, 439945.0 ], [ 432673.25, 439945.0 ], [ 432673.25, 439944.5 ], [ 432673.5, 439944.5 ], [ 432673.5, 439944.0 ], [ 432673.75, 439944.0 ], [ 432673.75, 439943.75 ], [ 432674.0, 439943.75 ], [ 432674.0, 439943.5 ], [ 432674.25, 439943.5 ], [ 432674.25, 439943.25 ], [ 432674.75, 439943.25 ], [ 432674.75, 439943.0 ], [ 432675.25, 439943.0 ], [ 432675.25, 439942.75 ], [ 432675.75, 439942.75 ], [ 432675.75, 439942.5 ], [ 432676.25, 439942.5 ], [ 432676.25, 439942.25 ], [ 432677.0, 439942.25 ], [ 432677.0, 439942.0 ], [ 432677.5, 439942.0 ], [ 432677.5, 439941.75 ], [ 432678.0, 439941.75 ], [ 432678.0, 439941.5 ], [ 432678.75, 439941.5 ], [ 432678.75, 439941.25 ], [ 432683.0, 439941.25 ], [ 432683.0, 439941.5 ], [ 432684.75, 439941.5 ], [ 432684.75, 439941.75 ], [ 432685.75, 439941.75 ], [ 432685.75, 439942.0 ], [ 432686.5, 439942.0 ], [ 432686.5, 439942.25 ], [ 432687.25, 439942.25 ], [ 432687.25, 439942.5 ], [ 432687.75, 439942.5 ], [ 432687.75, 439942.75 ], [ 432688.0, 439942.75 ], [ 432688.0, 439943.0 ], [ 432688.25, 439943.0 ], [ 432688.25, 439943.25 ], [ 432688.5, 439943.25 ], [ 432688.5, 439943.5 ], [ 432688.75, 439943.5 ], [ 432688.75, 439943.75 ], [ 432689.25, 439943.75 ], [ 432689.25, 439944.0 ], [ 432689.5, 439944.0 ], [ 432689.5, 439944.25 ], [ 432689.75, 439944.25 ], [ 432689.75, 439944.5 ], [ 432690.0, 439944.5 ], [ 432690.0, 439944.75 ], [ 432690.5, 439944.75 ], [ 432690.5, 439945.0 ], [ 432690.75, 439945.0 ], [ 432690.75, 439945.5 ], [ 432691.0, 439945.5 ], [ 432691.0, 439947.75 ], [ 432691.25, 439947.75 ], [ 432691.25, 439948.75 ], [ 432691.0, 439948.75 ], [ 432691.0, 439949.25 ], [ 432690.75, 439949.25 ], [ 432690.75, 439949.75 ], [ 432690.5, 439949.75 ], [ 432690.5, 439950.25 ], [ 432690.25, 439950.25 ], [ 432690.25, 439950.75 ], [ 432690.0, 439950.75 ], [ 432690.0, 439951.0 ], [ 432689.75, 439951.0 ], [ 432689.75, 439951.25 ], [ 432689.0, 439951.25 ], [ 432689.0, 439951.5 ], [ 432688.0, 439951.5 ], [ 432688.0, 439951.75 ], [ 432686.75, 439951.75 ], [ 432686.75, 439952.0 ], [ 432684.75, 439952.0 ], [ 432684.75, 439951.75 ], [ 432683.25, 439951.75 ], [ 432683.25, 439952.0 ], [ 432680.75, 439952.0 ] ] ] } },
{ "type": "Feature", "properties": { }, "geometry": { "type": "Polygon", "coordinates": [ [ [ 432412.75, 439947.75 ], [ 432412.75, 439947.5 ], [ 432410.5, 439947.5 ], [ 432410.5, 439947.25 ], [ 432409.5, 439947.25 ], [ 432409.5, 439947.0 ], [ 432408.25, 439947.0 ], [ 432408.25, 439946.75 ], [ 432407.0, 439946.75 ], [ 432407.0, 439946.5 ], [ 432406.0, 439946.5 ], [ 432406.0, 439946.25 ], [ 432405.25, 439946.25 ], [ 432405.25, 439946.0 ], [ 432404.5, 439946.0 ], [ 432404.5, 439945.75 ], [ 432403.75, 439945.75 ], [ 432403.75, 439945.5 ], [ 432403.0, 439945.5 ], [ 432403.0, 439945.25 ], [ 432402.5, 439945.25 ], [ 432402.5, 439945.0 ], [ 432402.25, 439945.0 ], [ 432402.25, 439944.75 ], [ 432401.75, 439944.75 ], [ 432401.75, 439944.5 ], [ 432401.0, 439944.5 ], [ 432401.0, 439944.25 ], [ 432400.75, 439944.25 ], [ 432400.75, 439944.0 ], [ 432400.25, 439944.0 ], [ 432400.25, 439943.75 ], [ 432399.75, 439943.75 ], [ 432399.75, 439943.5 ], [ 432399.5, 439943.5 ], [ 432399.5, 439943.0 ], [ 432399.25, 439943.0 ], [ 432399.25, 439942.75 ], [ 432399.0, 439942.75 ], [ 432399.0, 439940.75 ], [ 432399.25, 439940.75 ], [ 432399.25, 439940.25 ], [ 432399.5, 439940.25 ], [ 432399.5, 439939.75 ], [ 432399.75, 439939.75 ], [ 432399.75, 439939.25 ], [ 432400.0, 439939.25 ], [ 432400.0, 439938.75 ], [ 432400.25, 439938.75 ], [ 432400.25, 439938.25 ], [ 432400.5, 439938.25 ], [ 432400.5, 439937.75 ], [ 432400.75, 439937.75 ], [ 432400.75, 439937.5 ], [ 432401.0, 439937.5 ], [ 432401.0, 439937.25 ], [ 432401.25, 439937.25 ], [ 432401.25, 439937.0 ], [ 432401.5, 439937.0 ], [ 432401.5, 439936.75 ], [ 432401.75, 439936.75 ], [ 432401.75, 439936.25 ], [ 432402.0, 439936.25 ], [ 432402.0, 439936.0 ], [ 432402.25, 439936.0 ], [ 432402.25, 439935.5 ], [ 432402.5, 439935.5 ], [ 432402.5, 439935.0 ], [ 432402.75, 439935.0 ], [ 432402.75, 439934.5 ], [ 432403.0, 439934.5 ], [ 432403.0, 439933.75 ], [ 432403.25, 439933.75 ], [ 432403.25, 439932.75 ], [ 432403.5, 439932.75 ], [ 432403.5, 439931.75 ], [ 432403.75, 439931.75 ], [ 432403.75, 439930.75 ], [ 432404.0, 439930.75 ], [ 432404.0, 439929.75 ], [ 432404.25, 439929.75 ], [ 432404.25, 439929.0 ], [ 432404.5, 439929.0 ], [ 432404.5, 439928.25 ], [ 432404.75, 439928.25 ], [ 432404.75, 439927.75 ], [ 432405.0, 439927.75 ], [ 432405.0, 439927.0 ], [ 432405.25, 439927.0 ], [ 432405.25, 439926.5 ], [ 432405.5, 439926.5 ], [ 432405.5, 439926.25 ], [ 432405.75, 439926.25 ], [ 432405.75, 439926.0 ], [ 432406.0, 439926.0 ], [ 432406.0, 439925.75 ], [ 432406.5, 439925.75 ], [ 432406.5, 439925.5 ], [ 432406.75, 439925.5 ], [ 432406.75, 439925.75 ], [ 432408.25, 439925.75 ], [ 432408.25, 439925.5 ], [ 432410.0, 439925.5 ], [ 432410.0, 439925.75 ], [ 432410.75, 439925.75 ], [ 432410.75, 439926.0 ], [ 432411.5, 439926.0 ], [ 432411.5, 439926.25 ], [ 432412.0, 439926.25 ], [ 432412.0, 439926.5 ], [ 432412.5, 439926.5 ], [ 432412.5, 439926.75 ], [ 432412.75, 439926.75 ], [ 432412.75, 439927.0 ], [ 432413.25, 439927.0 ], [ 432413.25, 439927.25 ], [ 432413.75, 439927.25 ], [ 432413.75, 439927.5 ], [ 432414.0, 439927.5 ], [ 432414.0, 439927.75 ], [ 432414.5, 439927.75 ], [ 432414.5, 439928.0 ], [ 432415.0, 439928.0 ], [ 432415.0, 439928.25 ], [ 432415.75, 439928.25 ], [ 432415.75, 439928.5 ], [ 432416.0, 439928.5 ], [ 432416.0, 439928.75 ], [ 432416.5, 439928.75 ], [ 432416.5, 439929.0 ], [ 432417.0, 439929.0 ], [ 432417.0, 439929.25 ], [ 432417.75, 439929.25 ], [ 432417.75, 439929.5 ], [ 432418.25, 439929.5 ], [ 432418.25, 439929.75 ], [ 432419.0, 439929.75 ], [ 432419.0, 439930.0 ], [ 432419.5, 439930.0 ], [ 432419.5, 439930.25 ], [ 432420.0, 439930.25 ], [ 432420.0, 439930.75 ], [ 432420.25, 439930.75 ], [ 432420.25, 439931.0 ], [ 432420.5, 439931.0 ], [ 432420.5, 439931.25 ], [ 432420.75, 439931.25 ], [ 432420.75, 439931.5 ], [ 432421.0, 439931.5 ], [ 432421.0, 439932.0 ], [ 432421.25, 439932.0 ], [ 432421.25, 439932.75 ], [ 432421.5, 439932.75 ], [ 432421.5, 439933.75 ], [ 432421.75, 439933.75 ], [ 432421.75, 439941.0 ], [ 432421.5, 439941.0 ], [ 432421.5, 439942.25 ], [ 432421.25, 439942.25 ], [ 432421.25, 439943.25 ], [ 432421.0, 439943.25 ], [ 432421.0, 439944.0 ], [ 432420.75, 439944.0 ], [ 432420.75, 439944.5 ], [ 432420.5, 439944.5 ], [ 432420.5, 439945.0 ], [ 432420.25, 439945.0 ], [ 432420.25, 439945.25 ], [ 432420.0, 439945.25 ], [ 432420.0, 439945.5 ], [ 432419.75, 439945.5 ], [ 432419.75, 439945.75 ], [ 432419.5, 439945.75 ], [ 432419.5, 439946.25 ], [ 432419.25, 439946.25 ], [ 432419.25, 439946.5 ], [ 432418.75, 439946.5 ], [ 432418.75, 439946.75 ], [ 432418.5, 439946.75 ], [ 432418.5, 439947.0 ], [ 432418.0, 439947.0 ], [ 432418.0, 439947.25 ], [ 432417.5, 439947.25 ], [ 432417.5, 439947.5 ], [ 432416.0, 439947.5 ], [ 432416.0, 439947.75 ], [ 432412.75, 439947.75 ] ] ] } },
{ "type": "Feature", "properties": { }, "geometry": { "type": "Polygon", "coordinates": [ [ [ 432458.5, 439924.75 ], [ 432458.5, 439924.5 ], [ 432457.75, 439924.5 ], [ 432457.75, 439924.25 ], [ 432457.25, 439924.25 ], [ 432457.25, 439924.0 ], [ 432457.0, 439924.0 ], [ 432457.0, 439923.75 ], [ 432456.75, 439923.75 ], [ 432456.75, 439923.5 ], [ 432456.5, 439923.5 ], [ 432456.5, 439923.0 ], [ 432456.25, 439923.0 ], [ 432456.25, 439922.75 ], [ 432456.0, 439922.75 ], [ 432456.0, 439921.0 ], [ 432456.25, 439921.0 ], [ 432456.25, 439919.0 ], [ 432456.5, 439919.0 ], [ 432456.5, 439918.0 ], [ 432456.75, 439918.0 ], [ 432456.75, 439917.25 ], [ 432457.0, 439917.25 ], [ 432457.0, 439916.75 ], [ 432457.25, 439916.75 ], [ 432457.25, 439916.0 ], [ 432457.5, 439916.0 ], [ 432457.5, 439915.75 ], [ 432457.75, 439915.75 ], [ 432457.75, 439915.5 ], [ 432458.0, 439915.5 ], [ 432458.0, 439915.25 ], [ 432458.25, 439915.25 ], [ 432458.25, 439915.0 ], [ 432458.5, 439915.0 ], [ 432458.5, 439914.5 ], [ 432458.75, 439914.5 ], [ 432458.75, 439914.25 ], [ 432459.0, 439914.25 ], [ 432459.0, 439914.0 ], [ 432459.25, 439914.0 ], [ 432459.25, 439913.0 ], [ 432459.5, 439913.0 ], [ 432459.5, 439911.75 ], [ 432459.75, 439911.75 ], [ 432459.75, 439911.0 ], [ 432460.0, 439911.0 ], [ 432460.0, 439910.25 ], [ 432460.25, 439910.25 ], [ 432460.25, 439908.75 ], [ 432460.5, 439908.75 ], [ 432460.5, 439907.75 ], [ 432460.75, 439907.75 ], [ 432460.75, 439907.0 ], [ 432461.0, 439907.0 ], [ 432461.0, 439906.5 ], [ 432461.25, 439906.5 ], [ 432461.25, 439905.5 ], [ 432461.5, 439905.5 ], [ 432461.5, 439905.25 ], [ 432462.25, 439905.25 ], [ 432462.25, 439905.0 ], [ 432463.25, 439905.0 ], [ 432463.25, 439904.75 ], [ 432464.75, 439904.75 ], [ 432464.75, 439904.5 ], [ 432466.0, 439904.5 ], [ 432466.0, 439904.25 ], [ 432467.25, 439904.25 ], [ 432467.25, 439904.5 ], [ 432468.75, 439904.5 ], [ 432468.75, 439904.75 ], [ 432469.75, 439904.75 ], [ 432469.75, 439905.0 ], [ 432470.5, 439905.0 ], [ 432470.5, 439905.25 ], [ 432473.75, 439905.25 ], [ 432473.75, 439905.5 ], [ 432474.5, 439905.5 ], [ 432474.5, 439905.75 ], [ 432474.75, 439905.75 ], [ 432474.75, 439906.0 ], [ 432475.0, 439906.0 ], [ 432475.0, 439906.25 ], [ 432475.5, 439906.25 ], [ 432475.5, 439906.5 ], [ 432475.75, 439906.5 ], [ 432475.75, 439906.75 ], [ 432476.0, 439906.75 ], [ 432476.0, 439907.25 ], [ 432476.25, 439907.25 ], [ 432476.25, 439907.5 ], [ 432476.5, 439907.5 ], [ 432476.5, 439908.25 ], [ 432476.75, 439908.25 ], [ 432476.75, 439909.0 ], [ 432477.0, 439909.0 ], [ 432477.0, 439909.75 ], [ 432477.25, 439909.75 ], [ 432477.25, 439911.75 ], [ 432477.5, 439911.75 ], [ 432477.5, 439912.75 ], [ 432477.75, 439912.75 ], [ 432477.75, 439913.25 ], [ 432478.0, 439913.25 ], [ 432478.0, 439914.0 ], [ 432478.25, 439914.0 ], [ 432478.25, 439914.5 ], [ 432478.5, 439914.5 ], [ 432478.5, 439915.75 ], [ 432478.75, 439915.75 ], [ 432478.75, 439916.75 ], [ 432478.5, 439916.75 ], [ 432478.5, 439917.5 ], [ 432478.25, 439917.5 ], [ 432478.25, 439918.25 ], [ 432478.0, 439918.25 ], [ 432478.0, 439918.5 ], [ 432477.75, 439918.5 ], [ 432477.75, 439918.75 ], [ 432475.5, 439918.75 ], [ 432475.5, 439918.5 ], [ 432475.0, 439918.5 ], [ 432475.0, 439918.25 ], [ 432474.75, 439918.25 ], [ 432474.75, 439918.0 ], [ 432473.5, 439918.0 ], [ 432473.5, 439918.25 ], [ 432473.25, 439918.25 ], [ 432473.25, 439918.5 ], [ 432473.0, 439918.5 ], [ 432473.0, 439918.75 ], [ 432472.75, 439918.75 ], [ 432472.75, 439919.5 ], [ 432472.5, 439919.5 ], [ 432472.5, 439920.0 ], [ 432472.25, 439920.0 ], [ 432472.25, 439920.5 ], [ 432472.0, 439920.5 ], [ 432472.0, 439921.0 ], [ 432471.75, 439921.0 ], [ 432471.75, 439921.75 ], [ 432471.5, 439921.75 ], [ 432471.5, 439922.25 ], [ 432471.25, 439922.25 ], [ 432471.25, 439922.5 ], [ 432471.0, 439922.5 ], [ 432471.0, 439922.75 ], [ 432470.75, 439922.75 ], [ 432470.75, 439923.0 ], [ 432470.5, 439923.0 ], [ 432470.5, 439923.25 ], [ 432470.25, 439923.25 ], [ 432470.25, 439923.5 ], [ 432469.75, 439923.5 ], [ 432469.75, 439923.75 ], [ 432469.25, 439923.75 ], [ 432469.25, 439924.0 ], [ 432468.25, 439924.0 ], [ 432468.25, 439924.25 ], [ 432466.75, 439924.25 ], [ 432466.75, 439924.5 ], [ 432462.25, 439924.5 ], [ 432462.25, 439924.75 ], [ 432461.25, 439924.75 ], [ 432461.25, 439924.5 ], [ 432459.0, 439924.5 ], [ 432459.0, 439924.75 ], [ 432458.5, 439924.75 ] ] ] } },
{ "type": "Feature", "properties": { }, "geometry": { "type": "Polygon", "coordinates": [ [ [ 432490.25, 439912.5 ], [ 432490.25, 439912.25 ], [ 432489.5, 439912.25 ], [ 432489.5, 439912.0 ], [ 432489.25, 439912.0 ], [ 432489.25, 439911.75 ], [ 432488.75, 439911.75 ], [ 432488.75, 439911.5 ], [ 432488.5, 439911.5 ], [ 432488.5, 439911.25 ], [ 432488.25, 439911.25 ], [ 432488.25, 439911.0 ], [ 432488.0, 439911.0 ], [ 432488.0, 439910.75 ], [ 432487.75, 439910.75 ], [ 432487.75, 439910.25 ], [ 432487.5, 439910.25 ], [ 432487.5, 439909.75 ], [ 432487.25, 439909.75 ], [ 432487.25, 439908.75 ], [ 432487.0, 439908.75 ], [ 432487.0, 439907.75 ], [ 432487.25, 439907.75 ], [ 432487.25, 439906.5 ], [ 432487.5, 439906.5 ], [ 432487.5, 439906.0 ], [ 432487.75, 439906.0 ], [ 432487.75, 439905.5 ], [ 432488.0, 439905.5 ], [ 432488.0, 439905.0 ], [ 432488.25, 439905.0 ], [ 432488.25, 439904.75 ], [ 432488.5, 439904.75 ], [ 432488.5, 439904.25 ], [ 432488.75, 439904.25 ], [ 432488.75, 439904.0 ], [ 432489.0, 439904.0 ], [ 432489.0, 439903.75 ], [ 432489.25, 439903.75 ], [ 432489.25, 439903.25 ], [ 432489.5, 439903.25 ], [ 432489.5, 439902.75 ], [ 432489.75, 439902.75 ], [ 432489.75, 439902.5 ], [ 432490.0, 439902.5 ], [ 432490.0, 439902.25 ], [ 432490.25, 439902.25 ], [ 432490.25, 439902.0 ], [ 432490.5, 439902.0 ], [ 432490.5, 439901.75 ], [ 432491.25, 439901.75 ], [ 432491.25, 439901.5 ], [ 432492.75, 439901.5 ], [ 432492.75, 439901.75 ], [ 432493.0, 439901.75 ], [ 432493.0, 439902.0 ], [ 432493.5, 439902.0 ], [ 432493.5, 439902.25 ], [ 432493.75, 439902.25 ], [ 432493.75, 439902.5 ], [ 432494.0, 439902.5 ], [ 432494.0, 439902.75 ], [ 432494.25, 439902.75 ], [ 432494.25, 439903.0 ], [ 432494.5, 439903.0 ], [ 432494.5, 439903.5 ], [ 432494.75, 439903.5 ], [ 432494.75, 439904.75 ], [ 432495.0, 439904.75 ], [ 432495.0, 439910.0 ], [ 432494.75, 439910.0 ], [ 432494.75, 439910.75 ], [ 432494.5, 439910.75 ], [ 432494.5, 439911.0 ], [ 432494.25, 439911.0 ], [ 432494.25, 439911.5 ], [ 432494.0, 439911.5 ], [ 432494.0, 439911.75 ], [ 432493.75, 439911.75 ], [ 432493.75, 439912.0 ], [ 432493.25, 439912.0 ], [ 432493.25, 439912.25 ], [ 432491.5, 439912.25 ], [ 432491.5, 439912.5 ], [ 432490.25, 439912.5 ] ] ] } },
{ "type": "Feature", "properties": { }, "geometry": { "type": "Polygon", "coordinates": [ [ [ 432243.25, 439910.5 ], [ 432243.25, 439910.0 ], [ 432243.0, 439910.0 ], [ 432243.0, 439909.75 ], [ 432242.5, 439909.75 ], [ 432242.5, 439908.75 ], [ 432243.0, 439908.75 ], [ 432243.0, 439909.0 ], [ 432243.5, 439909.0 ], [ 432243.5, 439908.75 ], [ 432243.75, 439908.75 ], [ 432243.75, 439908.0 ], [ 432243.5, 439908.0 ], [ 432243.5, 439907.75 ], [ 432243.25, 439907.75 ], [ 432243.25, 439905.5 ], [ 432243.0, 439905.5 ], [ 432243.0, 439904.75 ], [ 432242.75, 439904.75 ], [ 432242.75, 439902.75 ], [ 432242.5, 439902.75 ], [ 432242.5, 439902.25 ], [ 432242.75, 439902.25 ], [ 432242.75, 439900.25 ], [ 432243.0, 439900.25 ], [ 432243.0, 439899.0 ], [ 432243.25, 439899.0 ], [ 432243.25, 439897.25 ], [ 432243.5, 439897.25 ], [ 432243.5, 439896.75 ], [ 432243.75, 439896.75 ], [ 432243.75, 439896.25 ], [ 432244.0, 439896.25 ], [ 432244.0, 439896.0 ], [ 432244.25, 439896.0 ], [ 432244.25, 439895.5 ], [ 432244.5, 439895.5 ], [ 432244.5, 439895.25 ], [ 432244.75, 439895.25 ], [ 432244.75, 439894.75 ], [ 432245.0, 439894.75 ], [ 432245.0, 439894.5 ], [ 432245.5, 439894.5 ], [ 432245.5, 439894.25 ], [ 432247.0, 439894.25 ], [ 432247.0, 439894.5 ], [ 432247.75, 439894.5 ], [ 432247.75, 439894.75 ], [ 432248.25, 439894.75 ], [ 432248.25, 439895.0 ], [ 432249.25, 439895.0 ], [ 432249.25, 439895.25 ], [ 432250.75, 439895.25 ], [ 432250.75, 439895.5 ], [ 432252.75, 439895.5 ], [ 432252.75, 439895.75 ], [ 432256.0, 439895.75 ], [ 432256.0, 439896.5 ], [ 432257.25, 439896.5 ], [ 432257.25, 439896.25 ], [ 432258.5, 439896.25 ], [ 432258.5, 439896.5 ], [ 432261.5, 439896.5 ], [ 432261.5, 439896.75 ], [ 432263.25, 439896.75 ], [ 432263.25, 439897.0 ], [ 432264.0, 439897.0 ], [ 432264.0, 439897.25 ], [ 432264.75, 439897.25 ], [ 432264.75, 439897.5 ], [ 432265.5, 439897.5 ], [ 432265.5, 439897.75 ], [ 432265.75, 439897.75 ], [ 432265.75, 439898.0 ], [ 432266.0, 439898.0 ], [ 432266.0, 439898.25 ], [ 432266.5, 439898.25 ], [ 432266.5, 439898.5 ], [ 432266.75, 439898.5 ], [ 432266.75, 439898.75 ], [ 432267.0, 439898.75 ], [ 432267.0, 439899.0 ], [ 432267.5, 439899.0 ], [ 432267.5, 439899.25 ], [ 432267.75, 439899.25 ], [ 432267.75, 439899.5 ], [ 432268.25, 439899.5 ], [ 432268.25, 439899.75 ], [ 432268.5, 439899.75 ], [ 432268.5, 439900.0 ], [ 432268.75, 439900.0 ], [ 432268.75, 439900.25 ], [ 432269.25, 439900.25 ], [ 432269.25, 439900.5 ], [ 432269.5, 439900.5 ], [ 432269.5, 439901.0 ], [ 432269.75, 439901.0 ], [ 432269.75, 439901.25 ], [ 432270.25, 439901.25 ], [ 432270.25, 439901.5 ], [ 432270.5, 439901.5 ], [ 432270.5, 439901.75 ], [ 432270.75, 439901.75 ], [ 432270.75, 439902.25 ], [ 432271.25, 439902.25 ], [ 432271.25, 439903.0 ], [ 432271.0, 439903.0 ], [ 432271.0, 439903.25 ], [ 432270.75, 439903.25 ], [ 432270.75, 439904.5 ], [ 432270.5, 439904.5 ], [ 432270.5, 439905.25 ], [ 432270.25, 439905.25 ], [ 432270.25, 439905.75 ], [ 432270.0, 439905.75 ], [ 432270.0, 439906.0 ], [ 432269.75, 439906.0 ], [ 432269.75, 439906.5 ], [ 432269.5, 439906.5 ], [ 432269.5, 439907.25 ], [ 432269.25, 439907.25 ], [ 432269.25, 439907.5 ], [ 432269.0, 439907.5 ], [ 432269.0, 439908.5 ], [ 432268.75, 439908.5 ], [ 432268.75, 439908.75 ], [ 432268.5, 439908.75 ], [ 432268.5, 439909.0 ], [ 432268.0, 439909.0 ], [ 432268.0, 439909.25 ], [ 432267.25, 439909.25 ], [ 432267.25, 439909.5 ], [ 432267.0, 439909.5 ], [ 432267.0, 439909.75 ], [ 432266.5, 439909.75 ], [ 432266.5, 439910.0 ], [ 432264.75, 439910.0 ], [ 432264.75, 439909.75 ], [ 432262.0, 439909.75 ], [ 432262.0, 439910.0 ], [ 432261.0, 439910.0 ], [ 432261.0, 439909.75 ], [ 432260.0, 439909.75 ], [ 432260.0, 439909.5 ], [ 432259.25, 439909.5 ], [ 432259.25, 439909.25 ], [ 432259.0, 439909.25 ], [ 432259.0, 439909.0 ], [ 432258.5, 439909.0 ], [ 432258.5, 439908.75 ], [ 432257.75, 439908.75 ], [ 432257.75, 439908.5 ], [ 432256.0, 439908.5 ], [ 432256.0, 439908.0 ], [ 432254.5, 439908.0 ], [ 432254.5, 439907.75 ], [ 432251.75, 439907.75 ], [ 432251.75, 439907.5 ], [ 432249.5, 439907.5 ], [ 432249.5, 439907.75 ], [ 432249.25, 439907.75 ], [ 432249.25, 439908.0 ], [ 432248.75, 439908.0 ], [ 432248.75, 439908.25 ], [ 432248.5, 439908.25 ], [ 432248.5, 439908.5 ], [ 432248.25, 439908.5 ], [ 432248.25, 439908.75 ], [ 432248.0, 439908.75 ], [ 432248.0, 439909.0 ], [ 432247.75, 439909.0 ], [ 432247.75, 439909.25 ], [ 432247.5, 439909.25 ], [ 432247.5, 439909.5 ], [ 432247.0, 439909.5 ], [ 432247.0, 439909.75 ], [ 432246.25, 439909.75 ], [ 432246.25, 439910.0 ], [ 432245.75, 439910.0 ], [ 432245.75, 439910.25 ], [ 432244.25, 439910.25 ], [ 432244.25, 439910.5 ], [ 432243.25, 439910.5 ] ] ] } },
{ "type": "Feature", "properties": { }, "geometry": { "type": "Polygon", "coordinates": [ [ [ 432340.75, 439872.0 ], [ 432340.75, 439870.25 ], [ 432341.0, 439870.25 ], [ 432341.0, 439869.0 ], [ 432341.25, 439869.0 ], [ 432341.25, 439868.25 ], [ 432341.5, 439868.25 ], [ 432341.5, 439868.0 ], [ 432342.0, 439868.0 ], [ 432342.0, 439867.75 ], [ 432343.75, 439867.75 ], [ 432343.75, 439867.5 ], [ 432344.75, 439867.5 ], [ 432344.75, 439867.75 ], [ 432345.5, 439867.75 ], [ 432345.5, 439868.0 ], [ 432345.75, 439868.0 ], [ 432345.75, 439868.25 ], [ 432346.0, 439868.25 ], [ 432346.0, 439868.5 ], [ 432346.25, 439868.5 ], [ 432346.25, 439869.0 ], [ 432346.5, 439869.0 ], [ 432346.5, 439869.5 ], [ 432347.0, 439869.5 ], [ 432347.0, 439869.75 ], [ 432347.5, 439869.75 ], [ 432347.5, 439870.0 ], [ 432347.75, 439870.0 ], [ 432347.75, 439870.5 ], [ 432348.0, 439870.5 ], [ 432348.0, 439872.0 ], [ 432340.75, 439872.0 ] ] ] } },
{ "type": "Feature", "properties": { }, "geometry": { "type": "Polygon", "coordinates": [ [ [ 432327.5, 439857.5 ], [ 432327.5, 439857.25 ], [ 432326.25, 439857.25 ], [ 432326.25, 439857.0 ], [ 432325.25, 439857.0 ], [ 432325.25, 439856.75 ], [ 432324.25, 439856.75 ], [ 432324.25, 439856.5 ], [ 432323.25, 439856.5 ], [ 432323.25, 439856.25 ], [ 432322.0, 439856.25 ], [ 432322.0, 439856.0 ], [ 432321.25, 439856.0 ], [ 432321.25, 439855.75 ], [ 432320.5, 439855.75 ], [ 432320.5, 439855.5 ], [ 432319.75, 439855.5 ], [ 432319.75, 439855.25 ], [ 432319.5, 439855.25 ], [ 432319.5, 439855.0 ], [ 432319.0, 439855.0 ], [ 432319.0, 439854.75 ], [ 432318.5, 439854.75 ], [ 432318.5, 439854.5 ], [ 432318.25, 439854.5 ], [ 432318.25, 439854.25 ], [ 432318.0, 439854.25 ], [ 432318.0, 439853.75 ], [ 432317.75, 439853.75 ], [ 432317.75, 439852.75 ], [ 432318.0, 439852.75 ], [ 432318.0, 439852.25 ], [ 432318.25, 439852.25 ], [ 432318.25, 439851.75 ], [ 432318.5, 439851.75 ], [ 432318.5, 439851.25 ], [ 432318.75, 439851.25 ], [ 432318.75, 439850.5 ], [ 432319.0, 439850.5 ], [ 432319.0, 439850.0 ], [ 432319.25, 439850.0 ], [ 432319.25, 439849.5 ], [ 432319.5, 439849.5 ], [ 432319.5, 439849.0 ], [ 432319.75, 439849.0 ], [ 432319.75, 439848.75 ], [ 432320.0, 439848.75 ], [ 432320.0, 439848.5 ], [ 432320.25, 439848.5 ], [ 432320.25, 439848.25 ], [ 432320.5, 439848.25 ], [ 432320.5, 439848.0 ], [ 432320.75, 439848.0 ], [ 432320.75, 439847.5 ], [ 432321.0, 439847.5 ], [ 432321.0, 439847.25 ], [ 432321.25, 439847.25 ], [ 432321.25, 439847.0 ], [ 432321.75, 439847.0 ], [ 432321.75, 439846.75 ], [ 432322.25, 439846.75 ], [ 432322.25, 439846.5 ], [ 432322.75, 439846.5 ], [ 432322.75, 439846.25 ], [ 432323.25, 439846.25 ], [ 432323.25, 439846.0 ], [ 432326.5, 439846.0 ], [ 432326.5, 439846.25 ], [ 432327.0, 439846.25 ], [ 432327.0, 439846.5 ], [ 432327.5, 439846.5 ], [ 432327.5, 439846.75 ], [ 432328.25, 439846.75 ], [ 432328.25, 439847.0 ], [ 432329.0, 439847.0 ], [ 432329.0, 439847.25 ], [ 432330.0, 439847.25 ], [ 432330.0, 439847.5 ], [ 432330.5, 439847.5 ], [ 432330.5, 439847.75 ], [ 432331.0, 439847.75 ], [ 432331.0, 439848.0 ], [ 432331.25, 439848.0 ], [ 432331.25, 439848.25 ], [ 432331.75, 439848.25 ], [ 432331.75, 439848.5 ], [ 432332.0, 439848.5 ], [ 432332.0, 439849.0 ], [ 432332.25, 439849.0 ], [ 432332.25, 439849.25 ], [ 432332.5, 439849.25 ], [ 432332.5, 439849.5 ], [ 432332.75, 439849.5 ], [ 432332.75, 439850.25 ], [ 432333.0, 439850.25 ], [ 432333.0, 439850.75 ], [ 432333.25, 439850.75 ], [ 432333.25, 439851.25 ], [ 432333.5, 439851.25 ], [ 432333.5, 439854.75 ], [ 432333.25, 439854.75 ], [ 432333.25, 439855.0 ], [ 432333.0, 439855.0 ], [ 432333.0, 439855.25 ], [ 432332.75, 439855.25 ], [ 432332.75, 439855.5 ], [ 432332.5, 439855.5 ], [ 432332.5, 439855.75 ], [ 432332.25, 439855.75 ], [ 432332.25, 439856.0 ], [ 432332.0, 439856.0 ], [ 432332.0, 439856.5 ], [ 432331.75, 439856.5 ], [ 432331.75, 439856.75 ], [ 432331.25, 439856.75 ], [ 432331.25, 439857.0 ], [ 432331.0, 439857.0 ], [ 432331.0, 439857.25 ], [ 432330.75, 439857.25 ], [ 432330.75, 439857.5 ], [ 432327.5, 439857.5 ] ] ] } },
{ "type": "Feature", "properties": { }, "geometry": { "type": "Polygon", "coordinates": [ [ [ 432722.25, 439864.5 ], [ 432722.25, 439864.25 ], [ 432721.0, 439864.25 ], [ 432721.0, 439864.0 ], [ 432720.0, 439864.0 ], [ 432720.0, 439863.75 ], [ 432718.25, 439863.75 ], [ 432718.25, 439863.5 ], [ 432717.0, 439863.5 ], [ 432717.0, 439863.25 ], [ 432716.0, 439863.25 ], [ 432716.0, 439863.0 ], [ 432714.75, 439863.0 ], [ 432714.75, 439862.75 ], [ 432713.25, 439862.75 ], [ 432713.25, 439862.5 ], [ 432712.5, 439862.5 ], [ 432712.5, 439862.25 ], [ 432711.75, 439862.25 ], [ 432711.75, 439862.0 ], [ 432711.0, 439862.0 ], [ 432711.0, 439861.75 ], [ 432709.75, 439861.75 ], [ 432709.75, 439861.5 ], [ 432709.25, 439861.5 ], [ 432709.25, 439861.25 ], [ 432708.5, 439861.25 ], [ 432708.5, 439861.0 ], [ 432707.75, 439861.0 ], [ 432707.75, 439860.75 ], [ 432707.0, 439860.75 ], [ 432707.0, 439860.5 ], [ 432706.25, 439860.5 ], [ 432706.25, 439860.25 ], [ 432706.0, 439860.25 ], [ 432706.0, 439860.0 ], [ 432705.5, 439860.0 ], [ 432705.5, 439859.75 ], [ 432705.25, 439859.75 ], [ 432705.25, 439859.5 ], [ 432705.0, 439859.5 ], [ 432705.0, 439859.25 ], [ 432704.75, 439859.25 ], [ 432704.75, 439859.0 ], [ 432704.5, 439859.0 ], [ 432704.5, 439858.5 ], [ 432704.25, 439858.5 ], [ 432704.25, 439857.5 ], [ 432704.0, 439857.5 ], [ 432704.0, 439854.75 ], [ 432703.75, 439854.75 ], [ 432703.75, 439854.0 ], [ 432703.5, 439854.0 ], [ 432703.5, 439852.75 ], [ 432703.25, 439852.75 ], [ 432703.25, 439851.25 ], [ 432703.0, 439851.25 ], [ 432703.0, 439850.5 ], [ 432702.75, 439850.5 ], [ 432702.75, 439849.5 ], [ 432702.5, 439849.5 ], [ 432702.5, 439847.75 ], [ 432702.25, 439847.75 ], [ 432702.25, 439844.5 ], [ 432702.5, 439844.5 ], [ 432702.5, 439843.5 ], [ 432702.75, 439843.5 ], [ 432702.75, 439843.0 ], [ 432703.0, 439843.0 ], [ 432703.0, 439842.5 ], [ 432703.25, 439842.5 ], [ 432703.25, 439842.25 ], [ 432703.5, 439842.25 ], [ 432703.5, 439842.0 ], [ 432704.0, 439842.0 ], [ 432704.0, 439841.75 ], [ 432704.25, 439841.75 ], [ 432704.25, 439841.5 ], [ 432704.5, 439841.5 ], [ 432704.5, 439841.25 ], [ 432705.0, 439841.25 ], [ 432705.0, 439841.0 ], [ 432705.5, 439841.0 ], [ 432705.5, 439840.75 ], [ 432706.0, 439840.75 ], [ 432706.0, 439840.5 ], [ 432707.0, 439840.5 ], [ 432707.0, 439840.25 ], [ 432708.25, 439840.25 ], [ 432708.25, 439840.0 ], [ 432710.0, 439840.0 ], [ 432710.0, 439840.25 ], [ 432711.0, 439840.25 ], [ 432711.0, 439840.5 ], [ 432711.75, 439840.5 ], [ 432711.75, 439840.75 ], [ 432712.25, 439840.75 ], [ 432712.25, 439841.0 ], [ 432712.75, 439841.0 ], [ 432712.75, 439841.25 ], [ 432713.25, 439841.25 ], [ 432713.25, 439841.5 ], [ 432713.75, 439841.5 ], [ 432713.75, 439841.75 ], [ 432714.0, 439841.75 ], [ 432714.0, 439842.0 ], [ 432714.25, 439842.0 ], [ 432714.25, 439842.25 ], [ 432714.5, 439842.25 ], [ 432714.5, 439842.5 ], [ 432714.75, 439842.5 ], [ 432714.75, 439842.75 ], [ 432715.0, 439842.75 ], [ 432715.0, 439843.0 ], [ 432715.25, 439843.0 ], [ 432715.25, 439843.25 ], [ 432715.5, 439843.25 ], [ 432715.5, 439843.5 ], [ 432715.75, 439843.5 ], [ 432715.75, 439843.75 ], [ 432716.0, 439843.75 ], [ 432716.0, 439844.0 ], [ 432716.25, 439844.0 ], [ 432716.25, 439844.25 ], [ 432716.75, 439844.25 ], [ 432716.75, 439844.5 ], [ 432717.0, 439844.5 ], [ 432717.0, 439845.0 ], [ 432717.5, 439845.0 ], [ 432717.5, 439845.25 ], [ 432717.75, 439845.25 ], [ 432717.75, 439845.5 ], [ 432718.0, 439845.5 ], [ 432718.0, 439845.75 ], [ 432718.25, 439845.75 ], [ 432718.25, 439846.0 ], [ 432718.5, 439846.0 ], [ 432718.5, 439846.25 ], [ 432718.75, 439846.25 ], [ 432718.75, 439846.5 ], [ 432719.0, 439846.5 ], [ 432719.0, 439846.75 ], [ 432719.25, 439846.75 ], [ 432719.25, 439847.0 ], [ 432719.75, 439847.0 ], [ 432719.75, 439847.25 ], [ 432720.0, 439847.25 ], [ 432720.0, 439847.5 ], [ 432720.5, 439847.5 ], [ 432720.5, 439847.75 ], [ 432720.75, 439847.75 ], [ 432720.75, 439848.0 ], [ 432721.25, 439848.0 ], [ 432721.25, 439848.25 ], [ 432721.75, 439848.25 ], [ 432721.75, 439848.5 ], [ 432722.25, 439848.5 ], [ 432722.25, 439848.75 ], [ 432722.75, 439848.75 ], [ 432722.75, 439849.0 ], [ 432723.25, 439849.0 ], [ 432723.25, 439849.25 ], [ 432723.5, 439849.25 ], [ 432723.5, 439849.5 ], [ 432723.75, 439849.5 ], [ 432723.75, 439849.75 ], [ 432724.0, 439849.75 ], [ 432724.0, 439850.0 ], [ 432724.25, 439850.0 ], [ 432724.25, 439850.25 ], [ 432724.5, 439850.25 ], [ 432724.5, 439850.5 ], [ 432724.75, 439850.5 ], [ 432724.75, 439850.75 ], [ 432725.0, 439850.75 ], [ 432725.0, 439851.0 ], [ 432725.25, 439851.0 ], [ 432725.25, 439851.25 ], [ 432725.5, 439851.25 ], [ 432725.5, 439851.5 ], [ 432726.5, 439851.5 ], [ 432726.5, 439851.75 ], [ 432727.5, 439851.75 ], [ 432727.5, 439852.0 ], [ 432728.25, 439852.0 ], [ 432728.25, 439852.25 ], [ 432728.75, 439852.25 ], [ 432728.75, 439852.5 ], [ 432729.0, 439852.5 ], [ 432729.0, 439852.75 ], [ 432729.25, 439852.75 ], [ 432729.25, 439853.0 ], [ 432729.5, 439853.0 ], [ 432729.5, 439853.25 ], [ 432729.75, 439853.25 ], [ 432729.75, 439853.75 ], [ 432730.0, 439853.75 ], [ 432730.0, 439854.5 ], [ 432730.25, 439854.5 ], [ 432730.25, 439854.75 ], [ 432730.5, 439854.75 ], [ 432730.5, 439855.25 ], [ 432730.75, 439855.25 ], [ 432730.75, 439855.75 ], [ 432731.0, 439855.75 ], [ 432731.0, 439856.0 ], [ 432731.25, 439856.0 ], [ 432731.25, 439856.5 ], [ 432731.5, 439856.5 ], [ 432731.5, 439857.0 ], [ 432731.75, 439857.0 ], [ 432731.75, 439859.0 ], [ 432731.5, 439859.0 ], [ 432731.5, 439859.75 ], [ 432731.25, 439859.75 ], [ 432731.25, 439860.25 ], [ 432731.0, 439860.25 ], [ 432731.0, 439860.5 ], [ 432730.75, 439860.5 ], [ 432730.75, 439860.75 ], [ 432730.5, 439860.75 ], [ 432730.5, 439861.25 ], [ 432730.25, 439861.25 ], [ 432730.25, 439861.5 ], [ 432730.0, 439861.5 ], [ 432730.0, 439861.75 ], [ 432729.75, 439861.75 ], [ 432729.75, 439862.0 ], [ 432729.5, 439862.0 ], [ 432729.5, 439862.25 ], [ 432729.25, 439862.25 ], [ 432729.25, 439862.5 ], [ 432729.0, 439862.5 ], [ 432729.0, 439862.75 ], [ 432728.75, 439862.75 ], [ 432728.75, 439863.0 ], [ 432728.25, 439863.0 ], [ 432728.25, 439863.25 ], [ 432728.0, 439863.25 ], [ 432728.0, 439863.5 ], [ 432727.5, 439863.5 ], [ 432727.5, 439863.75 ], [ 432727.0, 439863.75 ], [ 432727.0, 439864.0 ], [ 432726.75, 439864.0 ], [ 432726.75, 439864.25 ], [ 432726.25, 439864.25 ], [ 432726.25, 439864.5 ], [ 432722.25, 439864.5 ] ] ] } },
{ "type": "Feature", "properties": { }, "geometry": { "type": "Polygon", "coordinates": [ [ [ 432440.5, 439839.25 ], [ 432440.5, 439839.0 ], [ 432439.75, 439839.0 ], [ 432439.75, 439838.75 ], [ 432438.75, 439838.75 ], [ 432438.75, 439838.5 ], [ 432436.25, 439838.5 ], [ 432436.25, 439838.25 ], [ 432435.75, 439838.25 ], [ 432435.75, 439838.0 ], [ 432435.0, 439838.0 ], [ 432435.0, 439837.75 ], [ 432434.5, 439837.75 ], [ 432434.5, 439837.5 ], [ 432434.0, 439837.5 ], [ 432434.0, 439837.25 ], [ 432433.5, 439837.25 ], [ 432433.5, 439837.0 ], [ 432432.5, 439837.0 ], [ 432432.5, 439836.75 ], [ 432432.0, 439836.75 ], [ 432432.0, 439836.5 ], [ 432431.0, 439836.5 ], [ 432431.0, 439836.25 ], [ 432430.25, 439836.25 ], [ 432430.25, 439836.0 ], [ 432429.75, 439836.0 ], [ 432429.75, 439835.75 ], [ 432429.0, 439835.75 ], [ 432429.0, 439835.5 ], [ 432428.25, 439835.5 ], [ 432428.25, 439835.0 ], [ 432428.0, 439835.0 ], [ 432428.0, 439834.75 ], [ 432427.75, 439834.75 ], [ 432427.75, 439834.25 ], [ 432427.5, 439834.25 ], [ 432427.5, 439833.75 ], [ 432427.25, 439833.75 ], [ 432427.25, 439832.25 ], [ 432427.5, 439832.25 ], [ 432427.5, 439831.0 ], [ 432427.75, 439831.0 ], [ 432427.75, 439829.75 ], [ 432428.0, 439829.75 ], [ 432428.0, 439829.0 ], [ 432428.25, 439829.0 ], [ 432428.25, 439828.5 ], [ 432428.5, 439828.5 ], [ 432428.5, 439827.5 ], [ 432428.75, 439827.5 ], [ 432428.75, 439827.0 ], [ 432429.0, 439827.0 ], [ 432429.0, 439826.5 ], [ 432429.25, 439826.5 ], [ 432429.25, 439825.75 ], [ 432429.5, 439825.75 ], [ 432429.5, 439825.0 ], [ 432429.75, 439825.0 ], [ 432429.75, 439824.5 ], [ 432430.0, 439824.5 ], [ 432430.0, 439824.0 ], [ 432430.25, 439824.0 ], [ 432430.25, 439823.5 ], [ 432430.5, 439823.5 ], [ 432430.5, 439823.0 ], [ 432430.75, 439823.0 ], [ 432430.75, 439822.5 ], [ 432431.0, 439822.5 ], [ 432431.0, 439822.25 ], [ 432431.5, 439822.25 ], [ 432431.5, 439822.0 ], [ 432431.75, 439822.0 ], [ 432431.75, 439821.75 ], [ 432432.0, 439821.75 ], [ 432432.0, 439821.5 ], [ 432432.25, 439821.5 ], [ 432432.25, 439821.25 ], [ 432432.5, 439821.25 ], [ 432432.5, 439821.0 ], [ 432433.0, 439821.0 ], [ 432433.0, 439820.75 ], [ 432433.5, 439820.75 ], [ 432433.5, 439820.5 ], [ 432433.75, 439820.5 ], [ 432433.75, 439820.25 ], [ 432434.25, 439820.25 ], [ 432434.25, 439820.0 ], [ 432438.75, 439820.0 ], [ 432438.75, 439820.25 ], [ 432440.25, 439820.25 ], [ 432440.25, 439820.5 ], [ 432442.5, 439820.5 ], [ 432442.5, 439820.75 ], [ 432443.5, 439820.75 ], [ 432443.5, 439821.0 ], [ 432444.0, 439821.0 ], [ 432444.0, 439821.25 ], [ 432444.5, 439821.25 ], [ 432444.5, 439821.5 ], [ 432445.0, 439821.5 ], [ 432445.0, 439821.75 ], [ 432445.25, 439821.75 ], [ 432445.25, 439822.0 ], [ 432446.0, 439822.0 ], [ 432446.0, 439822.25 ], [ 432446.5, 439822.25 ], [ 432446.5, 439822.5 ], [ 432447.0, 439822.5 ], [ 432447.0, 439823.0 ], [ 432447.25, 439823.0 ], [ 432447.25, 439823.75 ], [ 432447.0, 439823.75 ], [ 432447.0, 439824.25 ], [ 432446.75, 439824.25 ], [ 432446.75, 439824.5 ], [ 432447.0, 439824.5 ], [ 432447.0, 439824.75 ], [ 432447.5, 439824.75 ], [ 432447.5, 439825.0 ], [ 432447.75, 439825.0 ], [ 432447.75, 439825.25 ], [ 432448.0, 439825.25 ], [ 432448.0, 439825.5 ], [ 432448.25, 439825.5 ], [ 432448.25, 439825.75 ], [ 432448.75, 439825.75 ], [ 432448.75, 439826.0 ], [ 432449.0, 439826.0 ], [ 432449.0, 439826.25 ], [ 432449.25, 439826.25 ], [ 432449.25, 439826.5 ], [ 432449.5, 439826.5 ], [ 432449.5, 439831.25 ], [ 432449.25, 439831.25 ], [ 432449.25, 439831.75 ], [ 432449.5, 439831.75 ], [ 432449.5, 439832.75 ], [ 432449.75, 439832.75 ], [ 432449.75, 439833.75 ], [ 432449.5, 439833.75 ], [ 432449.5, 439834.25 ], [ 432449.25, 439834.25 ], [ 432449.25, 439835.25 ], [ 432449.0, 439835.25 ], [ 432449.0, 439835.75 ], [ 432448.75, 439835.75 ], [ 432448.75, 439836.25 ], [ 432448.5, 439836.25 ], [ 432448.5, 439836.75 ], [ 432448.25, 439836.75 ], [ 432448.25, 439837.0 ], [ 432448.0, 439837.0 ], [ 432448.0, 439837.5 ], [ 432447.75, 439837.5 ], [ 432447.75, 439837.75 ], [ 432447.5, 439837.75 ], [ 432447.5, 439838.0 ], [ 432447.25, 439838.0 ], [ 432447.25, 439838.25 ], [ 432447.0, 439838.25 ], [ 432447.0, 439838.5 ], [ 432446.75, 439838.5 ], [ 432446.75, 439838.75 ], [ 432446.0, 439838.75 ], [ 432446.0, 439839.0 ], [ 432445.0, 439839.0 ], [ 432445.0, 439839.25 ], [ 432443.75, 439839.25 ], [ 432443.75, 439839.0 ], [ 432443.25, 439839.0 ], [ 432443.25, 439839.25 ], [ 432440.5, 439839.25 ] ] ] } },
{ "type": "Feature", "properties": { }, "geometry": { "type": "Polygon", "coordinates": [ [ [ 432000.0, 439847.5 ], [ 432000.0, 439816.5 ], [ 432001.25, 439816.5 ], [ 432001.25, 439816.25 ], [ 432002.0, 439816.25 ], [ 432002.0, 439816.5 ], [ 432003.75, 439816.5 ], [ 432003.75, 439816.75 ], [ 432004.75, 439816.75 ], [ 432004.75, 439817.0 ], [ 432005.5, 439817.0 ], [ 432005.5, 439817.25 ], [ 432006.0, 439817.25 ], [ 432006.0, 439817.5 ], [ 432006.5, 439817.5 ], [ 432006.5, 439817.75 ], [ 432006.75, 439817.75 ], [ 432006.75, 439818.0 ], [ 432007.0, 439818.0 ], [ 432007.0, 439818.25 ], [ 432007.25, 439818.25 ], [ 432007.25, 439818.5 ], [ 432007.5, 439818.5 ], [ 432007.5, 439818.75 ], [ 432007.75, 439818.75 ], [ 432007.75, 439819.0 ], [ 432008.0, 439819.0 ], [ 432008.0, 439819.25 ], [ 432008.25, 439819.25 ], [ 432008.25, 439819.75 ], [ 432008.5, 439819.75 ], [ 432008.5, 439820.25 ], [ 432008.75, 439820.25 ], [ 432008.75, 439820.75 ], [ 432009.0, 439820.75 ], [ 432009.0, 439821.25 ], [ 432009.25, 439821.25 ], [ 432009.25, 439822.25 ], [ 432009.5, 439822.25 ], [ 432009.5, 439823.25 ], [ 432009.75, 439823.25 ], [ 432009.75, 439823.75 ], [ 432010.0, 439823.75 ], [ 432010.0, 439824.25 ], [ 432010.25, 439824.25 ], [ 432010.25, 439824.75 ], [ 432010.5, 439824.75 ], [ 432010.5, 439826.5 ], [ 432010.75, 439826.5 ], [ 432010.75, 439828.0 ], [ 432010.5, 439828.0 ], [ 432010.5, 439829.25 ], [ 432010.75, 439829.25 ], [ 432010.75, 439829.5 ], [ 432010.5, 439829.5 ], [ 432010.5, 439833.0 ], [ 432010.25, 439833.0 ], [ 432010.25, 439833.75 ], [ 432010.0, 439833.75 ], [ 432010.0, 439834.5 ], [ 432009.75, 439834.5 ], [ 432009.75, 439835.5 ], [ 432009.5, 439835.5 ], [ 432009.5, 439836.25 ], [ 432009.25, 439836.25 ], [ 432009.25, 439837.25 ], [ 432009.0, 439837.25 ], [ 432009.0, 439838.25 ], [ 432008.75, 439838.25 ], [ 432008.75, 439839.0 ], [ 432008.5, 439839.0 ], [ 432008.5, 439839.5 ], [ 432008.25, 439839.5 ], [ 432008.25, 439840.0 ], [ 432008.0, 439840.0 ], [ 432008.0, 439840.75 ], [ 432007.75, 439840.75 ], [ 432007.75, 439841.5 ], [ 432007.5, 439841.5 ], [ 432007.5, 439842.0 ], [ 432007.25, 439842.0 ], [ 432007.25, 439842.75 ], [ 432007.0, 439842.75 ], [ 432007.0, 439843.75 ], [ 432006.75, 439843.75 ], [ 432006.75, 439844.75 ], [ 432006.5, 439844.75 ], [ 432006.5, 439845.25 ], [ 432006.25, 439845.25 ], [ 432006.25, 439845.5 ], [ 432006.0, 439845.5 ], [ 432006.0, 439846.0 ], [ 432005.75, 439846.0 ], [ 432005.75, 439846.25 ], [ 432005.5, 439846.25 ], [ 432005.5, 439846.5 ], [ 432005.0, 439846.5 ], [ 432005.0, 439846.75 ], [ 432004.25, 439846.75 ], [ 432004.25, 439847.0 ], [ 432004.0, 439847.0 ], [ 432004.0, 439847.25 ], [ 432003.5, 439847.25 ], [ 432003.5, 439847.5 ], [ 432000.0, 439847.5 ] ] ] } },
{ "type": "Feature", "properties": { }, "geometry": { "type": "Polygon", "coordinates": [ [ [ 432128.0, 439837.75 ], [ 432128.0, 439823.25 ], [ 432129.5, 439823.25 ], [ 432129.5, 439823.0 ], [ 432130.25, 439823.0 ], [ 432130.25, 439822.75 ], [ 432131.0, 439822.75 ], [ 432131.0, 439822.5 ], [ 432131.75, 439822.5 ], [ 432131.75, 439822.25 ], [ 432132.5, 439822.25 ], [ 432132.5, 439822.0 ], [ 432133.5, 439822.0 ], [ 432133.5, 439821.75 ], [ 432134.25, 439821.75 ], [ 432134.25, 439821.5 ], [ 432134.5, 439821.5 ], [ 432134.5, 439821.25 ], [ 432134.75, 439821.25 ], [ 432134.75, 439821.0 ], [ 432135.0, 439821.0 ], [ 432135.0, 439820.75 ], [ 432135.25, 439820.75 ], [ 432135.25, 439820.5 ], [ 432135.5, 439820.5 ], [ 432135.5, 439819.75 ], [ 432135.75, 439819.75 ], [ 432135.75, 439818.0 ], [ 432135.5, 439818.0 ], [ 432135.5, 439817.25 ], [ 432135.75, 439817.25 ], [ 432135.75, 439813.75 ], [ 432136.0, 439813.75 ], [ 432136.0, 439813.25 ], [ 432135.75, 439813.25 ], [ 432135.75, 439812.25 ], [ 432136.0, 439812.25 ], [ 432136.0, 439811.5 ], [ 432136.25, 439811.5 ], [ 432136.25, 439810.75 ], [ 432136.5, 439810.75 ], [ 432136.5, 439810.25 ], [ 432136.75, 439810.25 ], [ 432136.75, 439809.75 ], [ 432137.0, 439809.75 ], [ 432137.0, 439809.5 ], [ 432137.25, 439809.5 ], [ 432137.25, 439809.25 ], [ 432137.75, 439809.25 ], [ 432137.75, 439809.0 ], [ 432138.0, 439809.0 ], [ 432138.0, 439808.5 ], [ 432138.25, 439808.5 ], [ 432138.25, 439808.25 ], [ 432138.5, 439808.25 ], [ 432138.5, 439808.0 ], [ 432138.75, 439808.0 ], [ 432138.75, 439807.75 ], [ 432139.0, 439807.75 ], [ 432139.0, 439807.5 ], [ 432139.5, 439807.5 ], [ 432139.5, 439807.25 ], [ 432139.75, 439807.25 ], [ 432139.75, 439807.0 ], [ 432140.25, 439807.0 ], [ 432140.25, 439806.75 ], [ 432140.75, 439806.75 ], [ 432140.75, 439806.5 ], [ 432145.75, 439806.5 ], [ 432145.75, 439806.75 ], [ 432146.5, 439806.75 ], [ 432146.5, 439807.0 ], [ 432147.0, 439807.0 ], [ 432147.0, 439807.25 ], [ 432147.75, 439807.25 ], [ 432147.75, 439807.5 ], [ 432148.5, 439807.5 ], [ 432148.5, 439807.75 ], [ 432149.0, 439807.75 ], [ 432149.0, 439808.0 ], [ 432149.5, 439808.0 ], [ 432149.5, 439808.25 ], [ 432150.0, 439808.25 ], [ 432150.0, 439808.5 ], [ 432150.5, 439808.5 ], [ 432150.5, 439808.75 ], [ 432150.75, 439808.75 ], [ 432150.75, 439809.0 ], [ 432151.25, 439809.0 ], [ 432151.25, 439809.25 ], [ 432151.5, 439809.25 ], [ 432151.5, 439809.5 ], [ 432151.75, 439809.5 ], [ 432151.75, 439809.75 ], [ 432152.0, 439809.75 ], [ 432152.0, 439810.0 ], [ 432152.25, 439810.0 ], [ 432152.25, 439810.25 ], [ 432152.5, 439810.25 ], [ 432152.5, 439810.5 ], [ 432152.75, 439810.5 ], [ 432152.75, 439810.75 ], [ 432153.0, 439810.75 ], [ 432153.0, 439811.0 ], [ 432153.25, 439811.0 ], [ 432153.25, 439811.25 ], [ 432153.75, 439811.25 ], [ 432153.75, 439811.5 ], [ 432154.0, 439811.5 ], [ 432154.0, 439811.75 ], [ 432154.5, 439811.75 ], [ 432154.5, 439812.0 ], [ 432154.75, 439812.0 ], [ 432154.75, 439812.25 ], [ 432155.25, 439812.25 ], [ 432155.25, 439812.5 ], [ 432155.5, 439812.5 ], [ 432155.5, 439812.75 ], [ 432155.75, 439812.75 ], [ 432155.75, 439813.0 ], [ 432156.0, 439813.0 ], [ 432156.0, 439813.25 ], [ 432156.25, 439813.25 ], [ 432156.25, 439813.5 ], [ 432156.5, 439813.5 ], [ 432156.5, 439815.5 ], [ 432156.25, 439815.5 ], [ 432156.25, 439816.75 ], [ 432156.0, 439816.75 ], [ 432156.0, 439817.5 ], [ 432155.75, 439817.5 ], [ 432155.75, 439818.75 ], [ 432155.5, 439818.75 ], [ 432155.5, 439819.5 ], [ 432155.25, 439819.5 ], [ 432155.25, 439820.25 ], [ 432155.0, 439820.25 ], [ 432155.0, 439820.75 ], [ 432154.75, 439820.75 ], [ 432154.75, 439821.5 ], [ 432154.5, 439821.5 ], [ 432154.5, 439821.75 ], [ 432154.0, 439821.75 ], [ 432154.0, 439822.0 ], [ 432153.75, 439822.0 ], [ 432153.75, 439822.25 ], [ 432153.5, 439822.25 ], [ 432153.5, 439822.5 ], [ 432153.25, 439822.5 ], [ 432153.25, 439822.75 ], [ 432153.0, 439822.75 ], [ 432153.0, 439823.25 ], [ 432152.75, 439823.25 ], [ 432152.75, 439823.5 ], [ 432152.5, 439823.5 ], [ 432152.5, 439823.75 ], [ 432152.25, 439823.75 ], [ 432152.25, 439824.0 ], [ 432152.0, 439824.0 ], [ 432152.0, 439824.25 ], [ 432151.75, 439824.25 ], [ 432151.75, 439824.5 ], [ 432151.5, 439824.5 ], [ 432151.5, 439824.75 ], [ 432151.25, 439824.75 ], [ 432151.25, 439825.0 ], [ 432151.0, 439825.0 ], [ 432151.0, 439825.25 ], [ 432150.75, 439825.25 ], [ 432150.75, 439825.5 ], [ 432150.5, 439825.5 ], [ 432150.5, 439825.75 ], [ 432150.25, 439825.75 ], [ 432150.25, 439826.0 ], [ 432149.75, 439826.0 ], [ 432149.75, 439826.25 ], [ 432149.5, 439826.25 ], [ 432149.5, 439826.5 ], [ 432149.25, 439826.5 ], [ 432149.25, 439826.75 ], [ 432148.75, 439826.75 ], [ 432148.75, 439827.0 ], [ 432148.25, 439827.0 ], [ 432148.25, 439827.25 ], [ 432147.75, 439827.25 ], [ 432147.75, 439827.5 ], [ 432147.25, 439827.5 ], [ 432147.25, 439827.75 ], [ 432146.5, 439827.75 ], [ 432146.5, 439828.0 ], [ 432146.0, 439828.0 ], [ 432146.0, 439828.25 ], [ 432145.5, 439828.25 ], [ 432145.5, 439828.5 ], [ 432144.75, 439828.5 ], [ 432144.75, 439828.75 ], [ 432144.5, 439828.75 ], [ 432144.5, 439829.0 ], [ 432144.25, 439829.0 ], [ 432144.25, 439829.25 ], [ 432144.0, 439829.25 ], [ 432144.0, 439829.5 ], [ 432143.75, 439829.5 ], [ 432143.75, 439829.75 ], [ 432143.5, 439829.75 ], [ 432143.5, 439830.25 ], [ 432143.25, 439830.25 ], [ 432143.25, 439830.5 ], [ 432143.0, 439830.5 ], [ 432143.0, 439830.75 ], [ 432142.75, 439830.75 ], [ 432142.75, 439831.0 ], [ 432142.5, 439831.0 ], [ 432142.5, 439831.25 ], [ 432142.0, 439831.25 ], [ 432142.0, 439831.5 ], [ 432141.75, 439831.5 ], [ 432141.75, 439831.75 ], [ 432141.25, 439831.75 ], [ 432141.25, 439832.0 ], [ 432141.0, 439832.0 ], [ 432141.0, 439832.25 ], [ 432140.75, 439832.25 ], [ 432140.75, 439832.5 ], [ 432140.5, 439832.5 ], [ 432140.5, 439832.75 ], [ 432140.25, 439832.75 ], [ 432140.25, 439833.0 ], [ 432140.0, 439833.0 ], [ 432140.0, 439833.25 ], [ 432139.75, 439833.25 ], [ 432139.75, 439833.5 ], [ 432139.5, 439833.5 ], [ 432139.5, 439833.75 ], [ 432139.25, 439833.75 ], [ 432139.25, 439834.0 ], [ 432139.0, 439834.0 ], [ 432139.0, 439834.25 ], [ 432138.75, 439834.25 ], [ 432138.75, 439834.5 ], [ 432138.25, 439834.5 ], [ 432138.25, 439834.75 ], [ 432137.75, 439834.75 ], [ 432137.75, 439835.0 ], [ 432137.5, 439835.0 ], [ 432137.5, 439835.25 ], [ 432137.25, 439835.25 ], [ 432137.25, 439835.5 ], [ 432136.75, 439835.5 ], [ 432136.75, 439835.75 ], [ 432136.0, 439835.75 ], [ 432136.0, 439836.0 ], [ 432135.5, 439836.0 ], [ 432135.5, 439836.25 ], [ 432135.0, 439836.25 ], [ 432135.0, 439836.5 ], [ 432134.5, 439836.5 ], [ 432134.5, 439836.75 ], [ 432133.75, 439836.75 ], [ 432133.75, 439837.0 ], [ 432132.75, 439837.0 ], [ 432132.75, 439837.25 ], [ 432131.5, 439837.25 ], [ 432131.5, 439837.5 ], [ 432130.5, 439837.5 ], [ 432130.5, 439837.75 ], [ 432129.75, 439837.75 ], [ 432129.75, 439837.5 ], [ 432129.5, 439837.5 ], [ 432129.5, 439837.75 ], [ 432128.0, 439837.75 ] ] ] } },
{ "type": "Feature", "properties": { }, "geometry": { "type": "Polygon", "coordinates": [ [ [ 432108.75, 439753.75 ], [ 432108.75, 439753.5 ], [ 432108.0, 439753.5 ], [ 432108.0, 439753.25 ], [ 432107.25, 439753.25 ], [ 432107.25, 439753.0 ], [ 432106.75, 439753.0 ], [ 432106.75, 439752.75 ], [ 432105.5, 439752.75 ], [ 432105.5, 439752.5 ], [ 432104.5, 439752.5 ], [ 432104.5, 439752.25 ], [ 432104.0, 439752.25 ], [ 432104.0, 439752.0 ], [ 432103.0, 439752.0 ], [ 432103.0, 439751.75 ], [ 432101.5, 439751.75 ], [ 432101.5, 439751.5 ], [ 432100.0, 439751.5 ], [ 432100.0, 439751.25 ], [ 432098.75, 439751.25 ], [ 432098.75, 439751.0 ], [ 432097.5, 439751.0 ], [ 432097.5, 439750.75 ], [ 432097.25, 439750.75 ], [ 432097.25, 439750.5 ], [ 432097.0, 439750.5 ], [ 432097.0, 439750.25 ], [ 432096.75, 439750.25 ], [ 432096.75, 439750.0 ], [ 432096.5, 439750.0 ], [ 432096.5, 439749.75 ], [ 432096.25, 439749.75 ], [ 432096.25, 439749.25 ], [ 432096.0, 439749.25 ], [ 432096.0, 439748.75 ], [ 432095.75, 439748.75 ], [ 432095.75, 439748.25 ], [ 432095.5, 439748.25 ], [ 432095.5, 439747.5 ], [ 432095.25, 439747.5 ], [ 432095.25, 439746.75 ], [ 432095.0, 439746.75 ], [ 432095.0, 439744.0 ], [ 432118.5, 439744.0 ], [ 432118.5, 439746.75 ], [ 432118.25, 439746.75 ], [ 432118.25, 439747.25 ], [ 432118.0, 439747.25 ], [ 432118.0, 439748.0 ], [ 432117.75, 439748.0 ], [ 432117.75, 439748.5 ], [ 432117.5, 439748.5 ], [ 432117.5, 439749.25 ], [ 432117.25, 439749.25 ], [ 432117.25, 439749.75 ], [ 432117.0, 439749.75 ], [ 432117.0, 439750.25 ], [ 432116.75, 439750.25 ], [ 432116.75, 439750.75 ], [ 432116.5, 439750.75 ], [ 432116.5, 439751.25 ], [ 432116.25, 439751.25 ], [ 432116.25, 439751.5 ], [ 432116.0, 439751.5 ], [ 432116.0, 439751.75 ], [ 432115.75, 439751.75 ], [ 432115.75, 439752.0 ], [ 432115.5, 439752.0 ], [ 432115.5, 439752.5 ], [ 432115.25, 439752.5 ], [ 432115.25, 439752.75 ], [ 432115.0, 439752.75 ], [ 432115.0, 439753.0 ], [ 432114.75, 439753.0 ], [ 432114.75, 439753.25 ], [ 432114.5, 439753.25 ], [ 432114.5, 439753.5 ], [ 432114.0, 439753.5 ], [ 432114.0, 439753.75 ], [ 432108.75, 439753.75 ] ] ] } },
{ "type": "Feature", "properties": { }, "geometry": { "type": "Polygon", "coordinates": [ [ [ 432384.0, 439713.75 ], [ 432384.0, 439712.25 ], [ 432385.0, 439712.25 ], [ 432385.0, 439712.5 ], [ 432385.5, 439712.5 ], [ 432385.5, 439712.75 ], [ 432385.75, 439712.75 ], [ 432385.75, 439713.25 ], [ 432386.0, 439713.25 ], [ 432386.0, 439713.5 ], [ 432385.75, 439713.5 ], [ 432385.75, 439713.75 ], [ 432384.0, 439713.75 ] ] ] } },
{ "type": "Feature", "properties": { }, "geometry": { "type": "Polygon", "coordinates": [ [ [ 432403.25, 439696.75 ], [ 432403.25, 439696.5 ], [ 432401.75, 439696.5 ], [ 432401.75, 439696.25 ], [ 432400.5, 439696.25 ], [ 432400.5, 439696.0 ], [ 432400.0, 439696.0 ], [ 432400.0, 439695.75 ], [ 432399.75, 439695.75 ], [ 432399.75, 439695.5 ], [ 432399.5, 439695.5 ], [ 432399.5, 439695.25 ], [ 432399.25, 439695.25 ], [ 432399.25, 439694.75 ], [ 432399.0, 439694.75 ], [ 432399.0, 439694.5 ], [ 432398.75, 439694.5 ], [ 432398.75, 439694.0 ], [ 432398.5, 439694.0 ], [ 432398.5, 439693.0 ], [ 432398.75, 439693.0 ], [ 432398.75, 439691.5 ], [ 432399.0, 439691.5 ], [ 432399.0, 439689.75 ], [ 432398.75, 439689.75 ], [ 432398.75, 439689.25 ], [ 432399.0, 439689.25 ], [ 432399.0, 439688.0 ], [ 432399.25, 439688.0 ], [ 432399.25, 439686.25 ], [ 432399.5, 439686.25 ], [ 432399.5, 439685.0 ], [ 432399.75, 439685.0 ], [ 432399.75, 439684.5 ], [ 432400.0, 439684.5 ], [ 432400.0, 439684.0 ], [ 432400.25, 439684.0 ], [ 432400.25, 439683.5 ], [ 432400.5, 439683.5 ], [ 432400.5, 439683.0 ], [ 432400.75, 439683.0 ], [ 432400.75, 439682.25 ], [ 432401.0, 439682.25 ], [ 432401.0, 439681.25 ], [ 432401.25, 439681.25 ], [ 432401.25, 439680.5 ], [ 432401.5, 439680.5 ], [ 432401.5, 439680.0 ], [ 432401.75, 439680.0 ], [ 432401.75, 439679.25 ], [ 432402.0, 439679.25 ], [ 432402.0, 439678.75 ], [ 432402.25, 439678.75 ], [ 432402.25, 439678.25 ], [ 432402.5, 439678.25 ], [ 432402.5, 439678.0 ], [ 432403.0, 439678.0 ], [ 432403.0, 439677.75 ], [ 432403.5, 439677.75 ], [ 432403.5, 439677.5 ], [ 432404.25, 439677.5 ], [ 432404.25, 439677.25 ], [ 432404.75, 439677.25 ], [ 432404.75, 439677.5 ], [ 432405.0, 439677.5 ], [ 432405.0, 439677.75 ], [ 432406.0, 439677.75 ], [ 432406.0, 439677.5 ], [ 432406.25, 439677.5 ], [ 432406.25, 439677.25 ], [ 432406.75, 439677.25 ], [ 432406.75, 439678.0 ], [ 432407.0, 439678.0 ], [ 432407.0, 439678.75 ], [ 432407.5, 439678.75 ], [ 432407.5, 439679.0 ], [ 432408.25, 439679.0 ], [ 432408.25, 439679.25 ], [ 432408.75, 439679.25 ], [ 432408.75, 439679.0 ], [ 432409.75, 439679.0 ], [ 432409.75, 439678.75 ], [ 432410.75, 439678.75 ], [ 432410.75, 439679.0 ], [ 432411.5, 439679.0 ], [ 432411.5, 439679.25 ], [ 432412.0, 439679.25 ], [ 432412.0, 439679.5 ], [ 432412.75, 439679.5 ], [ 432412.75, 439679.75 ], [ 432413.5, 439679.75 ], [ 432413.5, 439680.0 ], [ 432414.75, 439680.0 ], [ 432414.75, 439680.25 ], [ 432415.0, 439680.25 ], [ 432415.0, 439680.5 ], [ 432415.25, 439680.5 ], [ 432415.25, 439681.0 ], [ 432415.5, 439681.0 ], [ 432415.5, 439681.25 ], [ 432415.75, 439681.25 ], [ 432415.75, 439681.75 ], [ 432416.0, 439681.75 ], [ 432416.0, 439682.0 ], [ 432416.25, 439682.0 ], [ 432416.25, 439682.5 ], [ 432416.5, 439682.5 ], [ 432416.5, 439682.75 ], [ 432416.75, 439682.75 ], [ 432416.75, 439683.0 ], [ 432417.25, 439683.0 ], [ 432417.25, 439683.25 ], [ 432417.5, 439683.25 ], [ 432417.5, 439683.5 ], [ 432417.75, 439683.5 ], [ 432417.75, 439683.75 ], [ 432418.0, 439683.75 ], [ 432418.0, 439684.25 ], [ 432418.25, 439684.25 ], [ 432418.25, 439684.75 ], [ 432418.5, 439684.75 ], [ 432418.5, 439685.5 ], [ 432418.75, 439685.5 ], [ 432418.75, 439686.0 ], [ 432419.0, 439686.0 ], [ 432419.0, 439686.75 ], [ 432419.25, 439686.75 ], [ 432419.25, 439688.5 ], [ 432419.5, 439688.5 ], [ 432419.5, 439691.25 ], [ 432419.25, 439691.25 ], [ 432419.25, 439691.75 ], [ 432419.0, 439691.75 ], [ 432419.0, 439692.5 ], [ 432418.75, 439692.5 ], [ 432418.75, 439692.75 ], [ 432418.5, 439692.75 ], [ 432418.5, 439693.0 ], [ 432418.25, 439693.0 ], [ 432418.25, 439693.25 ], [ 432418.0, 439693.25 ], [ 432418.0, 439693.5 ], [ 432417.5, 439693.5 ], [ 432417.5, 439693.75 ], [ 432417.25, 439693.75 ], [ 432417.25, 439694.0 ], [ 432416.75, 439694.0 ], [ 432416.75, 439694.25 ], [ 432416.25, 439694.25 ], [ 432416.25, 439694.5 ], [ 432415.75, 439694.5 ], [ 432415.75, 439694.75 ], [ 432415.5, 439694.75 ], [ 432415.5, 439695.0 ], [ 432415.0, 439695.0 ], [ 432415.0, 439695.25 ], [ 432413.75, 439695.25 ], [ 432413.75, 439695.5 ], [ 432413.0, 439695.5 ], [ 432413.0, 439695.25 ], [ 432412.25, 439695.25 ], [ 432412.25, 439695.5 ], [ 432410.0, 439695.5 ], [ 432410.0, 439695.25 ], [ 432408.75, 439695.25 ], [ 432408.75, 439695.5 ], [ 432408.0, 439695.5 ], [ 432408.0, 439695.75 ], [ 432407.5, 439695.75 ], [ 432407.5, 439696.0 ], [ 432406.0, 439696.0 ], [ 432406.0, 439696.25 ], [ 432404.75, 439696.25 ], [ 432404.75, 439696.5 ], [ 432403.5, 439696.5 ], [ 432403.5, 439696.75 ], [ 432403.25, 439696.75 ] ] ] } },
{ "type": "Feature", "properties": { }, "geometry": { "type": "Polygon", "coordinates": [ [ [ 432128.0, 439708.75 ], [ 432128.0, 439704.75 ], [ 432127.25, 439704.75 ], [ 432127.25, 439705.0 ], [ 432125.5, 439705.0 ], [ 432125.5, 439704.75 ], [ 432124.5, 439704.75 ], [ 432124.5, 439704.5 ], [ 432124.0, 439704.5 ], [ 432124.0, 439704.25 ], [ 432123.25, 439704.25 ], [ 432123.25, 439704.0 ], [ 432122.25, 439704.0 ], [ 432122.25, 439703.75 ], [ 432121.75, 439703.75 ], [ 432121.75, 439703.5 ], [ 432121.25, 439703.5 ], [ 432121.25, 439703.25 ], [ 432121.0, 439703.25 ], [ 432121.0, 439703.0 ], [ 432120.75, 439703.0 ], [ 432120.75, 439702.75 ], [ 432120.5, 439702.75 ], [ 432120.5, 439702.5 ], [ 432120.25, 439702.5 ], [ 432120.25, 439702.25 ], [ 432120.0, 439702.25 ], [ 432120.0, 439701.75 ], [ 432119.75, 439701.75 ], [ 432119.75, 439701.5 ], [ 432119.5, 439701.5 ], [ 432119.5, 439701.25 ], [ 432119.25, 439701.25 ], [ 432119.25, 439700.75 ], [ 432119.0, 439700.75 ], [ 432119.0, 439700.5 ], [ 432118.75, 439700.5 ], [ 432118.75, 439700.25 ], [ 432118.5, 439700.25 ], [ 432118.5, 439700.0 ], [ 432118.25, 439700.0 ], [ 432118.25, 439699.75 ], [ 432117.75, 439699.75 ], [ 432117.75, 439699.5 ], [ 432117.5, 439699.5 ], [ 432117.5, 439699.25 ], [ 432117.0, 439699.25 ], [ 432117.0, 439699.0 ], [ 432116.75, 439699.0 ], [ 432116.75, 439698.75 ], [ 432116.25, 439698.75 ], [ 432116.25, 439698.5 ], [ 432116.0, 439698.5 ], [ 432116.0, 439698.25 ], [ 432115.75, 439698.25 ], [ 432115.75, 439698.0 ], [ 432115.25, 439698.0 ], [ 432115.25, 439697.5 ], [ 432115.0, 439697.5 ], [ 432115.0, 439692.0 ], [ 432115.25, 439692.0 ], [ 432115.25, 439690.25 ], [ 432115.5, 439690.25 ], [ 432115.5, 439688.0 ], [ 432115.75, 439688.0 ], [ 432115.75, 439684.0 ], [ 432115.5, 439684.0 ], [ 432115.5, 439681.5 ], [ 432115.75, 439681.5 ], [ 432115.75, 439681.25 ], [ 432116.0, 439681.25 ], [ 432116.0, 439680.75 ], [ 432116.25, 439680.75 ], [ 432116.25, 439680.25 ], [ 432116.5, 439680.25 ], [ 432116.5, 439679.75 ], [ 432116.75, 439679.75 ], [ 432116.75, 439678.75 ], [ 432117.0, 439678.75 ], [ 432117.0, 439677.75 ], [ 432117.25, 439677.75 ], [ 432117.25, 439676.75 ], [ 432117.5, 439676.75 ], [ 432117.5, 439676.25 ], [ 432118.0, 439676.25 ], [ 432118.0, 439676.0 ], [ 432118.5, 439676.0 ], [ 432118.5, 439675.75 ], [ 432119.0, 439675.75 ], [ 432119.0, 439675.5 ], [ 432119.25, 439675.5 ], [ 432119.25, 439675.0 ], [ 432119.5, 439675.0 ], [ 432119.5, 439674.75 ], [ 432119.75, 439674.75 ], [ 432119.75, 439674.25 ], [ 432120.0, 439674.25 ], [ 432120.0, 439674.0 ], [ 432120.5, 439674.0 ], [ 432120.5, 439673.75 ], [ 432121.0, 439673.75 ], [ 432121.0, 439673.5 ], [ 432121.25, 439673.5 ], [ 432121.25, 439673.25 ], [ 432122.25, 439673.25 ], [ 432122.25, 439673.0 ], [ 432123.75, 439673.0 ], [ 432123.75, 439673.25 ], [ 432125.5, 439673.25 ], [ 432125.5, 439673.5 ], [ 432126.0, 439673.5 ], [ 432126.0, 439673.75 ], [ 432126.75, 439673.75 ], [ 432126.75, 439673.5 ], [ 432127.25, 439673.5 ], [ 432127.25, 439673.25 ], [ 432128.0, 439673.25 ], [ 432128.0, 439670.75 ], [ 432130.5, 439670.75 ], [ 432130.5, 439671.0 ], [ 432131.75, 439671.0 ], [ 432131.75, 439671.25 ], [ 432132.75, 439671.25 ], [ 432132.75, 439671.5 ], [ 432134.75, 439671.5 ], [ 432134.75, 439671.75 ], [ 432135.75, 439671.75 ], [ 432135.75, 439672.0 ], [ 432137.25, 439672.0 ], [ 432137.25, 439672.25 ], [ 432138.75, 439672.25 ], [ 432138.75, 439672.5 ], [ 432140.25, 439672.5 ], [ 432140.25, 439672.75 ], [ 432141.0, 439672.75 ], [ 432141.0, 439673.0 ], [ 432141.75, 439673.0 ], [ 432141.75, 439673.25 ], [ 432142.5, 439673.25 ], [ 432142.5, 439673.5 ], [ 432143.0, 439673.5 ], [ 432143.0, 439673.75 ], [ 432143.25, 439673.75 ], [ 432143.25, 439674.0 ], [ 432143.5, 439674.0 ], [ 432143.5, 439674.25 ], [ 432143.75, 439674.25 ], [ 432143.75, 439676.25 ], [ 432144.0, 439676.25 ], [ 432144.0, 439677.5 ], [ 432143.75, 439677.5 ], [ 432143.75, 439679.75 ], [ 432143.5, 439679.75 ], [ 432143.5, 439680.5 ], [ 432143.25, 439680.5 ], [ 432143.25, 439681.25 ], [ 432143.0, 439681.25 ], [ 432143.0, 439683.5 ], [ 432142.75, 439683.5 ], [ 432142.75, 439685.25 ], [ 432142.5, 439685.25 ], [ 432142.5, 439685.75 ], [ 432142.25, 439685.75 ], [ 432142.25, 439686.25 ], [ 432142.0, 439686.25 ], [ 432142.0, 439687.0 ], [ 432141.75, 439687.0 ], [ 432141.75, 439689.25 ], [ 432141.5, 439689.25 ], [ 432141.5, 439690.25 ], [ 432141.25, 439690.25 ], [ 432141.25, 439690.75 ], [ 432141.0, 439690.75 ], [ 432141.0, 439691.0 ], [ 432140.75, 439691.0 ], [ 432140.75, 439691.25 ], [ 432140.5, 439691.25 ], [ 432140.5, 439691.5 ], [ 432140.25, 439691.5 ], [ 432140.25, 439691.75 ], [ 432139.75, 439691.75 ], [ 432139.75, 439692.0 ], [ 432139.5, 439692.0 ], [ 432139.5, 439692.25 ], [ 432139.25, 439692.25 ], [ 432139.25, 439692.5 ], [ 432138.75, 439692.5 ], [ 432138.75, 439692.75 ], [ 432138.25, 439692.75 ], [ 432138.25, 439693.25 ], [ 432138.0, 439693.25 ], [ 432138.0, 439693.75 ], [ 432137.75, 439693.75 ], [ 432137.75, 439697.0 ], [ 432137.5, 439697.0 ], [ 432137.5, 439699.0 ], [ 432137.25, 439699.0 ], [ 432137.25, 439700.75 ], [ 432137.0, 439700.75 ], [ 432137.0, 439701.25 ], [ 432136.75, 439701.25 ], [ 432136.75, 439703.5 ], [ 432136.5, 439703.5 ], [ 432136.5, 439705.25 ], [ 432136.25, 439705.25 ], [ 432136.25, 439705.75 ], [ 432136.0, 439705.75 ], [ 432136.0, 439706.5 ], [ 432135.75, 439706.5 ], [ 432135.75, 439706.75 ], [ 432135.5, 439706.75 ], [ 432135.5, 439707.25 ], [ 432135.25, 439707.25 ], [ 432135.25, 439707.5 ], [ 432134.75, 439707.5 ], [ 432134.75, 439707.75 ], [ 432134.5, 439707.75 ], [ 432134.5, 439708.0 ], [ 432134.0, 439708.0 ], [ 432134.0, 439708.25 ], [ 432133.25, 439708.25 ], [ 432133.25, 439708.5 ], [ 432131.0, 439708.5 ], [ 432131.0, 439708.75 ], [ 432128.0, 439708.75 ] ] ] } },
{ "type": "Feature", "properties": { }, "geometry": { "type": "Polygon", "coordinates": [ [ [ 432336.75, 439691.0 ], [ 432336.75, 439690.75 ], [ 432334.25, 439690.75 ], [ 432334.25, 439690.5 ], [ 432333.5, 439690.5 ], [ 432333.5, 439690.25 ], [ 432333.25, 439690.25 ], [ 432333.25, 439690.0 ], [ 432332.75, 439690.0 ], [ 432332.75, 439689.75 ], [ 432332.5, 439689.75 ], [ 432332.5, 439689.5 ], [ 432332.25, 439689.5 ], [ 432332.25, 439689.25 ], [ 432332.0, 439689.25 ], [ 432332.0, 439689.0 ], [ 432331.75, 439689.0 ], [ 432331.75, 439688.75 ], [ 432331.5, 439688.75 ], [ 432331.5, 439688.5 ], [ 432331.25, 439688.5 ], [ 432331.25, 439688.0 ], [ 432331.0, 439688.0 ], [ 432331.0, 439687.75 ], [ 432330.75, 439687.75 ], [ 432330.75, 439687.25 ], [ 432330.5, 439687.25 ], [ 432330.5, 439687.0 ], [ 432330.25, 439687.0 ], [ 432330.25, 439686.5 ], [ 432330.0, 439686.5 ], [ 432330.0, 439686.0 ], [ 432329.75, 439686.0 ], [ 432329.75, 439685.5 ], [ 432329.5, 439685.5 ], [ 432329.5, 439684.75 ], [ 432329.25, 439684.75 ], [ 432329.25, 439683.25 ], [ 432329.0, 439683.25 ], [ 432329.0, 439681.0 ], [ 432328.75, 439681.0 ], [ 432328.75, 439676.0 ], [ 432328.5, 439676.0 ], [ 432328.5, 439674.75 ], [ 432328.75, 439674.75 ], [ 432328.75, 439673.0 ], [ 432329.0, 439673.0 ], [ 432329.0, 439672.75 ], [ 432329.25, 439672.75 ], [ 432329.25, 439672.25 ], [ 432329.5, 439672.25 ], [ 432329.5, 439672.0 ], [ 432329.75, 439672.0 ], [ 432329.75, 439671.75 ], [ 432330.0, 439671.75 ], [ 432330.0, 439671.5 ], [ 432330.25, 439671.5 ], [ 432330.25, 439671.0 ], [ 432330.5, 439671.0 ], [ 432330.5, 439670.75 ], [ 432330.75, 439670.75 ], [ 432330.75, 439670.0 ], [ 432331.0, 439670.0 ], [ 432331.0, 439669.5 ], [ 432331.25, 439669.5 ], [ 432331.25, 439669.25 ], [ 432331.5, 439669.25 ], [ 432331.5, 439668.75 ], [ 432331.75, 439668.75 ], [ 432331.75, 439668.5 ], [ 432332.0, 439668.5 ], [ 432332.0, 439668.0 ], [ 432332.25, 439668.0 ], [ 432332.25, 439667.25 ], [ 432332.5, 439667.25 ], [ 432332.5, 439666.75 ], [ 432332.75, 439666.75 ], [ 432332.75, 439666.25 ], [ 432333.0, 439666.25 ], [ 432333.0, 439666.0 ], [ 432333.5, 439666.0 ], [ 432333.5, 439665.75 ], [ 432334.0, 439665.75 ], [ 432334.0, 439665.5 ], [ 432334.5, 439665.5 ], [ 432334.5, 439665.25 ], [ 432334.75, 439665.25 ], [ 432334.75, 439665.0 ], [ 432335.0, 439665.0 ], [ 432335.0, 439664.75 ], [ 432335.25, 439664.75 ], [ 432335.25, 439664.5 ], [ 432335.75, 439664.5 ], [ 432335.75, 439664.25 ], [ 432336.0, 439664.25 ], [ 432336.0, 439664.0 ], [ 432336.75, 439664.0 ], [ 432336.75, 439663.75 ], [ 432338.25, 439663.75 ], [ 432338.25, 439663.5 ], [ 432339.25, 439663.5 ], [ 432339.25, 439663.25 ], [ 432340.75, 439663.25 ], [ 432340.75, 439663.5 ], [ 432341.75, 439663.5 ], [ 432341.75, 439663.75 ], [ 432342.25, 439663.75 ], [ 432342.25, 439664.0 ], [ 432342.75, 439664.0 ], [ 432342.75, 439664.25 ], [ 432343.25, 439664.25 ], [ 432343.25, 439664.5 ], [ 432343.5, 439664.5 ], [ 432343.5, 439665.0 ], [ 432343.75, 439665.0 ], [ 432343.75, 439665.75 ], [ 432344.0, 439665.75 ], [ 432344.0, 439666.5 ], [ 432344.25, 439666.5 ], [ 432344.25, 439667.5 ], [ 432344.5, 439667.5 ], [ 432344.5, 439669.25 ], [ 432344.75, 439669.25 ], [ 432344.75, 439674.0 ], [ 432345.0, 439674.0 ], [ 432345.0, 439677.75 ], [ 432344.75, 439677.75 ], [ 432344.75, 439679.0 ], [ 432345.0, 439679.0 ], [ 432345.0, 439681.5 ], [ 432345.25, 439681.5 ], [ 432345.25, 439682.5 ], [ 432345.0, 439682.5 ], [ 432345.0, 439683.75 ], [ 432344.75, 439683.75 ], [ 432344.75, 439684.0 ], [ 432344.5, 439684.0 ], [ 432344.5, 439684.25 ], [ 432344.25, 439684.25 ], [ 432344.25, 439684.5 ], [ 432344.0, 439684.5 ], [ 432344.0, 439684.75 ], [ 432343.75, 439684.75 ], [ 432343.75, 439685.0 ], [ 432343.25, 439685.0 ], [ 432343.25, 439685.25 ], [ 432342.75, 439685.25 ], [ 432342.75, 439685.5 ], [ 432342.25, 439685.5 ], [ 432342.25, 439685.75 ], [ 432341.5, 439685.75 ], [ 432341.5, 439686.0 ], [ 432341.25, 439686.0 ], [ 432341.25, 439686.5 ], [ 432341.0, 439686.5 ], [ 432341.0, 439688.0 ], [ 432340.75, 439688.0 ], [ 432340.75, 439688.75 ], [ 432340.5, 439688.75 ], [ 432340.5, 439689.0 ], [ 432340.25, 439689.0 ], [ 432340.25, 439689.5 ], [ 432340.0, 439689.5 ], [ 432340.0, 439689.75 ], [ 432339.75, 439689.75 ], [ 432339.75, 439690.0 ], [ 432339.5, 439690.0 ], [ 432339.5, 439690.5 ], [ 432339.0, 439690.5 ], [ 432339.0, 439690.75 ], [ 432338.0, 439690.75 ], [ 432338.0, 439691.0 ], [ 432336.75, 439691.0 ] ] ] } },
{ "type": "Feature", "properties": { }, "geometry": { "type": "Polygon", "coordinates": [ [ [ 432190.0, 439721.5 ], [ 432190.0, 439721.25 ], [ 432189.0, 439721.25 ], [ 432189.0, 439721.0 ], [ 432187.75, 439721.0 ], [ 432187.75, 439720.75 ], [ 432186.75, 439720.75 ], [ 432186.75, 439720.5 ], [ 432184.5, 439720.5 ], [ 432184.5, 439720.75 ], [ 432183.25, 439720.75 ], [ 432183.25, 439721.0 ], [ 432181.75, 439721.0 ], [ 432181.75, 439720.75 ], [ 432181.25, 439720.75 ], [ 432181.25, 439720.5 ], [ 432181.0, 439720.5 ], [ 432181.0, 439720.0 ], [ 432180.75, 439720.0 ], [ 432180.75, 439719.75 ], [ 432180.5, 439719.75 ], [ 432180.5, 439719.5 ], [ 432180.25, 439719.5 ], [ 432180.25, 439719.0 ], [ 432180.0, 439719.0 ], [ 432180.0, 439718.75 ], [ 432179.75, 439718.75 ], [ 432179.75, 439718.25 ], [ 432179.5, 439718.25 ], [ 432179.5, 439717.5 ], [ 432179.25, 439717.5 ], [ 432179.25, 439716.75 ], [ 432179.0, 439716.75 ], [ 432179.0, 439715.75 ], [ 432178.75, 439715.75 ], [ 432178.75, 439715.0 ], [ 432178.5, 439715.0 ], [ 432178.5, 439712.75 ], [ 432178.75, 439712.75 ], [ 432178.75, 439712.0 ], [ 432179.0, 439712.0 ], [ 432179.0, 439711.25 ], [ 432179.25, 439711.25 ], [ 432179.25, 439710.5 ], [ 432179.5, 439710.5 ], [ 432179.5, 439709.75 ], [ 432179.75, 439709.75 ], [ 432179.75, 439709.0 ], [ 432180.0, 439709.0 ], [ 432180.0, 439707.0 ], [ 432180.25, 439707.0 ], [ 432180.25, 439706.25 ], [ 432180.0, 439706.25 ], [ 432180.0, 439705.5 ], [ 432179.75, 439705.5 ], [ 432179.75, 439705.25 ], [ 432179.5, 439705.25 ], [ 432179.5, 439704.75 ], [ 432179.25, 439704.75 ], [ 432179.25, 439704.5 ], [ 432179.0, 439704.5 ], [ 432179.0, 439704.25 ], [ 432178.75, 439704.25 ], [ 432178.75, 439704.0 ], [ 432178.5, 439704.0 ], [ 432178.5, 439703.75 ], [ 432178.25, 439703.75 ], [ 432178.25, 439703.5 ], [ 432178.0, 439703.5 ], [ 432178.0, 439703.25 ], [ 432177.75, 439703.25 ], [ 432177.75, 439702.75 ], [ 432177.5, 439702.75 ], [ 432177.5, 439702.25 ], [ 432177.25, 439702.25 ], [ 432177.25, 439696.25 ], [ 432177.5, 439696.25 ], [ 432177.5, 439694.5 ], [ 432177.75, 439694.5 ], [ 432177.75, 439693.25 ], [ 432178.0, 439693.25 ], [ 432178.0, 439692.25 ], [ 432178.25, 439692.25 ], [ 432178.25, 439691.25 ], [ 432178.5, 439691.25 ], [ 432178.5, 439690.25 ], [ 432178.75, 439690.25 ], [ 432178.75, 439689.25 ], [ 432179.0, 439689.25 ], [ 432179.0, 439688.0 ], [ 432179.25, 439688.0 ], [ 432179.25, 439687.0 ], [ 432179.5, 439687.0 ], [ 432179.5, 439686.0 ], [ 432179.75, 439686.0 ], [ 432179.75, 439685.25 ], [ 432180.0, 439685.25 ], [ 432180.0, 439684.5 ], [ 432180.25, 439684.5 ], [ 432180.25, 439683.75 ], [ 432180.5, 439683.75 ], [ 432180.5, 439683.0 ], [ 432180.75, 439683.0 ], [ 432180.75, 439682.5 ], [ 432181.0, 439682.5 ], [ 432181.0, 439682.0 ], [ 432181.25, 439682.0 ], [ 432181.25, 439681.5 ], [ 432181.5, 439681.5 ], [ 432181.5, 439681.0 ], [ 432181.75, 439681.0 ], [ 432181.75, 439680.75 ], [ 432182.0, 439680.75 ], [ 432182.0, 439680.5 ], [ 432182.25, 439680.5 ], [ 432182.25, 439680.25 ], [ 432182.5, 439680.25 ], [ 432182.5, 439680.0 ], [ 432182.75, 439680.0 ], [ 432182.75, 439679.75 ], [ 432183.25, 439679.75 ], [ 432183.25, 439679.5 ], [ 432183.5, 439679.5 ], [ 432183.5, 439679.25 ], [ 432183.75, 439679.25 ], [ 432183.75, 439679.0 ], [ 432184.25, 439679.0 ], [ 432184.25, 439678.75 ], [ 432184.5, 439678.75 ], [ 432184.5, 439678.5 ], [ 432185.0, 439678.5 ], [ 432185.0, 439678.25 ], [ 432185.5, 439678.25 ], [ 432185.5, 439678.0 ], [ 432186.0, 439678.0 ], [ 432186.0, 439677.75 ], [ 432186.25, 439677.75 ], [ 432186.25, 439677.5 ], [ 432186.75, 439677.5 ], [ 432186.75, 439677.25 ], [ 432187.25, 439677.25 ], [ 432187.25, 439677.0 ], [ 432188.0, 439677.0 ], [ 432188.0, 439676.75 ], [ 432188.25, 439676.75 ], [ 432188.25, 439676.5 ], [ 432188.75, 439676.5 ], [ 432188.75, 439676.25 ], [ 432189.0, 439676.25 ], [ 432189.0, 439676.0 ], [ 432189.5, 439676.0 ], [ 432189.5, 439675.75 ], [ 432189.75, 439675.75 ], [ 432189.75, 439675.5 ], [ 432190.25, 439675.5 ], [ 432190.25, 439675.25 ], [ 432190.5, 439675.25 ], [ 432190.5, 439675.0 ], [ 432190.75, 439675.0 ], [ 432190.75, 439674.75 ], [ 432191.0, 439674.75 ], [ 432191.0, 439674.5 ], [ 432191.25, 439674.5 ], [ 432191.25, 439674.0 ], [ 432191.5, 439674.0 ], [ 432191.5, 439673.5 ], [ 432191.75, 439673.5 ], [ 432191.75, 439673.25 ], [ 432191.5, 439673.25 ], [ 432191.5, 439670.0 ], [ 432191.25, 439670.0 ], [ 432191.25, 439667.75 ], [ 432191.0, 439667.75 ], [ 432191.0, 439665.0 ], [ 432191.25, 439665.0 ], [ 432191.25, 439662.5 ], [ 432191.5, 439662.5 ], [ 432191.5, 439661.75 ], [ 432191.75, 439661.75 ], [ 432191.75, 439661.5 ], [ 432192.0, 439661.5 ], [ 432192.0, 439661.25 ], [ 432192.25, 439661.25 ], [ 432192.25, 439661.0 ], [ 432192.75, 439661.0 ], [ 432192.75, 439660.75 ], [ 432193.25, 439660.75 ], [ 432193.25, 439660.5 ], [ 432194.0, 439660.5 ], [ 432194.0, 439660.25 ], [ 432194.75, 439660.25 ], [ 432194.75, 439660.0 ], [ 432196.75, 439660.0 ], [ 432196.75, 439659.75 ], [ 432199.75, 439659.75 ], [ 432199.75, 439659.5 ], [ 432202.0, 439659.5 ], [ 432202.0, 439659.75 ], [ 432202.25, 439659.75 ], [ 432202.25, 439660.0 ], [ 432202.5, 439660.0 ], [ 432202.5, 439660.25 ], [ 432202.75, 439660.25 ], [ 432202.75, 439660.5 ], [ 432203.0, 439660.5 ], [ 432203.0, 439661.25 ], [ 432203.25, 439661.25 ], [ 432203.25, 439661.75 ], [ 432203.5, 439661.75 ], [ 432203.5, 439662.75 ], [ 432203.75, 439662.75 ], [ 432203.75, 439666.5 ], [ 432203.5, 439666.5 ], [ 432203.5, 439667.75 ], [ 432203.25, 439667.75 ], [ 432203.25, 439669.25 ], [ 432203.0, 439669.25 ], [ 432203.0, 439670.25 ], [ 432202.75, 439670.25 ], [ 432202.75, 439671.25 ], [ 432202.5, 439671.25 ], [ 432202.5, 439671.75 ], [ 432202.25, 439671.75 ], [ 432202.25, 439672.0 ], [ 432202.0, 439672.0 ], [ 432202.0, 439672.5 ], [ 432201.75, 439672.5 ], [ 432201.75, 439672.75 ], [ 432201.5, 439672.75 ], [ 432201.5, 439673.25 ], [ 432201.25, 439673.25 ], [ 432201.25, 439673.5 ], [ 432201.0, 439673.5 ], [ 432201.0, 439676.25 ], [ 432201.25, 439676.25 ], [ 432201.25, 439680.5 ], [ 432201.5, 439680.5 ], [ 432201.5, 439682.0 ], [ 432201.25, 439682.0 ], [ 432201.25, 439682.5 ], [ 432201.0, 439682.5 ], [ 432201.0, 439683.0 ], [ 432200.75, 439683.0 ], [ 432200.75, 439683.75 ], [ 432200.5, 439683.75 ], [ 432200.5, 439684.5 ], [ 432200.25, 439684.5 ], [ 432200.25, 439685.0 ], [ 432200.0, 439685.0 ], [ 432200.0, 439686.0 ], [ 432199.75, 439686.0 ], [ 432199.75, 439686.75 ], [ 432199.5, 439686.75 ], [ 432199.5, 439687.5 ], [ 432199.25, 439687.5 ], [ 432199.25, 439688.25 ], [ 432199.0, 439688.25 ], [ 432199.0, 439689.25 ], [ 432198.75, 439689.25 ], [ 432198.75, 439690.25 ], [ 432198.5, 439690.25 ], [ 432198.5, 439690.75 ], [ 432198.25, 439690.75 ], [ 432198.25, 439691.25 ], [ 432198.0, 439691.25 ], [ 432198.0, 439692.5 ], [ 432197.75, 439692.5 ], [ 432197.75, 439693.0 ], [ 432197.5, 439693.0 ], [ 432197.5, 439693.75 ], [ 432197.25, 439693.75 ], [ 432197.25, 439694.75 ], [ 432197.0, 439694.75 ], [ 432197.0, 439696.0 ], [ 432196.75, 439696.0 ], [ 432196.75, 439698.25 ], [ 432196.5, 439698.25 ], [ 432196.5, 439704.75 ], [ 432196.75, 439704.75 ], [ 432196.75, 439708.0 ], [ 432197.0, 439708.0 ], [ 432197.0, 439711.5 ], [ 432196.75, 439711.5 ], [ 432196.75, 439714.25 ], [ 432196.5, 439714.25 ], [ 432196.5, 439715.5 ], [ 432196.25, 439715.5 ], [ 432196.25, 439716.75 ], [ 432196.0, 439716.75 ], [ 432196.0, 439718.5 ], [ 432195.75, 439718.5 ], [ 432195.75, 439719.0 ], [ 432195.5, 439719.0 ], [ 432195.5, 439719.25 ], [ 432195.25, 439719.25 ], [ 432195.25, 439719.75 ], [ 432195.0, 439719.75 ], [ 432195.0, 439720.0 ], [ 432194.75, 439720.0 ], [ 432194.75, 439720.25 ], [ 432194.5, 439720.25 ], [ 432194.5, 439720.5 ], [ 432194.25, 439720.5 ], [ 432194.25, 439720.75 ], [ 432194.0, 439720.75 ], [ 432194.0, 439721.0 ], [ 432193.5, 439721.0 ], [ 432193.5, 439721.25 ], [ 432192.25, 439721.25 ], [ 432192.25, 439721.5 ], [ 432190.0, 439721.5 ] ] ] } },
{ "type": "Feature", "properties": { }, "geometry": { "type": "Polygon", "coordinates": [ [ [ 432073.0, 439488.0 ], [ 432073.0, 439487.5 ], [ 432073.25, 439487.5 ], [ 432073.25, 439486.75 ], [ 432073.5, 439486.75 ], [ 432073.5, 439485.25 ], [ 432073.75, 439485.25 ], [ 432073.75, 439485.0 ], [ 432074.0, 439485.0 ], [ 432074.0, 439484.75 ], [ 432074.25, 439484.75 ], [ 432074.25, 439484.5 ], [ 432074.75, 439484.5 ], [ 432074.75, 439484.75 ], [ 432075.25, 439484.75 ], [ 432075.25, 439485.0 ], [ 432076.0, 439485.0 ], [ 432076.0, 439484.75 ], [ 432076.5, 439484.75 ], [ 432076.5, 439484.5 ], [ 432077.0, 439484.5 ], [ 432077.0, 439484.25 ], [ 432077.75, 439484.25 ], [ 432077.75, 439484.5 ], [ 432078.0, 439484.5 ], [ 432078.0, 439486.0 ], [ 432078.25, 439486.0 ], [ 432078.25, 439487.0 ], [ 432078.5, 439487.0 ], [ 432078.5, 439488.0 ], [ 432073.0, 439488.0 ] ] ] } },
{ "type": "Feature", "properties": { }, "geometry": { "type": "Polygon", "coordinates": [ [ [ 432128.75, 439488.0 ], [ 432128.75, 439487.0 ], [ 432128.5, 439487.0 ], [ 432128.5, 439486.75 ], [ 432128.0, 439486.75 ], [ 432128.0, 439483.25 ], [ 432130.0, 439483.25 ], [ 432130.0, 439483.5 ], [ 432130.25, 439483.5 ], [ 432130.25, 439484.25 ], [ 432130.0, 439484.25 ], [ 432130.0, 439484.5 ], [ 432130.25, 439484.5 ], [ 432130.25, 439484.75 ], [ 432130.75, 439484.75 ], [ 432130.75, 439483.25 ], [ 432131.25, 439483.25 ], [ 432131.25, 439483.0 ], [ 432132.0, 439483.0 ], [ 432132.0, 439482.75 ], [ 432133.0, 439482.75 ], [ 432133.0, 439483.0 ], [ 432133.5, 439483.0 ], [ 432133.5, 439483.25 ], [ 432133.75, 439483.25 ], [ 432133.75, 439485.0 ], [ 432133.5, 439485.0 ], [ 432133.5, 439485.25 ], [ 432133.25, 439485.25 ], [ 432133.25, 439488.0 ], [ 432128.75, 439488.0 ] ] ] } },
{ "type": "Feature", "properties": { }, "geometry": { "type": "Polygon", "coordinates": [ [ [ 432125.75, 439438.0 ], [ 432125.75, 439437.75 ], [ 432125.0, 439437.75 ], [ 432125.0, 439437.5 ], [ 432124.5, 439437.5 ], [ 432124.5, 439437.25 ], [ 432124.25, 439437.25 ], [ 432124.25, 439437.0 ], [ 432123.75, 439437.0 ], [ 432123.75, 439436.75 ], [ 432123.5, 439436.75 ], [ 432123.5, 439436.5 ], [ 432123.25, 439436.5 ], [ 432123.25, 439436.25 ], [ 432123.0, 439436.25 ], [ 432123.0, 439436.0 ], [ 432122.75, 439436.0 ], [ 432122.75, 439435.75 ], [ 432122.5, 439435.75 ], [ 432122.5, 439435.25 ], [ 432122.25, 439435.25 ], [ 432122.25, 439434.75 ], [ 432122.0, 439434.75 ], [ 432122.0, 439433.25 ], [ 432122.25, 439433.25 ], [ 432122.25, 439432.75 ], [ 432122.5, 439432.75 ], [ 432122.5, 439432.5 ], [ 432122.75, 439432.5 ], [ 432122.75, 439432.25 ], [ 432123.25, 439432.25 ], [ 432123.25, 439431.75 ], [ 432123.5, 439431.75 ], [ 432123.5, 439431.25 ], [ 432123.75, 439431.25 ], [ 432123.75, 439431.0 ], [ 432124.0, 439431.0 ], [ 432124.0, 439430.5 ], [ 432124.25, 439430.5 ], [ 432124.25, 439430.25 ], [ 432124.5, 439430.25 ], [ 432124.5, 439430.0 ], [ 432124.75, 439430.0 ], [ 432124.75, 439429.75 ], [ 432125.0, 439429.75 ], [ 432125.0, 439429.5 ], [ 432125.5, 439429.5 ], [ 432125.5, 439429.25 ], [ 432128.0, 439429.25 ], [ 432128.0, 439438.0 ], [ 432125.75, 439438.0 ] ] ] } },
{ "type": "Feature", "properties": { }, "geometry": { "type": "Polygon", "coordinates": [ [ [ 432468.0, 439426.75 ], [ 432468.0, 439426.5 ], [ 432464.0, 439426.5 ], [ 432464.0, 439426.25 ], [ 432463.5, 439426.25 ], [ 432463.5, 439426.0 ], [ 432463.0, 439426.0 ], [ 432463.0, 439425.75 ], [ 432462.75, 439425.75 ], [ 432462.75, 439425.5 ], [ 432462.5, 439425.5 ], [ 432462.5, 439425.25 ], [ 432462.25, 439425.25 ], [ 432462.25, 439425.0 ], [ 432462.0, 439425.0 ], [ 432462.0, 439424.75 ], [ 432461.75, 439424.75 ], [ 432461.75, 439424.5 ], [ 432461.5, 439424.5 ], [ 432461.5, 439424.25 ], [ 432459.25, 439424.25 ], [ 432459.25, 439423.75 ], [ 432459.0, 439423.75 ], [ 432459.0, 439423.25 ], [ 432458.75, 439423.25 ], [ 432458.75, 439423.0 ], [ 432458.25, 439423.0 ], [ 432458.25, 439422.75 ], [ 432457.75, 439422.75 ], [ 432457.75, 439422.5 ], [ 432457.25, 439422.5 ], [ 432457.25, 439422.25 ], [ 432456.5, 439422.25 ], [ 432456.5, 439422.0 ], [ 432455.5, 439422.0 ], [ 432455.5, 439421.75 ], [ 432455.25, 439421.75 ], [ 432455.25, 439421.5 ], [ 432454.75, 439421.5 ], [ 432454.75, 439421.0 ], [ 432454.5, 439421.0 ], [ 432454.5, 439420.0 ], [ 432454.25, 439420.0 ], [ 432454.25, 439417.75 ], [ 432454.0, 439417.75 ], [ 432454.0, 439416.75 ], [ 432454.25, 439416.75 ], [ 432454.25, 439416.25 ], [ 432454.0, 439416.25 ], [ 432454.0, 439413.25 ], [ 432454.25, 439413.25 ], [ 432454.25, 439412.5 ], [ 432454.5, 439412.5 ], [ 432454.5, 439412.25 ], [ 432454.75, 439412.25 ], [ 432454.75, 439411.75 ], [ 432455.0, 439411.75 ], [ 432455.0, 439411.5 ], [ 432455.25, 439411.5 ], [ 432455.25, 439411.25 ], [ 432455.5, 439411.25 ], [ 432455.5, 439411.0 ], [ 432455.75, 439411.0 ], [ 432455.75, 439410.75 ], [ 432456.25, 439410.75 ], [ 432456.25, 439410.5 ], [ 432456.5, 439410.5 ], [ 432456.5, 439410.25 ], [ 432457.0, 439410.25 ], [ 432457.0, 439410.0 ], [ 432457.25, 439410.0 ], [ 432457.25, 439409.75 ], [ 432458.0, 439409.75 ], [ 432458.0, 439409.5 ], [ 432458.75, 439409.5 ], [ 432458.75, 439409.75 ], [ 432460.25, 439409.75 ], [ 432460.25, 439409.5 ], [ 432460.75, 439409.5 ], [ 432460.75, 439409.75 ], [ 432462.75, 439409.75 ], [ 432462.75, 439409.5 ], [ 432463.5, 439409.5 ], [ 432463.5, 439409.25 ], [ 432464.75, 439409.25 ], [ 432464.75, 439409.0 ], [ 432468.0, 439409.0 ], [ 432468.0, 439409.25 ], [ 432469.0, 439409.25 ], [ 432469.0, 439409.5 ], [ 432469.5, 439409.5 ], [ 432469.5, 439409.75 ], [ 432470.0, 439409.75 ], [ 432470.0, 439410.0 ], [ 432470.25, 439410.0 ], [ 432470.25, 439410.25 ], [ 432470.75, 439410.25 ], [ 432470.75, 439410.5 ], [ 432471.25, 439410.5 ], [ 432471.25, 439410.75 ], [ 432471.75, 439410.75 ], [ 432471.75, 439411.0 ], [ 432472.25, 439411.0 ], [ 432472.25, 439411.25 ], [ 432473.0, 439411.25 ], [ 432473.0, 439411.5 ], [ 432473.5, 439411.5 ], [ 432473.5, 439411.75 ], [ 432474.0, 439411.75 ], [ 432474.0, 439412.0 ], [ 432475.0, 439412.0 ], [ 432475.0, 439412.25 ], [ 432476.25, 439412.25 ], [ 432476.25, 439412.5 ], [ 432476.75, 439412.5 ], [ 432476.75, 439413.25 ], [ 432477.0, 439413.25 ], [ 432477.0, 439413.75 ], [ 432477.25, 439413.75 ], [ 432477.25, 439414.25 ], [ 432477.5, 439414.25 ], [ 432477.5, 439414.5 ], [ 432477.75, 439414.5 ], [ 432477.75, 439415.0 ], [ 432478.0, 439415.0 ], [ 432478.0, 439415.75 ], [ 432478.25, 439415.75 ], [ 432478.25, 439416.0 ], [ 432478.5, 439416.0 ], [ 432478.5, 439416.5 ], [ 432478.75, 439416.5 ], [ 432478.75, 439416.75 ], [ 432479.0, 439416.75 ], [ 432479.0, 439417.0 ], [ 432479.5, 439417.0 ], [ 432479.5, 439417.25 ], [ 432480.5, 439417.25 ], [ 432480.5, 439417.75 ], [ 432480.25, 439417.75 ], [ 432480.25, 439418.0 ], [ 432480.0, 439418.0 ], [ 432480.0, 439418.25 ], [ 432479.75, 439418.25 ], [ 432479.75, 439419.0 ], [ 432480.0, 439419.0 ], [ 432480.0, 439419.75 ], [ 432479.75, 439419.75 ], [ 432479.75, 439420.0 ], [ 432479.25, 439420.0 ], [ 432479.25, 439420.25 ], [ 432479.0, 439420.25 ], [ 432479.0, 439420.5 ], [ 432478.75, 439420.5 ], [ 432478.75, 439420.75 ], [ 432478.5, 439420.75 ], [ 432478.5, 439421.25 ], [ 432478.25, 439421.25 ], [ 432478.25, 439421.75 ], [ 432477.75, 439421.75 ], [ 432477.75, 439422.0 ], [ 432477.5, 439422.0 ], [ 432477.5, 439422.25 ], [ 432475.0, 439422.25 ], [ 432475.0, 439422.5 ], [ 432474.0, 439422.5 ], [ 432474.0, 439422.75 ], [ 432473.75, 439422.75 ], [ 432473.75, 439423.0 ], [ 432473.25, 439423.0 ], [ 432473.25, 439423.25 ], [ 432472.75, 439423.25 ], [ 432472.75, 439423.5 ], [ 432472.5, 439423.5 ], [ 432472.5, 439424.0 ], [ 432472.25, 439424.0 ], [ 432472.25, 439424.75 ], [ 432472.0, 439424.75 ], [ 432472.0, 439425.25 ], [ 432471.75, 439425.25 ], [ 432471.75, 439425.75 ], [ 432471.5, 439425.75 ], [ 432471.5, 439426.0 ], [ 432470.5, 439426.0 ], [ 432470.5, 439426.25 ], [ 432470.0, 439426.25 ], [ 432470.0, 439426.5 ], [ 432469.25, 439426.5 ], [ 432469.25, 439426.75 ], [ 432468.0, 439426.75 ] ] ] } },
{ "type": "Feature", "properties": { }, "geometry": { "type": "Polygon", "coordinates": [ [ [ 432340.25, 439270.75 ], [ 432340.25, 439270.5 ], [ 432339.0, 439270.5 ], [ 432339.0, 439270.25 ], [ 432338.25, 439270.25 ], [ 432338.25, 439270.0 ], [ 432338.0, 439270.0 ], [ 432338.0, 439269.75 ], [ 432337.75, 439269.75 ], [ 432337.75, 439269.5 ], [ 432337.5, 439269.5 ], [ 432337.5, 439269.0 ], [ 432337.25, 439269.0 ], [ 432337.25, 439267.5 ], [ 432337.0, 439267.5 ], [ 432337.0, 439264.25 ], [ 432337.25, 439264.25 ], [ 432337.25, 439263.0 ], [ 432337.5, 439263.0 ], [ 432337.5, 439262.5 ], [ 432337.75, 439262.5 ], [ 432337.75, 439262.25 ], [ 432338.25, 439262.25 ], [ 432338.25, 439262.0 ], [ 432338.75, 439262.0 ], [ 432338.75, 439261.75 ], [ 432340.75, 439261.75 ], [ 432340.75, 439261.5 ], [ 432342.25, 439261.5 ], [ 432342.25, 439261.75 ], [ 432344.25, 439261.75 ], [ 432344.25, 439262.0 ], [ 432345.75, 439262.0 ], [ 432345.75, 439262.25 ], [ 432347.75, 439262.25 ], [ 432347.75, 439262.5 ], [ 432348.25, 439262.5 ], [ 432348.25, 439262.75 ], [ 432349.25, 439262.75 ], [ 432349.25, 439263.0 ], [ 432350.5, 439263.0 ], [ 432350.5, 439263.25 ], [ 432351.0, 439263.25 ], [ 432351.0, 439263.0 ], [ 432352.0, 439263.0 ], [ 432352.0, 439263.25 ], [ 432353.0, 439263.25 ], [ 432353.0, 439263.0 ], [ 432353.5, 439263.0 ], [ 432353.5, 439263.25 ], [ 432354.75, 439263.25 ], [ 432354.75, 439263.5 ], [ 432355.25, 439263.5 ], [ 432355.25, 439263.75 ], [ 432355.75, 439263.75 ], [ 432355.75, 439264.0 ], [ 432356.25, 439264.0 ], [ 432356.25, 439264.25 ], [ 432356.75, 439264.25 ], [ 432356.75, 439264.5 ], [ 432357.0, 439264.5 ], [ 432357.0, 439265.0 ], [ 432356.75, 439265.0 ], [ 432356.75, 439266.25 ], [ 432357.0, 439266.25 ], [ 432357.0, 439266.5 ], [ 432356.75, 439266.5 ], [ 432356.75, 439266.75 ], [ 432356.25, 439266.75 ], [ 432356.25, 439267.0 ], [ 432356.0, 439267.0 ], [ 432356.0, 439267.25 ], [ 432355.75, 439267.25 ], [ 432355.75, 439267.5 ], [ 432355.5, 439267.5 ], [ 432355.5, 439267.75 ], [ 432355.0, 439267.75 ], [ 432355.0, 439268.0 ], [ 432354.5, 439268.0 ], [ 432354.5, 439268.25 ], [ 432354.0, 439268.25 ], [ 432354.0, 439268.5 ], [ 432353.75, 439268.5 ], [ 432353.75, 439268.75 ], [ 432352.5, 439268.75 ], [ 432352.5, 439269.0 ], [ 432352.0, 439269.0 ], [ 432352.0, 439269.25 ], [ 432351.75, 439269.25 ], [ 432351.75, 439269.5 ], [ 432347.25, 439269.5 ], [ 432347.25, 439269.75 ], [ 432346.0, 439269.75 ], [ 432346.0, 439270.0 ], [ 432345.25, 439270.0 ], [ 432345.25, 439270.25 ], [ 432344.75, 439270.25 ], [ 432344.75, 439270.5 ], [ 432342.25, 439270.5 ], [ 432342.25, 439270.75 ], [ 432340.25, 439270.75 ] ] ] } },
{ "type": "Feature", "properties": { }, "geometry": { "type": "Polygon", "coordinates": [ [ [ 432515.75, 439232.0 ], [ 432515.75, 439231.25 ], [ 432514.75, 439231.25 ], [ 432514.75, 439230.75 ], [ 432514.5, 439230.75 ], [ 432514.5, 439229.5 ], [ 432515.0, 439229.5 ], [ 432515.0, 439229.25 ], [ 432515.75, 439229.25 ], [ 432515.75, 439229.0 ], [ 432516.25, 439229.0 ], [ 432516.25, 439228.75 ], [ 432516.5, 439228.75 ], [ 432516.5, 439228.5 ], [ 432516.75, 439228.5 ], [ 432516.75, 439229.5 ], [ 432517.25, 439229.5 ], [ 432517.25, 439229.75 ], [ 432517.5, 439229.75 ], [ 432517.5, 439230.25 ], [ 432517.75, 439230.25 ], [ 432517.75, 439231.0 ], [ 432517.5, 439231.0 ], [ 432517.5, 439232.0 ], [ 432515.75, 439232.0 ] ] ] } },
{ "type": "Feature", "properties": { }, "geometry": { "type": "Polygon", "coordinates": [ [ [ 432984.75, 439104.0 ], [ 432984.75, 439102.5 ], [ 432984.5, 439102.5 ], [ 432984.5, 439102.25 ], [ 432984.25, 439102.25 ], [ 432984.25, 439102.0 ], [ 432984.0, 439102.0 ], [ 432984.0, 439101.5 ], [ 432983.75, 439101.5 ], [ 432983.75, 439101.0 ], [ 432983.5, 439101.0 ], [ 432983.5, 439100.5 ], [ 432983.25, 439100.5 ], [ 432983.25, 439100.0 ], [ 432983.0, 439100.0 ], [ 432983.0, 439099.0 ], [ 432983.25, 439099.0 ], [ 432983.25, 439098.75 ], [ 432983.5, 439098.75 ], [ 432983.5, 439098.5 ], [ 432984.0, 439098.5 ], [ 432984.0, 439098.25 ], [ 432984.25, 439098.25 ], [ 432984.25, 439097.75 ], [ 432984.5, 439097.75 ], [ 432984.5, 439097.5 ], [ 432985.0, 439097.5 ], [ 432985.0, 439097.25 ], [ 432987.25, 439097.25 ], [ 432987.25, 439097.5 ], [ 432988.25, 439097.5 ], [ 432988.25, 439097.75 ], [ 432989.25, 439097.75 ], [ 432989.25, 439098.0 ], [ 432990.25, 439098.0 ], [ 432990.25, 439098.25 ], [ 432991.75, 439098.25 ], [ 432991.75, 439098.5 ], [ 432992.5, 439098.5 ], [ 432992.5, 439098.75 ], [ 432993.5, 439098.75 ], [ 432993.5, 439099.0 ], [ 432994.5, 439099.0 ], [ 432994.5, 439099.25 ], [ 432995.0, 439099.25 ], [ 432995.0, 439099.5 ], [ 432995.5, 439099.5 ], [ 432995.5, 439099.75 ], [ 432995.75, 439099.75 ], [ 432995.75, 439100.0 ], [ 432996.0, 439100.0 ], [ 432996.0, 439100.25 ], [ 432996.5, 439100.25 ], [ 432996.5, 439100.5 ], [ 432996.75, 439100.5 ], [ 432996.75, 439100.75 ], [ 432997.0, 439100.75 ], [ 432997.0, 439101.0 ], [ 432997.25, 439101.0 ], [ 432997.25, 439101.25 ], [ 432997.5, 439101.25 ], [ 432997.5, 439101.5 ], [ 432997.75, 439101.5 ], [ 432997.75, 439101.75 ], [ 432998.0, 439101.75 ], [ 432998.0, 439102.25 ], [ 432998.25, 439102.25 ], [ 432998.25, 439104.0 ], [ 432984.75, 439104.0 ] ] ] } },
{ "type": "Feature", "properties": { }, "geometry": { "type": "Polygon", "coordinates": [ [ [ 432975.5, 439095.25 ], [ 432975.5, 439095.0 ], [ 432974.75, 439095.0 ], [ 432974.75, 439094.75 ], [ 432974.25, 439094.75 ], [ 432974.25, 439094.5 ], [ 432974.0, 439094.5 ], [ 432974.0, 439094.25 ], [ 432974.25, 439094.25 ], [ 432974.25, 439093.75 ], [ 432975.0, 439093.75 ], [ 432975.0, 439093.5 ], [ 432976.25, 439093.5 ], [ 432976.25, 439093.75 ], [ 432977.5, 439093.75 ], [ 432977.5, 439094.0 ], [ 432978.0, 439094.0 ], [ 432978.0, 439094.25 ], [ 432978.5, 439094.25 ], [ 432978.5, 439094.75 ], [ 432978.25, 439094.75 ], [ 432978.25, 439095.0 ], [ 432977.75, 439095.0 ], [ 432977.75, 439095.25 ], [ 432975.5, 439095.25 ] ] ] } },
{ "type": "Feature", "properties": { }, "geometry": { "type": "Polygon", "coordinates": [ [ [ 432746.25, 439104.0 ], [ 432746.25, 439102.5 ], [ 432746.0, 439102.5 ], [ 432746.0, 439101.0 ], [ 432745.75, 439101.0 ], [ 432745.75, 439100.25 ], [ 432745.5, 439100.25 ], [ 432745.5, 439097.25 ], [ 432745.25, 439097.25 ], [ 432745.25, 439095.5 ], [ 432745.0, 439095.5 ], [ 432745.0, 439094.5 ], [ 432745.25, 439094.5 ], [ 432745.25, 439094.25 ], [ 432745.5, 439094.25 ], [ 432745.5, 439094.0 ], [ 432745.75, 439094.0 ], [ 432745.75, 439093.75 ], [ 432746.0, 439093.75 ], [ 432746.0, 439093.5 ], [ 432746.5, 439093.5 ], [ 432746.5, 439093.25 ], [ 432747.25, 439093.25 ], [ 432747.25, 439093.0 ], [ 432748.25, 439093.0 ], [ 432748.25, 439092.75 ], [ 432749.0, 439092.75 ], [ 432749.0, 439092.5 ], [ 432749.25, 439092.5 ], [ 432749.25, 439092.25 ], [ 432750.0, 439092.25 ], [ 432750.0, 439092.0 ], [ 432750.25, 439092.0 ], [ 432750.25, 439091.75 ], [ 432751.0, 439091.75 ], [ 432751.0, 439091.5 ], [ 432751.75, 439091.5 ], [ 432751.75, 439091.25 ], [ 432752.75, 439091.25 ], [ 432752.75, 439091.0 ], [ 432753.75, 439091.0 ], [ 432753.75, 439091.25 ], [ 432754.25, 439091.25 ], [ 432754.25, 439091.5 ], [ 432754.5, 439091.5 ], [ 432754.5, 439091.75 ], [ 432754.75, 439091.75 ], [ 432754.75, 439092.0 ], [ 432755.0, 439092.0 ], [ 432755.0, 439092.25 ], [ 432755.5, 439092.25 ], [ 432755.5, 439092.5 ], [ 432755.75, 439092.5 ], [ 432755.75, 439092.75 ], [ 432756.25, 439092.75 ], [ 432756.25, 439093.0 ], [ 432756.5, 439093.0 ], [ 432756.5, 439093.25 ], [ 432756.75, 439093.25 ], [ 432756.75, 439093.5 ], [ 432757.0, 439093.5 ], [ 432757.0, 439093.75 ], [ 432757.25, 439093.75 ], [ 432757.25, 439094.25 ], [ 432757.5, 439094.25 ], [ 432757.5, 439094.5 ], [ 432757.75, 439094.5 ], [ 432757.75, 439095.25 ], [ 432758.0, 439095.25 ], [ 432758.0, 439096.0 ], [ 432758.25, 439096.0 ], [ 432758.25, 439096.75 ], [ 432758.5, 439096.75 ], [ 432758.5, 439097.5 ], [ 432758.75, 439097.5 ], [ 432758.75, 439098.25 ], [ 432759.0, 439098.25 ], [ 432759.0, 439099.25 ], [ 432759.25, 439099.25 ], [ 432759.25, 439100.0 ], [ 432759.5, 439100.0 ], [ 432759.5, 439104.0 ], [ 432746.25, 439104.0 ] ] ] } },
{ "type": "Feature", "properties": { }, "geometry": { "type": "Polygon", "coordinates": [ [ [ 432326.5, 439071.25 ], [ 432326.5, 439071.0 ], [ 432323.75, 439071.0 ], [ 432323.75, 439070.75 ], [ 432322.0, 439070.75 ], [ 432322.0, 439070.5 ], [ 432319.25, 439070.5 ], [ 432319.25, 439070.25 ], [ 432315.5, 439070.25 ], [ 432315.5, 439070.0 ], [ 432313.0, 439070.0 ], [ 432313.0, 439069.75 ], [ 432312.0, 439069.75 ], [ 432312.0, 439069.5 ], [ 432311.25, 439069.5 ], [ 432311.25, 439069.25 ], [ 432310.25, 439069.25 ], [ 432310.25, 439069.0 ], [ 432310.0, 439069.0 ], [ 432310.0, 439068.75 ], [ 432309.5, 439068.75 ], [ 432309.5, 439068.5 ], [ 432309.25, 439068.5 ], [ 432309.25, 439068.25 ], [ 432308.75, 439068.25 ], [ 432308.75, 439068.0 ], [ 432308.5, 439068.0 ], [ 432308.5, 439067.75 ], [ 432308.0, 439067.75 ], [ 432308.0, 439067.5 ], [ 432307.75, 439067.5 ], [ 432307.75, 439067.25 ], [ 432307.5, 439067.25 ], [ 432307.5, 439067.0 ], [ 432307.25, 439067.0 ], [ 432307.25, 439066.75 ], [ 432307.0, 439066.75 ], [ 432307.0, 439066.5 ], [ 432306.75, 439066.5 ], [ 432306.75, 439066.0 ], [ 432306.5, 439066.0 ], [ 432306.5, 439065.5 ], [ 432306.25, 439065.5 ], [ 432306.25, 439064.5 ], [ 432306.0, 439064.5 ], [ 432306.0, 439064.0 ], [ 432305.75, 439064.0 ], [ 432305.75, 439063.25 ], [ 432305.5, 439063.25 ], [ 432305.5, 439062.25 ], [ 432305.25, 439062.25 ], [ 432305.25, 439059.5 ], [ 432305.5, 439059.5 ], [ 432305.5, 439058.5 ], [ 432305.75, 439058.5 ], [ 432305.75, 439057.5 ], [ 432306.0, 439057.5 ], [ 432306.0, 439057.0 ], [ 432306.25, 439057.0 ], [ 432306.25, 439056.5 ], [ 432306.5, 439056.5 ], [ 432306.5, 439055.75 ], [ 432306.75, 439055.75 ], [ 432306.75, 439055.0 ], [ 432307.0, 439055.0 ], [ 432307.0, 439054.0 ], [ 432307.25, 439054.0 ], [ 432307.25, 439053.0 ], [ 432307.5, 439053.0 ], [ 432307.5, 439052.0 ], [ 432307.75, 439052.0 ], [ 432307.75, 439051.5 ], [ 432308.0, 439051.5 ], [ 432308.0, 439050.75 ], [ 432308.25, 439050.75 ], [ 432308.25, 439050.0 ], [ 432308.5, 439050.0 ], [ 432308.5, 439049.25 ], [ 432308.75, 439049.25 ], [ 432308.75, 439048.75 ], [ 432309.0, 439048.75 ], [ 432309.0, 439048.25 ], [ 432309.25, 439048.25 ], [ 432309.25, 439048.0 ], [ 432309.5, 439048.0 ], [ 432309.5, 439047.5 ], [ 432309.75, 439047.5 ], [ 432309.75, 439047.25 ], [ 432310.0, 439047.25 ], [ 432310.0, 439047.0 ], [ 432310.25, 439047.0 ], [ 432310.25, 439046.5 ], [ 432310.5, 439046.5 ], [ 432310.5, 439046.25 ], [ 432310.75, 439046.25 ], [ 432310.75, 439045.5 ], [ 432311.0, 439045.5 ], [ 432311.0, 439044.75 ], [ 432311.25, 439044.75 ], [ 432311.25, 439043.75 ], [ 432311.5, 439043.75 ], [ 432311.5, 439042.75 ], [ 432311.75, 439042.75 ], [ 432311.75, 439041.5 ], [ 432312.0, 439041.5 ], [ 432312.0, 439040.0 ], [ 432312.25, 439040.0 ], [ 432312.25, 439038.75 ], [ 432312.5, 439038.75 ], [ 432312.5, 439038.0 ], [ 432312.75, 439038.0 ], [ 432312.75, 439037.25 ], [ 432313.0, 439037.25 ], [ 432313.0, 439037.0 ], [ 432313.25, 439037.0 ], [ 432313.25, 439036.5 ], [ 432313.5, 439036.5 ], [ 432313.5, 439036.25 ], [ 432313.75, 439036.25 ], [ 432313.75, 439036.0 ], [ 432314.0, 439036.0 ], [ 432314.0, 439035.75 ], [ 432314.25, 439035.75 ], [ 432314.25, 439035.25 ], [ 432314.5, 439035.25 ], [ 432314.5, 439035.0 ], [ 432314.75, 439035.0 ], [ 432314.75, 439034.5 ], [ 432315.0, 439034.5 ], [ 432315.0, 439034.0 ], [ 432315.25, 439034.0 ], [ 432315.25, 439033.75 ], [ 432315.5, 439033.75 ], [ 432315.5, 439033.25 ], [ 432315.75, 439033.25 ], [ 432315.75, 439033.0 ], [ 432316.0, 439033.0 ], [ 432316.0, 439032.75 ], [ 432316.25, 439032.75 ], [ 432316.25, 439032.5 ], [ 432316.5, 439032.5 ], [ 432316.5, 439032.25 ], [ 432316.75, 439032.25 ], [ 432316.75, 439032.0 ], [ 432317.0, 439032.0 ], [ 432317.0, 439031.75 ], [ 432317.25, 439031.75 ], [ 432317.25, 439031.5 ], [ 432317.75, 439031.5 ], [ 432317.75, 439031.25 ], [ 432318.0, 439031.25 ], [ 432318.0, 439031.0 ], [ 432318.25, 439031.0 ], [ 432318.25, 439030.75 ], [ 432318.75, 439030.75 ], [ 432318.75, 439030.5 ], [ 432319.0, 439030.5 ], [ 432319.0, 439030.25 ], [ 432319.25, 439030.25 ], [ 432319.25, 439030.0 ], [ 432319.5, 439030.0 ], [ 432319.5, 439029.75 ], [ 432319.75, 439029.75 ], [ 432319.75, 439029.5 ], [ 432320.0, 439029.5 ], [ 432320.0, 439029.25 ], [ 432320.5, 439029.25 ], [ 432320.5, 439029.0 ], [ 432320.75, 439029.0 ], [ 432320.75, 439028.75 ], [ 432321.25, 439028.75 ], [ 432321.25, 439028.5 ], [ 432321.75, 439028.5 ], [ 432321.75, 439028.25 ], [ 432322.0, 439028.25 ], [ 432322.0, 439028.0 ], [ 432322.5, 439028.0 ], [ 432322.5, 439027.75 ], [ 432323.0, 439027.75 ], [ 432323.0, 439027.5 ], [ 432323.25, 439027.5 ], [ 432323.25, 439027.25 ], [ 432323.75, 439027.25 ], [ 432323.75, 439027.0 ], [ 432324.0, 439027.0 ], [ 432324.0, 439026.75 ], [ 432324.5, 439026.75 ], [ 432324.5, 439026.5 ], [ 432324.75, 439026.5 ], [ 432324.75, 439026.25 ], [ 432325.0, 439026.25 ], [ 432325.0, 439026.0 ], [ 432325.25, 439026.0 ], [ 432325.25, 439025.75 ], [ 432325.5, 439025.75 ], [ 432325.5, 439025.5 ], [ 432326.0, 439025.5 ], [ 432326.0, 439025.25 ], [ 432326.25, 439025.25 ], [ 432326.25, 439025.0 ], [ 432326.75, 439025.0 ], [ 432326.75, 439024.75 ], [ 432327.25, 439024.75 ], [ 432327.25, 439024.5 ], [ 432327.75, 439024.5 ], [ 432327.75, 439024.25 ], [ 432328.25, 439024.25 ], [ 432328.25, 439024.0 ], [ 432328.5, 439024.0 ], [ 432328.5, 439023.75 ], [ 432329.0, 439023.75 ], [ 432329.0, 439023.5 ], [ 432329.25, 439023.5 ], [ 432329.25, 439023.25 ], [ 432329.75, 439023.25 ], [ 432329.75, 439023.0 ], [ 432330.25, 439023.0 ], [ 432330.25, 439022.75 ], [ 432330.75, 439022.75 ], [ 432330.75, 439022.5 ], [ 432331.25, 439022.5 ], [ 432331.25, 439022.25 ], [ 432332.25, 439022.25 ], [ 432332.25, 439022.0 ], [ 432333.25, 439022.0 ], [ 432333.25, 439021.75 ], [ 432333.75, 439021.75 ], [ 432333.75, 439022.0 ], [ 432335.0, 439022.0 ], [ 432335.0, 439022.25 ], [ 432336.0, 439022.25 ], [ 432336.0, 439022.5 ], [ 432336.5, 439022.5 ], [ 432336.5, 439022.75 ], [ 432337.25, 439022.75 ], [ 432337.25, 439023.0 ], [ 432337.75, 439023.0 ], [ 432337.75, 439023.25 ], [ 432338.5, 439023.25 ], [ 432338.5, 439023.5 ], [ 432339.75, 439023.5 ], [ 432339.75, 439023.75 ], [ 432340.0, 439023.75 ], [ 432340.0, 439024.0 ], [ 432340.5, 439024.0 ], [ 432340.5, 439024.25 ], [ 432340.75, 439024.25 ], [ 432340.75, 439024.5 ], [ 432341.0, 439024.5 ], [ 432341.0, 439024.75 ], [ 432341.5, 439024.75 ], [ 432341.5, 439025.0 ], [ 432341.75, 439025.0 ], [ 432341.75, 439025.25 ], [ 432342.0, 439025.25 ], [ 432342.0, 439025.5 ], [ 432342.25, 439025.5 ], [ 432342.25, 439026.0 ], [ 432342.5, 439026.0 ], [ 432342.5, 439026.5 ], [ 432342.75, 439026.5 ], [ 432342.75, 439030.25 ], [ 432343.0, 439030.25 ], [ 432343.0, 439036.5 ], [ 432342.75, 439036.5 ], [ 432342.75, 439040.0 ], [ 432342.5, 439040.0 ], [ 432342.5, 439042.0 ], [ 432342.25, 439042.0 ], [ 432342.25, 439043.75 ], [ 432342.0, 439043.75 ], [ 432342.0, 439044.75 ], [ 432341.75, 439044.75 ], [ 432341.75, 439046.25 ], [ 432341.5, 439046.25 ], [ 432341.5, 439050.0 ], [ 432341.25, 439050.0 ], [ 432341.25, 439052.5 ], [ 432341.0, 439052.5 ], [ 432341.0, 439055.5 ], [ 432340.75, 439055.5 ], [ 432340.75, 439057.25 ], [ 432340.5, 439057.25 ], [ 432340.5, 439058.5 ], [ 432340.25, 439058.5 ], [ 432340.25, 439059.5 ], [ 432340.0, 439059.5 ], [ 432340.0, 439060.25 ], [ 432339.75, 439060.25 ], [ 432339.75, 439061.25 ], [ 432339.5, 439061.25 ], [ 432339.5, 439062.0 ], [ 432339.25, 439062.0 ], [ 432339.25, 439062.75 ], [ 432339.0, 439062.75 ], [ 432339.0, 439063.25 ], [ 432338.75, 439063.25 ], [ 432338.75, 439063.75 ], [ 432338.5, 439063.75 ], [ 432338.5, 439064.0 ], [ 432338.25, 439064.0 ], [ 432338.25, 439064.5 ], [ 432338.0, 439064.5 ], [ 432338.0, 439065.0 ], [ 432337.75, 439065.0 ], [ 432337.75, 439065.25 ], [ 432337.5, 439065.25 ], [ 432337.5, 439066.0 ], [ 432337.25, 439066.0 ], [ 432337.25, 439066.5 ], [ 432337.0, 439066.5 ], [ 432337.0, 439067.25 ], [ 432336.75, 439067.25 ], [ 432336.75, 439068.0 ], [ 432336.5, 439068.0 ], [ 432336.5, 439068.5 ], [ 432336.25, 439068.5 ], [ 432336.25, 439068.75 ], [ 432336.0, 439068.75 ], [ 432336.0, 439069.0 ], [ 432335.75, 439069.0 ], [ 432335.75, 439069.5 ], [ 432335.5, 439069.5 ], [ 432335.5, 439069.75 ], [ 432335.0, 439069.75 ], [ 432335.0, 439070.0 ], [ 432334.75, 439070.0 ], [ 432334.75, 439070.25 ], [ 432334.25, 439070.25 ], [ 432334.25, 439070.5 ], [ 432333.5, 439070.5 ], [ 432333.5, 439070.75 ], [ 432332.75, 439070.75 ], [ 432332.75, 439071.0 ], [ 432328.0, 439071.0 ], [ 432328.0, 439071.25 ], [ 432326.5, 439071.25 ] ] ] } },
{ "type": "Feature", "properties": { }, "geometry": { "type": "Polygon", "coordinates": [ [ [ 432503.25, 439015.0 ], [ 432503.25, 439014.75 ], [ 432502.75, 439014.75 ], [ 432502.75, 439014.5 ], [ 432502.5, 439014.5 ], [ 432502.5, 439014.25 ], [ 432502.25, 439014.25 ], [ 432502.25, 439013.75 ], [ 432502.0, 439013.75 ], [ 432502.0, 439013.25 ], [ 432502.25, 439013.25 ], [ 432502.25, 439012.75 ], [ 432502.5, 439012.75 ], [ 432502.5, 439011.25 ], [ 432503.5, 439011.25 ], [ 432503.5, 439011.5 ], [ 432504.0, 439011.5 ], [ 432504.0, 439011.75 ], [ 432504.25, 439011.75 ], [ 432504.25, 439012.0 ], [ 432506.5, 439012.0 ], [ 432506.5, 439012.25 ], [ 432506.75, 439012.25 ], [ 432506.75, 439014.25 ], [ 432506.5, 439014.25 ], [ 432506.5, 439014.75 ], [ 432506.0, 439014.75 ], [ 432506.0, 439015.0 ], [ 432503.25, 439015.0 ] ] ] } }
]
}
