{
"type": "FeatureCollection",
"name": "se3338_rgb_250_03_original",
"crs": { "type": "name", "properties": { "name": "urn:ogc:def:crs:EPSG::27700" } },
"features": [
{ "type": "Feature", "properties": { }, "geometry": { "type": "Polygon", "coordinates": [ [ [ 433010.5, 438962.0 ], [ 433010.5, 438961.75 ], [ 433010.25, 438961.75 ], [ 433010.25, 438961.5 ], [ 433010.5, 438961.5 ], [ 433010.5, 438961.25 ], [ 433010.75, 438961.25 ], [ 433010.75, 438962.0 ], [ 433010.5, 438962.0 ] ] ] } },
{ "type": "Feature", "properties": { }, "geometry": { "type": "Polygon", "coordinates": [ [ [ 433006.25, 438966.0 ], [ 433006.25, 438965.75 ], [ 433005.75, 438965.75 ], [ 433005.75, 438965.5 ], [ 433005.25, 438965.5 ], [ 433005.25, 438965.25 ], [ 433005.0, 438965.25 ], [ 433005.0, 438964.75 ], [ 433004.75, 438964.75 ], [ 433004.75, 438964.25 ], [ 433004.5, 438964.25 ], [ 433004.5, 438964.0 ], [ 433004.25, 438964.0 ], [ 433004.25, 438962.75 ], [ 433004.5, 438962.75 ], [ 433004.5, 438961.5 ], [ 433004.75, 438961.5 ], [ 433004.75, 438961.25 ], [ 433005.75, 438961.25 ], [ 433005.75, 438961.0 ], [ 433006.25, 438961.0 ], [ 433006.25, 438960.75 ], [ 433006.5, 438960.75 ], [ 433006.5, 438960.0 ], [ 433006.75, 438960.0 ], [ 433006.75, 438959.5 ], [ 433007.0, 438959.5 ], [ 433007.0, 438959.25 ], [ 433007.25, 438959.25 ], [ 433007.25, 438959.0 ], [ 433007.5, 438959.0 ], [ 433007.5, 438958.75 ], [ 433007.75, 438958.75 ], [ 433007.75, 438958.5 ], [ 433007.5, 438958.5 ], [ 433007.5, 438958.25 ], [ 433007.25, 438958.25 ], [ 433007.25, 438958.0 ], [ 433007.0, 438958.0 ], [ 433007.0, 438956.5 ], [ 433007.25, 438956.5 ], [ 433007.25, 438956.25 ], [ 433007.5, 438956.25 ], [ 433007.5, 438956.0 ], [ 433008.0, 438956.0 ], [ 433008.0, 438955.75 ], [ 433008.25, 438955.75 ], [ 433008.25, 438955.5 ], [ 433008.5, 438955.5 ], [ 433008.5, 438955.25 ], [ 433009.0, 438955.25 ], [ 433009.0, 438955.0 ], [ 433009.5, 438955.0 ], [ 433009.5, 438955.25 ], [ 433009.75, 438955.25 ], [ 433009.75, 438956.25 ], [ 433010.0, 438956.25 ], [ 433010.0, 438957.75 ], [ 433010.25, 438957.75 ], [ 433010.25, 438958.25 ], [ 433010.5, 438958.25 ], [ 433010.5, 438958.75 ], [ 433010.75, 438958.75 ], [ 433010.75, 438959.25 ], [ 433011.0, 438959.25 ], [ 433011.0, 438959.75 ], [ 433009.25, 438959.75 ], [ 433009.25, 438960.0 ], [ 433008.5, 438960.0 ], [ 433008.5, 438961.25 ], [ 433008.25, 438961.25 ], [ 433008.25, 438961.5 ], [ 433008.5, 438961.5 ], [ 433008.5, 438962.25 ], [ 433008.75, 438962.25 ], [ 433008.75, 438962.75 ], [ 433008.5, 438962.75 ], [ 433008.5, 438963.25 ], [ 433008.25, 438963.25 ], [ 433008.25, 438964.5 ], [ 433008.5, 438964.5 ], [ 433008.5, 438965.5 ], [ 433008.25, 438965.5 ], [ 433008.25, 438965.75 ], [ 433007.5, 438965.75 ], [ 433007.5, 438966.0 ], [ 433006.25, 438966.0 ] ] ] } },
{ "type": "Feature", "properties": { }, "geometry": { "type": "Polygon", "coordinates": [ [ [ 433009.5, 438900.25 ], [ 433009.5, 438900.0 ], [ 433008.75, 438900.0 ], [ 433008.75, 438899.75 ], [ 433008.0, 438899.75 ], [ 433008.0, 438899.5 ], [ 433007.25, 438899.5 ], [ 433007.25, 438899.25 ], [ 433006.75, 438899.25 ], [ 433006.75, 438899.0 ], [ 433006.25, 438899.0 ], [ 433006.25, 438898.75 ], [ 433005.75, 438898.75 ], [ 433005.75, 438898.5 ], [ 433005.5, 438898.5 ], [ 433005.5, 438898.25 ], [ 433005.0, 438898.25 ], [ 433005.0, 438898.0 ], [ 433004.75, 438898.0 ], [ 433004.75, 438897.75 ], [ 433004.25, 438897.75 ], [ 433004.25, 438897.5 ], [ 433003.75, 438897.5 ], [ 433003.75, 438897.25 ], [ 433003.25, 438897.25 ], [ 433003.25, 438897.0 ], [ 433002.5, 438897.0 ], [ 433002.5, 438896.75 ], [ 433001.0, 438896.75 ], [ 433001.0, 438896.5 ], [ 433000.0, 438896.5 ], [ 433000.0, 438861.5 ], [ 433000.75, 438861.5 ], [ 433000.75, 438861.25 ], [ 433002.75, 438861.25 ], [ 433002.75, 438861.5 ], [ 433003.5, 438861.5 ], [ 433003.5, 438861.75 ], [ 433004.0, 438861.75 ], [ 433004.0, 438862.0 ], [ 433004.75, 438862.0 ], [ 433004.75, 438862.25 ], [ 433005.0, 438862.25 ], [ 433005.0, 438862.5 ], [ 433005.25, 438862.5 ], [ 433005.25, 438862.75 ], [ 433005.5, 438862.75 ], [ 433005.5, 438863.0 ], [ 433006.0, 438863.0 ], [ 433006.0, 438863.25 ], [ 433006.25, 438863.25 ], [ 433006.25, 438863.5 ], [ 433006.75, 438863.5 ], [ 433006.75, 438863.75 ], [ 433007.0, 438863.75 ], [ 433007.0, 438864.0 ], [ 433007.25, 438864.0 ], [ 433007.25, 438864.5 ], [ 433007.5, 438864.5 ], [ 433007.5, 438864.75 ], [ 433008.0, 438864.75 ], [ 433008.0, 438865.0 ], [ 433008.5, 438865.0 ], [ 433008.5, 438865.25 ], [ 433008.75, 438865.25 ], [ 433008.75, 438865.5 ], [ 433009.25, 438865.5 ], [ 433009.25, 438865.75 ], [ 433009.5, 438865.75 ], [ 433009.5, 438866.0 ], [ 433009.75, 438866.0 ], [ 433009.75, 438866.25 ], [ 433010.25, 438866.25 ], [ 433010.25, 438866.5 ], [ 433010.5, 438866.5 ], [ 433010.5, 438866.75 ], [ 433011.0, 438866.75 ], [ 433011.0, 438867.0 ], [ 433011.25, 438867.0 ], [ 433011.25, 438867.25 ], [ 433011.75, 438867.25 ], [ 433011.75, 438867.5 ], [ 433012.25, 438867.5 ], [ 433012.25, 438867.75 ], [ 433012.5, 438867.75 ], [ 433012.5, 438868.0 ], [ 433012.75, 438868.0 ], [ 433012.75, 438868.25 ], [ 433013.25, 438868.25 ], [ 433013.25, 438868.5 ], [ 433013.75, 438868.5 ], [ 433013.75, 438868.75 ], [ 433014.0, 438868.75 ], [ 433014.0, 438869.0 ], [ 433014.5, 438869.0 ], [ 433014.5, 438869.25 ], [ 433014.75, 438869.25 ], [ 433014.75, 438869.5 ], [ 433015.0, 438869.5 ], [ 433015.0, 438870.0 ], [ 433015.25, 438870.0 ], [ 433015.25, 438870.5 ], [ 433015.0, 438870.5 ], [ 433015.0, 438870.75 ], [ 433014.75, 438870.75 ], [ 433014.75, 438871.0 ], [ 433014.5, 438871.0 ], [ 433014.5, 438871.25 ], [ 433013.5, 438871.25 ], [ 433013.5, 438871.5 ], [ 433013.25, 438871.5 ], [ 433013.25, 438872.0 ], [ 433027.75, 438872.0 ], [ 433027.75, 438874.25 ], [ 433027.5, 438874.25 ], [ 433027.5, 438874.75 ], [ 433027.25, 438874.75 ], [ 433027.25, 438875.0 ], [ 433027.0, 438875.0 ], [ 433027.0, 438875.5 ], [ 433026.75, 438875.5 ], [ 433026.75, 438875.75 ], [ 433026.5, 438875.75 ], [ 433026.5, 438876.0 ], [ 433026.25, 438876.0 ], [ 433026.25, 438876.5 ], [ 433026.0, 438876.5 ], [ 433026.0, 438876.75 ], [ 433025.75, 438876.75 ], [ 433025.75, 438877.0 ], [ 433025.5, 438877.0 ], [ 433025.5, 438877.5 ], [ 433025.25, 438877.5 ], [ 433025.25, 438878.25 ], [ 433025.0, 438878.25 ], [ 433025.0, 438878.75 ], [ 433025.25, 438878.75 ], [ 433025.25, 438879.75 ], [ 433025.5, 438879.75 ], [ 433025.5, 438880.75 ], [ 433025.75, 438880.75 ], [ 433025.75, 438881.25 ], [ 433026.0, 438881.25 ], [ 433026.0, 438882.0 ], [ 433026.25, 438882.0 ], [ 433026.25, 438882.5 ], [ 433026.5, 438882.5 ], [ 433026.5, 438884.0 ], [ 433026.25, 438884.0 ], [ 433026.25, 438885.0 ], [ 433026.0, 438885.0 ], [ 433026.0, 438885.75 ], [ 433025.75, 438885.75 ], [ 433025.75, 438886.25 ], [ 433025.5, 438886.25 ], [ 433025.5, 438887.25 ], [ 433025.25, 438887.25 ], [ 433025.25, 438887.75 ], [ 433025.0, 438887.75 ], [ 433025.0, 438888.25 ], [ 433024.75, 438888.25 ], [ 433024.75, 438888.75 ], [ 433024.5, 438888.75 ], [ 433024.5, 438889.0 ], [ 433024.25, 438889.0 ], [ 433024.25, 438889.25 ], [ 433024.0, 438889.25 ], [ 433024.0, 438889.75 ], [ 433023.75, 438889.75 ], [ 433023.75, 438890.0 ], [ 433023.5, 438890.0 ], [ 433023.5, 438890.25 ], [ 433023.25, 438890.25 ], [ 433023.25, 438890.5 ], [ 433023.0, 438890.5 ], [ 433023.0, 438890.75 ], [ 433022.5, 438890.75 ], [ 433022.5, 438891.0 ], [ 433022.25, 438891.0 ], [ 433022.25, 438891.25 ], [ 433022.0, 438891.25 ], [ 433022.0, 438891.5 ], [ 433021.5, 438891.5 ], [ 433021.5, 438891.75 ], [ 433021.25, 438891.75 ], [ 433021.25, 438892.0 ], [ 433021.0, 438892.0 ], [ 433021.0, 438892.25 ], [ 433020.75, 438892.25 ], [ 433020.75, 438892.5 ], [ 433020.5, 438892.5 ], [ 433020.5, 438892.75 ], [ 433020.25, 438892.75 ], [ 433020.25, 438893.25 ], [ 433020.0, 438893.25 ], [ 433020.0, 438893.5 ], [ 433019.75, 438893.5 ], [ 433019.75, 438893.75 ], [ 433019.5, 438893.75 ], [ 433019.5, 438894.0 ], [ 433019.25, 438894.0 ], [ 433019.25, 438894.25 ], [ 433019.0, 438894.25 ], [ 433019.0, 438894.5 ], [ 433018.75, 438894.5 ], [ 433018.75, 438894.75 ], [ 433018.5, 438894.75 ], [ 433018.5, 438895.0 ], [ 433018.25, 438895.0 ], [ 433018.25, 438895.25 ], [ 433018.0, 438895.25 ], [ 433018.0, 438895.5 ], [ 433017.75, 438895.5 ], [ 433017.75, 438895.75 ], [ 433017.5, 438895.75 ], [ 433017.5, 438896.0 ], [ 433017.25, 438896.0 ], [ 433017.25, 438896.25 ], [ 433017.0, 438896.25 ], [ 433017.0, 438896.5 ], [ 433016.75, 438896.5 ], [ 433016.75, 438896.75 ], [ 433016.5, 438896.75 ], [ 433016.5, 438897.0 ], [ 433016.25, 438897.0 ], [ 433016.25, 438897.25 ], [ 433016.0, 438897.25 ], [ 433016.0, 438897.5 ], [ 433015.75, 438897.5 ], [ 433015.75, 438898.0 ], [ 433015.5, 438898.0 ], [ 433015.5, 438898.25 ], [ 433015.25, 438898.25 ], [ 433015.25, 438898.5 ], [ 433015.0, 438898.5 ], [ 433015.0, 438898.75 ], [ 433014.75, 438898.75 ], [ 433014.75, 438899.0 ], [ 433014.25, 438899.0 ], [ 433014.25, 438899.25 ], [ 433013.75, 438899.25 ], [ 433013.75, 438899.5 ], [ 433013.25, 438899.5 ], [ 433013.25, 438899.75 ], [ 433012.0, 438899.75 ], [ 433012.0, 438900.0 ], [ 433010.75, 438900.0 ], [ 433010.75, 438900.25 ], [ 433009.5, 438900.25 ] ] ] } },
{ "type": "Feature", "properties": { }, "geometry": { "type": "Polygon", "coordinates": [ [ [ 433128.0, 438846.5 ], [ 433128.0, 438829.25 ], [ 433130.25, 438829.25 ], [ 433130.25, 438829.0 ], [ 433130.5, 438829.0 ], [ 433130.5, 438828.75 ], [ 433130.75, 438828.75 ], [ 433130.75, 438828.5 ], [ 433131.0, 438828.5 ], [ 433131.0, 438828.25 ], [ 433131.5, 438828.25 ], [ 433131.5, 438828.0 ], [ 433131.75, 438828.0 ], [ 433131.75, 438827.75 ], [ 433132.0, 438827.75 ], [ 433132.0, 438827.5 ], [ 433132.25, 438827.5 ], [ 433132.25, 438827.25 ], [ 433132.5, 438827.25 ], [ 433132.5, 438827.0 ], [ 433132.75, 438827.0 ], [ 433132.75, 438826.75 ], [ 433133.0, 438826.75 ], [ 433133.0, 438826.5 ], [ 433133.25, 438826.5 ], [ 433133.25, 438826.25 ], [ 433133.5, 438826.25 ], [ 433133.5, 438826.0 ], [ 433133.75, 438826.0 ], [ 433133.75, 438825.75 ], [ 433134.25, 438825.75 ], [ 433134.25, 438825.5 ], [ 433134.75, 438825.5 ], [ 433134.75, 438825.75 ], [ 433135.25, 438825.75 ], [ 433135.25, 438826.0 ], [ 433135.5, 438826.0 ], [ 433135.5, 438826.25 ], [ 433136.0, 438826.25 ], [ 433136.0, 438826.5 ], [ 433136.25, 438826.5 ], [ 433136.25, 438827.0 ], [ 433136.5, 438827.0 ], [ 433136.5, 438827.5 ], [ 433136.75, 438827.5 ], [ 433136.75, 438829.75 ], [ 433136.5, 438829.75 ], [ 433136.5, 438830.0 ], [ 433136.25, 438830.0 ], [ 433136.25, 438832.0 ], [ 433136.0, 438832.0 ], [ 433136.0, 438833.25 ], [ 433135.75, 438833.25 ], [ 433135.75, 438834.0 ], [ 433135.5, 438834.0 ], [ 433135.5, 438834.25 ], [ 433135.25, 438834.25 ], [ 433135.25, 438834.75 ], [ 433135.5, 438834.75 ], [ 433135.5, 438835.0 ], [ 433136.0, 438835.0 ], [ 433136.0, 438835.25 ], [ 433136.25, 438835.25 ], [ 433136.25, 438836.25 ], [ 433135.75, 438836.25 ], [ 433135.75, 438836.5 ], [ 433135.5, 438836.5 ], [ 433135.5, 438836.75 ], [ 433136.5, 438836.75 ], [ 433136.5, 438837.0 ], [ 433136.75, 438837.0 ], [ 433136.75, 438837.75 ], [ 433136.5, 438837.75 ], [ 433136.5, 438838.25 ], [ 433136.25, 438838.25 ], [ 433136.25, 438838.5 ], [ 433135.5, 438838.5 ], [ 433135.5, 438838.75 ], [ 433135.25, 438838.75 ], [ 433135.25, 438838.5 ], [ 433133.25, 438838.5 ], [ 433133.25, 438838.75 ], [ 433133.0, 438838.75 ], [ 433133.0, 438839.0 ], [ 433132.5, 438839.0 ], [ 433132.5, 438839.25 ], [ 433132.25, 438839.25 ], [ 433132.25, 438840.25 ], [ 433132.5, 438840.25 ], [ 433132.5, 438840.5 ], [ 433132.25, 438840.5 ], [ 433132.25, 438840.75 ], [ 433131.75, 438840.75 ], [ 433131.75, 438841.0 ], [ 433130.75, 438841.0 ], [ 433130.75, 438840.75 ], [ 433129.75, 438840.75 ], [ 433129.75, 438840.5 ], [ 433129.5, 438840.5 ], [ 433129.5, 438841.0 ], [ 433129.25, 438841.0 ], [ 433129.25, 438841.75 ], [ 433129.5, 438841.75 ], [ 433129.5, 438842.0 ], [ 433130.0, 438842.0 ], [ 433130.0, 438842.25 ], [ 433130.5, 438842.25 ], [ 433130.5, 438843.25 ], [ 433130.25, 438843.25 ], [ 433130.25, 438843.5 ], [ 433130.5, 438843.5 ], [ 433130.5, 438843.75 ], [ 433130.75, 438843.75 ], [ 433130.75, 438844.0 ], [ 433131.0, 438844.0 ], [ 433131.0, 438844.25 ], [ 433131.25, 438844.25 ], [ 433131.25, 438844.75 ], [ 433131.0, 438844.75 ], [ 433131.0, 438845.5 ], [ 433130.75, 438845.5 ], [ 433130.75, 438845.75 ], [ 433130.5, 438845.75 ], [ 433130.5, 438846.0 ], [ 433130.25, 438846.0 ], [ 433130.25, 438846.25 ], [ 433129.5, 438846.25 ], [ 433129.5, 438846.5 ], [ 433128.0, 438846.5 ] ] ] } },
{ "type": "Feature", "properties": { }, "geometry": { "type": "Polygon", "coordinates": [ [ [ 433048.0, 438339.75 ], [ 433048.0, 438339.5 ], [ 433046.25, 438339.5 ], [ 433046.25, 438339.25 ], [ 433045.5, 438339.25 ], [ 433045.5, 438339.0 ], [ 433045.0, 438339.0 ], [ 433045.0, 438338.75 ], [ 433044.5, 438338.75 ], [ 433044.5, 438338.5 ], [ 433044.25, 438338.5 ], [ 433044.25, 438338.25 ], [ 433044.0, 438338.25 ], [ 433044.0, 438338.0 ], [ 433043.75, 438338.0 ], [ 433043.75, 438337.75 ], [ 433043.25, 438337.75 ], [ 433043.25, 438337.25 ], [ 433043.0, 438337.25 ], [ 433043.0, 438337.0 ], [ 433042.75, 438337.0 ], [ 433042.75, 438336.75 ], [ 433042.5, 438336.75 ], [ 433042.5, 438336.5 ], [ 433042.25, 438336.5 ], [ 433042.25, 438336.25 ], [ 433042.0, 438336.25 ], [ 433042.0, 438336.0 ], [ 433041.75, 438336.0 ], [ 433041.75, 438335.75 ], [ 433041.5, 438335.75 ], [ 433041.5, 438335.5 ], [ 433041.25, 438335.5 ], [ 433041.25, 438335.25 ], [ 433041.0, 438335.25 ], [ 433041.0, 438335.0 ], [ 433040.75, 438335.0 ], [ 433040.75, 438334.5 ], [ 433040.5, 438334.5 ], [ 433040.5, 438334.25 ], [ 433040.25, 438334.25 ], [ 433040.25, 438334.0 ], [ 433040.0, 438334.0 ], [ 433040.0, 438333.5 ], [ 433039.75, 438333.5 ], [ 433039.75, 438333.25 ], [ 433039.5, 438333.25 ], [ 433039.5, 438333.0 ], [ 433039.25, 438333.0 ], [ 433039.25, 438332.75 ], [ 433039.0, 438332.75 ], [ 433039.0, 438332.5 ], [ 433038.75, 438332.5 ], [ 433038.75, 438332.25 ], [ 433038.5, 438332.25 ], [ 433038.5, 438331.75 ], [ 433038.25, 438331.75 ], [ 433038.25, 438331.5 ], [ 433038.0, 438331.5 ], [ 433038.0, 438331.25 ], [ 433037.75, 438331.25 ], [ 433037.75, 438331.0 ], [ 433037.5, 438331.0 ], [ 433037.5, 438330.75 ], [ 433037.25, 438330.75 ], [ 433037.25, 438329.75 ], [ 433037.0, 438329.75 ], [ 433037.0, 438329.25 ], [ 433037.25, 438329.25 ], [ 433037.25, 438328.0 ], [ 433037.5, 438328.0 ], [ 433037.5, 438327.0 ], [ 433037.75, 438327.0 ], [ 433037.75, 438326.25 ], [ 433038.0, 438326.25 ], [ 433038.0, 438325.5 ], [ 433038.25, 438325.5 ], [ 433038.25, 438324.75 ], [ 433038.5, 438324.75 ], [ 433038.5, 438324.5 ], [ 433038.75, 438324.5 ], [ 433038.75, 438324.0 ], [ 433039.0, 438324.0 ], [ 433039.0, 438323.75 ], [ 433039.25, 438323.75 ], [ 433039.25, 438323.25 ], [ 433039.5, 438323.25 ], [ 433039.5, 438322.75 ], [ 433039.75, 438322.75 ], [ 433039.75, 438321.5 ], [ 433040.0, 438321.5 ], [ 433040.0, 438318.25 ], [ 433040.25, 438318.25 ], [ 433040.25, 438317.75 ], [ 433040.5, 438317.75 ], [ 433040.5, 438317.5 ], [ 433040.75, 438317.5 ], [ 433040.75, 438317.0 ], [ 433041.0, 438317.0 ], [ 433041.0, 438316.75 ], [ 433041.25, 438316.75 ], [ 433041.25, 438316.25 ], [ 433041.5, 438316.25 ], [ 433041.5, 438315.75 ], [ 433041.75, 438315.75 ], [ 433041.75, 438315.5 ], [ 433042.0, 438315.5 ], [ 433042.0, 438315.25 ], [ 433042.25, 438315.25 ], [ 433042.25, 438315.0 ], [ 433042.5, 438315.0 ], [ 433042.5, 438314.75 ], [ 433042.75, 438314.75 ], [ 433042.75, 438314.5 ], [ 433043.0, 438314.5 ], [ 433043.0, 438314.25 ], [ 433043.25, 438314.25 ], [ 433043.25, 438314.0 ], [ 433043.75, 438314.0 ], [ 433043.75, 438313.75 ], [ 433044.0, 438313.75 ], [ 433044.0, 438313.5 ], [ 433044.5, 438313.5 ], [ 433044.5, 438313.25 ], [ 433045.0, 438313.25 ], [ 433045.0, 438313.0 ], [ 433045.5, 438313.0 ], [ 433045.5, 438312.75 ], [ 433046.25, 438312.75 ], [ 433046.25, 438312.5 ], [ 433047.25, 438312.5 ], [ 433047.25, 438312.25 ], [ 433048.0, 438312.25 ], [ 433048.0, 438312.0 ], [ 433049.25, 438312.0 ], [ 433049.25, 438311.75 ], [ 433050.75, 438311.75 ], [ 433050.75, 438311.5 ], [ 433052.75, 438311.5 ], [ 433052.75, 438311.25 ], [ 433054.75, 438311.25 ], [ 433054.75, 438311.5 ], [ 433055.25, 438311.5 ], [ 433055.25, 438311.75 ], [ 433055.75, 438311.75 ], [ 433055.75, 438312.0 ], [ 433056.5, 438312.0 ], [ 433056.5, 438312.25 ], [ 433057.0, 438312.25 ], [ 433057.0, 438312.5 ], [ 433057.5, 438312.5 ], [ 433057.5, 438312.75 ], [ 433059.0, 438312.75 ], [ 433059.0, 438312.5 ], [ 433062.5, 438312.5 ], [ 433062.5, 438312.75 ], [ 433063.0, 438312.75 ], [ 433063.0, 438313.0 ], [ 433063.5, 438313.0 ], [ 433063.5, 438313.25 ], [ 433064.0, 438313.25 ], [ 433064.0, 438313.5 ], [ 433064.25, 438313.5 ], [ 433064.25, 438313.75 ], [ 433064.5, 438313.75 ], [ 433064.5, 438314.0 ], [ 433064.75, 438314.0 ], [ 433064.75, 438314.25 ], [ 433065.25, 438314.25 ], [ 433065.25, 438315.25 ], [ 433065.5, 438315.25 ], [ 433065.5, 438319.25 ], [ 433065.25, 438319.25 ], [ 433065.25, 438320.0 ], [ 433065.0, 438320.0 ], [ 433065.0, 438320.75 ], [ 433064.75, 438320.75 ], [ 433064.75, 438321.75 ], [ 433064.5, 438321.75 ], [ 433064.5, 438325.25 ], [ 433064.25, 438325.25 ], [ 433064.25, 438328.75 ], [ 433064.0, 438328.75 ], [ 433064.0, 438331.25 ], [ 433063.75, 438331.25 ], [ 433063.75, 438333.25 ], [ 433063.5, 438333.25 ], [ 433063.5, 438334.0 ], [ 433063.25, 438334.0 ], [ 433063.25, 438334.75 ], [ 433063.0, 438334.75 ], [ 433063.0, 438335.5 ], [ 433062.75, 438335.5 ], [ 433062.75, 438336.0 ], [ 433062.5, 438336.0 ], [ 433062.5, 438336.5 ], [ 433062.25, 438336.5 ], [ 433062.25, 438336.75 ], [ 433062.0, 438336.75 ], [ 433062.0, 438337.25 ], [ 433061.75, 438337.25 ], [ 433061.75, 438337.75 ], [ 433061.5, 438337.75 ], [ 433061.5, 438338.0 ], [ 433061.25, 438338.0 ], [ 433061.25, 438338.25 ], [ 433061.0, 438338.25 ], [ 433061.0, 438338.5 ], [ 433060.75, 438338.5 ], [ 433060.75, 438338.75 ], [ 433060.5, 438338.75 ], [ 433060.5, 438339.0 ], [ 433059.75, 438339.0 ], [ 433059.75, 438339.25 ], [ 433059.25, 438339.25 ], [ 433059.25, 438339.5 ], [ 433055.75, 438339.5 ], [ 433055.75, 438339.25 ], [ 433055.0, 438339.25 ], [ 433055.0, 438339.0 ], [ 433054.5, 438339.0 ], [ 433054.5, 438338.75 ], [ 433054.0, 438338.75 ], [ 433054.0, 438339.0 ], [ 433053.25, 438339.0 ], [ 433053.25, 438339.25 ], [ 433052.75, 438339.25 ], [ 433052.75, 438339.5 ], [ 433052.0, 438339.5 ], [ 433052.0, 438339.75 ], [ 433048.0, 438339.75 ] ] ] } },
{ "type": "Feature", "properties": { }, "geometry": { "type": "Polygon", "coordinates": [ [ [ 433029.0, 438299.75 ], [ 433029.0, 438299.5 ], [ 433028.25, 438299.5 ], [ 433028.25, 438299.25 ], [ 433027.75, 438299.25 ], [ 433027.75, 438299.0 ], [ 433027.5, 438299.0 ], [ 433027.5, 438298.75 ], [ 433027.0, 438298.75 ], [ 433027.0, 438298.0 ], [ 433026.75, 438298.0 ], [ 433026.75, 438297.75 ], [ 433026.5, 438297.75 ], [ 433026.5, 438297.5 ], [ 433026.75, 438297.5 ], [ 433026.75, 438297.25 ], [ 433027.0, 438297.25 ], [ 433027.0, 438297.0 ], [ 433027.25, 438297.0 ], [ 433027.25, 438296.5 ], [ 433027.5, 438296.5 ], [ 433027.5, 438296.25 ], [ 433027.75, 438296.25 ], [ 433027.75, 438296.0 ], [ 433028.0, 438296.0 ], [ 433028.0, 438295.5 ], [ 433028.25, 438295.5 ], [ 433028.25, 438295.25 ], [ 433028.5, 438295.25 ], [ 433028.5, 438295.0 ], [ 433028.75, 438295.0 ], [ 433028.75, 438294.75 ], [ 433029.0, 438294.75 ], [ 433029.0, 438294.25 ], [ 433029.25, 438294.25 ], [ 433029.25, 438294.0 ], [ 433029.5, 438294.0 ], [ 433029.5, 438293.75 ], [ 433029.75, 438293.75 ], [ 433029.75, 438293.25 ], [ 433030.0, 438293.25 ], [ 433030.0, 438293.0 ], [ 433030.25, 438293.0 ], [ 433030.25, 438292.5 ], [ 433030.5, 438292.5 ], [ 433030.5, 438292.25 ], [ 433030.75, 438292.25 ], [ 433030.75, 438291.75 ], [ 433031.0, 438291.75 ], [ 433031.0, 438291.25 ], [ 433031.25, 438291.25 ], [ 433031.25, 438290.0 ], [ 433031.5, 438290.0 ], [ 433031.5, 438289.0 ], [ 433031.75, 438289.0 ], [ 433031.75, 438288.25 ], [ 433032.0, 438288.25 ], [ 433032.0, 438287.5 ], [ 433032.25, 438287.5 ], [ 433032.25, 438287.0 ], [ 433032.5, 438287.0 ], [ 433032.5, 438286.5 ], [ 433032.75, 438286.5 ], [ 433032.75, 438285.75 ], [ 433033.0, 438285.75 ], [ 433033.0, 438284.75 ], [ 433033.25, 438284.75 ], [ 433033.25, 438284.0 ], [ 433033.5, 438284.0 ], [ 433033.5, 438283.5 ], [ 433033.75, 438283.5 ], [ 433033.75, 438282.75 ], [ 433034.0, 438282.75 ], [ 433034.0, 438282.0 ], [ 433034.25, 438282.0 ], [ 433034.25, 438281.25 ], [ 433034.5, 438281.25 ], [ 433034.5, 438280.5 ], [ 433034.75, 438280.5 ], [ 433034.75, 438279.75 ], [ 433035.0, 438279.75 ], [ 433035.0, 438279.0 ], [ 433035.25, 438279.0 ], [ 433035.25, 438278.25 ], [ 433035.5, 438278.25 ], [ 433035.5, 438276.25 ], [ 433035.75, 438276.25 ], [ 433035.75, 438275.25 ], [ 433036.0, 438275.25 ], [ 433036.0, 438274.5 ], [ 433036.25, 438274.5 ], [ 433036.25, 438274.0 ], [ 433036.5, 438274.0 ], [ 433036.5, 438273.25 ], [ 433036.75, 438273.25 ], [ 433036.75, 438272.75 ], [ 433037.0, 438272.75 ], [ 433037.0, 438272.25 ], [ 433037.25, 438272.25 ], [ 433037.25, 438271.5 ], [ 433037.5, 438271.5 ], [ 433037.5, 438271.25 ], [ 433037.75, 438271.25 ], [ 433037.75, 438271.0 ], [ 433038.0, 438271.0 ], [ 433038.0, 438270.75 ], [ 433038.25, 438270.75 ], [ 433038.25, 438270.5 ], [ 433038.75, 438270.5 ], [ 433038.75, 438270.75 ], [ 433039.25, 438270.75 ], [ 433039.25, 438271.0 ], [ 433039.5, 438271.0 ], [ 433039.5, 438271.25 ], [ 433039.75, 438271.25 ], [ 433039.75, 438271.5 ], [ 433040.0, 438271.5 ], [ 433040.0, 438272.0 ], [ 433040.25, 438272.0 ], [ 433040.25, 438272.5 ], [ 433040.5, 438272.5 ], [ 433040.5, 438272.75 ], [ 433040.75, 438272.75 ], [ 433040.75, 438273.25 ], [ 433041.0, 438273.25 ], [ 433041.0, 438273.5 ], [ 433041.25, 438273.5 ], [ 433041.25, 438273.75 ], [ 433041.5, 438273.75 ], [ 433041.5, 438274.0 ], [ 433041.75, 438274.0 ], [ 433041.75, 438274.25 ], [ 433042.0, 438274.25 ], [ 433042.0, 438274.5 ], [ 433042.5, 438274.5 ], [ 433042.5, 438274.75 ], [ 433047.25, 438274.75 ], [ 433047.25, 438275.0 ], [ 433048.25, 438275.0 ], [ 433048.25, 438275.25 ], [ 433048.5, 438275.25 ], [ 433048.5, 438279.0 ], [ 433048.25, 438279.0 ], [ 433048.25, 438281.25 ], [ 433048.0, 438281.25 ], [ 433048.0, 438283.0 ], [ 433048.25, 438283.0 ], [ 433048.25, 438284.25 ], [ 433048.5, 438284.25 ], [ 433048.5, 438287.0 ], [ 433048.25, 438287.0 ], [ 433048.25, 438287.5 ], [ 433048.0, 438287.5 ], [ 433048.0, 438287.75 ], [ 433047.75, 438287.75 ], [ 433047.75, 438288.0 ], [ 433047.5, 438288.0 ], [ 433047.5, 438288.25 ], [ 433047.25, 438288.25 ], [ 433047.25, 438288.5 ], [ 433047.0, 438288.5 ], [ 433047.0, 438288.75 ], [ 433046.75, 438288.75 ], [ 433046.75, 438289.0 ], [ 433046.25, 438289.0 ], [ 433046.25, 438289.25 ], [ 433046.0, 438289.25 ], [ 433046.0, 438289.5 ], [ 433045.5, 438289.5 ], [ 433045.5, 438289.75 ], [ 433045.25, 438289.75 ], [ 433045.25, 438290.0 ], [ 433044.75, 438290.0 ], [ 433044.75, 438290.25 ], [ 433043.5, 438290.25 ], [ 433043.5, 438290.0 ], [ 433042.75, 438290.0 ], [ 433042.75, 438289.75 ], [ 433042.25, 438289.75 ], [ 433042.25, 438290.0 ], [ 433041.75, 438290.0 ], [ 433041.75, 438290.25 ], [ 433041.5, 438290.25 ], [ 433041.5, 438291.0 ], [ 433041.75, 438291.0 ], [ 433041.75, 438291.25 ], [ 433042.5, 438291.25 ], [ 433042.5, 438291.5 ], [ 433042.75, 438291.5 ], [ 433042.75, 438292.0 ], [ 433042.5, 438292.0 ], [ 433042.5, 438292.5 ], [ 433042.25, 438292.5 ], [ 433042.25, 438292.75 ], [ 433042.0, 438292.75 ], [ 433042.0, 438293.0 ], [ 433041.75, 438293.0 ], [ 433041.75, 438293.25 ], [ 433041.5, 438293.25 ], [ 433041.5, 438293.5 ], [ 433041.0, 438293.5 ], [ 433041.0, 438293.75 ], [ 433040.5, 438293.75 ], [ 433040.5, 438294.0 ], [ 433040.25, 438294.0 ], [ 433040.25, 438294.5 ], [ 433039.75, 438294.5 ], [ 433039.75, 438294.75 ], [ 433039.5, 438294.75 ], [ 433039.5, 438295.0 ], [ 433039.0, 438295.0 ], [ 433039.0, 438295.25 ], [ 433038.75, 438295.25 ], [ 433038.75, 438295.5 ], [ 433038.5, 438295.5 ], [ 433038.5, 438295.75 ], [ 433038.25, 438295.75 ], [ 433038.25, 438296.25 ], [ 433038.0, 438296.25 ], [ 433038.0, 438296.75 ], [ 433037.5, 438296.75 ], [ 433037.5, 438297.0 ], [ 433037.0, 438297.0 ], [ 433037.0, 438297.25 ], [ 433036.5, 438297.25 ], [ 433036.5, 438297.5 ], [ 433034.5, 438297.5 ], [ 433034.5, 438297.75 ], [ 433034.0, 438297.75 ], [ 433034.0, 438298.0 ], [ 433033.5, 438298.0 ], [ 433033.5, 438298.25 ], [ 433033.25, 438298.25 ], [ 433033.25, 438298.5 ], [ 433033.0, 438298.5 ], [ 433033.0, 438298.75 ], [ 433032.75, 438298.75 ], [ 433032.75, 438299.0 ], [ 433032.25, 438299.0 ], [ 433032.25, 438299.25 ], [ 433031.75, 438299.25 ], [ 433031.75, 438299.5 ], [ 433031.25, 438299.5 ], [ 433031.25, 438299.75 ], [ 433029.0, 438299.75 ] ] ] } }
]
}
