{
"type": "FeatureCollection",
"name": "se3339_rgb_250_03_original",
"crs": { "type": "name", "properties": { "name": "urn:ogc:def:crs:EPSG::27700" } },
"features": [
{ "type": "Feature", "properties": { }, "geometry": { "type": "Polygon", "coordinates": [ [ [ 433139.5, 439991.0 ], [ 433139.5, 439990.75 ], [ 433139.0, 439990.75 ], [ 433139.0, 439990.5 ], [ 433138.75, 439990.5 ], [ 433138.75, 439990.25 ], [ 433138.5, 439990.25 ], [ 433138.5, 439989.75 ], [ 433138.25, 439989.75 ], [ 433138.25, 439988.25 ], [ 433138.0, 439988.25 ], [ 433138.0, 439988.0 ], [ 433137.75, 439988.0 ], [ 433137.75, 439987.5 ], [ 433137.5, 439987.5 ], [ 433137.5, 439987.0 ], [ 433137.25, 439987.0 ], [ 433137.25, 439986.75 ], [ 433137.0, 439986.75 ], [ 433137.0, 439986.25 ], [ 433137.25, 439986.25 ], [ 433137.25, 439985.75 ], [ 433137.5, 439985.75 ], [ 433137.5, 439985.5 ], [ 433137.75, 439985.5 ], [ 433137.75, 439985.0 ], [ 433138.0, 439985.0 ], [ 433138.0, 439984.75 ], [ 433138.25, 439984.75 ], [ 433138.25, 439984.5 ], [ 433138.5, 439984.5 ], [ 433138.5, 439984.25 ], [ 433138.75, 439984.25 ], [ 433138.75, 439984.0 ], [ 433139.5, 439984.0 ], [ 433139.5, 439983.75 ], [ 433140.0, 439983.75 ], [ 433140.0, 439983.5 ], [ 433140.25, 439983.5 ], [ 433140.25, 439983.25 ], [ 433141.5, 439983.25 ], [ 433141.5, 439983.5 ], [ 433142.5, 439983.5 ], [ 433142.5, 439983.75 ], [ 433142.75, 439983.75 ], [ 433142.75, 439984.0 ], [ 433143.0, 439984.0 ], [ 433143.0, 439984.25 ], [ 433143.5, 439984.25 ], [ 433143.5, 439984.5 ], [ 433144.0, 439984.5 ], [ 433144.0, 439984.75 ], [ 433144.25, 439984.75 ], [ 433144.25, 439985.0 ], [ 433144.5, 439985.0 ], [ 433144.5, 439985.25 ], [ 433144.75, 439985.25 ], [ 433144.75, 439985.5 ], [ 433145.0, 439985.5 ], [ 433145.0, 439986.75 ], [ 433144.75, 439986.75 ], [ 433144.75, 439987.25 ], [ 433144.5, 439987.25 ], [ 433144.5, 439987.75 ], [ 433144.25, 439987.75 ], [ 433144.25, 439988.0 ], [ 433143.75, 439988.0 ], [ 433143.75, 439988.25 ], [ 433143.5, 439988.25 ], [ 433143.5, 439988.5 ], [ 433143.25, 439988.5 ], [ 433143.25, 439989.0 ], [ 433143.0, 439989.0 ], [ 433143.0, 439989.25 ], [ 433142.75, 439989.25 ], [ 433142.75, 439989.75 ], [ 433142.5, 439989.75 ], [ 433142.5, 439990.0 ], [ 433142.25, 439990.0 ], [ 433142.25, 439990.25 ], [ 433142.0, 439990.25 ], [ 433142.0, 439990.5 ], [ 433141.5, 439990.5 ], [ 433141.5, 439990.75 ], [ 433139.75, 439990.75 ], [ 433139.75, 439991.0 ], [ 433139.5, 439991.0 ] ] ] } },
{ "type": "Feature", "properties": { }, "geometry": { "type": "Polygon", "coordinates": [ [ [ 433135.0, 439977.75 ], [ 433135.0, 439977.5 ], [ 433134.5, 439977.5 ], [ 433134.5, 439977.25 ], [ 433134.25, 439977.25 ], [ 433134.25, 439977.0 ], [ 433133.75, 439977.0 ], [ 433133.75, 439976.75 ], [ 433132.75, 439976.75 ], [ 433132.75, 439976.5 ], [ 433132.25, 439976.5 ], [ 433132.25, 439976.75 ], [ 433131.0, 439976.75 ], [ 433131.0, 439976.5 ], [ 433130.5, 439976.5 ], [ 433130.5, 439976.25 ], [ 433129.75, 439976.25 ], [ 433129.75, 439976.0 ], [ 433128.75, 439976.0 ], [ 433128.75, 439975.75 ], [ 433128.0, 439975.75 ], [ 433128.0, 439965.0 ], [ 433129.5, 439965.0 ], [ 433129.5, 439965.25 ], [ 433130.25, 439965.25 ], [ 433130.25, 439965.5 ], [ 433130.75, 439965.5 ], [ 433130.75, 439965.75 ], [ 433131.0, 439965.75 ], [ 433131.0, 439966.0 ], [ 433131.5, 439966.0 ], [ 433131.5, 439966.25 ], [ 433132.0, 439966.25 ], [ 433132.0, 439966.5 ], [ 433132.25, 439966.5 ], [ 433132.25, 439966.75 ], [ 433133.5, 439966.75 ], [ 433133.5, 439967.0 ], [ 433134.0, 439967.0 ], [ 433134.0, 439967.25 ], [ 433134.5, 439967.25 ], [ 433134.5, 439967.5 ], [ 433134.75, 439967.5 ], [ 433134.75, 439967.75 ], [ 433135.0, 439967.75 ], [ 433135.0, 439968.0 ], [ 433135.25, 439968.0 ], [ 433135.25, 439968.25 ], [ 433135.75, 439968.25 ], [ 433135.75, 439968.5 ], [ 433136.0, 439968.5 ], [ 433136.0, 439968.75 ], [ 433136.25, 439968.75 ], [ 433136.25, 439969.0 ], [ 433136.75, 439969.0 ], [ 433136.75, 439969.25 ], [ 433137.0, 439969.25 ], [ 433137.0, 439969.5 ], [ 433137.25, 439969.5 ], [ 433137.25, 439969.75 ], [ 433137.5, 439969.75 ], [ 433137.5, 439970.25 ], [ 433137.75, 439970.25 ], [ 433137.75, 439970.5 ], [ 433138.0, 439970.5 ], [ 433138.0, 439972.5 ], [ 433137.75, 439972.5 ], [ 433137.75, 439974.75 ], [ 433137.5, 439974.75 ], [ 433137.5, 439975.0 ], [ 433137.25, 439975.0 ], [ 433137.25, 439975.25 ], [ 433137.0, 439975.25 ], [ 433137.0, 439975.75 ], [ 433136.75, 439975.75 ], [ 433136.75, 439976.25 ], [ 433136.5, 439976.25 ], [ 433136.5, 439976.5 ], [ 433136.25, 439976.5 ], [ 433136.25, 439977.0 ], [ 433136.0, 439977.0 ], [ 433136.0, 439977.25 ], [ 433135.75, 439977.25 ], [ 433135.75, 439977.5 ], [ 433135.5, 439977.5 ], [ 433135.5, 439977.75 ], [ 433135.0, 439977.75 ] ] ] } },
{ "type": "Feature", "properties": { }, "geometry": { "type": "Polygon", "coordinates": [ [ [ 433973.5, 439977.0 ], [ 433973.5, 439976.75 ], [ 433972.75, 439976.75 ], [ 433972.75, 439976.5 ], [ 433972.0, 439976.5 ], [ 433972.0, 439976.25 ], [ 433971.5, 439976.25 ], [ 433971.5, 439976.0 ], [ 433971.0, 439976.0 ], [ 433971.0, 439975.75 ], [ 433970.75, 439975.75 ], [ 433970.75, 439975.5 ], [ 433970.25, 439975.5 ], [ 433970.25, 439975.25 ], [ 433969.75, 439975.25 ], [ 433969.75, 439975.0 ], [ 433969.5, 439975.0 ], [ 433969.5, 439974.75 ], [ 433969.25, 439974.75 ], [ 433969.25, 439974.5 ], [ 433969.0, 439974.5 ], [ 433969.0, 439974.25 ], [ 433968.75, 439974.25 ], [ 433968.75, 439973.75 ], [ 433968.5, 439973.75 ], [ 433968.5, 439973.5 ], [ 433968.25, 439973.5 ], [ 433968.25, 439973.25 ], [ 433968.0, 439973.25 ], [ 433968.0, 439972.75 ], [ 433967.75, 439972.75 ], [ 433967.75, 439972.0 ], [ 433967.5, 439972.0 ], [ 433967.5, 439971.25 ], [ 433967.25, 439971.25 ], [ 433967.25, 439970.5 ], [ 433967.0, 439970.5 ], [ 433967.0, 439969.75 ], [ 433966.75, 439969.75 ], [ 433966.75, 439969.0 ], [ 433966.5, 439969.0 ], [ 433966.5, 439968.5 ], [ 433966.25, 439968.5 ], [ 433966.25, 439968.25 ], [ 433966.0, 439968.25 ], [ 433966.0, 439968.0 ], [ 433965.75, 439968.0 ], [ 433965.75, 439967.5 ], [ 433965.5, 439967.5 ], [ 433965.5, 439967.0 ], [ 433965.25, 439967.0 ], [ 433965.25, 439966.75 ], [ 433965.0, 439966.75 ], [ 433965.0, 439966.25 ], [ 433964.75, 439966.25 ], [ 433964.75, 439965.75 ], [ 433964.5, 439965.75 ], [ 433964.5, 439965.0 ], [ 433964.25, 439965.0 ], [ 433964.25, 439964.5 ], [ 433964.0, 439964.5 ], [ 433964.0, 439963.75 ], [ 433963.75, 439963.75 ], [ 433963.75, 439963.0 ], [ 433963.5, 439963.0 ], [ 433963.5, 439961.75 ], [ 433963.25, 439961.75 ], [ 433963.25, 439961.0 ], [ 433963.0, 439961.0 ], [ 433963.0, 439960.25 ], [ 433962.75, 439960.25 ], [ 433962.75, 439959.75 ], [ 433962.5, 439959.75 ], [ 433962.5, 439959.25 ], [ 433962.25, 439959.25 ], [ 433962.25, 439959.0 ], [ 433962.0, 439959.0 ], [ 433962.0, 439958.5 ], [ 433961.75, 439958.5 ], [ 433961.75, 439958.0 ], [ 433961.5, 439958.0 ], [ 433961.5, 439957.75 ], [ 433961.25, 439957.75 ], [ 433961.25, 439957.25 ], [ 433961.0, 439957.25 ], [ 433961.0, 439956.75 ], [ 433960.75, 439956.75 ], [ 433960.75, 439956.0 ], [ 433960.5, 439956.0 ], [ 433960.5, 439955.25 ], [ 433960.25, 439955.25 ], [ 433960.25, 439954.5 ], [ 433960.0, 439954.5 ], [ 433960.0, 439953.75 ], [ 433959.75, 439953.75 ], [ 433959.75, 439953.25 ], [ 433959.5, 439953.25 ], [ 433959.5, 439952.75 ], [ 433959.25, 439952.75 ], [ 433959.25, 439952.25 ], [ 433959.0, 439952.25 ], [ 433959.0, 439951.75 ], [ 433958.75, 439951.75 ], [ 433958.75, 439951.25 ], [ 433958.5, 439951.25 ], [ 433958.5, 439951.0 ], [ 433958.25, 439951.0 ], [ 433958.25, 439950.75 ], [ 433958.0, 439950.75 ], [ 433958.0, 439950.25 ], [ 433957.75, 439950.25 ], [ 433957.75, 439949.75 ], [ 433957.5, 439949.75 ], [ 433957.5, 439949.0 ], [ 433957.25, 439949.0 ], [ 433957.25, 439946.0 ], [ 433957.5, 439946.0 ], [ 433957.5, 439945.5 ], [ 433957.75, 439945.5 ], [ 433957.75, 439945.0 ], [ 433958.0, 439945.0 ], [ 433958.0, 439944.75 ], [ 433958.25, 439944.75 ], [ 433958.25, 439944.5 ], [ 433958.5, 439944.5 ], [ 433958.5, 439944.0 ], [ 433958.75, 439944.0 ], [ 433958.75, 439943.75 ], [ 433959.0, 439943.75 ], [ 433959.0, 439943.5 ], [ 433959.25, 439943.5 ], [ 433959.25, 439943.0 ], [ 433959.5, 439943.0 ], [ 433959.5, 439942.75 ], [ 433959.75, 439942.75 ], [ 433959.75, 439942.5 ], [ 433960.0, 439942.5 ], [ 433960.0, 439942.0 ], [ 433960.25, 439942.0 ], [ 433960.25, 439941.75 ], [ 433960.5, 439941.75 ], [ 433960.5, 439941.25 ], [ 433960.75, 439941.25 ], [ 433960.75, 439941.0 ], [ 433961.0, 439941.0 ], [ 433961.0, 439940.75 ], [ 433961.25, 439940.75 ], [ 433961.25, 439940.5 ], [ 433961.5, 439940.5 ], [ 433961.5, 439940.25 ], [ 433961.75, 439940.25 ], [ 433961.75, 439940.0 ], [ 433962.0, 439940.0 ], [ 433962.0, 439939.75 ], [ 433962.5, 439939.75 ], [ 433962.5, 439939.5 ], [ 433963.0, 439939.5 ], [ 433963.0, 439939.25 ], [ 433963.5, 439939.25 ], [ 433963.5, 439939.0 ], [ 433964.0, 439939.0 ], [ 433964.0, 439938.75 ], [ 433964.75, 439938.75 ], [ 433964.75, 439938.5 ], [ 433965.25, 439938.5 ], [ 433965.25, 439938.25 ], [ 433965.75, 439938.25 ], [ 433965.75, 439938.0 ], [ 433966.25, 439938.0 ], [ 433966.25, 439937.75 ], [ 433967.0, 439937.75 ], [ 433967.0, 439937.5 ], [ 433967.5, 439937.5 ], [ 433967.5, 439937.25 ], [ 433968.25, 439937.25 ], [ 433968.25, 439937.0 ], [ 433969.25, 439937.0 ], [ 433969.25, 439936.75 ], [ 433970.5, 439936.75 ], [ 433970.5, 439936.5 ], [ 433972.25, 439936.5 ], [ 433972.25, 439936.25 ], [ 433976.75, 439936.25 ], [ 433976.75, 439936.0 ], [ 433983.75, 439936.0 ], [ 433983.75, 439935.75 ], [ 433987.5, 439935.75 ], [ 433987.5, 439936.0 ], [ 433988.25, 439936.0 ], [ 433988.25, 439936.25 ], [ 433988.75, 439936.25 ], [ 433988.75, 439936.5 ], [ 433989.5, 439936.5 ], [ 433989.5, 439936.75 ], [ 433989.75, 439936.75 ], [ 433989.75, 439937.0 ], [ 433990.0, 439937.0 ], [ 433990.0, 439937.25 ], [ 433990.5, 439937.25 ], [ 433990.5, 439937.5 ], [ 433990.75, 439937.5 ], [ 433990.75, 439938.0 ], [ 433991.0, 439938.0 ], [ 433991.0, 439938.25 ], [ 433991.25, 439938.25 ], [ 433991.25, 439938.5 ], [ 433991.5, 439938.5 ], [ 433991.5, 439939.0 ], [ 433991.75, 439939.0 ], [ 433991.75, 439939.25 ], [ 433992.0, 439939.25 ], [ 433992.0, 439939.75 ], [ 433992.25, 439939.75 ], [ 433992.25, 439940.25 ], [ 433992.5, 439940.25 ], [ 433992.5, 439941.0 ], [ 433992.75, 439941.0 ], [ 433992.75, 439941.5 ], [ 433993.0, 439941.5 ], [ 433993.0, 439942.5 ], [ 433993.25, 439942.5 ], [ 433993.25, 439943.0 ], [ 433993.5, 439943.0 ], [ 433993.5, 439943.25 ], [ 433993.75, 439943.25 ], [ 433993.75, 439943.75 ], [ 433994.0, 439943.75 ], [ 433994.0, 439944.0 ], [ 433994.25, 439944.0 ], [ 433994.25, 439944.5 ], [ 433994.5, 439944.5 ], [ 433994.5, 439944.75 ], [ 433994.75, 439944.75 ], [ 433994.75, 439945.0 ], [ 433995.0, 439945.0 ], [ 433995.0, 439945.25 ], [ 433995.25, 439945.25 ], [ 433995.25, 439945.75 ], [ 433995.5, 439945.75 ], [ 433995.5, 439946.25 ], [ 433995.75, 439946.25 ], [ 433995.75, 439946.75 ], [ 433996.0, 439946.75 ], [ 433996.0, 439947.0 ], [ 433996.25, 439947.0 ], [ 433996.25, 439947.5 ], [ 433996.5, 439947.5 ], [ 433996.5, 439948.0 ], [ 433996.75, 439948.0 ], [ 433996.75, 439948.75 ], [ 433997.0, 439948.75 ], [ 433997.0, 439949.5 ], [ 433997.25, 439949.5 ], [ 433997.25, 439950.25 ], [ 433997.5, 439950.25 ], [ 433997.5, 439950.75 ], [ 433997.75, 439950.75 ], [ 433997.75, 439951.0 ], [ 433998.0, 439951.0 ], [ 433998.0, 439951.5 ], [ 433998.25, 439951.5 ], [ 433998.25, 439952.0 ], [ 433998.5, 439952.0 ], [ 433998.5, 439952.5 ], [ 433998.75, 439952.5 ], [ 433998.75, 439952.75 ], [ 433999.0, 439952.75 ], [ 433999.0, 439953.25 ], [ 433999.25, 439953.25 ], [ 433999.25, 439953.75 ], [ 433999.5, 439953.75 ], [ 433999.5, 439954.0 ], [ 433999.75, 439954.0 ], [ 433999.75, 439954.25 ], [ 434000.0, 439954.25 ], [ 434000.0, 439964.0 ], [ 433999.75, 439964.0 ], [ 433999.75, 439964.25 ], [ 433999.5, 439964.25 ], [ 433999.5, 439964.5 ], [ 433999.25, 439964.5 ], [ 433999.25, 439964.75 ], [ 433998.75, 439964.75 ], [ 433998.75, 439965.0 ], [ 433998.5, 439965.0 ], [ 433998.5, 439965.25 ], [ 433998.0, 439965.25 ], [ 433998.0, 439965.5 ], [ 433997.75, 439965.5 ], [ 433997.75, 439965.75 ], [ 433997.25, 439965.75 ], [ 433997.25, 439966.0 ], [ 433997.0, 439966.0 ], [ 433997.0, 439966.25 ], [ 433996.5, 439966.25 ], [ 433996.5, 439966.5 ], [ 433996.0, 439966.5 ], [ 433996.0, 439966.75 ], [ 433995.5, 439966.75 ], [ 433995.5, 439967.0 ], [ 433995.0, 439967.0 ], [ 433995.0, 439967.25 ], [ 433994.25, 439967.25 ], [ 433994.25, 439967.5 ], [ 433993.75, 439967.5 ], [ 433993.75, 439967.75 ], [ 433993.0, 439967.75 ], [ 433993.0, 439968.0 ], [ 433992.25, 439968.0 ], [ 433992.25, 439968.25 ], [ 433991.75, 439968.25 ], [ 433991.75, 439968.5 ], [ 433991.0, 439968.5 ], [ 433991.0, 439968.75 ], [ 433990.25, 439968.75 ], [ 433990.25, 439969.0 ], [ 433989.75, 439969.0 ], [ 433989.75, 439969.25 ], [ 433989.0, 439969.25 ], [ 433989.0, 439969.5 ], [ 433988.5, 439969.5 ], [ 433988.5, 439969.75 ], [ 433988.0, 439969.75 ], [ 433988.0, 439970.0 ], [ 433987.75, 439970.0 ], [ 433987.75, 439970.25 ], [ 433987.0, 439970.25 ], [ 433987.0, 439970.5 ], [ 433986.25, 439970.5 ], [ 433986.25, 439970.75 ], [ 433986.0, 439970.75 ], [ 433986.0, 439971.0 ], [ 433985.5, 439971.0 ], [ 433985.5, 439971.25 ], [ 433985.25, 439971.25 ], [ 433985.25, 439971.5 ], [ 433984.75, 439971.5 ], [ 433984.75, 439971.75 ], [ 433984.5, 439971.75 ], [ 433984.5, 439972.0 ], [ 433984.25, 439972.0 ], [ 433984.25, 439972.25 ], [ 433983.75, 439972.25 ], [ 433983.75, 439972.5 ], [ 433983.5, 439972.5 ], [ 433983.5, 439972.75 ], [ 433983.25, 439972.75 ], [ 433983.25, 439973.0 ], [ 433983.0, 439973.0 ], [ 433983.0, 439973.25 ], [ 433982.5, 439973.25 ], [ 433982.5, 439973.5 ], [ 433982.25, 439973.5 ], [ 433982.25, 439973.75 ], [ 433981.75, 439973.75 ], [ 433981.75, 439974.0 ], [ 433981.5, 439974.0 ], [ 433981.5, 439974.25 ], [ 433981.25, 439974.25 ], [ 433981.25, 439974.5 ], [ 433981.0, 439974.5 ], [ 433981.0, 439974.75 ], [ 433980.5, 439974.75 ], [ 433980.5, 439975.0 ], [ 433980.25, 439975.0 ], [ 433980.25, 439975.25 ], [ 433979.75, 439975.25 ], [ 433979.75, 439975.5 ], [ 433979.25, 439975.5 ], [ 433979.25, 439975.75 ], [ 433978.75, 439975.75 ], [ 433978.75, 439976.0 ], [ 433978.25, 439976.0 ], [ 433978.25, 439976.25 ], [ 433977.5, 439976.25 ], [ 433977.5, 439976.5 ], [ 433975.75, 439976.5 ], [ 433975.75, 439976.75 ], [ 433974.75, 439976.75 ], [ 433974.75, 439977.0 ], [ 433973.5, 439977.0 ] ] ] } },
{ "type": "Feature", "properties": { }, "geometry": { "type": "Polygon", "coordinates": [ [ [ 433256.0, 439871.25 ], [ 433256.0, 439869.75 ], [ 433257.0, 439869.75 ], [ 433257.0, 439870.25 ], [ 433257.25, 439870.25 ], [ 433257.25, 439870.5 ], [ 433257.0, 439870.5 ], [ 433257.0, 439871.0 ], [ 433256.75, 439871.0 ], [ 433256.75, 439871.25 ], [ 433256.0, 439871.25 ] ] ] } },
{ "type": "Feature", "properties": { }, "geometry": { "type": "Polygon", "coordinates": [ [ [ 433258.25, 439872.0 ], [ 433258.25, 439870.25 ], [ 433258.0, 439870.25 ], [ 433258.0, 439869.75 ], [ 433257.75, 439869.75 ], [ 433257.75, 439869.25 ], [ 433257.0, 439869.25 ], [ 433257.0, 439869.0 ], [ 433256.0, 439869.0 ], [ 433256.0, 439854.5 ], [ 433256.5, 439854.5 ], [ 433256.5, 439854.25 ], [ 433256.75, 439854.25 ], [ 433256.75, 439854.0 ], [ 433257.25, 439854.0 ], [ 433257.25, 439853.75 ], [ 433259.0, 439853.75 ], [ 433259.0, 439854.0 ], [ 433259.25, 439854.0 ], [ 433259.25, 439854.25 ], [ 433259.5, 439854.25 ], [ 433259.5, 439857.0 ], [ 433259.25, 439857.0 ], [ 433259.25, 439858.5 ], [ 433259.0, 439858.5 ], [ 433259.0, 439859.0 ], [ 433258.75, 439859.0 ], [ 433258.75, 439859.25 ], [ 433258.5, 439859.25 ], [ 433258.5, 439860.0 ], [ 433258.25, 439860.0 ], [ 433258.25, 439860.5 ], [ 433258.0, 439860.5 ], [ 433258.0, 439862.75 ], [ 433258.25, 439862.75 ], [ 433258.25, 439863.75 ], [ 433258.5, 439863.75 ], [ 433258.5, 439864.25 ], [ 433258.75, 439864.25 ], [ 433258.75, 439865.0 ], [ 433259.0, 439865.0 ], [ 433259.0, 439865.75 ], [ 433259.25, 439865.75 ], [ 433259.25, 439866.0 ], [ 433259.75, 439866.0 ], [ 433259.75, 439866.25 ], [ 433260.0, 439866.25 ], [ 433260.0, 439867.75 ], [ 433260.5, 439867.75 ], [ 433260.5, 439868.0 ], [ 433261.5, 439868.0 ], [ 433261.5, 439868.25 ], [ 433261.75, 439868.25 ], [ 433261.75, 439869.75 ], [ 433261.5, 439869.75 ], [ 433261.5, 439871.0 ], [ 433261.75, 439871.0 ], [ 433261.75, 439872.0 ], [ 433258.25, 439872.0 ] ] ] } },
{ "type": "Feature", "properties": { }, "geometry": { "type": "Polygon", "coordinates": [ [ [ 433257.25, 439809.0 ], [ 433257.25, 439808.75 ], [ 433256.75, 439808.75 ], [ 433256.75, 439808.5 ], [ 433256.0, 439808.5 ], [ 433256.0, 439783.5 ], [ 433256.75, 439783.5 ], [ 433256.75, 439783.25 ], [ 433257.0, 439783.25 ], [ 433257.0, 439782.75 ], [ 433257.25, 439782.75 ], [ 433257.25, 439782.5 ], [ 433257.75, 439782.5 ], [ 433257.75, 439782.75 ], [ 433258.0, 439782.75 ], [ 433258.0, 439783.0 ], [ 433258.25, 439783.0 ], [ 433258.25, 439783.25 ], [ 433258.5, 439783.25 ], [ 433258.5, 439783.5 ], [ 433258.75, 439783.5 ], [ 433258.75, 439783.75 ], [ 433259.0, 439783.75 ], [ 433259.0, 439785.0 ], [ 433259.25, 439785.0 ], [ 433259.25, 439786.25 ], [ 433259.5, 439786.25 ], [ 433259.5, 439786.5 ], [ 433260.0, 439786.5 ], [ 433260.0, 439786.75 ], [ 433260.5, 439786.75 ], [ 433260.5, 439787.25 ], [ 433260.75, 439787.25 ], [ 433260.75, 439788.5 ], [ 433261.0, 439788.5 ], [ 433261.0, 439795.0 ], [ 433261.25, 439795.0 ], [ 433261.25, 439801.25 ], [ 433261.0, 439801.25 ], [ 433261.0, 439802.0 ], [ 433260.75, 439802.0 ], [ 433260.75, 439803.0 ], [ 433260.5, 439803.0 ], [ 433260.5, 439805.5 ], [ 433260.25, 439805.5 ], [ 433260.25, 439806.0 ], [ 433260.0, 439806.0 ], [ 433260.0, 439806.5 ], [ 433259.75, 439806.5 ], [ 433259.75, 439807.25 ], [ 433259.5, 439807.25 ], [ 433259.5, 439807.75 ], [ 433259.0, 439807.75 ], [ 433259.0, 439808.0 ], [ 433258.5, 439808.0 ], [ 433258.5, 439808.25 ], [ 433258.25, 439808.25 ], [ 433258.25, 439808.5 ], [ 433258.0, 439808.5 ], [ 433258.0, 439808.75 ], [ 433257.75, 439808.75 ], [ 433257.75, 439809.0 ], [ 433257.25, 439809.0 ] ] ] } },
{ "type": "Feature", "properties": { }, "geometry": { "type": "Polygon", "coordinates": [ [ [ 433005.25, 439744.0 ], [ 433005.25, 439743.25 ], [ 433005.5, 439743.25 ], [ 433005.5, 439744.0 ], [ 433005.25, 439744.0 ] ] ] } },
{ "type": "Feature", "properties": { }, "geometry": { "type": "Polygon", "coordinates": [ [ [ 433002.5, 439744.0 ], [ 433002.5, 439743.25 ], [ 433002.25, 439743.25 ], [ 433002.25, 439742.25 ], [ 433002.0, 439742.25 ], [ 433002.0, 439741.25 ], [ 433001.75, 439741.25 ], [ 433001.75, 439740.75 ], [ 433001.5, 439740.75 ], [ 433001.5, 439740.25 ], [ 433001.0, 439740.25 ], [ 433001.0, 439740.0 ], [ 433000.75, 439740.0 ], [ 433000.75, 439739.75 ], [ 433000.5, 439739.75 ], [ 433000.5, 439739.5 ], [ 433000.0, 439739.5 ], [ 433000.0, 439738.25 ], [ 433000.75, 439738.25 ], [ 433000.75, 439738.0 ], [ 433001.25, 439738.0 ], [ 433001.25, 439737.75 ], [ 433001.5, 439737.75 ], [ 433001.5, 439737.5 ], [ 433003.75, 439737.5 ], [ 433003.75, 439737.75 ], [ 433004.25, 439737.75 ], [ 433004.25, 439738.0 ], [ 433005.25, 439738.0 ], [ 433005.25, 439738.25 ], [ 433006.25, 439738.25 ], [ 433006.25, 439738.5 ], [ 433006.75, 439738.5 ], [ 433006.75, 439739.75 ], [ 433006.5, 439739.75 ], [ 433006.5, 439740.0 ], [ 433006.25, 439740.0 ], [ 433006.25, 439740.25 ], [ 433006.0, 439740.25 ], [ 433006.0, 439740.5 ], [ 433005.75, 439740.5 ], [ 433005.75, 439740.75 ], [ 433005.5, 439740.75 ], [ 433005.5, 439741.0 ], [ 433005.25, 439741.0 ], [ 433005.25, 439741.5 ], [ 433005.0, 439741.5 ], [ 433005.0, 439742.0 ], [ 433004.75, 439742.0 ], [ 433004.75, 439742.25 ], [ 433004.25, 439742.25 ], [ 433004.25, 439744.0 ], [ 433002.5, 439744.0 ] ] ] } },
{ "type": "Feature", "properties": { }, "geometry": { "type": "Polygon", "coordinates": [ [ [ 433365.5, 439719.0 ], [ 433365.5, 439718.75 ], [ 433365.0, 439718.75 ], [ 433365.0, 439718.25 ], [ 433365.25, 439718.25 ], [ 433365.25, 439718.0 ], [ 433365.5, 439718.0 ], [ 433365.5, 439717.75 ], [ 433366.0, 439717.75 ], [ 433366.0, 439717.5 ], [ 433366.75, 439717.5 ], [ 433366.75, 439718.0 ], [ 433367.0, 439718.0 ], [ 433367.0, 439718.5 ], [ 433366.75, 439718.5 ], [ 433366.75, 439718.75 ], [ 433365.75, 439718.75 ], [ 433365.75, 439719.0 ], [ 433365.5, 439719.0 ] ] ] } },
{ "type": "Feature", "properties": { }, "geometry": { "type": "Polygon", "coordinates": [ [ [ 433178.25, 439722.25 ], [ 433178.25, 439722.0 ], [ 433177.5, 439722.0 ], [ 433177.5, 439721.75 ], [ 433177.25, 439721.75 ], [ 433177.25, 439721.25 ], [ 433177.0, 439721.25 ], [ 433177.0, 439720.75 ], [ 433176.75, 439720.75 ], [ 433176.75, 439719.75 ], [ 433176.5, 439719.75 ], [ 433176.5, 439718.75 ], [ 433176.25, 439718.75 ], [ 433176.25, 439717.0 ], [ 433176.5, 439717.0 ], [ 433176.5, 439714.75 ], [ 433176.75, 439714.75 ], [ 433176.75, 439712.0 ], [ 433177.0, 439712.0 ], [ 433177.0, 439710.75 ], [ 433176.75, 439710.75 ], [ 433176.75, 439710.25 ], [ 433177.0, 439710.25 ], [ 433177.0, 439707.75 ], [ 433177.25, 439707.75 ], [ 433177.25, 439706.75 ], [ 433177.5, 439706.75 ], [ 433177.5, 439706.25 ], [ 433177.75, 439706.25 ], [ 433177.75, 439706.0 ], [ 433178.0, 439706.0 ], [ 433178.0, 439705.75 ], [ 433178.25, 439705.75 ], [ 433178.25, 439705.5 ], [ 433178.5, 439705.5 ], [ 433178.5, 439705.25 ], [ 433178.75, 439705.25 ], [ 433178.75, 439705.0 ], [ 433179.25, 439705.0 ], [ 433179.25, 439704.75 ], [ 433179.75, 439704.75 ], [ 433179.75, 439704.5 ], [ 433180.25, 439704.5 ], [ 433180.25, 439704.25 ], [ 433182.25, 439704.25 ], [ 433182.25, 439704.5 ], [ 433182.75, 439704.5 ], [ 433182.75, 439705.0 ], [ 433183.0, 439705.0 ], [ 433183.0, 439705.25 ], [ 433183.25, 439705.25 ], [ 433183.25, 439705.75 ], [ 433183.5, 439705.75 ], [ 433183.5, 439706.0 ], [ 433184.0, 439706.0 ], [ 433184.0, 439706.25 ], [ 433184.75, 439706.25 ], [ 433184.75, 439706.5 ], [ 433185.0, 439706.5 ], [ 433185.0, 439706.75 ], [ 433185.25, 439706.75 ], [ 433185.25, 439707.75 ], [ 433185.5, 439707.75 ], [ 433185.5, 439709.0 ], [ 433185.75, 439709.0 ], [ 433185.75, 439710.75 ], [ 433186.0, 439710.75 ], [ 433186.0, 439711.75 ], [ 433186.25, 439711.75 ], [ 433186.25, 439712.5 ], [ 433186.5, 439712.5 ], [ 433186.5, 439715.25 ], [ 433186.25, 439715.25 ], [ 433186.25, 439718.0 ], [ 433186.0, 439718.0 ], [ 433186.0, 439718.75 ], [ 433185.75, 439718.75 ], [ 433185.75, 439719.5 ], [ 433185.5, 439719.5 ], [ 433185.5, 439719.75 ], [ 433185.25, 439719.75 ], [ 433185.25, 439720.0 ], [ 433184.75, 439720.0 ], [ 433184.75, 439720.25 ], [ 433184.5, 439720.25 ], [ 433184.5, 439720.5 ], [ 433184.25, 439720.5 ], [ 433184.25, 439720.75 ], [ 433184.0, 439720.75 ], [ 433184.0, 439721.0 ], [ 433183.75, 439721.0 ], [ 433183.75, 439721.25 ], [ 433183.5, 439721.25 ], [ 433183.5, 439721.5 ], [ 433183.0, 439721.5 ], [ 433183.0, 439721.75 ], [ 433182.0, 439721.75 ], [ 433182.0, 439722.0 ], [ 433181.0, 439722.0 ], [ 433181.0, 439722.25 ], [ 433178.25, 439722.25 ] ] ] } },
{ "type": "Feature", "properties": { }, "geometry": { "type": "Polygon", "coordinates": [ [ [ 433643.25, 439232.0 ], [ 433643.25, 439230.5 ], [ 433643.5, 439230.5 ], [ 433643.5, 439229.75 ], [ 433643.75, 439229.75 ], [ 433643.75, 439229.5 ], [ 433644.0, 439229.5 ], [ 433644.0, 439227.75 ], [ 433643.75, 439227.75 ], [ 433643.75, 439227.25 ], [ 433644.0, 439227.25 ], [ 433644.0, 439226.0 ], [ 433644.25, 439226.0 ], [ 433644.25, 439223.75 ], [ 433644.5, 439223.75 ], [ 433644.5, 439223.5 ], [ 433644.75, 439223.5 ], [ 433644.75, 439223.75 ], [ 433645.0, 439223.75 ], [ 433645.0, 439224.25 ], [ 433645.25, 439224.25 ], [ 433645.25, 439224.75 ], [ 433645.0, 439224.75 ], [ 433645.0, 439226.25 ], [ 433645.25, 439226.25 ], [ 433645.25, 439227.75 ], [ 433645.0, 439227.75 ], [ 433645.0, 439229.25 ], [ 433645.25, 439229.25 ], [ 433645.25, 439229.5 ], [ 433645.0, 439229.5 ], [ 433645.0, 439232.0 ], [ 433643.25, 439232.0 ] ] ] } },
{ "type": "Feature", "properties": { }, "geometry": { "type": "Polygon", "coordinates": [ [ [ 433645.0, 439218.25 ], [ 433645.0, 439218.0 ], [ 433644.75, 439218.0 ], [ 433644.75, 439217.75 ], [ 433644.5, 439217.75 ], [ 433644.5, 439217.5 ], [ 433644.25, 439217.5 ], [ 433644.25, 439217.0 ], [ 433643.75, 439217.0 ], [ 433643.75, 439216.75 ], [ 433643.5, 439216.75 ], [ 433643.5, 439216.5 ], [ 433643.25, 439216.5 ], [ 433643.25, 439216.25 ], [ 433643.0, 439216.25 ], [ 433643.0, 439215.75 ], [ 433642.75, 439215.75 ], [ 433642.75, 439215.5 ], [ 433641.75, 439215.5 ], [ 433641.75, 439215.25 ], [ 433641.25, 439215.25 ], [ 433641.25, 439215.5 ], [ 433640.0, 439215.5 ], [ 433640.0, 439210.0 ], [ 433641.25, 439210.0 ], [ 433641.25, 439209.75 ], [ 433641.5, 439209.75 ], [ 433641.5, 439210.0 ], [ 433642.0, 439210.0 ], [ 433642.0, 439210.25 ], [ 433642.25, 439210.25 ], [ 433642.25, 439210.5 ], [ 433642.5, 439210.5 ], [ 433642.5, 439210.75 ], [ 433642.75, 439210.75 ], [ 433642.75, 439211.0 ], [ 433643.0, 439211.0 ], [ 433643.0, 439211.25 ], [ 433643.5, 439211.25 ], [ 433643.5, 439211.75 ], [ 433643.75, 439211.75 ], [ 433643.75, 439212.25 ], [ 433644.25, 439212.25 ], [ 433644.25, 439212.5 ], [ 433644.5, 439212.5 ], [ 433644.5, 439212.75 ], [ 433644.75, 439212.75 ], [ 433644.75, 439213.25 ], [ 433645.25, 439213.25 ], [ 433645.25, 439213.5 ], [ 433645.5, 439213.5 ], [ 433645.5, 439214.0 ], [ 433645.75, 439214.0 ], [ 433645.75, 439214.25 ], [ 433646.0, 439214.25 ], [ 433646.0, 439216.5 ], [ 433645.75, 439216.5 ], [ 433645.75, 439217.75 ], [ 433645.5, 439217.75 ], [ 433645.5, 439218.25 ], [ 433645.0, 439218.25 ] ] ] } },
{ "type": "Feature", "properties": { }, "geometry": { "type": "Polygon", "coordinates": [ [ [ 433896.0, 439232.0 ], [ 433896.0, 439209.25 ], [ 433897.0, 439209.25 ], [ 433897.0, 439209.0 ], [ 433898.5, 439209.0 ], [ 433898.5, 439208.75 ], [ 433899.5, 439208.75 ], [ 433899.5, 439208.5 ], [ 433900.0, 439208.5 ], [ 433900.0, 439208.25 ], [ 433900.25, 439208.25 ], [ 433900.25, 439208.0 ], [ 433901.0, 439208.0 ], [ 433901.0, 439208.25 ], [ 433902.5, 439208.25 ], [ 433902.5, 439208.5 ], [ 433903.25, 439208.5 ], [ 433903.25, 439208.75 ], [ 433904.0, 439208.75 ], [ 433904.0, 439209.0 ], [ 433905.75, 439209.0 ], [ 433905.75, 439209.25 ], [ 433906.25, 439209.25 ], [ 433906.25, 439209.5 ], [ 433906.75, 439209.5 ], [ 433906.75, 439209.75 ], [ 433907.75, 439209.75 ], [ 433907.75, 439210.0 ], [ 433908.5, 439210.0 ], [ 433908.5, 439210.25 ], [ 433909.0, 439210.25 ], [ 433909.0, 439210.5 ], [ 433912.5, 439210.5 ], [ 433912.5, 439210.75 ], [ 433913.25, 439210.75 ], [ 433913.25, 439211.0 ], [ 433913.75, 439211.0 ], [ 433913.75, 439211.25 ], [ 433914.5, 439211.25 ], [ 433914.5, 439211.5 ], [ 433915.0, 439211.5 ], [ 433915.0, 439211.75 ], [ 433916.25, 439211.75 ], [ 433916.25, 439211.5 ], [ 433918.25, 439211.5 ], [ 433918.25, 439211.75 ], [ 433919.0, 439211.75 ], [ 433919.0, 439211.5 ], [ 433920.0, 439211.5 ], [ 433920.0, 439211.75 ], [ 433921.5, 439211.75 ], [ 433921.5, 439211.5 ], [ 433926.25, 439211.5 ], [ 433926.25, 439211.25 ], [ 433929.0, 439211.25 ], [ 433929.0, 439211.0 ], [ 433932.75, 439211.0 ], [ 433932.75, 439210.75 ], [ 433934.5, 439210.75 ], [ 433934.5, 439210.5 ], [ 433939.25, 439210.5 ], [ 433939.25, 439210.25 ], [ 433939.5, 439210.25 ], [ 433939.5, 439210.5 ], [ 433940.25, 439210.5 ], [ 433940.25, 439210.75 ], [ 433942.75, 439210.75 ], [ 433942.75, 439211.0 ], [ 433943.25, 439211.0 ], [ 433943.25, 439211.25 ], [ 433943.75, 439211.25 ], [ 433943.75, 439211.5 ], [ 433944.25, 439211.5 ], [ 433944.25, 439211.75 ], [ 433945.0, 439211.75 ], [ 433945.0, 439212.0 ], [ 433945.75, 439212.0 ], [ 433945.75, 439212.25 ], [ 433946.5, 439212.25 ], [ 433946.5, 439212.5 ], [ 433947.25, 439212.5 ], [ 433947.25, 439212.75 ], [ 433948.25, 439212.75 ], [ 433948.25, 439212.5 ], [ 433948.5, 439212.5 ], [ 433948.5, 439212.75 ], [ 433949.5, 439212.75 ], [ 433949.5, 439213.0 ], [ 433951.25, 439213.0 ], [ 433951.25, 439213.25 ], [ 433952.0, 439213.25 ], [ 433952.0, 439213.5 ], [ 433952.5, 439213.5 ], [ 433952.5, 439213.75 ], [ 433953.25, 439213.75 ], [ 433953.25, 439214.0 ], [ 433954.5, 439214.0 ], [ 433954.5, 439214.25 ], [ 433955.5, 439214.25 ], [ 433955.5, 439214.5 ], [ 433955.75, 439214.5 ], [ 433955.75, 439214.75 ], [ 433956.25, 439214.75 ], [ 433956.25, 439215.0 ], [ 433960.5, 439215.0 ], [ 433960.5, 439215.25 ], [ 433962.5, 439215.25 ], [ 433962.5, 439215.0 ], [ 433962.75, 439215.0 ], [ 433962.75, 439215.25 ], [ 433966.0, 439215.25 ], [ 433966.0, 439215.5 ], [ 433967.5, 439215.5 ], [ 433967.5, 439215.75 ], [ 433968.0, 439215.75 ], [ 433968.0, 439216.0 ], [ 433968.25, 439216.0 ], [ 433968.25, 439216.25 ], [ 433968.5, 439216.25 ], [ 433968.5, 439216.5 ], [ 433969.25, 439216.5 ], [ 433969.25, 439216.75 ], [ 433972.5, 439216.75 ], [ 433972.5, 439217.0 ], [ 433973.25, 439217.0 ], [ 433973.25, 439217.25 ], [ 433974.75, 439217.25 ], [ 433974.75, 439217.5 ], [ 433976.75, 439217.5 ], [ 433976.75, 439217.75 ], [ 433978.0, 439217.75 ], [ 433978.0, 439218.0 ], [ 433979.5, 439218.0 ], [ 433979.5, 439218.25 ], [ 433980.5, 439218.25 ], [ 433980.5, 439218.5 ], [ 433981.75, 439218.5 ], [ 433981.75, 439218.75 ], [ 433982.5, 439218.75 ], [ 433982.5, 439219.0 ], [ 433984.0, 439219.0 ], [ 433984.0, 439219.25 ], [ 433986.5, 439219.25 ], [ 433986.5, 439219.5 ], [ 433987.5, 439219.5 ], [ 433987.5, 439219.75 ], [ 433988.0, 439219.75 ], [ 433988.0, 439220.0 ], [ 433989.0, 439220.0 ], [ 433989.0, 439220.25 ], [ 433990.0, 439220.25 ], [ 433990.0, 439220.5 ], [ 433990.75, 439220.5 ], [ 433990.75, 439220.75 ], [ 433991.75, 439220.75 ], [ 433991.75, 439221.0 ], [ 433992.25, 439221.0 ], [ 433992.25, 439221.25 ], [ 433994.75, 439221.25 ], [ 433994.75, 439221.5 ], [ 433995.0, 439221.5 ], [ 433995.0, 439222.0 ], [ 433995.25, 439222.0 ], [ 433995.25, 439222.25 ], [ 433995.5, 439222.25 ], [ 433995.5, 439222.5 ], [ 433995.75, 439222.5 ], [ 433995.75, 439223.25 ], [ 433996.0, 439223.25 ], [ 433996.0, 439224.75 ], [ 433996.25, 439224.75 ], [ 433996.25, 439225.25 ], [ 433996.5, 439225.25 ], [ 433996.5, 439225.5 ], [ 433997.0, 439225.5 ], [ 433997.0, 439225.75 ], [ 433997.25, 439225.75 ], [ 433997.25, 439226.0 ], [ 433997.5, 439226.0 ], [ 433997.5, 439227.25 ], [ 433997.25, 439227.25 ], [ 433997.25, 439227.75 ], [ 433997.5, 439227.75 ], [ 433997.5, 439228.25 ], [ 433997.75, 439228.25 ], [ 433997.75, 439228.5 ], [ 433997.5, 439228.5 ], [ 433997.5, 439228.75 ], [ 433997.25, 439228.75 ], [ 433997.25, 439229.0 ], [ 433997.0, 439229.0 ], [ 433997.0, 439229.25 ], [ 433996.75, 439229.25 ], [ 433996.75, 439229.75 ], [ 433996.5, 439229.75 ], [ 433996.5, 439230.0 ], [ 433996.25, 439230.0 ], [ 433996.25, 439230.5 ], [ 433996.0, 439230.5 ], [ 433996.0, 439232.0 ], [ 433896.0, 439232.0 ] ] ] } },
{ "type": "Feature", "properties": { }, "geometry": { "type": "Polygon", "coordinates": [ [ [ 433023.0, 439104.0 ], [ 433023.0, 439103.25 ], [ 433023.75, 439103.25 ], [ 433023.75, 439103.5 ], [ 433024.0, 439103.5 ], [ 433024.0, 439104.0 ], [ 433023.0, 439104.0 ] ] ] } },
{ "type": "Feature", "properties": { }, "geometry": { "type": "Polygon", "coordinates": [ [ [ 433017.25, 439104.0 ], [ 433017.25, 439103.5 ], [ 433017.0, 439103.5 ], [ 433017.0, 439101.0 ], [ 433017.25, 439101.0 ], [ 433017.25, 439100.5 ], [ 433017.5, 439100.5 ], [ 433017.5, 439100.25 ], [ 433019.0, 439100.25 ], [ 433019.0, 439100.5 ], [ 433019.25, 439100.5 ], [ 433019.25, 439100.75 ], [ 433019.75, 439100.75 ], [ 433019.75, 439101.0 ], [ 433020.25, 439101.0 ], [ 433020.25, 439101.25 ], [ 433021.0, 439101.25 ], [ 433021.0, 439101.5 ], [ 433021.5, 439101.5 ], [ 433021.5, 439101.75 ], [ 433021.75, 439101.75 ], [ 433021.75, 439102.0 ], [ 433022.0, 439102.0 ], [ 433022.0, 439103.0 ], [ 433021.75, 439103.0 ], [ 433021.75, 439104.0 ], [ 433017.25, 439104.0 ] ] ] } }
]
}
