{
"type": "FeatureCollection",
"name": "se3438_rgb_250_03_original",
"crs": { "type": "name", "properties": { "name": "urn:ogc:def:crs:EPSG::27700" } },
"features": [
{ "type": "Feature", "properties": { }, "geometry": { "type": "Polygon", "coordinates": [ [ [ 434619.25, 439000.0 ], [ 434619.25, 438999.0 ], [ 434619.5, 438999.0 ], [ 434619.5, 438997.5 ], [ 434619.75, 438997.5 ], [ 434619.75, 438997.25 ], [ 434620.0, 438997.25 ], [ 434620.0, 438996.75 ], [ 434620.25, 438996.75 ], [ 434620.25, 438996.25 ], [ 434620.5, 438996.25 ], [ 434620.5, 438995.5 ], [ 434620.75, 438995.5 ], [ 434620.75, 438995.25 ], [ 434621.0, 438995.25 ], [ 434621.0, 438994.75 ], [ 434621.25, 438994.75 ], [ 434621.25, 438994.25 ], [ 434621.5, 438994.25 ], [ 434621.5, 438993.75 ], [ 434621.75, 438993.75 ], [ 434621.75, 438993.5 ], [ 434622.0, 438993.5 ], [ 434622.0, 438993.0 ], [ 434622.25, 438993.0 ], [ 434622.25, 438992.75 ], [ 434622.5, 438992.75 ], [ 434622.5, 438992.5 ], [ 434622.75, 438992.5 ], [ 434622.75, 438992.25 ], [ 434623.25, 438992.25 ], [ 434623.25, 438992.0 ], [ 434624.0, 438992.0 ], [ 434624.0, 438991.75 ], [ 434624.5, 438991.75 ], [ 434624.5, 438991.5 ], [ 434625.0, 438991.5 ], [ 434625.0, 438991.25 ], [ 434625.5, 438991.25 ], [ 434625.5, 438991.0 ], [ 434626.0, 438991.0 ], [ 434626.0, 438990.75 ], [ 434626.75, 438990.75 ], [ 434626.75, 438990.5 ], [ 434627.5, 438990.5 ], [ 434627.5, 438990.25 ], [ 434628.5, 438990.25 ], [ 434628.5, 438990.0 ], [ 434629.5, 438990.0 ], [ 434629.5, 438990.25 ], [ 434630.25, 438990.25 ], [ 434630.25, 438990.5 ], [ 434630.75, 438990.5 ], [ 434630.75, 438990.75 ], [ 434631.0, 438990.75 ], [ 434631.0, 438991.0 ], [ 434631.5, 438991.0 ], [ 434631.5, 438991.25 ], [ 434631.75, 438991.25 ], [ 434631.75, 438991.5 ], [ 434632.0, 438991.5 ], [ 434632.0, 438991.75 ], [ 434632.25, 438991.75 ], [ 434632.25, 438992.0 ], [ 434632.5, 438992.0 ], [ 434632.5, 438992.5 ], [ 434632.75, 438992.5 ], [ 434632.75, 438992.75 ], [ 434633.0, 438992.75 ], [ 434633.0, 438993.0 ], [ 434633.25, 438993.0 ], [ 434633.25, 438993.25 ], [ 434633.5, 438993.25 ], [ 434633.5, 438993.5 ], [ 434633.75, 438993.5 ], [ 434633.75, 438993.75 ], [ 434634.0, 438993.75 ], [ 434634.0, 438994.0 ], [ 434634.5, 438994.0 ], [ 434634.5, 438994.25 ], [ 434634.75, 438994.25 ], [ 434634.75, 438994.5 ], [ 434635.0, 438994.5 ], [ 434635.0, 438994.75 ], [ 434635.25, 438994.75 ], [ 434635.25, 438995.0 ], [ 434635.5, 438995.0 ], [ 434635.5, 438995.5 ], [ 434636.0, 438995.5 ], [ 434636.0, 438996.0 ], [ 434636.25, 438996.0 ], [ 434636.25, 438996.5 ], [ 434636.5, 438996.5 ], [ 434636.5, 438997.0 ], [ 434636.75, 438997.0 ], [ 434636.75, 438997.5 ], [ 434637.0, 438997.5 ], [ 434637.0, 438999.25 ], [ 434636.75, 438999.25 ], [ 434636.75, 439000.0 ], [ 434619.25, 439000.0 ] ] ] } },
{ "type": "Feature", "properties": { }, "geometry": { "type": "Polygon", "coordinates": [ [ [ 434099.5, 438744.0 ], [ 434099.5, 438742.25 ], [ 434099.75, 438742.25 ], [ 434099.75, 438742.0 ], [ 434100.0, 438742.0 ], [ 434100.0, 438741.5 ], [ 434100.25, 438741.5 ], [ 434100.25, 438741.25 ], [ 434100.75, 438741.25 ], [ 434100.75, 438741.0 ], [ 434101.0, 438741.0 ], [ 434101.0, 438740.75 ], [ 434101.25, 438740.75 ], [ 434101.25, 438740.5 ], [ 434101.5, 438740.5 ], [ 434101.5, 438740.25 ], [ 434102.0, 438740.25 ], [ 434102.0, 438740.0 ], [ 434102.25, 438740.0 ], [ 434102.25, 438739.75 ], [ 434102.5, 438739.75 ], [ 434102.5, 438739.5 ], [ 434103.0, 438739.5 ], [ 434103.0, 438739.25 ], [ 434103.75, 438739.25 ], [ 434103.75, 438739.0 ], [ 434104.25, 438739.0 ], [ 434104.25, 438738.75 ], [ 434104.5, 438738.75 ], [ 434104.5, 438738.5 ], [ 434104.75, 438738.5 ], [ 434104.75, 438738.25 ], [ 434105.0, 438738.25 ], [ 434105.0, 438738.0 ], [ 434105.5, 438738.0 ], [ 434105.5, 438737.75 ], [ 434105.75, 438737.75 ], [ 434105.75, 438737.25 ], [ 434106.0, 438737.25 ], [ 434106.0, 438736.75 ], [ 434106.25, 438736.75 ], [ 434106.25, 438736.5 ], [ 434106.5, 438736.5 ], [ 434106.5, 438736.25 ], [ 434107.5, 438736.25 ], [ 434107.5, 438736.0 ], [ 434108.25, 438736.0 ], [ 434108.25, 438735.75 ], [ 434109.25, 438735.75 ], [ 434109.25, 438735.5 ], [ 434109.5, 438735.5 ], [ 434109.5, 438735.75 ], [ 434109.75, 438735.75 ], [ 434109.75, 438736.0 ], [ 434110.0, 438736.0 ], [ 434110.0, 438736.25 ], [ 434110.5, 438736.25 ], [ 434110.5, 438737.5 ], [ 434110.75, 438737.5 ], [ 434110.75, 438738.5 ], [ 434111.0, 438738.5 ], [ 434111.0, 438738.75 ], [ 434111.25, 438738.75 ], [ 434111.25, 438739.0 ], [ 434111.5, 438739.0 ], [ 434111.5, 438739.25 ], [ 434111.75, 438739.25 ], [ 434111.75, 438739.75 ], [ 434112.0, 438739.75 ], [ 434112.0, 438740.25 ], [ 434112.25, 438740.25 ], [ 434112.25, 438740.5 ], [ 434112.5, 438740.5 ], [ 434112.5, 438740.75 ], [ 434112.75, 438740.75 ], [ 434112.75, 438741.25 ], [ 434113.0, 438741.25 ], [ 434113.0, 438741.5 ], [ 434113.25, 438741.5 ], [ 434113.25, 438741.75 ], [ 434114.75, 438741.75 ], [ 434114.75, 438741.5 ], [ 434115.0, 438741.5 ], [ 434115.0, 438741.0 ], [ 434115.25, 438741.0 ], [ 434115.25, 438740.75 ], [ 434115.5, 438740.75 ], [ 434115.5, 438740.5 ], [ 434115.75, 438740.5 ], [ 434115.75, 438740.25 ], [ 434116.0, 438740.25 ], [ 434116.0, 438740.0 ], [ 434116.25, 438740.0 ], [ 434116.25, 438739.75 ], [ 434116.5, 438739.75 ], [ 434116.5, 438739.5 ], [ 434116.75, 438739.5 ], [ 434116.75, 438739.25 ], [ 434117.25, 438739.25 ], [ 434117.25, 438738.75 ], [ 434117.5, 438738.75 ], [ 434117.5, 438738.5 ], [ 434118.0, 438738.5 ], [ 434118.0, 438738.25 ], [ 434118.75, 438738.25 ], [ 434118.75, 438738.0 ], [ 434119.75, 438738.0 ], [ 434119.75, 438737.75 ], [ 434121.0, 438737.75 ], [ 434121.0, 438737.5 ], [ 434121.5, 438737.5 ], [ 434121.5, 438737.25 ], [ 434123.25, 438737.25 ], [ 434123.25, 438737.5 ], [ 434125.25, 438737.5 ], [ 434125.25, 438737.25 ], [ 434126.5, 438737.25 ], [ 434126.5, 438737.5 ], [ 434127.5, 438737.5 ], [ 434127.5, 438737.75 ], [ 434128.0, 438737.75 ], [ 434128.0, 438744.0 ], [ 434099.5, 438744.0 ] ] ] } },
{ "type": "Feature", "properties": { }, "geometry": { "type": "Polygon", "coordinates": [ [ [ 434682.75, 438603.0 ], [ 434682.75, 438602.75 ], [ 434680.25, 438602.75 ], [ 434680.25, 438602.5 ], [ 434677.0, 438602.5 ], [ 434677.0, 438602.25 ], [ 434675.75, 438602.25 ], [ 434675.75, 438602.0 ], [ 434675.0, 438602.0 ], [ 434675.0, 438601.75 ], [ 434674.5, 438601.75 ], [ 434674.5, 438601.5 ], [ 434674.25, 438601.5 ], [ 434674.25, 438601.0 ], [ 434674.0, 438601.0 ], [ 434674.0, 438600.75 ], [ 434673.75, 438600.75 ], [ 434673.75, 438599.0 ], [ 434674.0, 438599.0 ], [ 434674.0, 438598.5 ], [ 434674.25, 438598.5 ], [ 434674.25, 438597.75 ], [ 434674.5, 438597.75 ], [ 434674.5, 438597.5 ], [ 434674.75, 438597.5 ], [ 434674.75, 438597.75 ], [ 434675.25, 438597.75 ], [ 434675.25, 438598.0 ], [ 434675.5, 438598.0 ], [ 434675.5, 438597.75 ], [ 434676.0, 438597.75 ], [ 434676.0, 438597.5 ], [ 434676.25, 438597.5 ], [ 434676.25, 438597.25 ], [ 434676.75, 438597.25 ], [ 434676.75, 438597.0 ], [ 434677.5, 438597.0 ], [ 434677.5, 438596.75 ], [ 434678.0, 438596.75 ], [ 434678.0, 438596.5 ], [ 434678.75, 438596.5 ], [ 434678.75, 438596.25 ], [ 434679.25, 438596.25 ], [ 434679.25, 438596.0 ], [ 434679.75, 438596.0 ], [ 434679.75, 438595.75 ], [ 434680.0, 438595.75 ], [ 434680.0, 438595.5 ], [ 434680.25, 438595.5 ], [ 434680.25, 438595.25 ], [ 434680.75, 438595.25 ], [ 434680.75, 438595.0 ], [ 434681.0, 438595.0 ], [ 434681.0, 438594.75 ], [ 434681.25, 438594.75 ], [ 434681.25, 438594.25 ], [ 434681.5, 438594.25 ], [ 434681.5, 438594.0 ], [ 434681.75, 438594.0 ], [ 434681.75, 438593.75 ], [ 434682.0, 438593.75 ], [ 434682.0, 438593.5 ], [ 434682.25, 438593.5 ], [ 434682.25, 438592.75 ], [ 434682.5, 438592.75 ], [ 434682.5, 438591.75 ], [ 434682.75, 438591.75 ], [ 434682.75, 438591.25 ], [ 434683.0, 438591.25 ], [ 434683.0, 438590.5 ], [ 434683.25, 438590.5 ], [ 434683.25, 438590.25 ], [ 434683.5, 438590.25 ], [ 434683.5, 438590.0 ], [ 434683.75, 438590.0 ], [ 434683.75, 438589.75 ], [ 434684.0, 438589.75 ], [ 434684.0, 438589.5 ], [ 434684.25, 438589.5 ], [ 434684.25, 438589.25 ], [ 434684.5, 438589.25 ], [ 434684.5, 438589.0 ], [ 434685.0, 438589.0 ], [ 434685.0, 438588.75 ], [ 434685.5, 438588.75 ], [ 434685.5, 438588.5 ], [ 434686.25, 438588.5 ], [ 434686.25, 438588.25 ], [ 434688.25, 438588.25 ], [ 434688.25, 438588.5 ], [ 434689.0, 438588.5 ], [ 434689.0, 438588.25 ], [ 434689.5, 438588.25 ], [ 434689.5, 438588.5 ], [ 434690.0, 438588.5 ], [ 434690.0, 438588.75 ], [ 434690.5, 438588.75 ], [ 434690.5, 438589.0 ], [ 434691.5, 438589.0 ], [ 434691.5, 438589.25 ], [ 434691.75, 438589.25 ], [ 434691.75, 438589.5 ], [ 434692.0, 438589.5 ], [ 434692.0, 438589.75 ], [ 434692.25, 438589.75 ], [ 434692.25, 438590.0 ], [ 434693.75, 438590.0 ], [ 434693.75, 438589.75 ], [ 434694.25, 438589.75 ], [ 434694.25, 438589.5 ], [ 434694.5, 438589.5 ], [ 434694.5, 438589.0 ], [ 434695.0, 438589.0 ], [ 434695.0, 438589.25 ], [ 434695.75, 438589.25 ], [ 434695.75, 438589.5 ], [ 434696.0, 438589.5 ], [ 434696.0, 438589.75 ], [ 434697.75, 438589.75 ], [ 434697.75, 438589.5 ], [ 434698.0, 438589.5 ], [ 434698.0, 438589.0 ], [ 434698.25, 438589.0 ], [ 434698.25, 438588.75 ], [ 434698.75, 438588.75 ], [ 434698.75, 438588.5 ], [ 434699.25, 438588.5 ], [ 434699.25, 438588.25 ], [ 434700.75, 438588.25 ], [ 434700.75, 438588.5 ], [ 434701.0, 438588.5 ], [ 434701.0, 438588.75 ], [ 434700.75, 438588.75 ], [ 434700.75, 438589.75 ], [ 434700.5, 438589.75 ], [ 434700.5, 438590.0 ], [ 434700.25, 438590.0 ], [ 434700.25, 438590.5 ], [ 434700.0, 438590.5 ], [ 434700.0, 438591.25 ], [ 434699.75, 438591.25 ], [ 434699.75, 438591.5 ], [ 434699.5, 438591.5 ], [ 434699.5, 438592.0 ], [ 434699.25, 438592.0 ], [ 434699.25, 438592.5 ], [ 434699.0, 438592.5 ], [ 434699.0, 438592.75 ], [ 434698.5, 438592.75 ], [ 434698.5, 438593.0 ], [ 434697.5, 438593.0 ], [ 434697.5, 438593.25 ], [ 434697.25, 438593.25 ], [ 434697.25, 438593.75 ], [ 434697.75, 438593.75 ], [ 434697.75, 438594.0 ], [ 434698.0, 438594.0 ], [ 434698.0, 438594.25 ], [ 434698.25, 438594.25 ], [ 434698.25, 438594.5 ], [ 434698.5, 438594.5 ], [ 434698.5, 438594.75 ], [ 434698.75, 438594.75 ], [ 434698.75, 438595.25 ], [ 434699.0, 438595.25 ], [ 434699.0, 438595.75 ], [ 434698.75, 438595.75 ], [ 434698.75, 438596.25 ], [ 434698.5, 438596.25 ], [ 434698.5, 438596.75 ], [ 434699.0, 438596.75 ], [ 434699.0, 438597.0 ], [ 434699.25, 438597.0 ], [ 434699.25, 438597.25 ], [ 434699.5, 438597.25 ], [ 434699.5, 438597.5 ], [ 434699.25, 438597.5 ], [ 434699.25, 438597.75 ], [ 434698.75, 438597.75 ], [ 434698.75, 438598.0 ], [ 434698.5, 438598.0 ], [ 434698.5, 438598.25 ], [ 434698.25, 438598.25 ], [ 434698.25, 438598.5 ], [ 434698.0, 438598.5 ], [ 434698.0, 438598.75 ], [ 434697.5, 438598.75 ], [ 434697.5, 438599.0 ], [ 434697.0, 438599.0 ], [ 434697.0, 438599.25 ], [ 434696.75, 438599.25 ], [ 434696.75, 438599.5 ], [ 434696.25, 438599.5 ], [ 434696.25, 438599.75 ], [ 434695.75, 438599.75 ], [ 434695.75, 438600.0 ], [ 434695.25, 438600.0 ], [ 434695.25, 438600.25 ], [ 434695.0, 438600.25 ], [ 434695.0, 438600.5 ], [ 434694.5, 438600.5 ], [ 434694.5, 438600.75 ], [ 434694.0, 438600.75 ], [ 434694.0, 438601.0 ], [ 434693.75, 438601.0 ], [ 434693.75, 438601.25 ], [ 434693.25, 438601.25 ], [ 434693.25, 438601.5 ], [ 434692.25, 438601.5 ], [ 434692.25, 438601.75 ], [ 434690.75, 438601.75 ], [ 434690.75, 438602.0 ], [ 434689.0, 438602.0 ], [ 434689.0, 438602.25 ], [ 434688.25, 438602.25 ], [ 434688.25, 438602.5 ], [ 434685.75, 438602.5 ], [ 434685.75, 438602.75 ], [ 434684.5, 438602.75 ], [ 434684.5, 438603.0 ], [ 434682.75, 438603.0 ] ] ] } },
{ "type": "Feature", "properties": { }, "geometry": { "type": "Polygon", "coordinates": [ [ [ 434708.25, 438580.0 ], [ 434708.25, 438579.75 ], [ 434706.25, 438579.75 ], [ 434706.25, 438579.5 ], [ 434705.75, 438579.5 ], [ 434705.75, 438579.25 ], [ 434705.25, 438579.25 ], [ 434705.25, 438579.0 ], [ 434705.0, 438579.0 ], [ 434705.0, 438578.75 ], [ 434704.5, 438578.75 ], [ 434704.5, 438578.5 ], [ 434704.25, 438578.5 ], [ 434704.25, 438578.25 ], [ 434704.0, 438578.25 ], [ 434704.0, 438578.0 ], [ 434703.75, 438578.0 ], [ 434703.75, 438577.75 ], [ 434703.5, 438577.75 ], [ 434703.5, 438577.5 ], [ 434703.25, 438577.5 ], [ 434703.25, 438577.25 ], [ 434703.0, 438577.25 ], [ 434703.0, 438577.0 ], [ 434702.75, 438577.0 ], [ 434702.75, 438576.75 ], [ 434702.25, 438576.75 ], [ 434702.25, 438576.5 ], [ 434702.0, 438576.5 ], [ 434702.0, 438576.25 ], [ 434701.75, 438576.25 ], [ 434701.75, 438575.75 ], [ 434701.5, 438575.75 ], [ 434701.5, 438575.5 ], [ 434701.25, 438575.5 ], [ 434701.25, 438575.25 ], [ 434701.0, 438575.25 ], [ 434701.0, 438575.0 ], [ 434700.75, 438575.0 ], [ 434700.75, 438574.5 ], [ 434700.5, 438574.5 ], [ 434700.5, 438574.25 ], [ 434700.25, 438574.25 ], [ 434700.25, 438573.5 ], [ 434700.0, 438573.5 ], [ 434700.0, 438572.75 ], [ 434699.75, 438572.75 ], [ 434699.75, 438572.25 ], [ 434699.5, 438572.25 ], [ 434699.5, 438572.0 ], [ 434699.25, 438572.0 ], [ 434699.25, 438571.75 ], [ 434699.0, 438571.75 ], [ 434699.0, 438571.5 ], [ 434698.75, 438571.5 ], [ 434698.75, 438571.25 ], [ 434698.5, 438571.25 ], [ 434698.5, 438571.0 ], [ 434698.25, 438571.0 ], [ 434698.25, 438570.5 ], [ 434698.0, 438570.5 ], [ 434698.0, 438570.0 ], [ 434697.75, 438570.0 ], [ 434697.75, 438569.5 ], [ 434697.5, 438569.5 ], [ 434697.5, 438568.25 ], [ 434697.25, 438568.25 ], [ 434697.25, 438565.25 ], [ 434697.0, 438565.25 ], [ 434697.0, 438563.25 ], [ 434697.25, 438563.25 ], [ 434697.25, 438559.25 ], [ 434697.0, 438559.25 ], [ 434697.0, 438553.25 ], [ 434697.25, 438553.25 ], [ 434697.25, 438551.75 ], [ 434697.5, 438551.75 ], [ 434697.5, 438550.0 ], [ 434697.75, 438550.0 ], [ 434697.75, 438549.25 ], [ 434698.0, 438549.25 ], [ 434698.0, 438548.75 ], [ 434698.25, 438548.75 ], [ 434698.25, 438548.25 ], [ 434698.5, 438548.25 ], [ 434698.5, 438547.75 ], [ 434698.75, 438547.75 ], [ 434698.75, 438547.5 ], [ 434699.0, 438547.5 ], [ 434699.0, 438547.0 ], [ 434699.25, 438547.0 ], [ 434699.25, 438546.5 ], [ 434699.5, 438546.5 ], [ 434699.5, 438545.75 ], [ 434699.75, 438545.75 ], [ 434699.75, 438545.0 ], [ 434700.0, 438545.0 ], [ 434700.0, 438544.25 ], [ 434700.25, 438544.25 ], [ 434700.25, 438543.75 ], [ 434700.5, 438543.75 ], [ 434700.5, 438543.25 ], [ 434700.75, 438543.25 ], [ 434700.75, 438542.75 ], [ 434701.0, 438542.75 ], [ 434701.0, 438542.0 ], [ 434701.25, 438542.0 ], [ 434701.25, 438541.5 ], [ 434701.5, 438541.5 ], [ 434701.5, 438541.0 ], [ 434701.75, 438541.0 ], [ 434701.75, 438540.75 ], [ 434702.0, 438540.75 ], [ 434702.0, 438540.5 ], [ 434702.25, 438540.5 ], [ 434702.25, 438540.0 ], [ 434702.5, 438540.0 ], [ 434702.5, 438539.75 ], [ 434702.75, 438539.75 ], [ 434702.75, 438539.25 ], [ 434703.0, 438539.25 ], [ 434703.0, 438539.0 ], [ 434703.25, 438539.0 ], [ 434703.25, 438538.5 ], [ 434703.5, 438538.5 ], [ 434703.5, 438537.75 ], [ 434703.75, 438537.75 ], [ 434703.75, 438537.25 ], [ 434704.0, 438537.25 ], [ 434704.0, 438536.5 ], [ 434704.25, 438536.5 ], [ 434704.25, 438535.5 ], [ 434704.5, 438535.5 ], [ 434704.5, 438534.5 ], [ 434704.75, 438534.5 ], [ 434704.75, 438534.25 ], [ 434705.0, 438534.25 ], [ 434705.0, 438533.75 ], [ 434705.25, 438533.75 ], [ 434705.25, 438533.5 ], [ 434705.5, 438533.5 ], [ 434705.5, 438533.25 ], [ 434705.75, 438533.25 ], [ 434705.75, 438533.0 ], [ 434706.0, 438533.0 ], [ 434706.0, 438532.75 ], [ 434706.25, 438532.75 ], [ 434706.25, 438532.5 ], [ 434706.5, 438532.5 ], [ 434706.5, 438532.25 ], [ 434706.75, 438532.25 ], [ 434706.75, 438532.0 ], [ 434707.0, 438532.0 ], [ 434707.0, 438531.75 ], [ 434707.25, 438531.75 ], [ 434707.25, 438531.5 ], [ 434707.5, 438531.5 ], [ 434707.5, 438531.25 ], [ 434707.75, 438531.25 ], [ 434707.75, 438531.0 ], [ 434708.0, 438531.0 ], [ 434708.0, 438530.75 ], [ 434708.25, 438530.75 ], [ 434708.25, 438530.0 ], [ 434708.5, 438530.0 ], [ 434708.5, 438529.5 ], [ 434708.75, 438529.5 ], [ 434708.75, 438528.75 ], [ 434709.0, 438528.75 ], [ 434709.0, 438527.5 ], [ 434709.25, 438527.5 ], [ 434709.25, 438526.75 ], [ 434709.5, 438526.75 ], [ 434709.5, 438526.25 ], [ 434709.75, 438526.25 ], [ 434709.75, 438525.75 ], [ 434710.0, 438525.75 ], [ 434710.0, 438525.0 ], [ 434710.25, 438525.0 ], [ 434710.25, 438524.75 ], [ 434710.5, 438524.75 ], [ 434710.5, 438524.25 ], [ 434710.75, 438524.25 ], [ 434710.75, 438523.75 ], [ 434711.0, 438523.75 ], [ 434711.0, 438523.25 ], [ 434711.25, 438523.25 ], [ 434711.25, 438523.0 ], [ 434711.5, 438523.0 ], [ 434711.5, 438522.75 ], [ 434711.75, 438522.75 ], [ 434711.75, 438522.25 ], [ 434712.0, 438522.25 ], [ 434712.0, 438521.75 ], [ 434712.25, 438521.75 ], [ 434712.25, 438521.25 ], [ 434712.5, 438521.25 ], [ 434712.5, 438520.75 ], [ 434712.75, 438520.75 ], [ 434712.75, 438520.5 ], [ 434713.0, 438520.5 ], [ 434713.0, 438520.0 ], [ 434713.25, 438520.0 ], [ 434713.25, 438519.75 ], [ 434713.5, 438519.75 ], [ 434713.5, 438519.5 ], [ 434713.75, 438519.5 ], [ 434713.75, 438519.25 ], [ 434714.0, 438519.25 ], [ 434714.0, 438519.0 ], [ 434714.25, 438519.0 ], [ 434714.25, 438518.5 ], [ 434714.5, 438518.5 ], [ 434714.5, 438517.75 ], [ 434714.75, 438517.75 ], [ 434714.75, 438516.75 ], [ 434715.0, 438516.75 ], [ 434715.0, 438515.75 ], [ 434715.25, 438515.75 ], [ 434715.25, 438515.25 ], [ 434715.5, 438515.25 ], [ 434715.5, 438515.0 ], [ 434715.75, 438515.0 ], [ 434715.75, 438514.5 ], [ 434716.0, 438514.5 ], [ 434716.0, 438514.25 ], [ 434716.25, 438514.25 ], [ 434716.25, 438514.0 ], [ 434716.5, 438514.0 ], [ 434716.5, 438513.75 ], [ 434716.75, 438513.75 ], [ 434716.75, 438513.5 ], [ 434717.0, 438513.5 ], [ 434717.0, 438513.25 ], [ 434717.25, 438513.25 ], [ 434717.25, 438512.5 ], [ 434717.5, 438512.5 ], [ 434717.5, 438511.75 ], [ 434717.75, 438511.75 ], [ 434717.75, 438511.0 ], [ 434718.0, 438511.0 ], [ 434718.0, 438510.5 ], [ 434718.25, 438510.5 ], [ 434718.25, 438510.0 ], [ 434718.5, 438510.0 ], [ 434718.5, 438509.75 ], [ 434718.75, 438509.75 ], [ 434718.75, 438509.25 ], [ 434719.0, 438509.25 ], [ 434719.0, 438509.0 ], [ 434719.25, 438509.0 ], [ 434719.25, 438508.5 ], [ 434719.5, 438508.5 ], [ 434719.5, 438508.25 ], [ 434719.75, 438508.25 ], [ 434719.75, 438508.0 ], [ 434720.0, 438508.0 ], [ 434720.0, 438507.75 ], [ 434720.25, 438507.75 ], [ 434720.25, 438507.5 ], [ 434720.5, 438507.5 ], [ 434720.5, 438507.25 ], [ 434720.75, 438507.25 ], [ 434720.75, 438507.0 ], [ 434721.0, 438507.0 ], [ 434721.0, 438506.75 ], [ 434721.25, 438506.75 ], [ 434721.25, 438506.5 ], [ 434721.5, 438506.5 ], [ 434721.5, 438506.25 ], [ 434722.0, 438506.25 ], [ 434722.0, 438506.0 ], [ 434723.75, 438506.0 ], [ 434723.75, 438506.25 ], [ 434725.0, 438506.25 ], [ 434725.0, 438506.5 ], [ 434725.75, 438506.5 ], [ 434725.75, 438506.75 ], [ 434726.0, 438506.75 ], [ 434726.0, 438507.0 ], [ 434726.25, 438507.0 ], [ 434726.25, 438507.25 ], [ 434726.5, 438507.25 ], [ 434726.5, 438507.75 ], [ 434726.75, 438507.75 ], [ 434726.75, 438508.0 ], [ 434727.0, 438508.0 ], [ 434727.0, 438508.5 ], [ 434727.25, 438508.5 ], [ 434727.25, 438509.0 ], [ 434727.5, 438509.0 ], [ 434727.5, 438509.75 ], [ 434727.75, 438509.75 ], [ 434727.75, 438510.75 ], [ 434728.0, 438510.75 ], [ 434728.0, 438511.75 ], [ 434728.25, 438511.75 ], [ 434728.25, 438512.75 ], [ 434728.5, 438512.75 ], [ 434728.5, 438514.0 ], [ 434728.25, 438514.0 ], [ 434728.25, 438515.25 ], [ 434728.0, 438515.25 ], [ 434728.0, 438516.25 ], [ 434727.75, 438516.25 ], [ 434727.75, 438517.25 ], [ 434727.5, 438517.25 ], [ 434727.5, 438518.0 ], [ 434727.25, 438518.0 ], [ 434727.25, 438518.75 ], [ 434727.0, 438518.75 ], [ 434727.0, 438519.25 ], [ 434726.75, 438519.25 ], [ 434726.75, 438519.75 ], [ 434726.5, 438519.75 ], [ 434726.5, 438520.0 ], [ 434726.25, 438520.0 ], [ 434726.25, 438520.5 ], [ 434726.0, 438520.5 ], [ 434726.0, 438520.75 ], [ 434725.75, 438520.75 ], [ 434725.75, 438521.25 ], [ 434725.5, 438521.25 ], [ 434725.5, 438521.75 ], [ 434725.25, 438521.75 ], [ 434725.25, 438522.0 ], [ 434725.0, 438522.0 ], [ 434725.0, 438522.5 ], [ 434724.75, 438522.5 ], [ 434724.75, 438523.25 ], [ 434724.5, 438523.25 ], [ 434724.5, 438523.75 ], [ 434724.25, 438523.75 ], [ 434724.25, 438524.25 ], [ 434724.0, 438524.25 ], [ 434724.0, 438525.25 ], [ 434723.75, 438525.25 ], [ 434723.75, 438526.0 ], [ 434723.5, 438526.0 ], [ 434723.5, 438526.75 ], [ 434723.25, 438526.75 ], [ 434723.25, 438527.25 ], [ 434723.0, 438527.25 ], [ 434723.0, 438527.75 ], [ 434722.75, 438527.75 ], [ 434722.75, 438528.25 ], [ 434722.5, 438528.25 ], [ 434722.5, 438528.75 ], [ 434722.25, 438528.75 ], [ 434722.25, 438529.0 ], [ 434722.0, 438529.0 ], [ 434722.0, 438529.5 ], [ 434721.75, 438529.5 ], [ 434721.75, 438530.0 ], [ 434721.5, 438530.0 ], [ 434721.5, 438530.5 ], [ 434721.25, 438530.5 ], [ 434721.25, 438530.75 ], [ 434721.0, 438530.75 ], [ 434721.0, 438531.25 ], [ 434720.75, 438531.25 ], [ 434720.75, 438532.0 ], [ 434720.5, 438532.0 ], [ 434720.5, 438532.75 ], [ 434720.25, 438532.75 ], [ 434720.25, 438533.5 ], [ 434720.0, 438533.5 ], [ 434720.0, 438534.5 ], [ 434719.75, 438534.5 ], [ 434719.75, 438535.25 ], [ 434719.5, 438535.25 ], [ 434719.5, 438535.75 ], [ 434719.25, 438535.75 ], [ 434719.25, 438536.25 ], [ 434719.0, 438536.25 ], [ 434719.0, 438536.75 ], [ 434718.75, 438536.75 ], [ 434718.75, 438537.25 ], [ 434718.5, 438537.25 ], [ 434718.5, 438537.75 ], [ 434718.25, 438537.75 ], [ 434718.25, 438538.0 ], [ 434718.0, 438538.0 ], [ 434718.0, 438538.25 ], [ 434717.75, 438538.25 ], [ 434717.75, 438538.75 ], [ 434717.5, 438538.75 ], [ 434717.5, 438539.0 ], [ 434717.25, 438539.0 ], [ 434717.25, 438539.5 ], [ 434717.0, 438539.5 ], [ 434717.0, 438539.75 ], [ 434716.75, 438539.75 ], [ 434716.75, 438540.25 ], [ 434716.5, 438540.25 ], [ 434716.5, 438541.0 ], [ 434716.25, 438541.0 ], [ 434716.25, 438541.5 ], [ 434716.0, 438541.5 ], [ 434716.0, 438542.25 ], [ 434715.75, 438542.25 ], [ 434715.75, 438543.0 ], [ 434715.5, 438543.0 ], [ 434715.5, 438543.75 ], [ 434715.25, 438543.75 ], [ 434715.25, 438544.25 ], [ 434715.0, 438544.25 ], [ 434715.0, 438545.0 ], [ 434714.75, 438545.0 ], [ 434714.75, 438545.5 ], [ 434714.5, 438545.5 ], [ 434714.5, 438546.25 ], [ 434714.25, 438546.25 ], [ 434714.25, 438547.0 ], [ 434714.0, 438547.0 ], [ 434714.0, 438547.75 ], [ 434713.75, 438547.75 ], [ 434713.75, 438548.75 ], [ 434713.5, 438548.75 ], [ 434713.5, 438549.5 ], [ 434713.25, 438549.5 ], [ 434713.25, 438550.25 ], [ 434713.0, 438550.25 ], [ 434713.0, 438551.25 ], [ 434712.75, 438551.25 ], [ 434712.75, 438552.5 ], [ 434712.5, 438552.5 ], [ 434712.5, 438553.75 ], [ 434712.25, 438553.75 ], [ 434712.25, 438555.25 ], [ 434712.0, 438555.25 ], [ 434712.0, 438557.25 ], [ 434711.75, 438557.25 ], [ 434711.75, 438559.0 ], [ 434711.5, 438559.0 ], [ 434711.5, 438563.75 ], [ 434711.25, 438563.75 ], [ 434711.25, 438573.25 ], [ 434711.5, 438573.25 ], [ 434711.5, 438574.25 ], [ 434711.25, 438574.25 ], [ 434711.25, 438575.75 ], [ 434711.0, 438575.75 ], [ 434711.0, 438577.0 ], [ 434710.75, 438577.0 ], [ 434710.75, 438578.0 ], [ 434710.5, 438578.0 ], [ 434710.5, 438578.5 ], [ 434710.25, 438578.5 ], [ 434710.25, 438578.75 ], [ 434710.0, 438578.75 ], [ 434710.0, 438579.25 ], [ 434709.75, 438579.25 ], [ 434709.75, 438579.5 ], [ 434709.5, 438579.5 ], [ 434709.5, 438579.75 ], [ 434708.75, 438579.75 ], [ 434708.75, 438580.0 ], [ 434708.25, 438580.0 ] ] ] } },
{ "type": "Feature", "properties": { }, "geometry": { "type": "Polygon", "coordinates": [ [ [ 434512.0, 438593.5 ], [ 434512.0, 438588.5 ], [ 434510.75, 438588.5 ], [ 434510.75, 438588.75 ], [ 434508.75, 438588.75 ], [ 434508.75, 438589.0 ], [ 434507.0, 438589.0 ], [ 434507.0, 438588.75 ], [ 434506.0, 438588.75 ], [ 434506.0, 438589.0 ], [ 434505.5, 438589.0 ], [ 434505.5, 438589.25 ], [ 434505.25, 438589.25 ], [ 434505.25, 438589.5 ], [ 434504.5, 438589.5 ], [ 434504.5, 438589.75 ], [ 434503.75, 438589.75 ], [ 434503.75, 438590.0 ], [ 434502.75, 438590.0 ], [ 434502.75, 438590.25 ], [ 434499.75, 438590.25 ], [ 434499.75, 438590.0 ], [ 434499.5, 438590.0 ], [ 434499.5, 438589.75 ], [ 434499.0, 438589.75 ], [ 434499.0, 438589.5 ], [ 434498.75, 438589.5 ], [ 434498.75, 438589.25 ], [ 434498.5, 438589.25 ], [ 434498.5, 438589.0 ], [ 434498.25, 438589.0 ], [ 434498.25, 438588.75 ], [ 434497.75, 438588.75 ], [ 434497.75, 438588.5 ], [ 434497.5, 438588.5 ], [ 434497.5, 438588.0 ], [ 434497.25, 438588.0 ], [ 434497.25, 438586.0 ], [ 434497.5, 438586.0 ], [ 434497.5, 438584.5 ], [ 434497.25, 438584.5 ], [ 434497.25, 438583.25 ], [ 434497.0, 438583.25 ], [ 434497.0, 438582.0 ], [ 434496.75, 438582.0 ], [ 434496.75, 438578.0 ], [ 434497.0, 438578.0 ], [ 434497.0, 438577.5 ], [ 434496.75, 438577.5 ], [ 434496.75, 438576.75 ], [ 434496.5, 438576.75 ], [ 434496.5, 438571.5 ], [ 434496.75, 438571.5 ], [ 434496.75, 438567.0 ], [ 434496.5, 438567.0 ], [ 434496.5, 438565.75 ], [ 434496.25, 438565.75 ], [ 434496.25, 438565.25 ], [ 434496.0, 438565.25 ], [ 434496.0, 438564.5 ], [ 434495.75, 438564.5 ], [ 434495.75, 438564.0 ], [ 434495.5, 438564.0 ], [ 434495.5, 438563.5 ], [ 434495.25, 438563.5 ], [ 434495.25, 438562.0 ], [ 434495.0, 438562.0 ], [ 434495.0, 438560.5 ], [ 434494.75, 438560.5 ], [ 434494.75, 438559.75 ], [ 434494.5, 438559.75 ], [ 434494.5, 438559.25 ], [ 434494.25, 438559.25 ], [ 434494.25, 438559.0 ], [ 434494.0, 438559.0 ], [ 434494.0, 438558.5 ], [ 434493.75, 438558.5 ], [ 434493.75, 438558.0 ], [ 434493.5, 438558.0 ], [ 434493.5, 438557.75 ], [ 434493.25, 438557.75 ], [ 434493.25, 438557.5 ], [ 434492.75, 438557.5 ], [ 434492.75, 438557.25 ], [ 434492.5, 438557.25 ], [ 434492.5, 438557.0 ], [ 434492.25, 438557.0 ], [ 434492.25, 438556.5 ], [ 434492.0, 438556.5 ], [ 434492.0, 438556.25 ], [ 434491.75, 438556.25 ], [ 434491.75, 438555.75 ], [ 434491.5, 438555.75 ], [ 434491.5, 438555.25 ], [ 434491.25, 438555.25 ], [ 434491.25, 438554.5 ], [ 434491.0, 438554.5 ], [ 434491.0, 438553.0 ], [ 434490.75, 438553.0 ], [ 434490.75, 438552.25 ], [ 434491.0, 438552.25 ], [ 434491.0, 438550.5 ], [ 434491.25, 438550.5 ], [ 434491.25, 438548.25 ], [ 434491.5, 438548.25 ], [ 434491.5, 438547.75 ], [ 434491.75, 438547.75 ], [ 434491.75, 438547.0 ], [ 434492.0, 438547.0 ], [ 434492.0, 438546.75 ], [ 434492.25, 438546.75 ], [ 434492.25, 438546.5 ], [ 434492.5, 438546.5 ], [ 434492.5, 438546.25 ], [ 434492.75, 438546.25 ], [ 434492.75, 438546.5 ], [ 434493.75, 438546.5 ], [ 434493.75, 438546.25 ], [ 434494.25, 438546.25 ], [ 434494.25, 438546.0 ], [ 434494.5, 438546.0 ], [ 434494.5, 438545.75 ], [ 434494.75, 438545.75 ], [ 434494.75, 438545.25 ], [ 434495.0, 438545.25 ], [ 434495.0, 438545.0 ], [ 434495.25, 438545.0 ], [ 434495.25, 438544.25 ], [ 434495.5, 438544.25 ], [ 434495.5, 438543.75 ], [ 434495.75, 438543.75 ], [ 434495.75, 438543.5 ], [ 434496.0, 438543.5 ], [ 434496.0, 438543.0 ], [ 434496.25, 438543.0 ], [ 434496.25, 438542.25 ], [ 434496.5, 438542.25 ], [ 434496.5, 438541.5 ], [ 434496.75, 438541.5 ], [ 434496.75, 438540.0 ], [ 434497.0, 438540.0 ], [ 434497.0, 438539.0 ], [ 434497.25, 438539.0 ], [ 434497.25, 438537.5 ], [ 434497.5, 438537.5 ], [ 434497.5, 438535.5 ], [ 434497.75, 438535.5 ], [ 434497.75, 438531.25 ], [ 434497.5, 438531.25 ], [ 434497.5, 438530.75 ], [ 434497.25, 438530.75 ], [ 434497.25, 438530.0 ], [ 434497.0, 438530.0 ], [ 434497.0, 438527.75 ], [ 434497.25, 438527.75 ], [ 434497.25, 438526.0 ], [ 434497.0, 438526.0 ], [ 434497.0, 438525.25 ], [ 434496.75, 438525.25 ], [ 434496.75, 438524.5 ], [ 434496.5, 438524.5 ], [ 434496.5, 438524.25 ], [ 434496.25, 438524.25 ], [ 434496.25, 438524.0 ], [ 434496.0, 438524.0 ], [ 434496.0, 438523.75 ], [ 434495.75, 438523.75 ], [ 434495.75, 438523.5 ], [ 434495.5, 438523.5 ], [ 434495.5, 438523.25 ], [ 434495.0, 438523.25 ], [ 434495.0, 438523.0 ], [ 434494.75, 438523.0 ], [ 434494.75, 438522.75 ], [ 434493.5, 438522.75 ], [ 434493.5, 438522.5 ], [ 434490.75, 438522.5 ], [ 434490.75, 438522.75 ], [ 434489.75, 438522.75 ], [ 434489.75, 438523.0 ], [ 434488.25, 438523.0 ], [ 434488.25, 438523.25 ], [ 434487.75, 438523.25 ], [ 434487.75, 438523.5 ], [ 434487.5, 438523.5 ], [ 434487.5, 438523.75 ], [ 434487.25, 438523.75 ], [ 434487.25, 438524.25 ], [ 434487.0, 438524.25 ], [ 434487.0, 438524.5 ], [ 434486.75, 438524.5 ], [ 434486.75, 438524.75 ], [ 434482.0, 438524.75 ], [ 434482.0, 438525.0 ], [ 434481.5, 438525.0 ], [ 434481.5, 438525.5 ], [ 434481.25, 438525.5 ], [ 434481.25, 438526.5 ], [ 434481.0, 438526.5 ], [ 434481.0, 438527.25 ], [ 434480.75, 438527.25 ], [ 434480.75, 438528.0 ], [ 434480.5, 438528.0 ], [ 434480.5, 438528.75 ], [ 434480.25, 438528.75 ], [ 434480.25, 438529.25 ], [ 434480.0, 438529.25 ], [ 434480.0, 438530.75 ], [ 434479.75, 438530.75 ], [ 434479.75, 438531.25 ], [ 434479.5, 438531.25 ], [ 434479.5, 438532.0 ], [ 434479.25, 438532.0 ], [ 434479.25, 438532.5 ], [ 434479.0, 438532.5 ], [ 434479.0, 438533.0 ], [ 434478.75, 438533.0 ], [ 434478.75, 438533.25 ], [ 434478.5, 438533.25 ], [ 434478.5, 438533.5 ], [ 434478.25, 438533.5 ], [ 434478.25, 438534.0 ], [ 434478.0, 438534.0 ], [ 434478.0, 438537.5 ], [ 434477.75, 438537.5 ], [ 434477.75, 438539.25 ], [ 434477.5, 438539.25 ], [ 434477.5, 438540.25 ], [ 434477.25, 438540.25 ], [ 434477.25, 438541.25 ], [ 434477.0, 438541.25 ], [ 434477.0, 438542.5 ], [ 434476.75, 438542.5 ], [ 434476.75, 438544.5 ], [ 434476.5, 438544.5 ], [ 434476.5, 438545.75 ], [ 434476.25, 438545.75 ], [ 434476.25, 438546.75 ], [ 434476.0, 438546.75 ], [ 434476.0, 438547.75 ], [ 434475.75, 438547.75 ], [ 434475.75, 438549.0 ], [ 434475.5, 438549.0 ], [ 434475.5, 438550.75 ], [ 434475.25, 438550.75 ], [ 434475.25, 438552.5 ], [ 434475.0, 438552.5 ], [ 434475.0, 438553.5 ], [ 434474.75, 438553.5 ], [ 434474.75, 438554.0 ], [ 434474.5, 438554.0 ], [ 434474.5, 438554.25 ], [ 434473.25, 438554.25 ], [ 434473.25, 438553.75 ], [ 434473.0, 438553.75 ], [ 434473.0, 438553.5 ], [ 434472.75, 438553.5 ], [ 434472.75, 438553.25 ], [ 434472.5, 438553.25 ], [ 434472.5, 438552.75 ], [ 434472.25, 438552.75 ], [ 434472.25, 438552.25 ], [ 434472.0, 438552.25 ], [ 434472.0, 438551.0 ], [ 434471.75, 438551.0 ], [ 434471.75, 438548.75 ], [ 434471.5, 438548.75 ], [ 434471.5, 438547.75 ], [ 434471.25, 438547.75 ], [ 434471.25, 438546.75 ], [ 434471.0, 438546.75 ], [ 434471.0, 438545.5 ], [ 434470.75, 438545.5 ], [ 434470.75, 438545.0 ], [ 434470.5, 438545.0 ], [ 434470.5, 438544.5 ], [ 434470.25, 438544.5 ], [ 434470.25, 438544.25 ], [ 434470.0, 438544.25 ], [ 434470.0, 438544.0 ], [ 434469.75, 438544.0 ], [ 434469.75, 438543.5 ], [ 434468.5, 438543.5 ], [ 434468.5, 438543.25 ], [ 434467.25, 438543.25 ], [ 434467.25, 438543.5 ], [ 434466.75, 438543.5 ], [ 434466.75, 438543.75 ], [ 434466.25, 438543.75 ], [ 434466.25, 438544.0 ], [ 434466.0, 438544.0 ], [ 434466.0, 438544.25 ], [ 434465.75, 438544.25 ], [ 434465.75, 438544.5 ], [ 434464.5, 438544.5 ], [ 434464.5, 438544.75 ], [ 434464.0, 438544.75 ], [ 434464.0, 438545.0 ], [ 434463.5, 438545.0 ], [ 434463.5, 438545.25 ], [ 434463.25, 438545.25 ], [ 434463.25, 438545.5 ], [ 434462.75, 438545.5 ], [ 434462.75, 438545.75 ], [ 434462.25, 438545.75 ], [ 434462.25, 438545.5 ], [ 434459.75, 438545.5 ], [ 434459.75, 438545.25 ], [ 434459.25, 438545.25 ], [ 434459.25, 438545.0 ], [ 434458.75, 438545.0 ], [ 434458.75, 438544.75 ], [ 434458.5, 438544.75 ], [ 434458.5, 438544.5 ], [ 434457.25, 438544.5 ], [ 434457.25, 438544.25 ], [ 434456.5, 438544.25 ], [ 434456.5, 438544.0 ], [ 434456.25, 438544.0 ], [ 434456.25, 438543.5 ], [ 434456.0, 438543.5 ], [ 434456.0, 438543.25 ], [ 434455.75, 438543.25 ], [ 434455.75, 438543.0 ], [ 434455.5, 438543.0 ], [ 434455.5, 438542.5 ], [ 434455.25, 438542.5 ], [ 434455.25, 438541.75 ], [ 434455.0, 438541.75 ], [ 434455.0, 438540.75 ], [ 434454.75, 438540.75 ], [ 434454.75, 438535.5 ], [ 434454.5, 438535.5 ], [ 434454.5, 438528.25 ], [ 434454.25, 438528.25 ], [ 434454.25, 438526.0 ], [ 434454.0, 438526.0 ], [ 434454.0, 438525.0 ], [ 434453.75, 438525.0 ], [ 434453.75, 438524.5 ], [ 434453.5, 438524.5 ], [ 434453.5, 438524.0 ], [ 434453.25, 438524.0 ], [ 434453.25, 438523.5 ], [ 434453.0, 438523.5 ], [ 434453.0, 438523.0 ], [ 434452.75, 438523.0 ], [ 434452.75, 438522.25 ], [ 434452.5, 438522.25 ], [ 434452.5, 438519.0 ], [ 434452.75, 438519.0 ], [ 434452.75, 438517.5 ], [ 434452.5, 438517.5 ], [ 434452.5, 438516.5 ], [ 434452.25, 438516.5 ], [ 434452.25, 438516.25 ], [ 434452.0, 438516.25 ], [ 434452.0, 438515.75 ], [ 434451.75, 438515.75 ], [ 434451.75, 438515.5 ], [ 434451.5, 438515.5 ], [ 434451.5, 438515.0 ], [ 434451.25, 438515.0 ], [ 434451.25, 438514.75 ], [ 434451.0, 438514.75 ], [ 434451.0, 438514.5 ], [ 434450.75, 438514.5 ], [ 434450.75, 438514.25 ], [ 434450.25, 438514.25 ], [ 434450.25, 438514.0 ], [ 434449.75, 438514.0 ], [ 434449.75, 438513.75 ], [ 434449.25, 438513.75 ], [ 434449.25, 438513.5 ], [ 434448.75, 438513.5 ], [ 434448.75, 438512.25 ], [ 434448.5, 438512.25 ], [ 434448.5, 438512.0 ], [ 434448.0, 438512.0 ], [ 434448.0, 438511.75 ], [ 434447.75, 438511.75 ], [ 434447.75, 438511.5 ], [ 434447.5, 438511.5 ], [ 434447.5, 438510.75 ], [ 434447.25, 438510.75 ], [ 434447.25, 438506.75 ], [ 434447.5, 438506.75 ], [ 434447.5, 438506.0 ], [ 434447.75, 438506.0 ], [ 434447.75, 438505.5 ], [ 434448.0, 438505.5 ], [ 434448.0, 438505.25 ], [ 434448.25, 438505.25 ], [ 434448.25, 438505.0 ], [ 434448.5, 438505.0 ], [ 434448.5, 438504.75 ], [ 434448.75, 438504.75 ], [ 434448.75, 438504.5 ], [ 434449.0, 438504.5 ], [ 434449.0, 438504.25 ], [ 434449.75, 438504.25 ], [ 434449.75, 438504.0 ], [ 434456.25, 438504.0 ], [ 434456.25, 438504.25 ], [ 434461.75, 438504.25 ], [ 434461.75, 438504.5 ], [ 434463.0, 438504.5 ], [ 434463.0, 438504.75 ], [ 434463.75, 438504.75 ], [ 434463.75, 438505.0 ], [ 434464.5, 438505.0 ], [ 434464.5, 438505.25 ], [ 434465.75, 438505.25 ], [ 434465.75, 438505.5 ], [ 434466.5, 438505.5 ], [ 434466.5, 438505.75 ], [ 434468.75, 438505.75 ], [ 434468.75, 438506.0 ], [ 434469.75, 438506.0 ], [ 434469.75, 438506.25 ], [ 434472.25, 438506.25 ], [ 434472.25, 438506.5 ], [ 434474.0, 438506.5 ], [ 434474.0, 438506.75 ], [ 434475.5, 438506.75 ], [ 434475.5, 438507.0 ], [ 434476.25, 438507.0 ], [ 434476.25, 438507.25 ], [ 434478.0, 438507.25 ], [ 434478.0, 438507.5 ], [ 434480.0, 438507.5 ], [ 434480.0, 438507.75 ], [ 434481.75, 438507.75 ], [ 434481.75, 438508.0 ], [ 434482.5, 438508.0 ], [ 434482.5, 438508.25 ], [ 434483.0, 438508.25 ], [ 434483.0, 438508.5 ], [ 434484.75, 438508.5 ], [ 434484.75, 438508.75 ], [ 434487.0, 438508.75 ], [ 434487.0, 438508.5 ], [ 434487.75, 438508.5 ], [ 434487.75, 438508.25 ], [ 434490.0, 438508.25 ], [ 434490.0, 438508.0 ], [ 434490.25, 438508.0 ], [ 434490.25, 438507.75 ], [ 434490.75, 438507.75 ], [ 434490.75, 438508.0 ], [ 434491.0, 438508.0 ], [ 434491.0, 438508.25 ], [ 434491.25, 438508.25 ], [ 434491.25, 438508.5 ], [ 434491.5, 438508.5 ], [ 434491.5, 438509.25 ], [ 434491.75, 438509.25 ], [ 434491.75, 438509.75 ], [ 434492.25, 438509.75 ], [ 434492.25, 438510.25 ], [ 434492.5, 438510.25 ], [ 434492.5, 438510.5 ], [ 434492.75, 438510.5 ], [ 434492.75, 438511.25 ], [ 434493.0, 438511.25 ], [ 434493.0, 438512.0 ], [ 434493.25, 438512.0 ], [ 434493.25, 438512.75 ], [ 434493.5, 438512.75 ], [ 434493.5, 438513.0 ], [ 434494.0, 438513.0 ], [ 434494.0, 438512.75 ], [ 434494.5, 438512.75 ], [ 434494.5, 438512.25 ], [ 434494.75, 438512.25 ], [ 434494.75, 438511.0 ], [ 434495.0, 438511.0 ], [ 434495.0, 438510.0 ], [ 434495.25, 438510.0 ], [ 434495.25, 438509.25 ], [ 434495.5, 438509.25 ], [ 434495.5, 438508.5 ], [ 434495.75, 438508.5 ], [ 434495.75, 438507.75 ], [ 434496.0, 438507.75 ], [ 434496.0, 438507.5 ], [ 434496.25, 438507.5 ], [ 434496.25, 438507.25 ], [ 434496.5, 438507.25 ], [ 434496.5, 438507.0 ], [ 434497.0, 438507.0 ], [ 434497.0, 438506.75 ], [ 434499.75, 438506.75 ], [ 434499.75, 438507.0 ], [ 434500.5, 438507.0 ], [ 434500.5, 438507.25 ], [ 434503.5, 438507.25 ], [ 434503.5, 438507.0 ], [ 434512.0, 438507.0 ], [ 434512.0, 438504.75 ], [ 434513.25, 438504.75 ], [ 434513.25, 438505.0 ], [ 434515.75, 438505.0 ], [ 434515.75, 438505.25 ], [ 434517.25, 438505.25 ], [ 434517.25, 438505.5 ], [ 434518.25, 438505.5 ], [ 434518.25, 438505.75 ], [ 434519.75, 438505.75 ], [ 434519.75, 438506.0 ], [ 434521.75, 438506.0 ], [ 434521.75, 438506.25 ], [ 434522.75, 438506.25 ], [ 434522.75, 438506.5 ], [ 434524.0, 438506.5 ], [ 434524.0, 438506.75 ], [ 434525.75, 438506.75 ], [ 434525.75, 438507.0 ], [ 434527.0, 438507.0 ], [ 434527.0, 438507.25 ], [ 434528.0, 438507.25 ], [ 434528.0, 438507.5 ], [ 434529.0, 438507.5 ], [ 434529.0, 438507.75 ], [ 434530.0, 438507.75 ], [ 434530.0, 438508.0 ], [ 434531.0, 438508.0 ], [ 434531.0, 438508.25 ], [ 434531.75, 438508.25 ], [ 434531.75, 438508.5 ], [ 434532.75, 438508.5 ], [ 434532.75, 438508.75 ], [ 434533.5, 438508.75 ], [ 434533.5, 438509.0 ], [ 434534.0, 438509.0 ], [ 434534.0, 438509.25 ], [ 434534.75, 438509.25 ], [ 434534.75, 438509.5 ], [ 434535.25, 438509.5 ], [ 434535.25, 438509.75 ], [ 434535.75, 438509.75 ], [ 434535.75, 438510.0 ], [ 434536.5, 438510.0 ], [ 434536.5, 438510.25 ], [ 434537.25, 438510.25 ], [ 434537.25, 438510.5 ], [ 434538.0, 438510.5 ], [ 434538.0, 438510.75 ], [ 434538.5, 438510.75 ], [ 434538.5, 438511.0 ], [ 434539.0, 438511.0 ], [ 434539.0, 438511.25 ], [ 434539.5, 438511.25 ], [ 434539.5, 438511.5 ], [ 434540.0, 438511.5 ], [ 434540.0, 438511.75 ], [ 434540.5, 438511.75 ], [ 434540.5, 438512.0 ], [ 434540.75, 438512.0 ], [ 434540.75, 438512.25 ], [ 434541.25, 438512.25 ], [ 434541.25, 438512.5 ], [ 434541.75, 438512.5 ], [ 434541.75, 438512.75 ], [ 434542.25, 438512.75 ], [ 434542.25, 438513.0 ], [ 434542.5, 438513.0 ], [ 434542.5, 438513.25 ], [ 434543.0, 438513.25 ], [ 434543.0, 438513.5 ], [ 434543.25, 438513.5 ], [ 434543.25, 438513.75 ], [ 434543.75, 438513.75 ], [ 434543.75, 438514.0 ], [ 434544.0, 438514.0 ], [ 434544.0, 438514.25 ], [ 434544.25, 438514.25 ], [ 434544.25, 438514.5 ], [ 434544.5, 438514.5 ], [ 434544.5, 438514.75 ], [ 434545.0, 438514.75 ], [ 434545.0, 438515.0 ], [ 434545.25, 438515.0 ], [ 434545.25, 438515.25 ], [ 434545.75, 438515.25 ], [ 434545.75, 438515.5 ], [ 434546.25, 438515.5 ], [ 434546.25, 438515.75 ], [ 434546.75, 438515.75 ], [ 434546.75, 438516.0 ], [ 434547.25, 438516.0 ], [ 434547.25, 438516.25 ], [ 434547.5, 438516.25 ], [ 434547.5, 438516.5 ], [ 434548.0, 438516.5 ], [ 434548.0, 438516.75 ], [ 434548.25, 438516.75 ], [ 434548.25, 438517.0 ], [ 434548.75, 438517.0 ], [ 434548.75, 438517.25 ], [ 434549.0, 438517.25 ], [ 434549.0, 438517.5 ], [ 434549.25, 438517.5 ], [ 434549.25, 438517.75 ], [ 434549.75, 438517.75 ], [ 434549.75, 438518.0 ], [ 434550.0, 438518.0 ], [ 434550.0, 438518.25 ], [ 434550.5, 438518.25 ], [ 434550.5, 438518.5 ], [ 434551.0, 438518.5 ], [ 434551.0, 438518.75 ], [ 434551.5, 438518.75 ], [ 434551.5, 438519.0 ], [ 434552.0, 438519.0 ], [ 434552.0, 438519.25 ], [ 434552.75, 438519.25 ], [ 434552.75, 438519.5 ], [ 434553.25, 438519.5 ], [ 434553.25, 438519.75 ], [ 434554.0, 438519.75 ], [ 434554.0, 438520.0 ], [ 434555.0, 438520.0 ], [ 434555.0, 438520.25 ], [ 434555.75, 438520.25 ], [ 434555.75, 438520.5 ], [ 434556.25, 438520.5 ], [ 434556.25, 438520.75 ], [ 434556.75, 438520.75 ], [ 434556.75, 438521.0 ], [ 434557.25, 438521.0 ], [ 434557.25, 438521.25 ], [ 434557.75, 438521.25 ], [ 434557.75, 438521.5 ], [ 434558.25, 438521.5 ], [ 434558.25, 438521.75 ], [ 434558.75, 438521.75 ], [ 434558.75, 438522.0 ], [ 434559.0, 438522.0 ], [ 434559.0, 438522.25 ], [ 434559.5, 438522.25 ], [ 434559.5, 438522.5 ], [ 434559.75, 438522.5 ], [ 434559.75, 438522.75 ], [ 434560.0, 438522.75 ], [ 434560.0, 438523.0 ], [ 434560.25, 438523.0 ], [ 434560.25, 438523.25 ], [ 434560.5, 438523.25 ], [ 434560.5, 438523.5 ], [ 434561.0, 438523.5 ], [ 434561.0, 438523.75 ], [ 434561.25, 438523.75 ], [ 434561.25, 438524.0 ], [ 434561.5, 438524.0 ], [ 434561.5, 438524.25 ], [ 434561.75, 438524.25 ], [ 434561.75, 438524.5 ], [ 434562.25, 438524.5 ], [ 434562.25, 438524.75 ], [ 434562.5, 438524.75 ], [ 434562.5, 438525.0 ], [ 434562.75, 438525.0 ], [ 434562.75, 438525.5 ], [ 434563.0, 438525.5 ], [ 434563.0, 438525.75 ], [ 434563.25, 438525.75 ], [ 434563.25, 438526.0 ], [ 434563.5, 438526.0 ], [ 434563.5, 438526.5 ], [ 434563.75, 438526.5 ], [ 434563.75, 438526.75 ], [ 434564.0, 438526.75 ], [ 434564.0, 438527.0 ], [ 434564.25, 438527.0 ], [ 434564.25, 438527.25 ], [ 434564.5, 438527.25 ], [ 434564.5, 438527.5 ], [ 434564.75, 438527.5 ], [ 434564.75, 438528.0 ], [ 434565.0, 438528.0 ], [ 434565.0, 438528.25 ], [ 434565.25, 438528.25 ], [ 434565.25, 438528.75 ], [ 434565.5, 438528.75 ], [ 434565.5, 438529.0 ], [ 434565.75, 438529.0 ], [ 434565.75, 438529.25 ], [ 434566.0, 438529.25 ], [ 434566.0, 438529.75 ], [ 434566.25, 438529.75 ], [ 434566.25, 438530.0 ], [ 434566.5, 438530.0 ], [ 434566.5, 438530.5 ], [ 434566.75, 438530.5 ], [ 434566.75, 438531.25 ], [ 434567.0, 438531.25 ], [ 434567.0, 438531.75 ], [ 434567.25, 438531.75 ], [ 434567.25, 438532.5 ], [ 434567.5, 438532.5 ], [ 434567.5, 438533.5 ], [ 434567.75, 438533.5 ], [ 434567.75, 438535.5 ], [ 434568.0, 438535.5 ], [ 434568.0, 438539.0 ], [ 434568.25, 438539.0 ], [ 434568.25, 438542.5 ], [ 434568.5, 438542.5 ], [ 434568.5, 438546.75 ], [ 434568.75, 438546.75 ], [ 434568.75, 438548.75 ], [ 434569.0, 438548.75 ], [ 434569.0, 438550.0 ], [ 434569.25, 438550.0 ], [ 434569.25, 438551.75 ], [ 434569.5, 438551.75 ], [ 434569.5, 438553.25 ], [ 434569.75, 438553.25 ], [ 434569.75, 438555.25 ], [ 434570.0, 438555.25 ], [ 434570.0, 438564.5 ], [ 434569.75, 438564.5 ], [ 434569.75, 438570.25 ], [ 434570.0, 438570.25 ], [ 434570.0, 438572.25 ], [ 434569.75, 438572.25 ], [ 434569.75, 438580.0 ], [ 434569.5, 438580.0 ], [ 434569.5, 438581.25 ], [ 434569.25, 438581.25 ], [ 434569.25, 438582.0 ], [ 434569.0, 438582.0 ], [ 434569.0, 438582.5 ], [ 434568.75, 438582.5 ], [ 434568.75, 438583.0 ], [ 434568.5, 438583.0 ], [ 434568.5, 438583.5 ], [ 434568.25, 438583.5 ], [ 434568.25, 438584.0 ], [ 434568.0, 438584.0 ], [ 434568.0, 438584.25 ], [ 434567.75, 438584.25 ], [ 434567.75, 438584.75 ], [ 434567.5, 438584.75 ], [ 434567.5, 438585.0 ], [ 434567.25, 438585.0 ], [ 434567.25, 438585.5 ], [ 434567.0, 438585.5 ], [ 434567.0, 438585.75 ], [ 434566.75, 438585.75 ], [ 434566.75, 438586.0 ], [ 434566.5, 438586.0 ], [ 434566.5, 438586.25 ], [ 434566.25, 438586.25 ], [ 434566.25, 438586.5 ], [ 434566.0, 438586.5 ], [ 434566.0, 438586.75 ], [ 434565.75, 438586.75 ], [ 434565.75, 438587.0 ], [ 434565.5, 438587.0 ], [ 434565.5, 438587.25 ], [ 434565.25, 438587.25 ], [ 434565.25, 438587.5 ], [ 434564.75, 438587.5 ], [ 434564.75, 438587.75 ], [ 434564.5, 438587.75 ], [ 434564.5, 438588.0 ], [ 434564.0, 438588.0 ], [ 434564.0, 438588.25 ], [ 434563.5, 438588.25 ], [ 434563.5, 438588.5 ], [ 434563.0, 438588.5 ], [ 434563.0, 438588.75 ], [ 434562.5, 438588.75 ], [ 434562.5, 438589.0 ], [ 434562.0, 438589.0 ], [ 434562.0, 438589.25 ], [ 434561.5, 438589.25 ], [ 434561.5, 438589.5 ], [ 434560.75, 438589.5 ], [ 434560.75, 438589.75 ], [ 434560.25, 438589.75 ], [ 434560.25, 438590.0 ], [ 434559.75, 438590.0 ], [ 434559.75, 438590.25 ], [ 434559.0, 438590.25 ], [ 434559.0, 438590.5 ], [ 434558.5, 438590.5 ], [ 434558.5, 438590.75 ], [ 434557.75, 438590.75 ], [ 434557.75, 438591.0 ], [ 434556.75, 438591.0 ], [ 434556.75, 438591.25 ], [ 434555.75, 438591.25 ], [ 434555.75, 438591.5 ], [ 434555.0, 438591.5 ], [ 434555.0, 438591.75 ], [ 434554.0, 438591.75 ], [ 434554.0, 438592.0 ], [ 434552.75, 438592.0 ], [ 434552.75, 438592.25 ], [ 434551.5, 438592.25 ], [ 434551.5, 438592.5 ], [ 434550.25, 438592.5 ], [ 434550.25, 438592.75 ], [ 434545.25, 438592.75 ], [ 434545.25, 438593.0 ], [ 434543.75, 438593.0 ], [ 434543.75, 438592.75 ], [ 434535.0, 438592.75 ], [ 434535.0, 438593.0 ], [ 434530.25, 438593.0 ], [ 434530.25, 438593.25 ], [ 434515.75, 438593.25 ], [ 434515.75, 438593.5 ], [ 434512.0, 438593.5 ] ] ] } },
{ "type": "Feature", "properties": { }, "geometry": { "type": "Polygon", "coordinates": [ [ [ 434124.0, 438455.75 ], [ 434124.0, 438455.5 ], [ 434123.75, 438455.5 ], [ 434123.75, 438455.25 ], [ 434123.5, 438455.25 ], [ 434123.5, 438454.75 ], [ 434123.25, 438454.75 ], [ 434123.25, 438454.0 ], [ 434123.5, 438454.0 ], [ 434123.5, 438453.5 ], [ 434124.0, 438453.5 ], [ 434124.0, 438453.25 ], [ 434125.0, 438453.25 ], [ 434125.0, 438453.0 ], [ 434125.75, 438453.0 ], [ 434125.75, 438453.25 ], [ 434126.0, 438453.25 ], [ 434126.0, 438453.5 ], [ 434126.25, 438453.5 ], [ 434126.25, 438453.75 ], [ 434126.5, 438453.75 ], [ 434126.5, 438454.0 ], [ 434126.75, 438454.0 ], [ 434126.75, 438454.25 ], [ 434127.0, 438454.25 ], [ 434127.0, 438454.5 ], [ 434127.25, 438454.5 ], [ 434127.25, 438454.75 ], [ 434127.0, 438454.75 ], [ 434127.0, 438455.0 ], [ 434126.75, 438455.0 ], [ 434126.75, 438455.25 ], [ 434126.5, 438455.25 ], [ 434126.5, 438455.5 ], [ 434126.25, 438455.5 ], [ 434126.25, 438455.75 ], [ 434124.0, 438455.75 ] ] ] } },
{ "type": "Feature", "properties": { }, "geometry": { "type": "Polygon", "coordinates": [ [ [ 434994.0, 438384.75 ], [ 434994.0, 438384.5 ], [ 434993.5, 438384.5 ], [ 434993.5, 438384.25 ], [ 434993.25, 438384.25 ], [ 434993.25, 438384.0 ], [ 434993.0, 438384.0 ], [ 434993.0, 438383.75 ], [ 434992.75, 438383.75 ], [ 434992.75, 438383.5 ], [ 434992.5, 438383.5 ], [ 434992.5, 438383.25 ], [ 434992.25, 438383.25 ], [ 434992.25, 438383.0 ], [ 434992.0, 438383.0 ], [ 434992.0, 438382.75 ], [ 434991.5, 438382.75 ], [ 434991.5, 438382.5 ], [ 434991.25, 438382.5 ], [ 434991.25, 438382.25 ], [ 434991.0, 438382.25 ], [ 434991.0, 438382.0 ], [ 434990.75, 438382.0 ], [ 434990.75, 438381.75 ], [ 434990.25, 438381.75 ], [ 434990.25, 438381.5 ], [ 434990.0, 438381.5 ], [ 434990.0, 438381.25 ], [ 434989.5, 438381.25 ], [ 434989.5, 438381.0 ], [ 434989.25, 438381.0 ], [ 434989.25, 438380.75 ], [ 434989.0, 438380.75 ], [ 434989.0, 438380.5 ], [ 434988.75, 438380.5 ], [ 434988.75, 438380.25 ], [ 434988.25, 438380.25 ], [ 434988.25, 438380.0 ], [ 434988.0, 438380.0 ], [ 434988.0, 438379.75 ], [ 434987.75, 438379.75 ], [ 434987.75, 438379.25 ], [ 434987.5, 438379.25 ], [ 434987.5, 438378.75 ], [ 434987.25, 438378.75 ], [ 434987.25, 438378.25 ], [ 434987.0, 438378.25 ], [ 434987.0, 438377.75 ], [ 434986.75, 438377.75 ], [ 434986.75, 438377.25 ], [ 434986.5, 438377.25 ], [ 434986.5, 438376.75 ], [ 434986.25, 438376.75 ], [ 434986.25, 438376.25 ], [ 434986.0, 438376.25 ], [ 434986.0, 438376.0 ], [ 434985.75, 438376.0 ], [ 434985.75, 438375.5 ], [ 434985.5, 438375.5 ], [ 434985.5, 438375.0 ], [ 434985.25, 438375.0 ], [ 434985.25, 438374.25 ], [ 434985.0, 438374.25 ], [ 434985.0, 438373.75 ], [ 434984.75, 438373.75 ], [ 434984.75, 438371.75 ], [ 434984.5, 438371.75 ], [ 434984.5, 438371.5 ], [ 434984.25, 438371.5 ], [ 434984.25, 438371.25 ], [ 434983.5, 438371.25 ], [ 434983.5, 438371.0 ], [ 434983.25, 438371.0 ], [ 434983.25, 438370.75 ], [ 434983.0, 438370.75 ], [ 434983.0, 438370.5 ], [ 434982.75, 438370.5 ], [ 434982.75, 438370.0 ], [ 434982.5, 438370.0 ], [ 434982.5, 438369.75 ], [ 434982.25, 438369.75 ], [ 434982.25, 438369.5 ], [ 434982.0, 438369.5 ], [ 434982.0, 438369.25 ], [ 434981.75, 438369.25 ], [ 434981.75, 438369.0 ], [ 434981.5, 438369.0 ], [ 434981.5, 438368.75 ], [ 434981.25, 438368.75 ], [ 434981.25, 438368.5 ], [ 434981.0, 438368.5 ], [ 434981.0, 438368.25 ], [ 434980.75, 438368.25 ], [ 434980.75, 438368.0 ], [ 434980.5, 438368.0 ], [ 434980.5, 438367.75 ], [ 434980.25, 438367.75 ], [ 434980.25, 438367.5 ], [ 434980.0, 438367.5 ], [ 434980.0, 438367.25 ], [ 434979.75, 438367.25 ], [ 434979.75, 438367.0 ], [ 434979.25, 438367.0 ], [ 434979.25, 438366.75 ], [ 434978.75, 438366.75 ], [ 434978.75, 438366.5 ], [ 434978.25, 438366.5 ], [ 434978.25, 438366.0 ], [ 434978.0, 438366.0 ], [ 434978.0, 438365.5 ], [ 434977.75, 438365.5 ], [ 434977.75, 438365.0 ], [ 434977.5, 438365.0 ], [ 434977.5, 438363.75 ], [ 434977.25, 438363.75 ], [ 434977.25, 438362.5 ], [ 434977.0, 438362.5 ], [ 434977.0, 438361.0 ], [ 434976.75, 438361.0 ], [ 434976.75, 438360.0 ], [ 434996.25, 438360.0 ], [ 434996.25, 438361.75 ], [ 434996.5, 438361.75 ], [ 434996.5, 438362.0 ], [ 434996.75, 438362.0 ], [ 434996.75, 438362.25 ], [ 434997.0, 438362.25 ], [ 434997.0, 438362.5 ], [ 434997.25, 438362.5 ], [ 434997.25, 438362.75 ], [ 434997.75, 438362.75 ], [ 434997.75, 438363.0 ], [ 434998.0, 438363.0 ], [ 434998.0, 438363.5 ], [ 434998.25, 438363.5 ], [ 434998.25, 438363.75 ], [ 434998.5, 438363.75 ], [ 434998.5, 438364.25 ], [ 434998.75, 438364.25 ], [ 434998.75, 438365.0 ], [ 434999.0, 438365.0 ], [ 434999.0, 438365.75 ], [ 434999.25, 438365.75 ], [ 434999.25, 438367.25 ], [ 434999.5, 438367.25 ], [ 434999.5, 438374.0 ], [ 434999.25, 438374.0 ], [ 434999.25, 438378.5 ], [ 434999.0, 438378.5 ], [ 434999.0, 438380.0 ], [ 434998.75, 438380.0 ], [ 434998.75, 438381.25 ], [ 434998.5, 438381.25 ], [ 434998.5, 438382.0 ], [ 434998.25, 438382.0 ], [ 434998.25, 438382.25 ], [ 434998.0, 438382.25 ], [ 434998.0, 438382.75 ], [ 434997.75, 438382.75 ], [ 434997.75, 438383.0 ], [ 434997.5, 438383.0 ], [ 434997.5, 438383.25 ], [ 434997.25, 438383.25 ], [ 434997.25, 438383.5 ], [ 434996.5, 438383.5 ], [ 434996.5, 438383.75 ], [ 434996.25, 438383.75 ], [ 434996.25, 438384.0 ], [ 434996.0, 438384.0 ], [ 434996.0, 438384.5 ], [ 434995.75, 438384.5 ], [ 434995.75, 438384.75 ], [ 434994.0, 438384.75 ] ] ] } },
{ "type": "Feature", "properties": { }, "geometry": { "type": "Polygon", "coordinates": [ [ [ 434936.25, 438360.0 ], [ 434936.25, 438358.75 ], [ 434936.0, 438358.75 ], [ 434936.0, 438357.0 ], [ 434935.75, 438357.0 ], [ 434935.75, 438356.0 ], [ 434935.5, 438356.0 ], [ 434935.5, 438355.25 ], [ 434935.25, 438355.25 ], [ 434935.25, 438354.5 ], [ 434935.0, 438354.5 ], [ 434935.0, 438353.75 ], [ 434934.75, 438353.75 ], [ 434934.75, 438353.0 ], [ 434934.5, 438353.0 ], [ 434934.5, 438352.25 ], [ 434934.25, 438352.25 ], [ 434934.25, 438351.5 ], [ 434934.0, 438351.5 ], [ 434934.0, 438350.5 ], [ 434933.75, 438350.5 ], [ 434933.75, 438349.75 ], [ 434933.5, 438349.75 ], [ 434933.5, 438349.25 ], [ 434933.25, 438349.25 ], [ 434933.25, 438348.5 ], [ 434933.0, 438348.5 ], [ 434933.0, 438348.0 ], [ 434932.75, 438348.0 ], [ 434932.75, 438347.5 ], [ 434932.5, 438347.5 ], [ 434932.5, 438346.75 ], [ 434932.25, 438346.75 ], [ 434932.25, 438346.25 ], [ 434932.0, 438346.25 ], [ 434932.0, 438345.75 ], [ 434931.75, 438345.75 ], [ 434931.75, 438345.5 ], [ 434931.5, 438345.5 ], [ 434931.5, 438345.25 ], [ 434931.25, 438345.25 ], [ 434931.25, 438345.0 ], [ 434931.0, 438345.0 ], [ 434931.0, 438344.75 ], [ 434930.75, 438344.75 ], [ 434930.75, 438344.5 ], [ 434930.5, 438344.5 ], [ 434930.5, 438344.25 ], [ 434930.0, 438344.25 ], [ 434930.0, 438344.0 ], [ 434929.75, 438344.0 ], [ 434929.75, 438343.75 ], [ 434929.25, 438343.75 ], [ 434929.25, 438343.5 ], [ 434928.75, 438343.5 ], [ 434928.75, 438343.25 ], [ 434928.5, 438343.25 ], [ 434928.5, 438343.0 ], [ 434928.0, 438343.0 ], [ 434928.0, 438342.75 ], [ 434927.75, 438342.75 ], [ 434927.75, 438342.5 ], [ 434927.25, 438342.5 ], [ 434927.25, 438342.0 ], [ 434927.0, 438342.0 ], [ 434927.0, 438341.75 ], [ 434926.75, 438341.75 ], [ 434926.75, 438341.25 ], [ 434925.25, 438341.25 ], [ 434925.25, 438341.5 ], [ 434924.5, 438341.5 ], [ 434924.5, 438341.75 ], [ 434924.0, 438341.75 ], [ 434924.0, 438342.0 ], [ 434923.5, 438342.0 ], [ 434923.5, 438342.25 ], [ 434923.0, 438342.25 ], [ 434923.0, 438342.5 ], [ 434922.25, 438342.5 ], [ 434922.25, 438342.75 ], [ 434919.5, 438342.75 ], [ 434919.5, 438343.0 ], [ 434917.0, 438343.0 ], [ 434917.0, 438343.25 ], [ 434916.25, 438343.25 ], [ 434916.25, 438343.5 ], [ 434914.75, 438343.5 ], [ 434914.75, 438343.75 ], [ 434912.75, 438343.75 ], [ 434912.75, 438344.0 ], [ 434910.0, 438344.0 ], [ 434910.0, 438343.75 ], [ 434908.0, 438343.75 ], [ 434908.0, 438343.5 ], [ 434907.5, 438343.5 ], [ 434907.5, 438343.25 ], [ 434907.0, 438343.25 ], [ 434907.0, 438343.0 ], [ 434906.5, 438343.0 ], [ 434906.5, 438342.75 ], [ 434905.75, 438342.75 ], [ 434905.75, 438342.5 ], [ 434905.25, 438342.5 ], [ 434905.25, 438342.25 ], [ 434904.75, 438342.25 ], [ 434904.75, 438341.75 ], [ 434904.25, 438341.75 ], [ 434904.25, 438341.5 ], [ 434903.5, 438341.5 ], [ 434903.5, 438341.25 ], [ 434903.0, 438341.25 ], [ 434903.0, 438341.0 ], [ 434902.5, 438341.0 ], [ 434902.5, 438340.75 ], [ 434901.75, 438340.75 ], [ 434901.75, 438340.5 ], [ 434901.5, 438340.5 ], [ 434901.5, 438339.0 ], [ 434901.25, 438339.0 ], [ 434901.25, 438338.25 ], [ 434901.0, 438338.25 ], [ 434901.0, 438334.5 ], [ 434901.25, 438334.5 ], [ 434901.25, 438334.0 ], [ 434901.5, 438334.0 ], [ 434901.5, 438333.5 ], [ 434901.75, 438333.5 ], [ 434901.75, 438333.25 ], [ 434902.25, 438333.25 ], [ 434902.25, 438333.0 ], [ 434903.0, 438333.0 ], [ 434903.0, 438332.75 ], [ 434903.75, 438332.75 ], [ 434903.75, 438332.5 ], [ 434905.25, 438332.5 ], [ 434905.25, 438332.25 ], [ 434906.0, 438332.25 ], [ 434906.0, 438332.0 ], [ 434906.5, 438332.0 ], [ 434906.5, 438331.75 ], [ 434907.0, 438331.75 ], [ 434907.0, 438331.5 ], [ 434907.75, 438331.5 ], [ 434907.75, 438331.25 ], [ 434909.0, 438331.25 ], [ 434909.0, 438331.0 ], [ 434910.25, 438331.0 ], [ 434910.25, 438331.25 ], [ 434910.75, 438331.25 ], [ 434910.75, 438331.0 ], [ 434913.25, 438331.0 ], [ 434913.25, 438331.25 ], [ 434915.25, 438331.25 ], [ 434915.25, 438331.5 ], [ 434916.75, 438331.5 ], [ 434916.75, 438331.25 ], [ 434917.5, 438331.25 ], [ 434917.5, 438331.0 ], [ 434918.0, 438331.0 ], [ 434918.0, 438330.75 ], [ 434918.5, 438330.75 ], [ 434918.5, 438330.5 ], [ 434919.0, 438330.5 ], [ 434919.0, 438330.25 ], [ 434919.25, 438330.25 ], [ 434919.25, 438330.0 ], [ 434919.5, 438330.0 ], [ 434919.5, 438329.75 ], [ 434919.75, 438329.75 ], [ 434919.75, 438329.5 ], [ 434920.0, 438329.5 ], [ 434920.0, 438328.75 ], [ 434920.25, 438328.75 ], [ 434920.25, 438328.25 ], [ 434920.5, 438328.25 ], [ 434920.5, 438327.5 ], [ 434920.75, 438327.5 ], [ 434920.75, 438327.25 ], [ 434921.0, 438327.25 ], [ 434921.0, 438326.75 ], [ 434921.25, 438326.75 ], [ 434921.25, 438326.5 ], [ 434921.5, 438326.5 ], [ 434921.5, 438326.25 ], [ 434923.0, 438326.25 ], [ 434923.0, 438326.5 ], [ 434923.75, 438326.5 ], [ 434923.75, 438326.75 ], [ 434924.25, 438326.75 ], [ 434924.25, 438327.0 ], [ 434925.0, 438327.0 ], [ 434925.0, 438327.25 ], [ 434925.5, 438327.25 ], [ 434925.5, 438327.5 ], [ 434926.75, 438327.5 ], [ 434926.75, 438327.75 ], [ 434928.25, 438327.75 ], [ 434928.25, 438328.0 ], [ 434929.75, 438328.0 ], [ 434929.75, 438327.75 ], [ 434930.0, 438327.75 ], [ 434930.0, 438327.5 ], [ 434930.5, 438327.5 ], [ 434930.5, 438327.0 ], [ 434930.75, 438327.0 ], [ 434930.75, 438326.75 ], [ 434931.0, 438326.75 ], [ 434931.0, 438326.5 ], [ 434931.25, 438326.5 ], [ 434931.25, 438326.25 ], [ 434931.5, 438326.25 ], [ 434931.5, 438326.0 ], [ 434931.75, 438326.0 ], [ 434931.75, 438325.75 ], [ 434932.0, 438325.75 ], [ 434932.0, 438325.5 ], [ 434932.5, 438325.5 ], [ 434932.5, 438325.25 ], [ 434932.75, 438325.25 ], [ 434932.75, 438325.0 ], [ 434933.25, 438325.0 ], [ 434933.25, 438324.75 ], [ 434934.0, 438324.75 ], [ 434934.0, 438324.5 ], [ 434934.5, 438324.5 ], [ 434934.5, 438324.25 ], [ 434935.0, 438324.25 ], [ 434935.0, 438324.0 ], [ 434935.5, 438324.0 ], [ 434935.5, 438323.75 ], [ 434936.25, 438323.75 ], [ 434936.25, 438323.5 ], [ 434937.0, 438323.5 ], [ 434937.0, 438323.25 ], [ 434937.75, 438323.25 ], [ 434937.75, 438323.0 ], [ 434938.5, 438323.0 ], [ 434938.5, 438322.75 ], [ 434939.75, 438322.75 ], [ 434939.75, 438322.5 ], [ 434940.75, 438322.5 ], [ 434940.75, 438322.25 ], [ 434941.5, 438322.25 ], [ 434941.5, 438322.0 ], [ 434942.25, 438322.0 ], [ 434942.25, 438321.75 ], [ 434942.75, 438321.75 ], [ 434942.75, 438321.5 ], [ 434943.25, 438321.5 ], [ 434943.25, 438321.25 ], [ 434943.75, 438321.25 ], [ 434943.75, 438321.0 ], [ 434944.0, 438321.0 ], [ 434944.0, 438320.75 ], [ 434944.5, 438320.75 ], [ 434944.5, 438320.5 ], [ 434945.25, 438320.5 ], [ 434945.25, 438320.25 ], [ 434946.0, 438320.25 ], [ 434946.0, 438320.0 ], [ 434946.75, 438320.0 ], [ 434946.75, 438319.75 ], [ 434947.5, 438319.75 ], [ 434947.5, 438319.5 ], [ 434948.25, 438319.5 ], [ 434948.25, 438319.25 ], [ 434948.75, 438319.25 ], [ 434948.75, 438319.0 ], [ 434949.25, 438319.0 ], [ 434949.25, 438318.75 ], [ 434949.75, 438318.75 ], [ 434949.75, 438318.5 ], [ 434950.25, 438318.5 ], [ 434950.25, 438318.25 ], [ 434950.5, 438318.25 ], [ 434950.5, 438318.0 ], [ 434951.5, 438318.0 ], [ 434951.5, 438317.75 ], [ 434952.5, 438317.75 ], [ 434952.5, 438317.5 ], [ 434953.25, 438317.5 ], [ 434953.25, 438317.25 ], [ 434954.0, 438317.25 ], [ 434954.0, 438317.5 ], [ 434954.75, 438317.5 ], [ 434954.75, 438317.75 ], [ 434955.0, 438317.75 ], [ 434955.0, 438318.0 ], [ 434955.25, 438318.0 ], [ 434955.25, 438318.25 ], [ 434955.5, 438318.25 ], [ 434955.5, 438318.5 ], [ 434955.75, 438318.5 ], [ 434955.75, 438318.75 ], [ 434956.0, 438318.75 ], [ 434956.0, 438319.25 ], [ 434956.25, 438319.25 ], [ 434956.25, 438319.5 ], [ 434956.5, 438319.5 ], [ 434956.5, 438319.75 ], [ 434956.75, 438319.75 ], [ 434956.75, 438320.25 ], [ 434957.0, 438320.25 ], [ 434957.0, 438320.75 ], [ 434957.25, 438320.75 ], [ 434957.25, 438321.0 ], [ 434957.5, 438321.0 ], [ 434957.5, 438321.5 ], [ 434957.75, 438321.5 ], [ 434957.75, 438322.0 ], [ 434958.0, 438322.0 ], [ 434958.0, 438322.5 ], [ 434958.25, 438322.5 ], [ 434958.25, 438323.0 ], [ 434958.5, 438323.0 ], [ 434958.5, 438323.5 ], [ 434958.75, 438323.5 ], [ 434958.75, 438324.5 ], [ 434959.0, 438324.5 ], [ 434959.0, 438325.25 ], [ 434959.25, 438325.25 ], [ 434959.25, 438326.0 ], [ 434959.5, 438326.0 ], [ 434959.5, 438326.75 ], [ 434959.75, 438326.75 ], [ 434959.75, 438328.0 ], [ 434960.0, 438328.0 ], [ 434960.0, 438328.75 ], [ 434960.25, 438328.75 ], [ 434960.25, 438329.25 ], [ 434960.5, 438329.25 ], [ 434960.5, 438329.75 ], [ 434960.75, 438329.75 ], [ 434960.75, 438330.25 ], [ 434961.0, 438330.25 ], [ 434961.0, 438330.75 ], [ 434961.25, 438330.75 ], [ 434961.25, 438331.0 ], [ 434961.5, 438331.0 ], [ 434961.5, 438331.25 ], [ 434961.75, 438331.25 ], [ 434961.75, 438331.75 ], [ 434962.0, 438331.75 ], [ 434962.0, 438332.0 ], [ 434962.25, 438332.0 ], [ 434962.25, 438332.25 ], [ 434962.5, 438332.25 ], [ 434962.5, 438332.5 ], [ 434962.75, 438332.5 ], [ 434962.75, 438333.0 ], [ 434963.0, 438333.0 ], [ 434963.0, 438333.5 ], [ 434963.25, 438333.5 ], [ 434963.25, 438333.75 ], [ 434963.5, 438333.75 ], [ 434963.5, 438334.25 ], [ 434963.75, 438334.25 ], [ 434963.75, 438334.75 ], [ 434964.0, 438334.75 ], [ 434964.0, 438335.25 ], [ 434964.25, 438335.25 ], [ 434964.25, 438335.5 ], [ 434964.5, 438335.5 ], [ 434964.5, 438336.0 ], [ 434964.75, 438336.0 ], [ 434964.75, 438336.5 ], [ 434965.0, 438336.5 ], [ 434965.0, 438337.0 ], [ 434965.25, 438337.0 ], [ 434965.25, 438337.5 ], [ 434965.5, 438337.5 ], [ 434965.5, 438338.0 ], [ 434965.75, 438338.0 ], [ 434965.75, 438338.25 ], [ 434966.0, 438338.25 ], [ 434966.0, 438338.75 ], [ 434966.25, 438338.75 ], [ 434966.25, 438339.0 ], [ 434966.5, 438339.0 ], [ 434966.5, 438339.5 ], [ 434966.75, 438339.5 ], [ 434966.75, 438340.0 ], [ 434967.0, 438340.0 ], [ 434967.0, 438340.75 ], [ 434967.25, 438340.75 ], [ 434967.25, 438341.5 ], [ 434967.5, 438341.5 ], [ 434967.5, 438342.0 ], [ 434967.75, 438342.0 ], [ 434967.75, 438342.5 ], [ 434968.0, 438342.5 ], [ 434968.0, 438343.25 ], [ 434968.25, 438343.25 ], [ 434968.25, 438343.75 ], [ 434968.5, 438343.75 ], [ 434968.5, 438344.5 ], [ 434968.75, 438344.5 ], [ 434968.75, 438345.25 ], [ 434969.0, 438345.25 ], [ 434969.0, 438346.0 ], [ 434969.25, 438346.0 ], [ 434969.25, 438347.5 ], [ 434969.5, 438347.5 ], [ 434969.5, 438350.75 ], [ 434969.25, 438350.75 ], [ 434969.25, 438351.5 ], [ 434969.0, 438351.5 ], [ 434969.0, 438352.0 ], [ 434968.75, 438352.0 ], [ 434968.75, 438352.25 ], [ 434968.5, 438352.25 ], [ 434968.5, 438352.5 ], [ 434968.25, 438352.5 ], [ 434968.25, 438352.75 ], [ 434968.0, 438352.75 ], [ 434968.0, 438353.0 ], [ 434967.75, 438353.0 ], [ 434967.75, 438353.25 ], [ 434967.5, 438353.25 ], [ 434967.5, 438353.5 ], [ 434967.25, 438353.5 ], [ 434967.25, 438354.0 ], [ 434967.0, 438354.0 ], [ 434967.0, 438354.25 ], [ 434966.5, 438354.25 ], [ 434966.5, 438354.5 ], [ 434966.25, 438354.5 ], [ 434966.25, 438354.75 ], [ 434965.75, 438354.75 ], [ 434965.75, 438355.0 ], [ 434965.5, 438355.0 ], [ 434965.5, 438355.25 ], [ 434965.0, 438355.25 ], [ 434965.0, 438355.5 ], [ 434964.5, 438355.5 ], [ 434964.5, 438355.75 ], [ 434964.0, 438355.75 ], [ 434964.0, 438356.0 ], [ 434963.5, 438356.0 ], [ 434963.5, 438356.25 ], [ 434962.75, 438356.25 ], [ 434962.75, 438356.5 ], [ 434962.0, 438356.5 ], [ 434962.0, 438356.75 ], [ 434961.25, 438356.75 ], [ 434961.25, 438357.0 ], [ 434960.75, 438357.0 ], [ 434960.75, 438357.25 ], [ 434960.0, 438357.25 ], [ 434960.0, 438357.5 ], [ 434959.5, 438357.5 ], [ 434959.5, 438357.75 ], [ 434959.25, 438357.75 ], [ 434959.25, 438358.0 ], [ 434959.0, 438358.0 ], [ 434959.0, 438358.25 ], [ 434958.5, 438358.25 ], [ 434958.5, 438360.0 ], [ 434936.25, 438360.0 ] ] ] } },
{ "type": "Feature", "properties": { }, "geometry": { "type": "Polygon", "coordinates": [ [ [ 434116.5, 438310.75 ], [ 434116.5, 438310.25 ], [ 434117.75, 438310.25 ], [ 434117.75, 438310.5 ], [ 434117.0, 438310.5 ], [ 434117.0, 438310.75 ], [ 434116.5, 438310.75 ] ] ] } },
{ "type": "Feature", "properties": { }, "geometry": { "type": "Polygon", "coordinates": [ [ [ 434119.25, 438310.5 ], [ 434119.25, 438310.0 ], [ 434119.75, 438310.0 ], [ 434119.75, 438309.75 ], [ 434120.0, 438309.75 ], [ 434120.0, 438309.5 ], [ 434120.25, 438309.5 ], [ 434120.25, 438309.25 ], [ 434122.0, 438309.25 ], [ 434122.0, 438309.75 ], [ 434121.75, 438309.75 ], [ 434121.75, 438310.0 ], [ 434120.75, 438310.0 ], [ 434120.75, 438310.25 ], [ 434120.5, 438310.25 ], [ 434120.5, 438310.5 ], [ 434119.25, 438310.5 ] ] ] } },
{ "type": "Feature", "properties": { }, "geometry": { "type": "Polygon", "coordinates": [ [ [ 434119.5, 438309.0 ], [ 434119.5, 438308.75 ], [ 434119.25, 438308.75 ], [ 434119.25, 438308.5 ], [ 434119.75, 438308.5 ], [ 434119.75, 438309.0 ], [ 434119.5, 438309.0 ] ] ] } },
{ "type": "Feature", "properties": { }, "geometry": { "type": "Polygon", "coordinates": [ [ [ 434165.5, 438230.75 ], [ 434165.5, 438229.75 ], [ 434165.25, 438229.75 ], [ 434165.25, 438228.5 ], [ 434165.0, 438228.5 ], [ 434165.0, 438228.0 ], [ 434164.5, 438228.0 ], [ 434164.5, 438227.75 ], [ 434164.25, 438227.75 ], [ 434164.25, 438227.25 ], [ 434164.5, 438227.25 ], [ 434164.5, 438227.0 ], [ 434164.75, 438227.0 ], [ 434164.75, 438226.75 ], [ 434165.0, 438226.75 ], [ 434165.0, 438226.5 ], [ 434165.75, 438226.5 ], [ 434165.75, 438226.75 ], [ 434166.0, 438226.75 ], [ 434166.0, 438227.5 ], [ 434166.25, 438227.5 ], [ 434166.25, 438227.75 ], [ 434166.5, 438227.75 ], [ 434166.5, 438228.0 ], [ 434166.75, 438228.0 ], [ 434166.75, 438228.25 ], [ 434167.0, 438228.25 ], [ 434167.0, 438228.5 ], [ 434167.25, 438228.5 ], [ 434167.25, 438229.0 ], [ 434167.0, 438229.0 ], [ 434167.0, 438230.25 ], [ 434166.75, 438230.25 ], [ 434166.75, 438230.75 ], [ 434165.5, 438230.75 ] ] ] } },
{ "type": "Feature", "properties": { }, "geometry": { "type": "Polygon", "coordinates": [ [ [ 434149.0, 438227.75 ], [ 434149.0, 438227.5 ], [ 434148.5, 438227.5 ], [ 434148.5, 438227.25 ], [ 434148.0, 438227.25 ], [ 434148.0, 438227.0 ], [ 434146.75, 438227.0 ], [ 434146.75, 438226.75 ], [ 434145.25, 438226.75 ], [ 434145.25, 438226.25 ], [ 434145.5, 438226.25 ], [ 434145.5, 438226.0 ], [ 434146.0, 438226.0 ], [ 434146.0, 438225.75 ], [ 434146.25, 438225.75 ], [ 434146.25, 438225.5 ], [ 434150.25, 438225.5 ], [ 434150.25, 438225.75 ], [ 434150.75, 438225.75 ], [ 434150.75, 438226.0 ], [ 434152.0, 438226.0 ], [ 434152.0, 438226.25 ], [ 434154.0, 438226.25 ], [ 434154.0, 438226.5 ], [ 434155.25, 438226.5 ], [ 434155.25, 438226.75 ], [ 434155.0, 438226.75 ], [ 434155.0, 438227.25 ], [ 434153.75, 438227.25 ], [ 434153.75, 438227.0 ], [ 434152.25, 438227.0 ], [ 434152.25, 438227.25 ], [ 434152.0, 438227.25 ], [ 434152.0, 438227.5 ], [ 434151.5, 438227.5 ], [ 434151.5, 438227.75 ], [ 434150.75, 438227.75 ], [ 434150.75, 438227.5 ], [ 434150.5, 438227.5 ], [ 434150.5, 438227.75 ], [ 434149.0, 438227.75 ] ] ] } },
{ "type": "Feature", "properties": { }, "geometry": { "type": "Polygon", "coordinates": [ [ [ 434555.25, 438214.75 ], [ 434555.25, 438214.5 ], [ 434555.0, 438214.5 ], [ 434555.0, 438214.25 ], [ 434554.75, 438214.25 ], [ 434554.75, 438213.75 ], [ 434554.5, 438213.75 ], [ 434554.5, 438213.5 ], [ 434554.75, 438213.5 ], [ 434554.75, 438213.25 ], [ 434555.25, 438213.25 ], [ 434555.25, 438213.0 ], [ 434557.25, 438213.0 ], [ 434557.25, 438213.5 ], [ 434557.5, 438213.5 ], [ 434557.5, 438214.75 ], [ 434555.25, 438214.75 ] ] ] } },
{ "type": "Feature", "properties": { }, "geometry": { "type": "Polygon", "coordinates": [ [ [ 434001.75, 438146.0 ], [ 434001.75, 438145.75 ], [ 434000.0, 438145.75 ], [ 434000.0, 438104.0 ], [ 434027.75, 438104.0 ], [ 434027.75, 438107.25 ], [ 434028.0, 438107.25 ], [ 434028.0, 438107.75 ], [ 434027.75, 438107.75 ], [ 434027.75, 438108.0 ], [ 434027.5, 438108.0 ], [ 434027.5, 438109.0 ], [ 434027.25, 438109.0 ], [ 434027.25, 438109.75 ], [ 434027.0, 438109.75 ], [ 434027.0, 438110.5 ], [ 434026.75, 438110.5 ], [ 434026.75, 438110.75 ], [ 434026.5, 438110.75 ], [ 434026.5, 438111.0 ], [ 434025.25, 438111.0 ], [ 434025.25, 438111.25 ], [ 434024.75, 438111.25 ], [ 434024.75, 438111.5 ], [ 434024.5, 438111.5 ], [ 434024.5, 438111.75 ], [ 434024.25, 438111.75 ], [ 434024.25, 438112.0 ], [ 434024.0, 438112.0 ], [ 434024.0, 438112.75 ], [ 434023.75, 438112.75 ], [ 434023.75, 438113.0 ], [ 434023.5, 438113.0 ], [ 434023.5, 438113.5 ], [ 434023.25, 438113.5 ], [ 434023.25, 438113.75 ], [ 434023.0, 438113.75 ], [ 434023.0, 438114.25 ], [ 434022.75, 438114.25 ], [ 434022.75, 438114.75 ], [ 434022.5, 438114.75 ], [ 434022.5, 438115.25 ], [ 434022.25, 438115.25 ], [ 434022.25, 438115.5 ], [ 434022.0, 438115.5 ], [ 434022.0, 438116.0 ], [ 434021.75, 438116.0 ], [ 434021.75, 438116.75 ], [ 434021.5, 438116.75 ], [ 434021.5, 438117.0 ], [ 434021.25, 438117.0 ], [ 434021.25, 438117.5 ], [ 434021.0, 438117.5 ], [ 434021.0, 438118.0 ], [ 434020.75, 438118.0 ], [ 434020.75, 438118.5 ], [ 434020.25, 438118.5 ], [ 434020.25, 438118.75 ], [ 434019.75, 438118.75 ], [ 434019.75, 438119.0 ], [ 434019.5, 438119.0 ], [ 434019.5, 438119.25 ], [ 434019.25, 438119.25 ], [ 434019.25, 438119.5 ], [ 434019.0, 438119.5 ], [ 434019.0, 438119.75 ], [ 434018.75, 438119.75 ], [ 434018.75, 438120.0 ], [ 434018.5, 438120.0 ], [ 434018.5, 438120.25 ], [ 434018.25, 438120.25 ], [ 434018.25, 438120.75 ], [ 434018.0, 438120.75 ], [ 434018.0, 438121.0 ], [ 434017.75, 438121.0 ], [ 434017.75, 438121.25 ], [ 434017.5, 438121.25 ], [ 434017.5, 438121.75 ], [ 434017.25, 438121.75 ], [ 434017.25, 438122.25 ], [ 434017.0, 438122.25 ], [ 434017.0, 438122.75 ], [ 434016.75, 438122.75 ], [ 434016.75, 438123.5 ], [ 434016.5, 438123.5 ], [ 434016.5, 438124.0 ], [ 434016.25, 438124.0 ], [ 434016.25, 438124.75 ], [ 434016.0, 438124.75 ], [ 434016.0, 438125.5 ], [ 434015.75, 438125.5 ], [ 434015.75, 438126.25 ], [ 434015.5, 438126.25 ], [ 434015.5, 438127.0 ], [ 434015.25, 438127.0 ], [ 434015.25, 438128.0 ], [ 434015.0, 438128.0 ], [ 434015.0, 438129.0 ], [ 434014.75, 438129.0 ], [ 434014.75, 438129.75 ], [ 434014.5, 438129.75 ], [ 434014.5, 438130.25 ], [ 434014.25, 438130.25 ], [ 434014.25, 438131.0 ], [ 434014.0, 438131.0 ], [ 434014.0, 438131.5 ], [ 434013.75, 438131.5 ], [ 434013.75, 438132.0 ], [ 434013.5, 438132.0 ], [ 434013.5, 438132.25 ], [ 434013.25, 438132.25 ], [ 434013.25, 438132.75 ], [ 434013.0, 438132.75 ], [ 434013.0, 438133.25 ], [ 434012.75, 438133.25 ], [ 434012.75, 438133.75 ], [ 434012.5, 438133.75 ], [ 434012.5, 438134.25 ], [ 434012.25, 438134.25 ], [ 434012.25, 438134.75 ], [ 434012.0, 438134.75 ], [ 434012.0, 438135.25 ], [ 434011.75, 438135.25 ], [ 434011.75, 438135.5 ], [ 434011.5, 438135.5 ], [ 434011.5, 438136.0 ], [ 434011.25, 438136.0 ], [ 434011.25, 438136.5 ], [ 434011.0, 438136.5 ], [ 434011.0, 438137.25 ], [ 434010.75, 438137.25 ], [ 434010.75, 438138.0 ], [ 434010.5, 438138.0 ], [ 434010.5, 438138.5 ], [ 434010.25, 438138.5 ], [ 434010.25, 438139.5 ], [ 434010.0, 438139.5 ], [ 434010.0, 438140.5 ], [ 434009.75, 438140.5 ], [ 434009.75, 438140.75 ], [ 434009.5, 438140.75 ], [ 434009.5, 438141.0 ], [ 434009.25, 438141.0 ], [ 434009.25, 438141.25 ], [ 434008.75, 438141.25 ], [ 434008.75, 438141.5 ], [ 434008.5, 438141.5 ], [ 434008.5, 438141.75 ], [ 434008.25, 438141.75 ], [ 434008.25, 438142.0 ], [ 434007.75, 438142.0 ], [ 434007.75, 438142.25 ], [ 434007.5, 438142.25 ], [ 434007.5, 438142.5 ], [ 434007.25, 438142.5 ], [ 434007.25, 438142.75 ], [ 434006.75, 438142.75 ], [ 434006.75, 438143.0 ], [ 434006.5, 438143.0 ], [ 434006.5, 438143.25 ], [ 434006.25, 438143.25 ], [ 434006.25, 438143.5 ], [ 434006.0, 438143.5 ], [ 434006.0, 438144.0 ], [ 434005.75, 438144.0 ], [ 434005.75, 438144.5 ], [ 434005.5, 438144.5 ], [ 434005.5, 438144.75 ], [ 434005.0, 438144.75 ], [ 434005.0, 438145.0 ], [ 434004.75, 438145.0 ], [ 434004.75, 438145.25 ], [ 434004.5, 438145.25 ], [ 434004.5, 438145.5 ], [ 434004.0, 438145.5 ], [ 434004.0, 438145.75 ], [ 434003.0, 438145.75 ], [ 434003.0, 438146.0 ], [ 434001.75, 438146.0 ] ] ] } },
{ "type": "Feature", "properties": { }, "geometry": { "type": "Polygon", "coordinates": [ [ [ 434726.25, 438104.75 ], [ 434726.25, 438104.5 ], [ 434725.75, 438104.5 ], [ 434725.75, 438104.0 ], [ 434726.75, 438104.0 ], [ 434726.75, 438104.75 ], [ 434726.25, 438104.75 ] ] ] } }
]
}
