{
"type": "FeatureCollection",
"name": "se3439_rgb_250_03_original",
"crs": { "type": "name", "properties": { "name": "urn:ogc:def:crs:EPSG::27700" } },
"features": [
{ "type": "Feature", "properties": { }, "geometry": { "type": "Polygon", "coordinates": [ [ [ 434015.75, 440000.0 ], [ 434015.75, 439995.5 ], [ 434016.0, 439995.5 ], [ 434016.0, 439995.25 ], [ 434016.25, 439995.25 ], [ 434016.25, 439995.0 ], [ 434016.5, 439995.0 ], [ 434016.5, 439994.5 ], [ 434016.75, 439994.5 ], [ 434016.75, 439994.25 ], [ 434017.0, 439994.25 ], [ 434017.0, 439994.0 ], [ 434017.25, 439994.0 ], [ 434017.25, 439993.75 ], [ 434017.5, 439993.75 ], [ 434017.5, 439993.5 ], [ 434018.0, 439993.5 ], [ 434018.0, 439993.25 ], [ 434019.5, 439993.25 ], [ 434019.5, 439993.0 ], [ 434022.75, 439993.0 ], [ 434022.75, 439992.75 ], [ 434023.25, 439992.75 ], [ 434023.25, 439992.5 ], [ 434024.0, 439992.5 ], [ 434024.0, 439992.25 ], [ 434025.0, 439992.25 ], [ 434025.0, 439992.0 ], [ 434025.75, 439992.0 ], [ 434025.75, 439991.75 ], [ 434026.25, 439991.75 ], [ 434026.25, 439991.5 ], [ 434026.5, 439991.5 ], [ 434026.5, 439991.25 ], [ 434027.0, 439991.25 ], [ 434027.0, 439991.0 ], [ 434027.5, 439991.0 ], [ 434027.5, 439990.75 ], [ 434027.75, 439990.75 ], [ 434027.75, 439990.25 ], [ 434028.0, 439990.25 ], [ 434028.0, 439990.0 ], [ 434028.25, 439990.0 ], [ 434028.25, 439989.25 ], [ 434028.5, 439989.25 ], [ 434028.5, 439988.5 ], [ 434028.75, 439988.5 ], [ 434028.75, 439988.0 ], [ 434029.0, 439988.0 ], [ 434029.0, 439987.25 ], [ 434029.25, 439987.25 ], [ 434029.25, 439986.25 ], [ 434029.5, 439986.25 ], [ 434029.5, 439985.75 ], [ 434029.75, 439985.75 ], [ 434029.75, 439985.5 ], [ 434030.0, 439985.5 ], [ 434030.0, 439985.25 ], [ 434030.25, 439985.25 ], [ 434030.25, 439984.75 ], [ 434030.5, 439984.75 ], [ 434030.5, 439984.5 ], [ 434031.5, 439984.5 ], [ 434031.5, 439984.25 ], [ 434031.75, 439984.25 ], [ 434031.75, 439984.5 ], [ 434032.25, 439984.5 ], [ 434032.25, 439984.75 ], [ 434033.75, 439984.75 ], [ 434033.75, 439984.5 ], [ 434034.0, 439984.5 ], [ 434034.0, 439983.75 ], [ 434034.25, 439983.75 ], [ 434034.25, 439983.25 ], [ 434035.5, 439983.25 ], [ 434035.5, 439983.5 ], [ 434035.75, 439983.5 ], [ 434035.75, 439984.25 ], [ 434036.0, 439984.25 ], [ 434036.0, 439984.5 ], [ 434036.25, 439984.5 ], [ 434036.25, 439984.75 ], [ 434036.5, 439984.75 ], [ 434036.5, 439985.0 ], [ 434037.0, 439985.0 ], [ 434037.0, 439985.25 ], [ 434037.75, 439985.25 ], [ 434037.75, 439985.0 ], [ 434038.75, 439985.0 ], [ 434038.75, 439985.25 ], [ 434039.0, 439985.25 ], [ 434039.0, 439985.5 ], [ 434039.25, 439985.5 ], [ 434039.25, 439985.75 ], [ 434040.0, 439985.75 ], [ 434040.0, 439985.5 ], [ 434040.5, 439985.5 ], [ 434040.5, 439985.75 ], [ 434040.75, 439985.75 ], [ 434040.75, 439986.25 ], [ 434041.0, 439986.25 ], [ 434041.0, 439986.5 ], [ 434043.0, 439986.5 ], [ 434043.0, 439986.25 ], [ 434043.5, 439986.25 ], [ 434043.5, 439986.5 ], [ 434043.75, 439986.5 ], [ 434043.75, 439986.75 ], [ 434043.5, 439986.75 ], [ 434043.5, 439987.5 ], [ 434043.25, 439987.5 ], [ 434043.25, 439989.5 ], [ 434043.0, 439989.5 ], [ 434043.0, 439989.75 ], [ 434042.75, 439989.75 ], [ 434042.75, 439990.0 ], [ 434042.5, 439990.0 ], [ 434042.5, 439990.5 ], [ 434042.25, 439990.5 ], [ 434042.25, 439990.75 ], [ 434042.0, 439990.75 ], [ 434042.0, 439991.25 ], [ 434041.75, 439991.25 ], [ 434041.75, 439991.5 ], [ 434041.5, 439991.5 ], [ 434041.5, 439992.0 ], [ 434041.25, 439992.0 ], [ 434041.25, 439992.5 ], [ 434041.0, 439992.5 ], [ 434041.0, 439993.5 ], [ 434040.75, 439993.5 ], [ 434040.75, 439994.75 ], [ 434040.5, 439994.75 ], [ 434040.5, 439996.0 ], [ 434040.25, 439996.0 ], [ 434040.25, 439996.5 ], [ 434040.0, 439996.5 ], [ 434040.0, 439997.25 ], [ 434039.75, 439997.25 ], [ 434039.75, 440000.0 ], [ 434015.75, 440000.0 ] ] ] } },
{ "type": "Feature", "properties": { }, "geometry": { "type": "Polygon", "coordinates": [ [ [ 434047.5, 439967.5 ], [ 434047.5, 439967.25 ], [ 434047.75, 439967.25 ], [ 434047.75, 439967.5 ], [ 434047.5, 439967.5 ] ] ] } },
{ "type": "Feature", "properties": { }, "geometry": { "type": "Polygon", "coordinates": [ [ [ 434049.5, 439983.25 ], [ 434049.5, 439983.0 ], [ 434049.0, 439983.0 ], [ 434049.0, 439982.75 ], [ 434047.75, 439982.75 ], [ 434047.75, 439983.0 ], [ 434046.5, 439983.0 ], [ 434046.5, 439982.75 ], [ 434046.25, 439982.75 ], [ 434046.25, 439981.75 ], [ 434046.5, 439981.75 ], [ 434046.5, 439981.5 ], [ 434046.25, 439981.5 ], [ 434046.25, 439979.25 ], [ 434046.0, 439979.25 ], [ 434046.0, 439978.5 ], [ 434045.75, 439978.5 ], [ 434045.75, 439978.0 ], [ 434045.5, 439978.0 ], [ 434045.5, 439977.75 ], [ 434045.25, 439977.75 ], [ 434045.25, 439977.0 ], [ 434045.0, 439977.0 ], [ 434045.0, 439976.25 ], [ 434044.75, 439976.25 ], [ 434044.75, 439976.0 ], [ 434044.5, 439976.0 ], [ 434044.5, 439975.5 ], [ 434044.25, 439975.5 ], [ 434044.25, 439974.75 ], [ 434044.0, 439974.75 ], [ 434044.0, 439974.0 ], [ 434043.75, 439974.0 ], [ 434043.75, 439973.5 ], [ 434043.5, 439973.5 ], [ 434043.5, 439973.0 ], [ 434043.25, 439973.0 ], [ 434043.25, 439972.5 ], [ 434043.0, 439972.5 ], [ 434043.0, 439972.0 ], [ 434042.75, 439972.0 ], [ 434042.75, 439971.75 ], [ 434042.25, 439971.75 ], [ 434042.25, 439971.25 ], [ 434042.0, 439971.25 ], [ 434042.0, 439971.0 ], [ 434041.75, 439971.0 ], [ 434041.75, 439970.5 ], [ 434041.5, 439970.5 ], [ 434041.5, 439969.5 ], [ 434041.25, 439969.5 ], [ 434041.25, 439969.0 ], [ 434041.0, 439969.0 ], [ 434041.0, 439968.5 ], [ 434040.75, 439968.5 ], [ 434040.75, 439967.75 ], [ 434040.5, 439967.75 ], [ 434040.5, 439967.0 ], [ 434040.25, 439967.0 ], [ 434040.25, 439966.5 ], [ 434040.0, 439966.5 ], [ 434040.0, 439963.25 ], [ 434040.25, 439963.25 ], [ 434040.25, 439962.25 ], [ 434040.5, 439962.25 ], [ 434040.5, 439962.0 ], [ 434040.75, 439962.0 ], [ 434040.75, 439961.75 ], [ 434041.0, 439961.75 ], [ 434041.0, 439961.5 ], [ 434041.25, 439961.5 ], [ 434041.25, 439961.25 ], [ 434041.5, 439961.25 ], [ 434041.5, 439961.0 ], [ 434042.0, 439961.0 ], [ 434042.0, 439960.75 ], [ 434042.75, 439960.75 ], [ 434042.75, 439960.5 ], [ 434043.25, 439960.5 ], [ 434043.25, 439960.0 ], [ 434043.5, 439960.0 ], [ 434043.5, 439959.75 ], [ 434043.75, 439959.75 ], [ 434043.75, 439959.5 ], [ 434044.25, 439959.5 ], [ 434044.25, 439959.25 ], [ 434044.75, 439959.25 ], [ 434044.75, 439959.5 ], [ 434045.0, 439959.5 ], [ 434045.0, 439959.75 ], [ 434045.25, 439959.75 ], [ 434045.25, 439960.25 ], [ 434045.5, 439960.25 ], [ 434045.5, 439960.75 ], [ 434045.75, 439960.75 ], [ 434045.75, 439962.25 ], [ 434046.0, 439962.25 ], [ 434046.0, 439963.5 ], [ 434046.25, 439963.5 ], [ 434046.25, 439964.5 ], [ 434046.5, 439964.5 ], [ 434046.5, 439965.25 ], [ 434046.25, 439965.25 ], [ 434046.25, 439965.5 ], [ 434046.5, 439965.5 ], [ 434046.5, 439966.75 ], [ 434046.25, 439966.75 ], [ 434046.25, 439967.25 ], [ 434046.0, 439967.25 ], [ 434046.0, 439968.25 ], [ 434045.75, 439968.25 ], [ 434045.75, 439968.75 ], [ 434046.0, 439968.75 ], [ 434046.0, 439969.0 ], [ 434046.25, 439969.0 ], [ 434046.25, 439969.5 ], [ 434046.5, 439969.5 ], [ 434046.5, 439969.75 ], [ 434047.0, 439969.75 ], [ 434047.0, 439970.0 ], [ 434047.75, 439970.0 ], [ 434047.75, 439969.75 ], [ 434048.0, 439969.75 ], [ 434048.0, 439969.0 ], [ 434048.25, 439969.0 ], [ 434048.25, 439968.75 ], [ 434049.0, 439968.75 ], [ 434049.0, 439968.5 ], [ 434049.25, 439968.5 ], [ 434049.25, 439967.5 ], [ 434049.0, 439967.5 ], [ 434049.0, 439966.5 ], [ 434049.25, 439966.5 ], [ 434049.25, 439966.25 ], [ 434049.5, 439966.25 ], [ 434049.5, 439969.25 ], [ 434049.75, 439969.25 ], [ 434049.75, 439971.25 ], [ 434049.5, 439971.25 ], [ 434049.5, 439971.5 ], [ 434049.75, 439971.5 ], [ 434049.75, 439971.75 ], [ 434050.0, 439971.75 ], [ 434050.0, 439972.0 ], [ 434050.5, 439972.0 ], [ 434050.5, 439972.75 ], [ 434050.75, 439972.75 ], [ 434050.75, 439974.5 ], [ 434051.0, 439974.5 ], [ 434051.0, 439975.75 ], [ 434050.75, 439975.75 ], [ 434050.75, 439978.75 ], [ 434051.0, 439978.75 ], [ 434051.0, 439981.75 ], [ 434050.75, 439981.75 ], [ 434050.75, 439982.75 ], [ 434050.5, 439982.75 ], [ 434050.5, 439983.25 ], [ 434049.5, 439983.25 ] ], [ [ 434048.25, 439971.5 ], [ 434049.0, 439971.5 ], [ 434049.0, 439971.25 ], [ 434048.25, 439971.25 ], [ 434048.25, 439971.5 ] ] ] } },
{ "type": "Feature", "properties": { }, "geometry": { "type": "Polygon", "coordinates": [ [ [ 434578.0, 439879.5 ], [ 434578.0, 439879.25 ], [ 434576.75, 439879.25 ], [ 434576.75, 439879.0 ], [ 434575.75, 439879.0 ], [ 434575.75, 439878.75 ], [ 434575.25, 439878.75 ], [ 434575.25, 439878.5 ], [ 434574.75, 439878.5 ], [ 434574.75, 439878.25 ], [ 434574.25, 439878.25 ], [ 434574.25, 439878.0 ], [ 434574.0, 439878.0 ], [ 434574.0, 439877.75 ], [ 434573.75, 439877.75 ], [ 434573.75, 439877.5 ], [ 434573.5, 439877.5 ], [ 434573.5, 439877.25 ], [ 434573.25, 439877.25 ], [ 434573.25, 439876.75 ], [ 434573.0, 439876.75 ], [ 434573.0, 439876.25 ], [ 434572.75, 439876.25 ], [ 434572.75, 439876.0 ], [ 434572.5, 439876.0 ], [ 434572.5, 439875.75 ], [ 434572.0, 439875.75 ], [ 434572.0, 439875.5 ], [ 434571.25, 439875.5 ], [ 434571.25, 439875.25 ], [ 434570.75, 439875.25 ], [ 434570.75, 439875.0 ], [ 434570.5, 439875.0 ], [ 434570.5, 439874.75 ], [ 434570.25, 439874.75 ], [ 434570.25, 439874.5 ], [ 434570.0, 439874.5 ], [ 434570.0, 439874.25 ], [ 434569.75, 439874.25 ], [ 434569.75, 439873.5 ], [ 434569.5, 439873.5 ], [ 434569.5, 439873.0 ], [ 434569.25, 439873.0 ], [ 434569.25, 439872.0 ], [ 434587.75, 439872.0 ], [ 434587.75, 439874.5 ], [ 434587.5, 439874.5 ], [ 434587.5, 439875.0 ], [ 434587.25, 439875.0 ], [ 434587.25, 439875.5 ], [ 434587.0, 439875.5 ], [ 434587.0, 439875.75 ], [ 434586.75, 439875.75 ], [ 434586.75, 439876.0 ], [ 434586.5, 439876.0 ], [ 434586.5, 439876.25 ], [ 434586.0, 439876.25 ], [ 434586.0, 439876.5 ], [ 434585.5, 439876.5 ], [ 434585.5, 439876.75 ], [ 434585.0, 439876.75 ], [ 434585.0, 439877.0 ], [ 434584.75, 439877.0 ], [ 434584.75, 439877.25 ], [ 434584.5, 439877.25 ], [ 434584.5, 439877.5 ], [ 434584.25, 439877.5 ], [ 434584.25, 439877.75 ], [ 434584.0, 439877.75 ], [ 434584.0, 439878.0 ], [ 434583.75, 439878.0 ], [ 434583.75, 439878.25 ], [ 434583.5, 439878.25 ], [ 434583.5, 439878.5 ], [ 434583.0, 439878.5 ], [ 434583.0, 439878.75 ], [ 434582.0, 439878.75 ], [ 434582.0, 439879.0 ], [ 434580.75, 439879.0 ], [ 434580.75, 439879.25 ], [ 434579.75, 439879.25 ], [ 434579.75, 439879.5 ], [ 434578.0, 439879.5 ] ] ] } },
{ "type": "Feature", "properties": { }, "geometry": { "type": "Polygon", "coordinates": [ [ [ 434305.25, 439872.0 ], [ 434305.25, 439871.5 ], [ 434305.5, 439871.5 ], [ 434305.5, 439870.0 ], [ 434305.25, 439870.0 ], [ 434305.25, 439867.75 ], [ 434305.0, 439867.75 ], [ 434305.0, 439867.5 ], [ 434305.25, 439867.5 ], [ 434305.25, 439866.75 ], [ 434305.5, 439866.75 ], [ 434305.5, 439866.5 ], [ 434305.75, 439866.5 ], [ 434305.75, 439866.75 ], [ 434306.0, 439866.75 ], [ 434306.0, 439867.0 ], [ 434306.5, 439867.0 ], [ 434306.5, 439867.5 ], [ 434306.75, 439867.5 ], [ 434306.75, 439868.75 ], [ 434307.0, 439868.75 ], [ 434307.0, 439869.5 ], [ 434307.25, 439869.5 ], [ 434307.25, 439870.25 ], [ 434307.5, 439870.25 ], [ 434307.5, 439872.0 ], [ 434305.25, 439872.0 ] ] ] } },
{ "type": "Feature", "properties": { }, "geometry": { "type": "Polygon", "coordinates": [ [ [ 434323.0, 439872.0 ], [ 434323.0, 439866.5 ], [ 434322.75, 439866.5 ], [ 434322.75, 439864.75 ], [ 434322.5, 439864.75 ], [ 434322.5, 439864.25 ], [ 434322.75, 439864.25 ], [ 434322.75, 439862.75 ], [ 434322.5, 439862.75 ], [ 434322.5, 439862.0 ], [ 434322.75, 439862.0 ], [ 434322.75, 439861.25 ], [ 434323.0, 439861.25 ], [ 434323.0, 439860.75 ], [ 434323.25, 439860.75 ], [ 434323.25, 439860.5 ], [ 434323.5, 439860.5 ], [ 434323.5, 439860.25 ], [ 434324.25, 439860.25 ], [ 434324.25, 439860.0 ], [ 434325.0, 439860.0 ], [ 434325.0, 439859.75 ], [ 434325.5, 439859.75 ], [ 434325.5, 439859.5 ], [ 434326.75, 439859.5 ], [ 434326.75, 439859.25 ], [ 434328.25, 439859.25 ], [ 434328.25, 439859.0 ], [ 434329.0, 439859.0 ], [ 434329.0, 439858.75 ], [ 434329.5, 439858.75 ], [ 434329.5, 439858.5 ], [ 434331.75, 439858.5 ], [ 434331.75, 439858.25 ], [ 434334.25, 439858.25 ], [ 434334.25, 439858.0 ], [ 434334.5, 439858.0 ], [ 434334.5, 439858.25 ], [ 434336.0, 439858.25 ], [ 434336.0, 439858.5 ], [ 434337.0, 439858.5 ], [ 434337.0, 439858.75 ], [ 434337.25, 439858.75 ], [ 434337.25, 439859.0 ], [ 434337.75, 439859.0 ], [ 434337.75, 439859.25 ], [ 434338.0, 439859.25 ], [ 434338.0, 439859.5 ], [ 434338.25, 439859.5 ], [ 434338.25, 439860.0 ], [ 434338.5, 439860.0 ], [ 434338.5, 439860.5 ], [ 434338.75, 439860.5 ], [ 434338.75, 439861.25 ], [ 434339.0, 439861.25 ], [ 434339.0, 439867.75 ], [ 434338.75, 439867.75 ], [ 434338.75, 439872.0 ], [ 434323.0, 439872.0 ] ] ] } },
{ "type": "Feature", "properties": { }, "geometry": { "type": "Polygon", "coordinates": [ [ [ 434767.25, 439783.75 ], [ 434767.25, 439783.5 ], [ 434766.25, 439783.5 ], [ 434766.25, 439783.25 ], [ 434766.0, 439783.25 ], [ 434766.0, 439783.0 ], [ 434765.5, 439783.0 ], [ 434765.5, 439782.75 ], [ 434765.25, 439782.75 ], [ 434765.25, 439782.5 ], [ 434765.0, 439782.5 ], [ 434765.0, 439782.25 ], [ 434764.75, 439782.25 ], [ 434764.75, 439782.0 ], [ 434764.5, 439782.0 ], [ 434764.5, 439781.75 ], [ 434764.25, 439781.75 ], [ 434764.25, 439781.5 ], [ 434764.0, 439781.5 ], [ 434764.0, 439781.25 ], [ 434763.75, 439781.25 ], [ 434763.75, 439781.0 ], [ 434763.5, 439781.0 ], [ 434763.5, 439780.75 ], [ 434763.0, 439780.75 ], [ 434763.0, 439780.5 ], [ 434762.75, 439780.5 ], [ 434762.75, 439780.25 ], [ 434762.5, 439780.25 ], [ 434762.5, 439780.0 ], [ 434762.25, 439780.0 ], [ 434762.25, 439779.75 ], [ 434762.0, 439779.75 ], [ 434762.0, 439779.5 ], [ 434761.75, 439779.5 ], [ 434761.75, 439779.25 ], [ 434761.5, 439779.25 ], [ 434761.5, 439779.0 ], [ 434761.25, 439779.0 ], [ 434761.25, 439778.75 ], [ 434761.0, 439778.75 ], [ 434761.0, 439778.5 ], [ 434760.75, 439778.5 ], [ 434760.75, 439778.25 ], [ 434760.5, 439778.25 ], [ 434760.5, 439777.75 ], [ 434760.25, 439777.75 ], [ 434760.25, 439775.0 ], [ 434760.5, 439775.0 ], [ 434760.5, 439773.75 ], [ 434760.25, 439773.75 ], [ 434760.25, 439773.5 ], [ 434760.5, 439773.5 ], [ 434760.5, 439773.0 ], [ 434760.75, 439773.0 ], [ 434760.75, 439772.75 ], [ 434761.0, 439772.75 ], [ 434761.0, 439772.5 ], [ 434761.25, 439772.5 ], [ 434761.25, 439772.25 ], [ 434761.5, 439772.25 ], [ 434761.5, 439772.0 ], [ 434761.75, 439772.0 ], [ 434761.75, 439771.75 ], [ 434762.0, 439771.75 ], [ 434762.0, 439771.5 ], [ 434762.25, 439771.5 ], [ 434762.25, 439771.25 ], [ 434762.75, 439771.25 ], [ 434762.75, 439771.0 ], [ 434763.25, 439771.0 ], [ 434763.25, 439770.75 ], [ 434763.5, 439770.75 ], [ 434763.5, 439770.5 ], [ 434764.25, 439770.5 ], [ 434764.25, 439770.25 ], [ 434765.0, 439770.25 ], [ 434765.0, 439770.0 ], [ 434766.0, 439770.0 ], [ 434766.0, 439770.25 ], [ 434768.0, 439770.25 ], [ 434768.0, 439783.75 ], [ 434767.25, 439783.75 ] ] ] } },
{ "type": "Feature", "properties": { }, "geometry": { "type": "Polygon", "coordinates": [ [ [ 434986.75, 439766.25 ], [ 434986.75, 439766.0 ], [ 434986.5, 439766.0 ], [ 434986.5, 439765.75 ], [ 434986.25, 439765.75 ], [ 434986.25, 439764.5 ], [ 434986.75, 439764.5 ], [ 434986.75, 439764.25 ], [ 434987.75, 439764.25 ], [ 434987.75, 439764.5 ], [ 434988.25, 439764.5 ], [ 434988.25, 439765.75 ], [ 434988.0, 439765.75 ], [ 434988.0, 439766.0 ], [ 434987.75, 439766.0 ], [ 434987.75, 439766.25 ], [ 434986.75, 439766.25 ] ] ] } },
{ "type": "Feature", "properties": { }, "geometry": { "type": "Polygon", "coordinates": [ [ [ 434991.25, 439765.25 ], [ 434991.25, 439765.0 ], [ 434990.75, 439765.0 ], [ 434990.75, 439764.75 ], [ 434990.0, 439764.75 ], [ 434990.0, 439765.0 ], [ 434989.0, 439765.0 ], [ 434989.0, 439764.25 ], [ 434989.25, 439764.25 ], [ 434989.25, 439764.0 ], [ 434990.0, 439764.0 ], [ 434990.0, 439764.25 ], [ 434991.0, 439764.25 ], [ 434991.0, 439764.0 ], [ 434991.75, 439764.0 ], [ 434991.75, 439765.0 ], [ 434991.5, 439765.0 ], [ 434991.5, 439765.25 ], [ 434991.25, 439765.25 ] ] ] } },
{ "type": "Feature", "properties": { }, "geometry": { "type": "Polygon", "coordinates": [ [ [ 434997.25, 439766.75 ], [ 434997.25, 439766.5 ], [ 434997.0, 439766.5 ], [ 434997.0, 439766.25 ], [ 434996.75, 439766.25 ], [ 434996.75, 439766.0 ], [ 434996.25, 439766.0 ], [ 434996.25, 439765.75 ], [ 434996.0, 439765.75 ], [ 434996.0, 439765.5 ], [ 434995.75, 439765.5 ], [ 434995.75, 439765.25 ], [ 434995.5, 439765.25 ], [ 434995.5, 439764.75 ], [ 434995.25, 439764.75 ], [ 434995.25, 439764.25 ], [ 434995.0, 439764.25 ], [ 434995.0, 439763.75 ], [ 434994.75, 439763.75 ], [ 434994.75, 439760.0 ], [ 434994.5, 439760.0 ], [ 434994.5, 439755.25 ], [ 434994.25, 439755.25 ], [ 434994.25, 439751.0 ], [ 434994.0, 439751.0 ], [ 434994.0, 439748.75 ], [ 434994.25, 439748.75 ], [ 434994.25, 439747.75 ], [ 434994.5, 439747.75 ], [ 434994.5, 439747.25 ], [ 434994.75, 439747.25 ], [ 434994.75, 439746.75 ], [ 434995.0, 439746.75 ], [ 434995.0, 439745.75 ], [ 434995.25, 439745.75 ], [ 434995.25, 439744.0 ], [ 434998.75, 439744.0 ], [ 434998.75, 439746.5 ], [ 434999.0, 439746.5 ], [ 434999.0, 439748.5 ], [ 434999.25, 439748.5 ], [ 434999.25, 439753.75 ], [ 434999.5, 439753.75 ], [ 434999.5, 439756.0 ], [ 434999.25, 439756.0 ], [ 434999.25, 439764.0 ], [ 434999.0, 439764.0 ], [ 434999.0, 439764.5 ], [ 434998.75, 439764.5 ], [ 434998.75, 439765.75 ], [ 434998.5, 439765.75 ], [ 434998.5, 439766.0 ], [ 434998.25, 439766.0 ], [ 434998.25, 439766.25 ], [ 434998.0, 439766.25 ], [ 434998.0, 439766.5 ], [ 434997.75, 439766.5 ], [ 434997.75, 439766.75 ], [ 434997.25, 439766.75 ] ] ] } },
{ "type": "Feature", "properties": { }, "geometry": { "type": "Polygon", "coordinates": [ [ [ 434589.75, 439727.25 ], [ 434589.75, 439727.0 ], [ 434588.75, 439727.0 ], [ 434588.75, 439726.75 ], [ 434588.0, 439726.75 ], [ 434588.0, 439726.5 ], [ 434587.25, 439726.5 ], [ 434587.25, 439726.25 ], [ 434587.0, 439726.25 ], [ 434587.0, 439726.0 ], [ 434586.75, 439726.0 ], [ 434586.75, 439725.75 ], [ 434586.5, 439725.75 ], [ 434586.5, 439725.5 ], [ 434586.25, 439725.5 ], [ 434586.25, 439725.0 ], [ 434586.0, 439725.0 ], [ 434586.0, 439724.5 ], [ 434585.75, 439724.5 ], [ 434585.75, 439723.0 ], [ 434585.5, 439723.0 ], [ 434585.5, 439719.0 ], [ 434585.25, 439719.0 ], [ 434585.25, 439712.75 ], [ 434585.5, 439712.75 ], [ 434585.5, 439712.0 ], [ 434585.75, 439712.0 ], [ 434585.75, 439711.75 ], [ 434586.0, 439711.75 ], [ 434586.0, 439710.75 ], [ 434586.25, 439710.75 ], [ 434586.25, 439710.25 ], [ 434586.75, 439710.25 ], [ 434586.75, 439710.0 ], [ 434587.5, 439710.0 ], [ 434587.5, 439709.75 ], [ 434587.75, 439709.75 ], [ 434587.75, 439709.5 ], [ 434588.0, 439709.5 ], [ 434588.0, 439709.25 ], [ 434588.5, 439709.25 ], [ 434588.5, 439709.0 ], [ 434589.5, 439709.0 ], [ 434589.5, 439708.75 ], [ 434590.5, 439708.75 ], [ 434590.5, 439708.5 ], [ 434591.5, 439708.5 ], [ 434591.5, 439708.25 ], [ 434593.0, 439708.25 ], [ 434593.0, 439708.0 ], [ 434597.75, 439708.0 ], [ 434597.75, 439708.25 ], [ 434598.25, 439708.25 ], [ 434598.25, 439708.5 ], [ 434598.75, 439708.5 ], [ 434598.75, 439708.75 ], [ 434599.0, 439708.75 ], [ 434599.0, 439709.0 ], [ 434599.25, 439709.0 ], [ 434599.25, 439709.25 ], [ 434599.5, 439709.25 ], [ 434599.5, 439709.75 ], [ 434599.75, 439709.75 ], [ 434599.75, 439711.0 ], [ 434600.0, 439711.0 ], [ 434600.0, 439712.25 ], [ 434600.25, 439712.25 ], [ 434600.25, 439714.25 ], [ 434600.5, 439714.25 ], [ 434600.5, 439715.25 ], [ 434600.75, 439715.25 ], [ 434600.75, 439716.75 ], [ 434601.0, 439716.75 ], [ 434601.0, 439720.5 ], [ 434600.75, 439720.5 ], [ 434600.75, 439721.5 ], [ 434600.5, 439721.5 ], [ 434600.5, 439723.5 ], [ 434600.75, 439723.5 ], [ 434600.75, 439725.0 ], [ 434600.5, 439725.0 ], [ 434600.5, 439725.5 ], [ 434600.25, 439725.5 ], [ 434600.25, 439725.75 ], [ 434599.75, 439725.75 ], [ 434599.75, 439726.0 ], [ 434599.25, 439726.0 ], [ 434599.25, 439726.25 ], [ 434598.75, 439726.25 ], [ 434598.75, 439726.5 ], [ 434597.75, 439726.5 ], [ 434597.75, 439726.75 ], [ 434596.25, 439726.75 ], [ 434596.25, 439727.0 ], [ 434595.0, 439727.0 ], [ 434595.0, 439727.25 ], [ 434589.75, 439727.25 ] ] ] } },
{ "type": "Feature", "properties": { }, "geometry": { "type": "Polygon", "coordinates": [ [ [ 434728.25, 439654.75 ], [ 434728.25, 439654.5 ], [ 434727.25, 439654.5 ], [ 434727.25, 439654.25 ], [ 434726.5, 439654.25 ], [ 434726.5, 439654.0 ], [ 434726.0, 439654.0 ], [ 434726.0, 439653.75 ], [ 434725.0, 439653.75 ], [ 434725.0, 439653.5 ], [ 434723.75, 439653.5 ], [ 434723.75, 439653.25 ], [ 434722.5, 439653.25 ], [ 434722.5, 439653.0 ], [ 434720.5, 439653.0 ], [ 434720.5, 439652.75 ], [ 434719.75, 439652.75 ], [ 434719.75, 439652.5 ], [ 434718.75, 439652.5 ], [ 434718.75, 439652.25 ], [ 434718.25, 439652.25 ], [ 434718.25, 439652.0 ], [ 434717.75, 439652.0 ], [ 434717.75, 439651.75 ], [ 434717.25, 439651.75 ], [ 434717.25, 439651.5 ], [ 434717.0, 439651.5 ], [ 434717.0, 439651.25 ], [ 434716.75, 439651.25 ], [ 434716.75, 439651.0 ], [ 434716.5, 439651.0 ], [ 434716.5, 439650.75 ], [ 434716.25, 439650.75 ], [ 434716.25, 439650.5 ], [ 434716.0, 439650.5 ], [ 434716.0, 439650.0 ], [ 434715.75, 439650.0 ], [ 434715.75, 439649.25 ], [ 434715.5, 439649.25 ], [ 434715.5, 439647.25 ], [ 434715.25, 439647.25 ], [ 434715.25, 439646.0 ], [ 434715.5, 439646.0 ], [ 434715.5, 439642.0 ], [ 434715.75, 439642.0 ], [ 434715.75, 439640.0 ], [ 434716.0, 439640.0 ], [ 434716.0, 439638.25 ], [ 434716.25, 439638.25 ], [ 434716.25, 439636.0 ], [ 434716.5, 439636.0 ], [ 434716.5, 439634.5 ], [ 434716.75, 439634.5 ], [ 434716.75, 439633.5 ], [ 434717.0, 439633.5 ], [ 434717.0, 439632.75 ], [ 434717.25, 439632.75 ], [ 434717.25, 439632.0 ], [ 434717.5, 439632.0 ], [ 434717.5, 439631.5 ], [ 434717.75, 439631.5 ], [ 434717.75, 439631.0 ], [ 434718.0, 439631.0 ], [ 434718.0, 439630.25 ], [ 434718.25, 439630.25 ], [ 434718.25, 439629.75 ], [ 434718.5, 439629.75 ], [ 434718.5, 439628.75 ], [ 434718.75, 439628.75 ], [ 434718.75, 439628.25 ], [ 434719.0, 439628.25 ], [ 434719.0, 439628.0 ], [ 434719.25, 439628.0 ], [ 434719.25, 439627.5 ], [ 434719.5, 439627.5 ], [ 434719.5, 439627.0 ], [ 434719.75, 439627.0 ], [ 434719.75, 439626.75 ], [ 434720.0, 439626.75 ], [ 434720.0, 439626.5 ], [ 434720.25, 439626.5 ], [ 434720.25, 439626.25 ], [ 434720.75, 439626.25 ], [ 434720.75, 439626.0 ], [ 434721.5, 439626.0 ], [ 434721.5, 439625.75 ], [ 434722.75, 439625.75 ], [ 434722.75, 439626.0 ], [ 434724.25, 439626.0 ], [ 434724.25, 439626.25 ], [ 434724.75, 439626.25 ], [ 434724.75, 439626.5 ], [ 434725.0, 439626.5 ], [ 434725.0, 439626.75 ], [ 434725.25, 439626.75 ], [ 434725.25, 439627.0 ], [ 434725.75, 439627.0 ], [ 434725.75, 439627.25 ], [ 434726.25, 439627.25 ], [ 434726.25, 439627.5 ], [ 434727.0, 439627.5 ], [ 434727.0, 439627.75 ], [ 434728.5, 439627.75 ], [ 434728.5, 439628.0 ], [ 434732.5, 439628.0 ], [ 434732.5, 439628.25 ], [ 434733.75, 439628.25 ], [ 434733.75, 439628.5 ], [ 434734.5, 439628.5 ], [ 434734.5, 439628.75 ], [ 434735.25, 439628.75 ], [ 434735.25, 439629.0 ], [ 434736.25, 439629.0 ], [ 434736.25, 439629.25 ], [ 434737.75, 439629.25 ], [ 434737.75, 439629.5 ], [ 434738.75, 439629.5 ], [ 434738.75, 439629.75 ], [ 434739.25, 439629.75 ], [ 434739.25, 439630.0 ], [ 434739.75, 439630.0 ], [ 434739.75, 439630.25 ], [ 434740.25, 439630.25 ], [ 434740.25, 439630.5 ], [ 434740.5, 439630.5 ], [ 434740.5, 439630.75 ], [ 434741.0, 439630.75 ], [ 434741.0, 439631.0 ], [ 434741.25, 439631.0 ], [ 434741.25, 439631.5 ], [ 434741.5, 439631.5 ], [ 434741.5, 439632.0 ], [ 434741.75, 439632.0 ], [ 434741.75, 439632.75 ], [ 434742.0, 439632.75 ], [ 434742.0, 439635.75 ], [ 434741.75, 439635.75 ], [ 434741.75, 439636.5 ], [ 434741.5, 439636.5 ], [ 434741.5, 439637.5 ], [ 434741.25, 439637.5 ], [ 434741.25, 439638.25 ], [ 434741.0, 439638.25 ], [ 434741.0, 439639.0 ], [ 434740.75, 439639.0 ], [ 434740.75, 439639.75 ], [ 434740.5, 439639.75 ], [ 434740.5, 439640.25 ], [ 434740.25, 439640.25 ], [ 434740.25, 439641.0 ], [ 434740.0, 439641.0 ], [ 434740.0, 439641.75 ], [ 434739.75, 439641.75 ], [ 434739.75, 439642.5 ], [ 434739.5, 439642.5 ], [ 434739.5, 439643.25 ], [ 434739.25, 439643.25 ], [ 434739.25, 439643.75 ], [ 434739.0, 439643.75 ], [ 434739.0, 439644.0 ], [ 434738.75, 439644.0 ], [ 434738.75, 439644.5 ], [ 434738.5, 439644.5 ], [ 434738.5, 439644.75 ], [ 434738.25, 439644.75 ], [ 434738.25, 439645.25 ], [ 434738.0, 439645.25 ], [ 434738.0, 439645.5 ], [ 434737.75, 439645.5 ], [ 434737.75, 439646.0 ], [ 434737.5, 439646.0 ], [ 434737.5, 439646.25 ], [ 434737.25, 439646.25 ], [ 434737.25, 439646.75 ], [ 434737.0, 439646.75 ], [ 434737.0, 439647.25 ], [ 434736.75, 439647.25 ], [ 434736.75, 439647.75 ], [ 434736.5, 439647.75 ], [ 434736.5, 439648.25 ], [ 434736.25, 439648.25 ], [ 434736.25, 439648.75 ], [ 434736.0, 439648.75 ], [ 434736.0, 439649.5 ], [ 434735.75, 439649.5 ], [ 434735.75, 439650.25 ], [ 434735.5, 439650.25 ], [ 434735.5, 439650.75 ], [ 434735.25, 439650.75 ], [ 434735.25, 439651.25 ], [ 434735.0, 439651.25 ], [ 434735.0, 439651.75 ], [ 434734.75, 439651.75 ], [ 434734.75, 439652.0 ], [ 434734.5, 439652.0 ], [ 434734.5, 439652.25 ], [ 434734.25, 439652.25 ], [ 434734.25, 439652.75 ], [ 434734.0, 439652.75 ], [ 434734.0, 439653.0 ], [ 434733.75, 439653.0 ], [ 434733.75, 439653.25 ], [ 434733.5, 439653.25 ], [ 434733.5, 439653.5 ], [ 434733.25, 439653.5 ], [ 434733.25, 439653.75 ], [ 434732.75, 439653.75 ], [ 434732.75, 439654.0 ], [ 434732.25, 439654.0 ], [ 434732.25, 439654.25 ], [ 434732.0, 439654.25 ], [ 434732.0, 439654.5 ], [ 434731.5, 439654.5 ], [ 434731.5, 439654.75 ], [ 434728.25, 439654.75 ] ] ] } },
{ "type": "Feature", "properties": { }, "geometry": { "type": "Polygon", "coordinates": [ [ [ 434384.0, 439624.5 ], [ 434384.0, 439616.0 ], [ 434391.75, 439616.0 ], [ 434391.75, 439616.75 ], [ 434390.5, 439616.75 ], [ 434390.5, 439617.0 ], [ 434390.25, 439617.0 ], [ 434390.25, 439617.25 ], [ 434390.0, 439617.25 ], [ 434390.0, 439618.25 ], [ 434390.25, 439618.25 ], [ 434390.25, 439618.5 ], [ 434390.5, 439618.5 ], [ 434390.5, 439619.0 ], [ 434390.25, 439619.0 ], [ 434390.25, 439619.5 ], [ 434390.0, 439619.5 ], [ 434390.0, 439619.75 ], [ 434389.75, 439619.75 ], [ 434389.75, 439620.75 ], [ 434389.5, 439620.75 ], [ 434389.5, 439621.25 ], [ 434389.25, 439621.25 ], [ 434389.25, 439622.0 ], [ 434389.0, 439622.0 ], [ 434389.0, 439622.75 ], [ 434388.75, 439622.75 ], [ 434388.75, 439623.0 ], [ 434388.5, 439623.0 ], [ 434388.5, 439623.25 ], [ 434388.25, 439623.25 ], [ 434388.25, 439623.5 ], [ 434388.0, 439623.5 ], [ 434388.0, 439623.75 ], [ 434387.5, 439623.75 ], [ 434387.5, 439624.0 ], [ 434387.0, 439624.0 ], [ 434387.0, 439624.25 ], [ 434386.5, 439624.25 ], [ 434386.5, 439624.5 ], [ 434384.0, 439624.5 ] ] ] } },
{ "type": "Feature", "properties": { }, "geometry": { "type": "Polygon", "coordinates": [ [ [ 434383.5, 439614.5 ], [ 434383.5, 439614.25 ], [ 434384.0, 439614.25 ], [ 434384.0, 439614.5 ], [ 434383.5, 439614.5 ] ] ] } },
{ "type": "Feature", "properties": { }, "geometry": { "type": "Polygon", "coordinates": [ [ [ 434374.5, 439612.25 ], [ 434374.5, 439612.0 ], [ 434374.25, 439612.0 ], [ 434374.25, 439611.25 ], [ 434374.75, 439611.25 ], [ 434374.75, 439612.25 ], [ 434374.5, 439612.25 ] ] ] } },
{ "type": "Feature", "properties": { }, "geometry": { "type": "Polygon", "coordinates": [ [ [ 434619.0, 439628.0 ], [ 434619.0, 439627.75 ], [ 434616.75, 439627.75 ], [ 434616.75, 439627.5 ], [ 434615.0, 439627.5 ], [ 434615.0, 439627.25 ], [ 434613.75, 439627.25 ], [ 434613.75, 439627.0 ], [ 434612.5, 439627.0 ], [ 434612.5, 439626.75 ], [ 434611.5, 439626.75 ], [ 434611.5, 439626.5 ], [ 434611.0, 439626.5 ], [ 434611.0, 439626.25 ], [ 434610.5, 439626.25 ], [ 434610.5, 439626.0 ], [ 434610.25, 439626.0 ], [ 434610.25, 439625.75 ], [ 434610.0, 439625.75 ], [ 434610.0, 439625.5 ], [ 434609.5, 439625.5 ], [ 434609.5, 439625.0 ], [ 434609.25, 439625.0 ], [ 434609.25, 439624.25 ], [ 434609.0, 439624.25 ], [ 434609.0, 439619.75 ], [ 434609.25, 439619.75 ], [ 434609.25, 439618.75 ], [ 434609.5, 439618.75 ], [ 434609.5, 439617.5 ], [ 434609.75, 439617.5 ], [ 434609.75, 439616.0 ], [ 434611.5, 439616.0 ], [ 434611.5, 439614.75 ], [ 434611.25, 439614.75 ], [ 434611.25, 439614.5 ], [ 434611.5, 439614.5 ], [ 434611.5, 439613.5 ], [ 434611.75, 439613.5 ], [ 434611.75, 439613.0 ], [ 434612.0, 439613.0 ], [ 434612.0, 439612.25 ], [ 434612.25, 439612.25 ], [ 434612.25, 439612.0 ], [ 434612.5, 439612.0 ], [ 434612.5, 439611.5 ], [ 434612.75, 439611.5 ], [ 434612.75, 439611.25 ], [ 434613.0, 439611.25 ], [ 434613.0, 439611.0 ], [ 434613.25, 439611.0 ], [ 434613.25, 439610.5 ], [ 434613.5, 439610.5 ], [ 434613.5, 439610.25 ], [ 434613.75, 439610.25 ], [ 434613.75, 439610.0 ], [ 434614.0, 439610.0 ], [ 434614.0, 439609.75 ], [ 434614.25, 439609.75 ], [ 434614.25, 439609.5 ], [ 434615.5, 439609.5 ], [ 434615.5, 439609.25 ], [ 434617.25, 439609.25 ], [ 434617.25, 439609.0 ], [ 434618.25, 439609.0 ], [ 434618.25, 439609.25 ], [ 434620.25, 439609.25 ], [ 434620.25, 439609.0 ], [ 434620.75, 439609.0 ], [ 434620.75, 439609.25 ], [ 434622.25, 439609.25 ], [ 434622.25, 439609.5 ], [ 434624.25, 439609.5 ], [ 434624.25, 439609.75 ], [ 434625.0, 439609.75 ], [ 434625.0, 439610.0 ], [ 434626.25, 439610.0 ], [ 434626.25, 439610.25 ], [ 434630.25, 439610.25 ], [ 434630.25, 439610.5 ], [ 434633.25, 439610.5 ], [ 434633.25, 439610.75 ], [ 434634.25, 439610.75 ], [ 434634.25, 439611.0 ], [ 434635.0, 439611.0 ], [ 434635.0, 439611.25 ], [ 434635.75, 439611.25 ], [ 434635.75, 439611.5 ], [ 434636.25, 439611.5 ], [ 434636.25, 439611.75 ], [ 434636.75, 439611.75 ], [ 434636.75, 439612.0 ], [ 434637.25, 439612.0 ], [ 434637.25, 439612.25 ], [ 434637.5, 439612.25 ], [ 434637.5, 439612.5 ], [ 434638.25, 439612.5 ], [ 434638.25, 439612.75 ], [ 434640.0, 439612.75 ], [ 434640.0, 439616.0 ], [ 434634.75, 439616.0 ], [ 434634.75, 439617.5 ], [ 434634.5, 439617.5 ], [ 434634.5, 439618.25 ], [ 434634.25, 439618.25 ], [ 434634.25, 439618.75 ], [ 434634.0, 439618.75 ], [ 434634.0, 439619.0 ], [ 434633.5, 439619.0 ], [ 434633.5, 439619.25 ], [ 434632.0, 439619.25 ], [ 434632.0, 439619.5 ], [ 434631.25, 439619.5 ], [ 434631.25, 439619.75 ], [ 434630.75, 439619.75 ], [ 434630.75, 439620.0 ], [ 434630.25, 439620.0 ], [ 434630.25, 439620.25 ], [ 434629.75, 439620.25 ], [ 434629.75, 439620.5 ], [ 434628.75, 439620.5 ], [ 434628.75, 439620.75 ], [ 434627.25, 439620.75 ], [ 434627.25, 439621.0 ], [ 434627.0, 439621.0 ], [ 434627.0, 439621.25 ], [ 434626.75, 439621.25 ], [ 434626.75, 439621.5 ], [ 434626.5, 439621.5 ], [ 434626.5, 439621.75 ], [ 434626.0, 439621.75 ], [ 434626.0, 439622.0 ], [ 434625.75, 439622.0 ], [ 434625.75, 439622.25 ], [ 434625.5, 439622.25 ], [ 434625.5, 439622.5 ], [ 434625.25, 439622.5 ], [ 434625.25, 439622.75 ], [ 434625.0, 439622.75 ], [ 434625.0, 439623.0 ], [ 434624.75, 439623.0 ], [ 434624.75, 439623.25 ], [ 434624.5, 439623.25 ], [ 434624.5, 439623.5 ], [ 434624.25, 439623.5 ], [ 434624.25, 439624.0 ], [ 434624.0, 439624.0 ], [ 434624.0, 439624.5 ], [ 434623.75, 439624.5 ], [ 434623.75, 439625.0 ], [ 434623.5, 439625.0 ], [ 434623.5, 439625.25 ], [ 434623.25, 439625.25 ], [ 434623.25, 439625.75 ], [ 434623.0, 439625.75 ], [ 434623.0, 439626.0 ], [ 434622.75, 439626.0 ], [ 434622.75, 439626.5 ], [ 434622.5, 439626.5 ], [ 434622.5, 439626.75 ], [ 434622.0, 439626.75 ], [ 434622.0, 439627.0 ], [ 434621.75, 439627.0 ], [ 434621.75, 439627.25 ], [ 434621.25, 439627.25 ], [ 434621.25, 439627.5 ], [ 434620.75, 439627.5 ], [ 434620.75, 439627.75 ], [ 434620.0, 439627.75 ], [ 434620.0, 439628.0 ], [ 434619.0, 439628.0 ] ] ] } },
{ "type": "Feature", "properties": { }, "geometry": { "type": "Polygon", "coordinates": [ [ [ 434686.0, 439607.25 ], [ 434686.0, 439607.0 ], [ 434685.25, 439607.0 ], [ 434685.25, 439606.75 ], [ 434684.75, 439606.75 ], [ 434684.75, 439606.5 ], [ 434684.0, 439606.5 ], [ 434684.0, 439606.25 ], [ 434683.75, 439606.25 ], [ 434683.75, 439606.0 ], [ 434683.5, 439606.0 ], [ 434683.5, 439605.75 ], [ 434683.0, 439605.75 ], [ 434683.0, 439605.25 ], [ 434683.25, 439605.25 ], [ 434683.25, 439605.0 ], [ 434683.5, 439605.0 ], [ 434683.5, 439604.75 ], [ 434684.75, 439604.75 ], [ 434684.75, 439605.0 ], [ 434685.0, 439605.0 ], [ 434685.0, 439605.25 ], [ 434685.5, 439605.25 ], [ 434685.5, 439605.5 ], [ 434686.25, 439605.5 ], [ 434686.25, 439605.75 ], [ 434686.5, 439605.75 ], [ 434686.5, 439606.0 ], [ 434686.75, 439606.0 ], [ 434686.75, 439607.0 ], [ 434686.5, 439607.0 ], [ 434686.5, 439607.25 ], [ 434686.0, 439607.25 ] ] ] } },
{ "type": "Feature", "properties": { }, "geometry": { "type": "Polygon", "coordinates": [ [ [ 434888.25, 439616.0 ], [ 434888.25, 439614.25 ], [ 434888.5, 439614.25 ], [ 434888.5, 439613.5 ], [ 434888.75, 439613.5 ], [ 434888.75, 439612.5 ], [ 434889.0, 439612.5 ], [ 434889.0, 439611.75 ], [ 434889.25, 439611.75 ], [ 434889.25, 439611.25 ], [ 434889.5, 439611.25 ], [ 434889.5, 439610.75 ], [ 434889.75, 439610.75 ], [ 434889.75, 439610.25 ], [ 434890.0, 439610.25 ], [ 434890.0, 439609.5 ], [ 434890.25, 439609.5 ], [ 434890.25, 439609.25 ], [ 434890.5, 439609.25 ], [ 434890.5, 439608.75 ], [ 434890.75, 439608.75 ], [ 434890.75, 439608.5 ], [ 434891.0, 439608.5 ], [ 434891.0, 439608.0 ], [ 434891.25, 439608.0 ], [ 434891.25, 439607.5 ], [ 434891.5, 439607.5 ], [ 434891.5, 439607.25 ], [ 434891.75, 439607.25 ], [ 434891.75, 439607.0 ], [ 434892.0, 439607.0 ], [ 434892.0, 439606.5 ], [ 434892.25, 439606.5 ], [ 434892.25, 439606.25 ], [ 434892.5, 439606.25 ], [ 434892.5, 439606.0 ], [ 434892.75, 439606.0 ], [ 434892.75, 439605.75 ], [ 434893.0, 439605.75 ], [ 434893.0, 439605.5 ], [ 434893.25, 439605.5 ], [ 434893.25, 439605.25 ], [ 434893.5, 439605.25 ], [ 434893.5, 439605.0 ], [ 434894.0, 439605.0 ], [ 434894.0, 439604.75 ], [ 434894.75, 439604.75 ], [ 434894.75, 439604.5 ], [ 434896.0, 439604.5 ], [ 434896.0, 439616.0 ], [ 434888.25, 439616.0 ] ] ] } },
{ "type": "Feature", "properties": { }, "geometry": { "type": "Polygon", "coordinates": [ [ [ 434678.5, 439605.0 ], [ 434678.5, 439604.75 ], [ 434678.25, 439604.75 ], [ 434678.25, 439604.5 ], [ 434678.0, 439604.5 ], [ 434678.0, 439604.25 ], [ 434678.25, 439604.25 ], [ 434678.25, 439604.0 ], [ 434680.75, 439604.0 ], [ 434680.75, 439604.25 ], [ 434681.25, 439604.25 ], [ 434681.25, 439604.75 ], [ 434681.0, 439604.75 ], [ 434681.0, 439605.0 ], [ 434678.5, 439605.0 ] ] ] } },
{ "type": "Feature", "properties": { }, "geometry": { "type": "Polygon", "coordinates": [ [ [ 434549.75, 439616.0 ], [ 434549.75, 439614.0 ], [ 434549.5, 439614.0 ], [ 434549.5, 439611.5 ], [ 434549.75, 439611.5 ], [ 434549.75, 439611.0 ], [ 434550.0, 439611.0 ], [ 434550.0, 439610.25 ], [ 434550.25, 439610.25 ], [ 434550.25, 439609.5 ], [ 434550.5, 439609.5 ], [ 434550.5, 439609.25 ], [ 434550.75, 439609.25 ], [ 434550.75, 439609.0 ], [ 434551.0, 439609.0 ], [ 434551.0, 439608.5 ], [ 434551.25, 439608.5 ], [ 434551.25, 439608.25 ], [ 434551.5, 439608.25 ], [ 434551.5, 439608.0 ], [ 434552.0, 439608.0 ], [ 434552.0, 439607.75 ], [ 434552.25, 439607.75 ], [ 434552.25, 439607.5 ], [ 434552.5, 439607.5 ], [ 434552.5, 439607.25 ], [ 434552.75, 439607.25 ], [ 434552.75, 439607.0 ], [ 434553.0, 439607.0 ], [ 434553.0, 439606.75 ], [ 434553.25, 439606.75 ], [ 434553.25, 439606.25 ], [ 434553.5, 439606.25 ], [ 434553.5, 439606.0 ], [ 434553.75, 439606.0 ], [ 434553.75, 439605.75 ], [ 434554.0, 439605.75 ], [ 434554.0, 439605.5 ], [ 434554.5, 439605.5 ], [ 434554.5, 439605.25 ], [ 434554.75, 439605.25 ], [ 434554.75, 439605.0 ], [ 434555.25, 439605.0 ], [ 434555.25, 439604.75 ], [ 434556.5, 439604.75 ], [ 434556.5, 439604.5 ], [ 434558.25, 439604.5 ], [ 434558.25, 439604.25 ], [ 434560.25, 439604.25 ], [ 434560.25, 439604.0 ], [ 434563.5, 439604.0 ], [ 434563.5, 439603.75 ], [ 434566.5, 439603.75 ], [ 434566.5, 439604.0 ], [ 434568.5, 439604.0 ], [ 434568.5, 439604.25 ], [ 434572.25, 439604.25 ], [ 434572.25, 439604.5 ], [ 434573.5, 439604.5 ], [ 434573.5, 439604.75 ], [ 434574.0, 439604.75 ], [ 434574.0, 439605.0 ], [ 434574.25, 439605.0 ], [ 434574.25, 439605.25 ], [ 434574.5, 439605.25 ], [ 434574.5, 439605.5 ], [ 434574.75, 439605.5 ], [ 434574.75, 439606.0 ], [ 434575.0, 439606.0 ], [ 434575.0, 439606.25 ], [ 434575.25, 439606.25 ], [ 434575.25, 439606.75 ], [ 434575.5, 439606.75 ], [ 434575.5, 439607.25 ], [ 434575.75, 439607.25 ], [ 434575.75, 439607.75 ], [ 434576.0, 439607.75 ], [ 434576.0, 439608.25 ], [ 434576.25, 439608.25 ], [ 434576.25, 439608.75 ], [ 434576.5, 439608.75 ], [ 434576.5, 439609.0 ], [ 434576.75, 439609.0 ], [ 434576.75, 439609.5 ], [ 434577.0, 439609.5 ], [ 434577.0, 439610.0 ], [ 434577.25, 439610.0 ], [ 434577.25, 439610.25 ], [ 434577.5, 439610.25 ], [ 434577.5, 439610.5 ], [ 434577.75, 439610.5 ], [ 434577.75, 439610.75 ], [ 434578.25, 439610.75 ], [ 434578.25, 439611.0 ], [ 434578.5, 439611.0 ], [ 434578.5, 439611.5 ], [ 434578.75, 439611.5 ], [ 434578.75, 439612.0 ], [ 434579.0, 439612.0 ], [ 434579.0, 439613.25 ], [ 434579.25, 439613.25 ], [ 434579.25, 439614.25 ], [ 434579.5, 439614.25 ], [ 434579.5, 439614.75 ], [ 434579.25, 439614.75 ], [ 434579.25, 439616.0 ], [ 434549.75, 439616.0 ] ] ] } },
{ "type": "Feature", "properties": { }, "geometry": { "type": "Polygon", "coordinates": [ [ [ 434658.5, 439616.0 ], [ 434658.5, 439613.25 ], [ 434658.75, 439613.25 ], [ 434658.75, 439612.5 ], [ 434659.0, 439612.5 ], [ 434659.0, 439611.75 ], [ 434659.25, 439611.75 ], [ 434659.25, 439611.0 ], [ 434659.5, 439611.0 ], [ 434659.5, 439610.5 ], [ 434659.75, 439610.5 ], [ 434659.75, 439610.0 ], [ 434660.0, 439610.0 ], [ 434660.0, 439609.75 ], [ 434660.25, 439609.75 ], [ 434660.25, 439608.5 ], [ 434660.5, 439608.5 ], [ 434660.5, 439607.75 ], [ 434660.75, 439607.75 ], [ 434660.75, 439607.25 ], [ 434661.0, 439607.25 ], [ 434661.0, 439606.25 ], [ 434661.25, 439606.25 ], [ 434661.25, 439605.0 ], [ 434661.5, 439605.0 ], [ 434661.5, 439604.25 ], [ 434661.25, 439604.25 ], [ 434661.25, 439602.5 ], [ 434661.5, 439602.5 ], [ 434661.5, 439602.25 ], [ 434661.75, 439602.25 ], [ 434661.75, 439602.0 ], [ 434662.0, 439602.0 ], [ 434662.0, 439601.75 ], [ 434662.25, 439601.75 ], [ 434662.25, 439601.5 ], [ 434662.5, 439601.5 ], [ 434662.5, 439601.25 ], [ 434664.75, 439601.25 ], [ 434664.75, 439601.5 ], [ 434665.25, 439601.5 ], [ 434665.25, 439601.75 ], [ 434665.75, 439601.75 ], [ 434665.75, 439602.0 ], [ 434669.0, 439602.0 ], [ 434669.0, 439601.75 ], [ 434670.25, 439601.75 ], [ 434670.25, 439602.0 ], [ 434672.5, 439602.0 ], [ 434672.5, 439601.75 ], [ 434673.5, 439601.75 ], [ 434673.5, 439601.5 ], [ 434675.25, 439601.5 ], [ 434675.25, 439601.75 ], [ 434675.75, 439601.75 ], [ 434675.75, 439602.0 ], [ 434676.25, 439602.0 ], [ 434676.25, 439602.25 ], [ 434677.5, 439602.25 ], [ 434677.5, 439602.5 ], [ 434677.75, 439602.5 ], [ 434677.75, 439602.75 ], [ 434677.5, 439602.75 ], [ 434677.5, 439603.0 ], [ 434677.0, 439603.0 ], [ 434677.0, 439603.25 ], [ 434676.25, 439603.25 ], [ 434676.25, 439603.5 ], [ 434676.0, 439603.5 ], [ 434676.0, 439604.25 ], [ 434675.75, 439604.25 ], [ 434675.75, 439604.5 ], [ 434675.5, 439604.5 ], [ 434675.5, 439604.75 ], [ 434675.0, 439604.75 ], [ 434675.0, 439604.5 ], [ 434674.25, 439604.5 ], [ 434674.25, 439604.75 ], [ 434672.25, 439604.75 ], [ 434672.25, 439604.5 ], [ 434672.0, 439604.5 ], [ 434672.0, 439604.25 ], [ 434671.5, 439604.25 ], [ 434671.5, 439604.0 ], [ 434670.0, 439604.0 ], [ 434670.0, 439604.25 ], [ 434667.0, 439604.25 ], [ 434667.0, 439604.0 ], [ 434666.75, 439604.0 ], [ 434666.75, 439603.75 ], [ 434666.5, 439603.75 ], [ 434666.5, 439603.5 ], [ 434665.25, 439603.5 ], [ 434665.25, 439603.75 ], [ 434664.75, 439603.75 ], [ 434664.75, 439604.0 ], [ 434664.5, 439604.0 ], [ 434664.5, 439604.5 ], [ 434664.25, 439604.5 ], [ 434664.25, 439605.25 ], [ 434664.0, 439605.25 ], [ 434664.0, 439606.25 ], [ 434663.75, 439606.25 ], [ 434663.75, 439606.5 ], [ 434664.0, 439606.5 ], [ 434664.0, 439607.25 ], [ 434664.25, 439607.25 ], [ 434664.25, 439608.5 ], [ 434664.5, 439608.5 ], [ 434664.5, 439609.25 ], [ 434664.75, 439609.25 ], [ 434664.75, 439610.0 ], [ 434665.0, 439610.0 ], [ 434665.0, 439610.5 ], [ 434665.25, 439610.5 ], [ 434665.25, 439610.75 ], [ 434665.5, 439610.75 ], [ 434665.5, 439611.0 ], [ 434666.0, 439611.0 ], [ 434666.0, 439611.25 ], [ 434667.75, 439611.25 ], [ 434667.75, 439611.5 ], [ 434668.0, 439611.5 ], [ 434668.0, 439611.75 ], [ 434668.25, 439611.75 ], [ 434668.25, 439612.0 ], [ 434668.75, 439612.0 ], [ 434668.75, 439611.75 ], [ 434669.25, 439611.75 ], [ 434669.25, 439611.5 ], [ 434673.5, 439611.5 ], [ 434673.5, 439611.75 ], [ 434673.75, 439611.75 ], [ 434673.75, 439612.0 ], [ 434674.25, 439612.0 ], [ 434674.25, 439612.25 ], [ 434674.5, 439612.25 ], [ 434674.5, 439612.5 ], [ 434675.0, 439612.5 ], [ 434675.0, 439612.75 ], [ 434675.25, 439612.75 ], [ 434675.25, 439613.0 ], [ 434676.0, 439613.0 ], [ 434676.0, 439612.75 ], [ 434676.5, 439612.75 ], [ 434676.5, 439613.0 ], [ 434677.0, 439613.0 ], [ 434677.0, 439613.25 ], [ 434677.25, 439613.25 ], [ 434677.25, 439613.5 ], [ 434677.5, 439613.5 ], [ 434677.5, 439613.75 ], [ 434677.75, 439613.75 ], [ 434677.75, 439614.0 ], [ 434678.0, 439614.0 ], [ 434678.0, 439614.25 ], [ 434679.25, 439614.25 ], [ 434679.25, 439614.0 ], [ 434679.5, 439614.0 ], [ 434679.5, 439613.75 ], [ 434679.75, 439613.75 ], [ 434679.75, 439613.5 ], [ 434680.0, 439613.5 ], [ 434680.0, 439613.25 ], [ 434680.25, 439613.25 ], [ 434680.25, 439613.0 ], [ 434680.75, 439613.0 ], [ 434680.75, 439613.25 ], [ 434682.5, 439613.25 ], [ 434682.5, 439613.0 ], [ 434683.0, 439613.0 ], [ 434683.0, 439612.75 ], [ 434683.25, 439612.75 ], [ 434683.25, 439612.5 ], [ 434684.5, 439612.5 ], [ 434684.5, 439612.25 ], [ 434685.25, 439612.25 ], [ 434685.25, 439612.0 ], [ 434685.75, 439612.0 ], [ 434685.75, 439612.25 ], [ 434686.25, 439612.25 ], [ 434686.25, 439612.5 ], [ 434686.5, 439612.5 ], [ 434686.5, 439612.75 ], [ 434686.75, 439612.75 ], [ 434686.75, 439612.5 ], [ 434687.25, 439612.5 ], [ 434687.25, 439611.75 ], [ 434687.5, 439611.75 ], [ 434687.5, 439611.5 ], [ 434687.75, 439611.5 ], [ 434687.75, 439611.25 ], [ 434689.0, 439611.25 ], [ 434689.0, 439611.0 ], [ 434689.75, 439611.0 ], [ 434689.75, 439610.75 ], [ 434691.0, 439610.75 ], [ 434691.0, 439610.5 ], [ 434691.5, 439610.5 ], [ 434691.5, 439608.25 ], [ 434691.25, 439608.25 ], [ 434691.25, 439606.25 ], [ 434692.0, 439606.25 ], [ 434692.0, 439606.0 ], [ 434692.75, 439606.0 ], [ 434692.75, 439605.75 ], [ 434693.75, 439605.75 ], [ 434693.75, 439606.0 ], [ 434694.0, 439606.0 ], [ 434694.0, 439607.25 ], [ 434694.25, 439607.25 ], [ 434694.25, 439607.75 ], [ 434694.0, 439607.75 ], [ 434694.0, 439612.75 ], [ 434694.25, 439612.75 ], [ 434694.25, 439613.75 ], [ 434694.5, 439613.75 ], [ 434694.5, 439616.0 ], [ 434682.75, 439616.0 ], [ 434682.75, 439615.5 ], [ 434682.5, 439615.5 ], [ 434682.5, 439615.25 ], [ 434681.5, 439615.25 ], [ 434681.5, 439615.0 ], [ 434678.5, 439615.0 ], [ 434678.5, 439616.0 ], [ 434658.5, 439616.0 ] ] ] } },
{ "type": "Feature", "properties": { }, "geometry": { "type": "Polygon", "coordinates": [ [ [ 434380.25, 439609.5 ], [ 434380.25, 439609.25 ], [ 434379.75, 439609.25 ], [ 434379.75, 439609.0 ], [ 434379.25, 439609.0 ], [ 434379.25, 439608.75 ], [ 434378.0, 439608.75 ], [ 434378.0, 439608.5 ], [ 434377.75, 439608.5 ], [ 434377.75, 439608.25 ], [ 434377.25, 439608.25 ], [ 434377.25, 439608.5 ], [ 434376.25, 439608.5 ], [ 434376.25, 439608.75 ], [ 434375.5, 439608.75 ], [ 434375.5, 439608.5 ], [ 434375.25, 439608.5 ], [ 434375.25, 439608.25 ], [ 434375.0, 439608.25 ], [ 434375.0, 439607.75 ], [ 434374.75, 439607.75 ], [ 434374.75, 439607.5 ], [ 434374.5, 439607.5 ], [ 434374.5, 439607.25 ], [ 434374.75, 439607.25 ], [ 434374.75, 439606.0 ], [ 434374.5, 439606.0 ], [ 434374.5, 439605.75 ], [ 434374.25, 439605.75 ], [ 434374.25, 439606.25 ], [ 434374.0, 439606.25 ], [ 434374.0, 439606.75 ], [ 434374.25, 439606.75 ], [ 434374.25, 439607.5 ], [ 434373.75, 439607.5 ], [ 434373.75, 439607.75 ], [ 434373.5, 439607.75 ], [ 434373.5, 439607.5 ], [ 434373.0, 439607.5 ], [ 434373.0, 439607.25 ], [ 434372.5, 439607.25 ], [ 434372.5, 439607.0 ], [ 434372.25, 439607.0 ], [ 434372.25, 439606.75 ], [ 434372.0, 439606.75 ], [ 434372.0, 439606.5 ], [ 434371.5, 439606.5 ], [ 434371.5, 439606.25 ], [ 434371.25, 439606.25 ], [ 434371.25, 439606.0 ], [ 434371.0, 439606.0 ], [ 434371.0, 439605.75 ], [ 434370.75, 439605.75 ], [ 434370.75, 439605.5 ], [ 434370.5, 439605.5 ], [ 434370.5, 439603.25 ], [ 434370.75, 439603.25 ], [ 434370.75, 439602.25 ], [ 434371.0, 439602.25 ], [ 434371.0, 439601.75 ], [ 434371.25, 439601.75 ], [ 434371.25, 439601.5 ], [ 434372.0, 439601.5 ], [ 434372.0, 439601.75 ], [ 434372.25, 439601.75 ], [ 434372.25, 439602.0 ], [ 434372.5, 439602.0 ], [ 434372.5, 439602.25 ], [ 434372.75, 439602.25 ], [ 434372.75, 439602.5 ], [ 434373.0, 439602.5 ], [ 434373.0, 439603.0 ], [ 434373.25, 439603.0 ], [ 434373.25, 439603.5 ], [ 434373.5, 439603.5 ], [ 434373.5, 439603.75 ], [ 434373.75, 439603.75 ], [ 434373.75, 439604.0 ], [ 434374.25, 439604.0 ], [ 434374.25, 439604.25 ], [ 434374.75, 439604.25 ], [ 434374.75, 439604.0 ], [ 434375.0, 439604.0 ], [ 434375.0, 439603.75 ], [ 434375.25, 439603.75 ], [ 434375.25, 439603.5 ], [ 434375.5, 439603.5 ], [ 434375.5, 439603.25 ], [ 434375.25, 439603.25 ], [ 434375.25, 439602.25 ], [ 434376.5, 439602.25 ], [ 434376.5, 439602.0 ], [ 434377.75, 439602.0 ], [ 434377.75, 439601.75 ], [ 434378.25, 439601.75 ], [ 434378.25, 439601.5 ], [ 434378.75, 439601.5 ], [ 434378.75, 439601.25 ], [ 434379.5, 439601.25 ], [ 434379.5, 439601.0 ], [ 434380.25, 439601.0 ], [ 434380.25, 439600.75 ], [ 434381.25, 439600.75 ], [ 434381.25, 439600.5 ], [ 434382.75, 439600.5 ], [ 434382.75, 439600.25 ], [ 434384.0, 439600.25 ], [ 434384.0, 439609.0 ], [ 434382.75, 439609.0 ], [ 434382.75, 439609.25 ], [ 434381.75, 439609.25 ], [ 434381.75, 439609.5 ], [ 434380.25, 439609.5 ] ] ] } },
{ "type": "Feature", "properties": { }, "geometry": { "type": "Polygon", "coordinates": [ [ [ 434128.0, 439526.5 ], [ 434128.0, 439515.25 ], [ 434128.5, 439515.25 ], [ 434128.5, 439516.25 ], [ 434128.75, 439516.25 ], [ 434128.75, 439516.75 ], [ 434129.0, 439516.75 ], [ 434129.0, 439517.0 ], [ 434129.25, 439517.0 ], [ 434129.25, 439517.5 ], [ 434129.5, 439517.5 ], [ 434129.5, 439517.75 ], [ 434129.75, 439517.75 ], [ 434129.75, 439518.0 ], [ 434130.0, 439518.0 ], [ 434130.0, 439518.25 ], [ 434130.25, 439518.25 ], [ 434130.25, 439519.0 ], [ 434130.5, 439519.0 ], [ 434130.5, 439519.75 ], [ 434130.25, 439519.75 ], [ 434130.25, 439520.25 ], [ 434130.0, 439520.25 ], [ 434130.0, 439521.0 ], [ 434129.75, 439521.0 ], [ 434129.75, 439522.0 ], [ 434130.0, 439522.0 ], [ 434130.0, 439523.0 ], [ 434129.75, 439523.0 ], [ 434129.75, 439525.25 ], [ 434129.5, 439525.25 ], [ 434129.5, 439525.75 ], [ 434129.25, 439525.75 ], [ 434129.25, 439526.0 ], [ 434129.0, 439526.0 ], [ 434129.0, 439526.25 ], [ 434128.75, 439526.25 ], [ 434128.75, 439526.5 ], [ 434128.0, 439526.5 ] ] ] } },
{ "type": "Feature", "properties": { }, "geometry": { "type": "Polygon", "coordinates": [ [ [ 434254.25, 439366.0 ], [ 434254.25, 439365.75 ], [ 434254.0, 439365.75 ], [ 434254.0, 439365.5 ], [ 434253.75, 439365.5 ], [ 434253.75, 439365.0 ], [ 434253.5, 439365.0 ], [ 434253.5, 439363.5 ], [ 434253.25, 439363.5 ], [ 434253.25, 439363.0 ], [ 434253.0, 439363.0 ], [ 434253.0, 439361.75 ], [ 434253.25, 439361.75 ], [ 434253.25, 439360.75 ], [ 434253.0, 439360.75 ], [ 434253.0, 439360.0 ], [ 434256.0, 439360.0 ], [ 434256.0, 439365.75 ], [ 434255.0, 439365.75 ], [ 434255.0, 439366.0 ], [ 434254.25, 439366.0 ] ] ] } },
{ "type": "Feature", "properties": { }, "geometry": { "type": "Polygon", "coordinates": [ [ [ 434136.5, 439232.0 ], [ 434136.5, 439230.25 ], [ 434136.75, 439230.25 ], [ 434136.75, 439229.0 ], [ 434137.0, 439229.0 ], [ 434137.0, 439228.25 ], [ 434137.25, 439228.25 ], [ 434137.25, 439227.75 ], [ 434137.5, 439227.75 ], [ 434137.5, 439227.5 ], [ 434137.75, 439227.5 ], [ 434137.75, 439227.25 ], [ 434138.0, 439227.25 ], [ 434138.0, 439227.0 ], [ 434138.25, 439227.0 ], [ 434138.25, 439226.75 ], [ 434138.5, 439226.75 ], [ 434138.5, 439226.5 ], [ 434138.75, 439226.5 ], [ 434138.75, 439226.25 ], [ 434139.25, 439226.25 ], [ 434139.25, 439226.0 ], [ 434139.5, 439226.0 ], [ 434139.5, 439225.5 ], [ 434139.75, 439225.5 ], [ 434139.75, 439225.25 ], [ 434140.0, 439225.25 ], [ 434140.0, 439225.0 ], [ 434140.5, 439225.0 ], [ 434140.5, 439224.75 ], [ 434140.75, 439224.75 ], [ 434140.75, 439224.5 ], [ 434141.0, 439224.5 ], [ 434141.0, 439224.25 ], [ 434141.5, 439224.25 ], [ 434141.5, 439224.0 ], [ 434142.0, 439224.0 ], [ 434142.0, 439223.75 ], [ 434143.0, 439223.75 ], [ 434143.0, 439224.0 ], [ 434143.5, 439224.0 ], [ 434143.5, 439224.25 ], [ 434144.5, 439224.25 ], [ 434144.5, 439224.5 ], [ 434145.25, 439224.5 ], [ 434145.25, 439224.75 ], [ 434145.75, 439224.75 ], [ 434145.75, 439225.0 ], [ 434146.5, 439225.0 ], [ 434146.5, 439225.25 ], [ 434147.5, 439225.25 ], [ 434147.5, 439225.5 ], [ 434148.0, 439225.5 ], [ 434148.0, 439225.75 ], [ 434148.5, 439225.75 ], [ 434148.5, 439226.0 ], [ 434149.25, 439226.0 ], [ 434149.25, 439226.25 ], [ 434150.0, 439226.25 ], [ 434150.0, 439226.5 ], [ 434150.75, 439226.5 ], [ 434150.75, 439226.75 ], [ 434151.0, 439226.75 ], [ 434151.0, 439227.0 ], [ 434151.5, 439227.0 ], [ 434151.5, 439227.25 ], [ 434151.75, 439227.25 ], [ 434151.75, 439227.5 ], [ 434152.25, 439227.5 ], [ 434152.25, 439227.75 ], [ 434152.75, 439227.75 ], [ 434152.75, 439228.0 ], [ 434153.5, 439228.0 ], [ 434153.5, 439228.25 ], [ 434154.25, 439228.25 ], [ 434154.25, 439228.5 ], [ 434154.75, 439228.5 ], [ 434154.75, 439228.75 ], [ 434155.0, 439228.75 ], [ 434155.0, 439229.0 ], [ 434155.5, 439229.0 ], [ 434155.5, 439229.25 ], [ 434156.0, 439229.25 ], [ 434156.0, 439229.5 ], [ 434156.25, 439229.5 ], [ 434156.25, 439229.75 ], [ 434156.5, 439229.75 ], [ 434156.5, 439230.0 ], [ 434156.75, 439230.0 ], [ 434156.75, 439230.5 ], [ 434157.0, 439230.5 ], [ 434157.0, 439232.0 ], [ 434136.5, 439232.0 ] ] ] } },
{ "type": "Feature", "properties": { }, "geometry": { "type": "Polygon", "coordinates": [ [ [ 434450.25, 439108.25 ], [ 434450.25, 439108.0 ], [ 434449.75, 439108.0 ], [ 434449.75, 439107.75 ], [ 434449.5, 439107.75 ], [ 434449.5, 439107.5 ], [ 434449.25, 439107.5 ], [ 434449.25, 439105.75 ], [ 434449.0, 439105.75 ], [ 434449.0, 439105.25 ], [ 434449.25, 439105.25 ], [ 434449.25, 439105.0 ], [ 434449.5, 439105.0 ], [ 434449.5, 439104.75 ], [ 434449.75, 439104.75 ], [ 434449.75, 439104.0 ], [ 434453.25, 439104.0 ], [ 434453.25, 439104.75 ], [ 434453.0, 439104.75 ], [ 434453.0, 439105.0 ], [ 434452.75, 439105.0 ], [ 434452.75, 439105.25 ], [ 434452.5, 439105.25 ], [ 434452.5, 439105.5 ], [ 434452.75, 439105.5 ], [ 434452.75, 439106.0 ], [ 434453.0, 439106.0 ], [ 434453.0, 439106.75 ], [ 434452.75, 439106.75 ], [ 434452.75, 439107.0 ], [ 434452.5, 439107.0 ], [ 434452.5, 439107.25 ], [ 434452.0, 439107.25 ], [ 434452.0, 439107.5 ], [ 434451.25, 439107.5 ], [ 434451.25, 439107.75 ], [ 434450.75, 439107.75 ], [ 434450.75, 439108.0 ], [ 434450.5, 439108.0 ], [ 434450.5, 439108.25 ], [ 434450.25, 439108.25 ] ] ] } }
]
}
