{
"type": "FeatureCollection",
"name": "se3430_rgb_250_05_removal",
"crs": { "type": "name", "properties": { "name": "urn:ogc:def:crs:EPSG::27700" } },
"features": [
{ "type": "Feature", "properties": { }, "geometry": { "type": "Polygon", "coordinates": [ [ [ 434925.25, 430999.5 ], [ 434925.25, 430998.25 ], [ 434924.75, 430998.25 ], [ 434924.75, 430998.0 ], [ 434924.5, 430998.0 ], [ 434924.5, 430997.75 ], [ 434924.25, 430997.75 ], [ 434924.25, 430997.25 ], [ 434924.0, 430997.25 ], [ 434924.0, 430997.0 ], [ 434923.5, 430997.0 ], [ 434923.5, 430996.75 ], [ 434922.75, 430996.75 ], [ 434922.75, 430996.5 ], [ 434922.25, 430996.5 ], [ 434922.25, 430996.25 ], [ 434922.0, 430996.25 ], [ 434922.0, 430996.0 ], [ 434921.75, 430996.0 ], [ 434921.75, 430995.75 ], [ 434921.0, 430995.75 ], [ 434921.0, 430996.0 ], [ 434920.75, 430996.0 ], [ 434920.75, 430996.5 ], [ 434920.5, 430996.5 ], [ 434920.5, 430996.75 ], [ 434920.25, 430996.75 ], [ 434920.25, 430997.0 ], [ 434919.5, 430997.0 ], [ 434919.5, 430996.75 ], [ 434919.25, 430996.75 ], [ 434919.25, 430996.25 ], [ 434919.0, 430996.25 ], [ 434919.0, 430995.0 ], [ 434918.75, 430995.0 ], [ 434918.75, 430994.75 ], [ 434918.0, 430994.75 ], [ 434918.0, 430994.5 ], [ 434917.5, 430994.5 ], [ 434917.5, 430994.25 ], [ 434917.25, 430994.25 ], [ 434917.25, 430993.75 ], [ 434917.0, 430993.75 ], [ 434917.0, 430993.5 ], [ 434916.75, 430993.5 ], [ 434916.75, 430992.75 ], [ 434915.5, 430992.75 ], [ 434915.5, 430992.5 ], [ 434915.25, 430992.5 ], [ 434915.25, 430992.0 ], [ 434915.0, 430992.0 ], [ 434915.0, 430991.75 ], [ 434914.75, 430991.75 ], [ 434914.75, 430991.25 ], [ 434914.25, 430991.25 ], [ 434914.25, 430991.0 ], [ 434913.75, 430991.0 ], [ 434913.75, 430990.75 ], [ 434913.0, 430990.75 ], [ 434913.0, 430991.0 ], [ 434912.75, 430991.0 ], [ 434912.75, 430991.5 ], [ 434912.5, 430991.5 ], [ 434912.5, 430990.25 ], [ 434913.25, 430990.25 ], [ 434913.25, 430989.75 ], [ 434913.5, 430989.75 ], [ 434913.5, 430989.5 ], [ 434915.75, 430989.5 ], [ 434915.75, 430989.25 ], [ 434916.0, 430989.25 ], [ 434916.0, 430989.0 ], [ 434916.25, 430989.0 ], [ 434916.25, 430988.75 ], [ 434916.75, 430988.75 ], [ 434916.75, 430988.5 ], [ 434918.0, 430988.5 ], [ 434918.0, 430988.25 ], [ 434918.5, 430988.25 ], [ 434918.5, 430988.5 ], [ 434918.75, 430988.5 ], [ 434918.75, 430988.75 ], [ 434919.0, 430988.75 ], [ 434919.0, 430989.0 ], [ 434919.25, 430989.0 ], [ 434919.25, 430989.25 ], [ 434919.5, 430989.25 ], [ 434919.5, 430990.0 ], [ 434919.75, 430990.0 ], [ 434919.75, 430990.75 ], [ 434919.5, 430990.75 ], [ 434919.5, 430991.0 ], [ 434919.25, 430991.0 ], [ 434919.25, 430991.25 ], [ 434918.75, 430991.25 ], [ 434918.75, 430991.5 ], [ 434918.5, 430991.5 ], [ 434918.5, 430991.75 ], [ 434918.75, 430991.75 ], [ 434918.75, 430992.0 ], [ 434919.0, 430992.0 ], [ 434919.0, 430992.5 ], [ 434919.25, 430992.5 ], [ 434919.25, 430993.25 ], [ 434919.5, 430993.25 ], [ 434919.5, 430993.75 ], [ 434921.75, 430993.75 ], [ 434921.75, 430993.5 ], [ 434922.0, 430993.5 ], [ 434922.0, 430993.25 ], [ 434923.75, 430993.25 ], [ 434923.75, 430993.0 ], [ 434924.0, 430993.0 ], [ 434924.0, 430992.75 ], [ 434924.25, 430992.75 ], [ 434924.25, 430992.0 ], [ 434924.5, 430992.0 ], [ 434924.5, 430991.0 ], [ 434924.75, 430991.0 ], [ 434924.75, 430990.25 ], [ 434925.0, 430990.25 ], [ 434925.0, 430989.5 ], [ 434925.25, 430989.5 ], [ 434925.25, 430989.25 ], [ 434927.5, 430989.25 ], [ 434927.5, 430990.75 ], [ 434927.75, 430990.75 ], [ 434927.75, 430991.0 ], [ 434928.75, 430991.0 ], [ 434928.75, 430990.75 ], [ 434929.0, 430990.75 ], [ 434929.0, 430990.0 ], [ 434929.25, 430990.0 ], [ 434929.25, 430989.5 ], [ 434929.5, 430989.5 ], [ 434929.5, 430988.5 ], [ 434929.75, 430988.5 ], [ 434929.75, 430988.0 ], [ 434930.0, 430988.0 ], [ 434930.0, 430987.25 ], [ 434930.25, 430987.25 ], [ 434930.25, 430985.75 ], [ 434930.5, 430985.75 ], [ 434930.5, 430984.25 ], [ 434930.75, 430984.25 ], [ 434930.75, 430983.0 ], [ 434931.0, 430983.0 ], [ 434931.0, 430978.0 ], [ 434930.75, 430978.0 ], [ 434930.75, 430977.5 ], [ 434930.5, 430977.5 ], [ 434930.5, 430977.0 ], [ 434930.0, 430977.0 ], [ 434930.0, 430976.75 ], [ 434929.75, 430976.75 ], [ 434929.75, 430976.5 ], [ 434928.25, 430976.5 ], [ 434928.25, 430976.25 ], [ 434927.75, 430976.25 ], [ 434927.75, 430976.0 ], [ 434926.75, 430976.0 ], [ 434926.75, 430976.25 ], [ 434926.25, 430976.25 ], [ 434926.25, 430976.0 ], [ 434926.0, 430976.0 ], [ 434926.0, 430975.75 ], [ 434925.75, 430975.75 ], [ 434925.75, 430975.5 ], [ 434925.5, 430975.5 ], [ 434925.5, 430975.25 ], [ 434924.25, 430975.25 ], [ 434924.25, 430975.0 ], [ 434923.5, 430975.0 ], [ 434923.5, 430974.75 ], [ 434923.25, 430974.75 ], [ 434923.25, 430974.5 ], [ 434923.0, 430974.5 ], [ 434923.0, 430974.25 ], [ 434922.5, 430974.25 ], [ 434922.5, 430974.0 ], [ 434920.5, 430974.0 ], [ 434920.5, 430974.25 ], [ 434920.0, 430974.25 ], [ 434920.0, 430975.75 ], [ 434919.75, 430975.75 ], [ 434919.75, 430976.0 ], [ 434919.5, 430976.0 ], [ 434919.5, 430976.25 ], [ 434919.25, 430976.25 ], [ 434919.25, 430976.0 ], [ 434919.0, 430976.0 ], [ 434919.0, 430975.75 ], [ 434918.75, 430975.75 ], [ 434918.75, 430975.5 ], [ 434918.5, 430975.5 ], [ 434918.5, 430975.25 ], [ 434918.25, 430975.25 ], [ 434918.25, 430975.75 ], [ 434917.75, 430975.75 ], [ 434917.75, 430976.0 ], [ 434917.5, 430976.0 ], [ 434917.5, 430976.25 ], [ 434917.25, 430976.25 ], [ 434917.25, 430976.5 ], [ 434917.0, 430976.5 ], [ 434917.0, 430976.75 ], [ 434916.75, 430976.75 ], [ 434916.75, 430977.0 ], [ 434916.25, 430977.0 ], [ 434916.25, 430977.25 ], [ 434915.75, 430977.25 ], [ 434915.75, 430977.5 ], [ 434914.25, 430977.5 ], [ 434914.25, 430977.25 ], [ 434913.75, 430977.25 ], [ 434913.75, 430977.0 ], [ 434913.0, 430977.0 ], [ 434913.0, 430976.75 ], [ 434911.5, 430976.75 ], [ 434911.5, 430976.5 ], [ 434910.5, 430976.5 ], [ 434910.5, 430976.25 ], [ 434910.25, 430976.25 ], [ 434910.25, 430975.5 ], [ 434910.0, 430975.5 ], [ 434910.0, 430975.0 ], [ 434909.75, 430975.0 ], [ 434909.75, 430973.5 ], [ 434910.0, 430973.5 ], [ 434910.0, 430973.0 ], [ 434910.25, 430973.0 ], [ 434910.25, 430972.5 ], [ 434910.5, 430972.5 ], [ 434910.5, 430972.0 ], [ 434911.0, 430972.0 ], [ 434911.0, 430971.75 ], [ 434911.25, 430971.75 ], [ 434911.25, 430971.5 ], [ 434914.25, 430971.5 ], [ 434914.25, 430971.75 ], [ 434914.75, 430971.75 ], [ 434914.75, 430971.5 ], [ 434915.0, 430971.5 ], [ 434915.0, 430971.0 ], [ 434915.25, 430971.0 ], [ 434915.25, 430970.75 ], [ 434916.75, 430970.75 ], [ 434916.75, 430970.5 ], [ 434914.25, 430970.5 ], [ 434914.25, 430970.25 ], [ 434913.25, 430970.25 ], [ 434913.25, 430970.0 ], [ 434912.25, 430970.0 ], [ 434912.25, 430969.75 ], [ 434910.5, 430969.75 ], [ 434910.5, 430969.5 ], [ 434909.0, 430969.5 ], [ 434909.0, 430969.25 ], [ 434904.75, 430969.25 ], [ 434904.75, 430969.5 ], [ 434903.75, 430969.5 ], [ 434903.75, 430969.75 ], [ 434903.0, 430969.75 ], [ 434903.0, 430970.0 ], [ 434901.75, 430970.0 ], [ 434901.75, 430970.25 ], [ 434900.5, 430970.25 ], [ 434900.5, 430970.5 ], [ 434899.0, 430970.5 ], [ 434899.0, 430970.75 ], [ 434897.25, 430970.75 ], [ 434897.25, 430970.5 ], [ 434896.0, 430970.5 ], [ 434896.0, 430967.0 ], [ 434893.5, 430967.0 ], [ 434893.5, 430966.75 ], [ 434892.25, 430966.75 ], [ 434892.25, 430966.5 ], [ 434891.25, 430966.5 ], [ 434891.25, 430966.25 ], [ 434889.75, 430966.25 ], [ 434889.75, 430966.0 ], [ 434886.5, 430966.0 ], [ 434886.5, 430965.75 ], [ 434885.25, 430965.75 ], [ 434885.25, 430965.5 ], [ 434884.0, 430965.5 ], [ 434884.0, 430965.25 ], [ 434882.5, 430965.25 ], [ 434882.5, 430965.0 ], [ 434881.25, 430965.0 ], [ 434881.25, 430964.75 ], [ 434880.0, 430964.75 ], [ 434880.0, 430964.5 ], [ 434878.75, 430964.5 ], [ 434878.75, 430964.25 ], [ 434876.25, 430964.25 ], [ 434876.25, 430964.0 ], [ 434874.25, 430964.0 ], [ 434874.25, 430963.75 ], [ 434870.75, 430963.75 ], [ 434870.75, 430963.5 ], [ 434869.0, 430963.5 ], [ 434869.0, 430963.25 ], [ 434868.0, 430963.25 ], [ 434868.0, 430963.0 ], [ 434866.75, 430963.0 ], [ 434866.75, 430962.75 ], [ 434864.25, 430962.75 ], [ 434864.25, 430962.5 ], [ 434862.25, 430962.5 ], [ 434862.25, 430962.25 ], [ 434860.0, 430962.25 ], [ 434860.0, 430962.0 ], [ 434857.25, 430962.0 ], [ 434857.25, 430961.75 ], [ 434855.75, 430961.75 ], [ 434855.75, 430961.5 ], [ 434850.5, 430961.5 ], [ 434850.5, 430961.25 ], [ 434848.75, 430961.25 ], [ 434848.75, 430961.0 ], [ 434845.0, 430961.0 ], [ 434845.0, 430960.75 ], [ 434842.0, 430960.75 ], [ 434842.0, 430960.5 ], [ 434838.25, 430960.5 ], [ 434838.25, 430960.25 ], [ 434835.25, 430960.25 ], [ 434835.25, 430960.0 ], [ 434827.25, 430960.0 ], [ 434827.25, 430959.75 ], [ 434825.25, 430959.75 ], [ 434825.25, 430959.5 ], [ 434823.0, 430959.5 ], [ 434823.0, 430959.25 ], [ 434822.25, 430959.25 ], [ 434822.25, 430959.5 ], [ 434821.5, 430959.5 ], [ 434821.5, 430959.75 ], [ 434821.25, 430959.75 ], [ 434821.25, 430960.0 ], [ 434821.0, 430960.0 ], [ 434821.0, 430960.25 ], [ 434820.75, 430960.25 ], [ 434820.75, 430960.5 ], [ 434820.5, 430960.5 ], [ 434820.5, 430960.75 ], [ 434819.75, 430960.75 ], [ 434819.75, 430961.0 ], [ 434819.5, 430961.0 ], [ 434819.5, 430961.25 ], [ 434819.25, 430961.25 ], [ 434819.25, 430961.5 ], [ 434819.0, 430961.5 ], [ 434819.0, 430961.75 ], [ 434818.75, 430961.75 ], [ 434818.75, 430962.25 ], [ 434818.5, 430962.25 ], [ 434818.5, 430962.5 ], [ 434818.25, 430962.5 ], [ 434818.25, 430963.0 ], [ 434818.0, 430963.0 ], [ 434818.0, 430963.25 ], [ 434817.75, 430963.25 ], [ 434817.75, 430963.5 ], [ 434817.5, 430963.5 ], [ 434817.5, 430963.75 ], [ 434817.0, 430963.75 ], [ 434817.0, 430964.0 ], [ 434816.75, 430964.0 ], [ 434816.75, 430964.25 ], [ 434816.5, 430964.25 ], [ 434816.5, 430964.5 ], [ 434816.25, 430964.5 ], [ 434816.25, 430964.75 ], [ 434816.0, 430964.75 ], [ 434816.0, 430965.0 ], [ 434815.75, 430965.0 ], [ 434815.75, 430965.25 ], [ 434815.5, 430965.25 ], [ 434815.5, 430965.75 ], [ 434815.25, 430965.75 ], [ 434815.25, 430966.25 ], [ 434815.0, 430966.25 ], [ 434815.0, 430967.0 ], [ 434814.75, 430967.0 ], [ 434814.75, 430967.75 ], [ 434814.5, 430967.75 ], [ 434814.5, 430968.25 ], [ 434814.25, 430968.25 ], [ 434814.25, 430968.5 ], [ 434814.0, 430968.5 ], [ 434814.0, 430969.0 ], [ 434813.75, 430969.0 ], [ 434813.75, 430969.75 ], [ 434813.25, 430969.75 ], [ 434813.25, 430969.5 ], [ 434813.0, 430969.5 ], [ 434813.0, 430969.25 ], [ 434812.75, 430969.25 ], [ 434812.75, 430968.5 ], [ 434812.25, 430968.5 ], [ 434812.25, 430969.25 ], [ 434812.0, 430969.25 ], [ 434812.0, 430969.5 ], [ 434811.5, 430969.5 ], [ 434811.5, 430970.0 ], [ 434811.25, 430970.0 ], [ 434811.25, 430970.25 ], [ 434811.0, 430970.25 ], [ 434811.0, 430970.5 ], [ 434810.75, 430970.5 ], [ 434810.75, 430971.0 ], [ 434810.5, 430971.0 ], [ 434810.5, 430971.5 ], [ 434810.25, 430971.5 ], [ 434810.25, 430971.75 ], [ 434810.0, 430971.75 ], [ 434810.0, 430972.0 ], [ 434809.75, 430972.0 ], [ 434809.75, 430972.25 ], [ 434809.5, 430972.25 ], [ 434809.5, 430972.5 ], [ 434809.25, 430972.5 ], [ 434809.25, 430973.0 ], [ 434808.75, 430973.0 ], [ 434808.75, 430973.25 ], [ 434807.75, 430973.25 ], [ 434807.75, 430973.0 ], [ 434807.5, 430973.0 ], [ 434807.5, 430973.75 ], [ 434807.25, 430973.75 ], [ 434807.25, 430975.5 ], [ 434807.0, 430975.5 ], [ 434807.0, 430976.0 ], [ 434807.25, 430976.0 ], [ 434807.25, 430976.5 ], [ 434807.0, 430976.5 ], [ 434807.0, 430979.0 ], [ 434807.25, 430979.0 ], [ 434807.25, 430980.5 ], [ 434807.5, 430980.5 ], [ 434807.5, 430982.25 ], [ 434807.75, 430982.25 ], [ 434807.75, 430983.5 ], [ 434808.0, 430983.5 ], [ 434808.0, 430984.75 ], [ 434808.25, 430984.75 ], [ 434808.25, 430985.5 ], [ 434808.5, 430985.5 ], [ 434808.5, 430986.25 ], [ 434808.75, 430986.25 ], [ 434808.75, 430986.75 ], [ 434809.0, 430986.75 ], [ 434809.0, 430987.0 ], [ 434809.25, 430987.0 ], [ 434809.25, 430987.5 ], [ 434809.5, 430987.5 ], [ 434809.5, 430987.75 ], [ 434809.75, 430987.75 ], [ 434809.75, 430988.0 ], [ 434810.0, 430988.0 ], [ 434810.0, 430988.25 ], [ 434810.25, 430988.25 ], [ 434810.25, 430988.5 ], [ 434810.75, 430988.5 ], [ 434810.75, 430988.75 ], [ 434811.0, 430988.75 ], [ 434811.0, 430989.0 ], [ 434811.25, 430989.0 ], [ 434811.25, 430989.25 ], [ 434811.5, 430989.25 ], [ 434811.5, 430989.5 ], [ 434811.75, 430989.5 ], [ 434811.75, 430989.75 ], [ 434812.0, 430989.75 ], [ 434812.0, 430990.0 ], [ 434812.25, 430990.0 ], [ 434812.25, 430990.5 ], [ 434812.5, 430990.5 ], [ 434812.5, 430990.75 ], [ 434813.0, 430990.75 ], [ 434813.0, 430991.0 ], [ 434813.25, 430991.0 ], [ 434813.25, 430991.25 ], [ 434813.75, 430991.25 ], [ 434813.75, 430991.5 ], [ 434814.25, 430991.5 ], [ 434814.25, 430991.75 ], [ 434814.75, 430991.75 ], [ 434814.75, 430992.0 ], [ 434815.25, 430992.0 ], [ 434815.25, 430992.25 ], [ 434815.5, 430992.25 ], [ 434815.5, 430992.5 ], [ 434816.0, 430992.5 ], [ 434816.0, 430992.75 ], [ 434816.5, 430992.75 ], [ 434816.5, 430993.0 ], [ 434816.75, 430993.0 ], [ 434816.75, 430993.25 ], [ 434817.0, 430993.25 ], [ 434817.0, 430993.5 ], [ 434817.5, 430993.5 ], [ 434817.5, 430993.75 ], [ 434818.0, 430993.75 ], [ 434818.0, 430994.0 ], [ 434818.25, 430994.0 ], [ 434818.25, 430994.25 ], [ 434818.5, 430994.25 ], [ 434818.5, 430994.5 ], [ 434818.75, 430994.5 ], [ 434818.75, 430994.75 ], [ 434819.25, 430994.75 ], [ 434819.25, 430995.0 ], [ 434819.5, 430995.0 ], [ 434819.5, 430995.25 ], [ 434820.0, 430995.25 ], [ 434820.0, 430995.5 ], [ 434820.5, 430995.5 ], [ 434820.5, 430995.75 ], [ 434821.0, 430995.75 ], [ 434821.0, 430996.0 ], [ 434821.5, 430996.0 ], [ 434821.5, 430996.25 ], [ 434821.75, 430996.25 ], [ 434821.75, 430996.5 ], [ 434822.25, 430996.5 ], [ 434822.25, 430996.75 ], [ 434822.75, 430996.75 ], [ 434822.75, 430997.0 ], [ 434823.25, 430997.0 ], [ 434823.25, 430997.25 ], [ 434823.75, 430997.25 ], [ 434823.75, 430997.5 ], [ 434824.0, 430997.5 ], [ 434824.0, 430997.75 ], [ 434824.25, 430997.75 ], [ 434824.25, 430998.0 ], [ 434824.5, 430998.0 ], [ 434824.5, 430998.25 ], [ 434824.75, 430998.25 ], [ 434824.75, 431000.0 ], [ 434925.0, 431000.0 ], [ 434925.0, 430999.5 ], [ 434925.25, 430999.5 ] ], [ [ 434915.0, 430987.25 ], [ 434916.0, 430987.25 ], [ 434916.0, 430987.5 ], [ 434916.25, 430987.5 ], [ 434916.25, 430987.75 ], [ 434916.0, 430987.75 ], [ 434916.0, 430988.0 ], [ 434915.25, 430988.0 ], [ 434915.25, 430987.75 ], [ 434915.0, 430987.75 ], [ 434915.0, 430987.25 ] ] ] } },
{ "type": "Feature", "properties": { }, "geometry": { "type": "Polygon", "coordinates": [ [ [ 434999.5, 430936.75 ], [ 434999.25, 430936.75 ], [ 434999.25, 430933.25 ], [ 434999.0, 430933.25 ], [ 434999.0, 430932.75 ], [ 434998.75, 430932.75 ], [ 434998.75, 430932.5 ], [ 434998.5, 430932.5 ], [ 434998.5, 430932.25 ], [ 434998.0, 430932.25 ], [ 434998.0, 430932.0 ], [ 434993.25, 430932.0 ], [ 434993.25, 430932.25 ], [ 434992.25, 430932.25 ], [ 434992.25, 430932.5 ], [ 434991.25, 430932.5 ], [ 434991.25, 430932.75 ], [ 434990.75, 430932.75 ], [ 434990.75, 430933.0 ], [ 434990.0, 430933.0 ], [ 434990.0, 430933.25 ], [ 434989.25, 430933.25 ], [ 434989.25, 430933.5 ], [ 434989.0, 430933.5 ], [ 434989.0, 430933.75 ], [ 434988.75, 430933.75 ], [ 434988.75, 430934.0 ], [ 434988.25, 430934.0 ], [ 434988.25, 430934.25 ], [ 434987.5, 430934.25 ], [ 434987.5, 430934.5 ], [ 434987.25, 430934.5 ], [ 434987.25, 430934.75 ], [ 434986.75, 430934.75 ], [ 434986.75, 430935.0 ], [ 434986.25, 430935.0 ], [ 434986.25, 430935.25 ], [ 434986.0, 430935.25 ], [ 434986.0, 430935.5 ], [ 434985.5, 430935.5 ], [ 434985.5, 430935.75 ], [ 434985.25, 430935.75 ], [ 434985.25, 430936.0 ], [ 434984.75, 430936.0 ], [ 434984.75, 430936.25 ], [ 434984.25, 430936.25 ], [ 434984.25, 430936.5 ], [ 434983.75, 430936.5 ], [ 434983.75, 430936.75 ], [ 434983.25, 430936.75 ], [ 434983.25, 430937.0 ], [ 434982.5, 430937.0 ], [ 434982.5, 430937.25 ], [ 434982.0, 430937.25 ], [ 434982.0, 430937.5 ], [ 434981.75, 430937.5 ], [ 434981.75, 430937.75 ], [ 434981.5, 430937.75 ], [ 434981.5, 430938.0 ], [ 434981.25, 430938.0 ], [ 434981.25, 430938.25 ], [ 434981.0, 430938.25 ], [ 434981.0, 430938.5 ], [ 434980.5, 430938.5 ], [ 434980.5, 430939.0 ], [ 434980.25, 430939.0 ], [ 434980.25, 430939.25 ], [ 434980.0, 430939.25 ], [ 434980.0, 430939.75 ], [ 434979.5, 430939.75 ], [ 434979.5, 430940.0 ], [ 434979.25, 430940.0 ], [ 434979.25, 430940.25 ], [ 434978.5, 430940.25 ], [ 434978.5, 430940.5 ], [ 434978.0, 430940.5 ], [ 434978.0, 430940.75 ], [ 434977.75, 430940.75 ], [ 434977.75, 430941.0 ], [ 434977.25, 430941.0 ], [ 434977.25, 430941.25 ], [ 434977.0, 430941.25 ], [ 434977.0, 430941.5 ], [ 434976.75, 430941.5 ], [ 434976.75, 430941.75 ], [ 434976.5, 430941.75 ], [ 434976.5, 430942.0 ], [ 434976.0, 430942.0 ], [ 434976.0, 430942.25 ], [ 434975.75, 430942.25 ], [ 434975.75, 430942.5 ], [ 434975.5, 430942.5 ], [ 434975.5, 430942.75 ], [ 434975.25, 430942.75 ], [ 434975.25, 430943.25 ], [ 434975.0, 430943.25 ], [ 434975.0, 430943.5 ], [ 434974.75, 430943.5 ], [ 434974.75, 430944.0 ], [ 434974.5, 430944.0 ], [ 434974.5, 430944.5 ], [ 434974.25, 430944.5 ], [ 434974.25, 430945.0 ], [ 434974.0, 430945.0 ], [ 434974.0, 430945.5 ], [ 434973.75, 430945.5 ], [ 434973.75, 430946.0 ], [ 434973.5, 430946.0 ], [ 434973.5, 430947.0 ], [ 434973.25, 430947.0 ], [ 434973.25, 430948.5 ], [ 434973.0, 430948.5 ], [ 434973.0, 430950.25 ], [ 434972.75, 430950.25 ], [ 434972.75, 430951.75 ], [ 434972.5, 430951.75 ], [ 434972.5, 430953.25 ], [ 434972.25, 430953.25 ], [ 434972.25, 430955.25 ], [ 434972.0, 430955.25 ], [ 434972.0, 430956.5 ], [ 434971.75, 430956.5 ], [ 434971.75, 430958.25 ], [ 434971.5, 430958.25 ], [ 434971.5, 430962.5 ], [ 434971.75, 430962.5 ], [ 434971.75, 430963.25 ], [ 434972.0, 430963.25 ], [ 434972.0, 430963.75 ], [ 434972.25, 430963.75 ], [ 434972.25, 430964.0 ], [ 434972.5, 430964.0 ], [ 434972.5, 430964.25 ], [ 434972.75, 430964.25 ], [ 434972.75, 430964.5 ], [ 434973.0, 430964.5 ], [ 434973.0, 430964.75 ], [ 434973.25, 430964.75 ], [ 434973.25, 430965.0 ], [ 434973.5, 430965.0 ], [ 434973.5, 430965.25 ], [ 434973.75, 430965.25 ], [ 434973.75, 430965.5 ], [ 434974.25, 430965.5 ], [ 434974.25, 430965.75 ], [ 434974.5, 430965.75 ], [ 434974.5, 430966.0 ], [ 434975.0, 430966.0 ], [ 434975.0, 430966.25 ], [ 434975.75, 430966.25 ], [ 434975.75, 430966.5 ], [ 434976.0, 430966.5 ], [ 434976.0, 430966.75 ], [ 434976.25, 430966.75 ], [ 434976.25, 430967.0 ], [ 434976.5, 430967.0 ], [ 434976.5, 430967.5 ], [ 434976.75, 430967.5 ], [ 434976.75, 430967.25 ], [ 434977.75, 430967.25 ], [ 434977.75, 430967.5 ], [ 434978.0, 430967.5 ], [ 434978.0, 430968.25 ], [ 434978.25, 430968.25 ], [ 434978.25, 430969.25 ], [ 434978.5, 430969.25 ], [ 434978.5, 430971.25 ], [ 434978.75, 430971.25 ], [ 434978.75, 430972.75 ], [ 434978.5, 430972.75 ], [ 434978.5, 430973.75 ], [ 434978.75, 430973.75 ], [ 434978.75, 430974.5 ], [ 434979.0, 430974.5 ], [ 434979.0, 430974.75 ], [ 434979.25, 430974.75 ], [ 434979.25, 430975.0 ], [ 434979.5, 430975.0 ], [ 434979.5, 430975.25 ], [ 434980.25, 430975.25 ], [ 434980.25, 430975.5 ], [ 434980.5, 430975.5 ], [ 434980.5, 430975.25 ], [ 434980.75, 430975.25 ], [ 434980.75, 430975.0 ], [ 434981.0, 430975.0 ], [ 434981.0, 430974.75 ], [ 434981.5, 430974.75 ], [ 434981.5, 430974.5 ], [ 434981.75, 430974.5 ], [ 434981.75, 430974.25 ], [ 434982.0, 430974.25 ], [ 434982.0, 430974.0 ], [ 434982.25, 430974.0 ], [ 434982.25, 430973.75 ], [ 434983.75, 430973.75 ], [ 434983.75, 430973.25 ], [ 434984.0, 430973.25 ], [ 434984.0, 430972.75 ], [ 434984.25, 430972.75 ], [ 434984.25, 430972.25 ], [ 434984.5, 430972.25 ], [ 434984.5, 430972.0 ], [ 434985.0, 430972.0 ], [ 434985.0, 430971.75 ], [ 434985.5, 430971.75 ], [ 434985.5, 430971.5 ], [ 434985.75, 430971.5 ], [ 434985.75, 430971.75 ], [ 434986.0, 430971.75 ], [ 434986.0, 430972.0 ], [ 434986.25, 430972.0 ], [ 434986.25, 430972.25 ], [ 434986.5, 430972.25 ], [ 434986.5, 430972.0 ], [ 434986.75, 430972.0 ], [ 434986.75, 430971.5 ], [ 434987.0, 430971.5 ], [ 434987.0, 430970.75 ], [ 434987.25, 430970.75 ], [ 434987.25, 430970.0 ], [ 434987.5, 430970.0 ], [ 434987.5, 430969.0 ], [ 434987.75, 430969.0 ], [ 434987.75, 430968.25 ], [ 434988.0, 430968.25 ], [ 434988.0, 430966.25 ], [ 434988.25, 430966.25 ], [ 434988.25, 430965.25 ], [ 434988.5, 430965.25 ], [ 434988.5, 430964.75 ], [ 434988.75, 430964.75 ], [ 434988.75, 430964.25 ], [ 434989.0, 430964.25 ], [ 434989.0, 430964.0 ], [ 434989.25, 430964.0 ], [ 434989.25, 430963.75 ], [ 434990.0, 430963.75 ], [ 434990.0, 430964.0 ], [ 434990.5, 430964.0 ], [ 434990.5, 430964.25 ], [ 434990.75, 430964.25 ], [ 434990.75, 430964.75 ], [ 434991.0, 430964.75 ], [ 434991.0, 430965.0 ], [ 434991.25, 430965.0 ], [ 434991.25, 430965.75 ], [ 434991.5, 430965.75 ], [ 434991.5, 430967.75 ], [ 434991.75, 430967.75 ], [ 434991.75, 430968.5 ], [ 434992.0, 430968.5 ], [ 434992.0, 430969.5 ], [ 434992.25, 430969.5 ], [ 434992.25, 430969.75 ], [ 434992.5, 430969.75 ], [ 434992.5, 430970.0 ], [ 434993.25, 430970.0 ], [ 434993.25, 430970.25 ], [ 434993.5, 430970.25 ], [ 434993.5, 430970.0 ], [ 434993.75, 430970.0 ], [ 434993.75, 430969.75 ], [ 434994.0, 430969.75 ], [ 434994.0, 430969.5 ], [ 434994.25, 430969.5 ], [ 434994.25, 430969.25 ], [ 434994.5, 430969.25 ], [ 434994.5, 430968.5 ], [ 434994.75, 430968.5 ], [ 434994.75, 430967.75 ], [ 434995.0, 430967.75 ], [ 434995.0, 430967.5 ], [ 434995.219540780584794, 430967.5 ], [ 434995.25, 430967.322218156303279 ], [ 434995.25, 430967.0 ], [ 434995.305205375945661, 430967.0 ], [ 434995.5, 430965.863038906187285 ], [ 434995.5, 430965.5 ], [ 434995.562199161970057, 430965.5 ], [ 434999.25, 430943.975350154272746 ], [ 434999.25, 430940.5 ], [ 434999.5, 430940.5 ], [ 434999.5, 430936.75 ] ] ] } },
{ "type": "Feature", "properties": { }, "geometry": { "type": "Polygon", "coordinates": [ [ [ 434944.25, 430966.0 ], [ 434944.25, 430965.75 ], [ 434945.0, 430965.75 ], [ 434945.0, 430965.5 ], [ 434945.25, 430965.5 ], [ 434945.25, 430965.25 ], [ 434945.5, 430965.25 ], [ 434945.5, 430965.0 ], [ 434945.75, 430965.0 ], [ 434945.75, 430964.75 ], [ 434946.0, 430964.75 ], [ 434946.0, 430964.5 ], [ 434946.25, 430964.5 ], [ 434946.25, 430964.25 ], [ 434946.5, 430964.25 ], [ 434946.5, 430964.0 ], [ 434947.0, 430964.0 ], [ 434947.0, 430963.75 ], [ 434947.25, 430963.75 ], [ 434947.25, 430963.5 ], [ 434947.5, 430963.5 ], [ 434947.5, 430963.0 ], [ 434947.75, 430963.0 ], [ 434947.75, 430962.75 ], [ 434948.0, 430962.75 ], [ 434948.0, 430962.25 ], [ 434948.25, 430962.25 ], [ 434948.25, 430961.5 ], [ 434948.5, 430961.5 ], [ 434948.5, 430961.0 ], [ 434948.75, 430961.0 ], [ 434948.75, 430960.25 ], [ 434949.0, 430960.25 ], [ 434949.0, 430959.5 ], [ 434949.25, 430959.5 ], [ 434949.25, 430958.5 ], [ 434949.5, 430958.5 ], [ 434949.5, 430957.75 ], [ 434949.75, 430957.75 ], [ 434949.75, 430956.75 ], [ 434950.0, 430956.75 ], [ 434950.0, 430954.25 ], [ 434950.25, 430954.25 ], [ 434950.25, 430953.75 ], [ 434950.5, 430953.75 ], [ 434950.5, 430953.25 ], [ 434950.75, 430953.25 ], [ 434950.75, 430952.75 ], [ 434951.0, 430952.75 ], [ 434951.0, 430952.5 ], [ 434951.25, 430952.5 ], [ 434951.25, 430952.25 ], [ 434951.5, 430952.25 ], [ 434951.5, 430952.0 ], [ 434951.75, 430952.0 ], [ 434951.75, 430951.75 ], [ 434952.0, 430951.75 ], [ 434952.0, 430951.5 ], [ 434952.25, 430951.5 ], [ 434952.25, 430951.25 ], [ 434952.5, 430951.25 ], [ 434952.5, 430951.0 ], [ 434952.75, 430951.0 ], [ 434952.75, 430950.75 ], [ 434953.0, 430950.75 ], [ 434953.0, 430950.5 ], [ 434953.25, 430950.5 ], [ 434953.25, 430950.25 ], [ 434953.5, 430950.25 ], [ 434953.5, 430950.0 ], [ 434953.75, 430950.0 ], [ 434953.75, 430949.75 ], [ 434954.0, 430949.75 ], [ 434954.0, 430949.5 ], [ 434954.25, 430949.5 ], [ 434954.25, 430949.25 ], [ 434954.5, 430949.25 ], [ 434954.5, 430948.75 ], [ 434954.75, 430948.75 ], [ 434954.75, 430948.5 ], [ 434955.0, 430948.5 ], [ 434955.0, 430948.0 ], [ 434955.25, 430948.0 ], [ 434955.25, 430947.75 ], [ 434955.5, 430947.75 ], [ 434955.5, 430947.0 ], [ 434955.75, 430947.0 ], [ 434955.75, 430946.25 ], [ 434956.0, 430946.25 ], [ 434956.0, 430945.5 ], [ 434956.25, 430945.5 ], [ 434956.25, 430944.0 ], [ 434956.5, 430944.0 ], [ 434956.5, 430943.0 ], [ 434956.75, 430943.0 ], [ 434956.75, 430942.0 ], [ 434957.0, 430942.0 ], [ 434957.0, 430940.5 ], [ 434957.25, 430940.5 ], [ 434957.25, 430938.75 ], [ 434957.0, 430938.75 ], [ 434957.0, 430936.75 ], [ 434956.75, 430936.75 ], [ 434956.75, 430935.25 ], [ 434956.5, 430935.25 ], [ 434956.5, 430934.5 ], [ 434956.25, 430934.5 ], [ 434956.25, 430934.25 ], [ 434956.0, 430934.25 ], [ 434956.0, 430934.0 ], [ 434955.75, 430934.0 ], [ 434955.75, 430933.75 ], [ 434955.5, 430933.75 ], [ 434955.5, 430933.5 ], [ 434955.25, 430933.5 ], [ 434955.25, 430933.25 ], [ 434954.75, 430933.25 ], [ 434954.75, 430933.0 ], [ 434954.5, 430933.0 ], [ 434954.5, 430932.75 ], [ 434954.0, 430932.75 ], [ 434954.0, 430932.5 ], [ 434953.5, 430932.5 ], [ 434953.5, 430932.25 ], [ 434953.0, 430932.25 ], [ 434953.0, 430932.0 ], [ 434952.5, 430932.0 ], [ 434952.5, 430931.75 ], [ 434952.0, 430931.75 ], [ 434952.0, 430931.5 ], [ 434951.25, 430931.5 ], [ 434951.25, 430931.25 ], [ 434950.25, 430931.25 ], [ 434950.25, 430931.0 ], [ 434949.0, 430931.0 ], [ 434949.0, 430930.75 ], [ 434947.75, 430930.75 ], [ 434947.75, 430930.5 ], [ 434945.5, 430930.5 ], [ 434945.5, 430930.25 ], [ 434944.25, 430930.25 ], [ 434944.25, 430930.0 ], [ 434942.5, 430930.0 ], [ 434942.5, 430929.75 ], [ 434941.25, 430929.75 ], [ 434941.25, 430929.5 ], [ 434939.5, 430929.5 ], [ 434939.5, 430929.25 ], [ 434938.0, 430929.25 ], [ 434938.0, 430929.0 ], [ 434937.0, 430929.0 ], [ 434937.0, 430928.75 ], [ 434935.5, 430928.75 ], [ 434935.5, 430928.5 ], [ 434934.0, 430928.5 ], [ 434934.0, 430928.25 ], [ 434933.0, 430928.25 ], [ 434933.0, 430928.0 ], [ 434932.25, 430928.0 ], [ 434932.25, 430927.75 ], [ 434931.5, 430927.75 ], [ 434931.5, 430927.5 ], [ 434930.5, 430927.5 ], [ 434930.5, 430927.25 ], [ 434929.25, 430927.25 ], [ 434929.25, 430927.0 ], [ 434928.5, 430927.0 ], [ 434928.5, 430926.75 ], [ 434927.5, 430926.75 ], [ 434927.5, 430926.5 ], [ 434927.0, 430926.5 ], [ 434927.0, 430926.25 ], [ 434926.25, 430926.25 ], [ 434926.25, 430926.0 ], [ 434924.25, 430926.0 ], [ 434924.25, 430925.75 ], [ 434922.25, 430925.75 ], [ 434922.25, 430925.5 ], [ 434919.5, 430925.5 ], [ 434919.5, 430925.25 ], [ 434917.75, 430925.25 ], [ 434917.75, 430925.0 ], [ 434916.0, 430925.0 ], [ 434916.0, 430924.75 ], [ 434914.25, 430924.75 ], [ 434914.25, 430924.5 ], [ 434913.25, 430924.5 ], [ 434913.25, 430924.25 ], [ 434912.25, 430924.25 ], [ 434912.25, 430924.0 ], [ 434911.25, 430924.0 ], [ 434911.25, 430923.75 ], [ 434910.25, 430923.75 ], [ 434910.25, 430923.5 ], [ 434909.0, 430923.5 ], [ 434909.0, 430923.25 ], [ 434907.5, 430923.25 ], [ 434907.5, 430923.0 ], [ 434906.25, 430923.0 ], [ 434906.25, 430922.75 ], [ 434905.0, 430922.75 ], [ 434905.0, 430922.5 ], [ 434903.75, 430922.5 ], [ 434903.75, 430922.25 ], [ 434902.25, 430922.25 ], [ 434902.25, 430922.0 ], [ 434900.75, 430922.0 ], [ 434900.75, 430921.75 ], [ 434898.5, 430921.75 ], [ 434898.5, 430921.5 ], [ 434896.0, 430921.5 ], [ 434896.0, 430920.25 ], [ 434895.25, 430920.25 ], [ 434895.25, 430920.5 ], [ 434894.25, 430920.5 ], [ 434894.25, 430920.25 ], [ 434892.5, 430920.25 ], [ 434892.5, 430920.0 ], [ 434891.25, 430920.0 ], [ 434891.25, 430919.75 ], [ 434890.0, 430919.75 ], [ 434890.0, 430919.5 ], [ 434888.75, 430919.5 ], [ 434888.75, 430919.25 ], [ 434887.5, 430919.25 ], [ 434887.5, 430919.0 ], [ 434885.75, 430919.0 ], [ 434885.75, 430918.75 ], [ 434884.25, 430918.75 ], [ 434884.25, 430918.5 ], [ 434883.0, 430918.5 ], [ 434883.0, 430918.25 ], [ 434882.0, 430918.25 ], [ 434882.0, 430918.0 ], [ 434880.75, 430918.0 ], [ 434880.75, 430917.75 ], [ 434880.0, 430917.75 ], [ 434880.0, 430917.5 ], [ 434878.75, 430917.5 ], [ 434878.75, 430917.25 ], [ 434877.5, 430917.25 ], [ 434877.5, 430917.0 ], [ 434875.25, 430917.0 ], [ 434875.25, 430916.75 ], [ 434873.5, 430916.75 ], [ 434873.5, 430916.5 ], [ 434872.5, 430916.5 ], [ 434872.5, 430916.25 ], [ 434871.5, 430916.25 ], [ 434871.5, 430916.0 ], [ 434870.75, 430916.0 ], [ 434870.75, 430915.75 ], [ 434870.0, 430915.75 ], [ 434870.0, 430915.5 ], [ 434869.0, 430915.5 ], [ 434869.0, 430915.25 ], [ 434867.5, 430915.25 ], [ 434867.5, 430915.0 ], [ 434866.5, 430915.0 ], [ 434866.5, 430914.75 ], [ 434865.0, 430914.75 ], [ 434865.0, 430914.5 ], [ 434863.75, 430914.5 ], [ 434863.75, 430914.25 ], [ 434862.5, 430914.25 ], [ 434862.5, 430914.0 ], [ 434860.5, 430914.0 ], [ 434860.5, 430913.75 ], [ 434858.25, 430913.75 ], [ 434858.25, 430914.0 ], [ 434857.0, 430914.0 ], [ 434857.0, 430914.25 ], [ 434856.5, 430914.25 ], [ 434856.5, 430914.5 ], [ 434855.75, 430914.5 ], [ 434855.75, 430914.75 ], [ 434855.0, 430914.75 ], [ 434855.0, 430915.0 ], [ 434853.75, 430915.0 ], [ 434853.75, 430915.25 ], [ 434852.5, 430915.25 ], [ 434852.5, 430915.5 ], [ 434850.5, 430915.5 ], [ 434850.5, 430915.75 ], [ 434849.0, 430915.75 ], [ 434849.0, 430916.0 ], [ 434847.0, 430916.0 ], [ 434847.0, 430916.25 ], [ 434844.25, 430916.25 ], [ 434844.25, 430916.5 ], [ 434839.75, 430916.5 ], [ 434839.75, 430916.75 ], [ 434834.5, 430916.75 ], [ 434834.5, 430917.0 ], [ 434829.5, 430917.0 ], [ 434829.5, 430917.25 ], [ 434825.5, 430917.25 ], [ 434825.5, 430917.5 ], [ 434821.5, 430917.5 ], [ 434821.5, 430917.75 ], [ 434818.25, 430917.75 ], [ 434818.25, 430918.0 ], [ 434816.25, 430918.0 ], [ 434816.25, 430918.25 ], [ 434811.75, 430918.25 ], [ 434811.75, 430918.5 ], [ 434810.0, 430918.5 ], [ 434810.0, 430918.75 ], [ 434808.0, 430918.75 ], [ 434808.0, 430919.0 ], [ 434806.75, 430919.0 ], [ 434806.75, 430919.25 ], [ 434806.0, 430919.25 ], [ 434806.0, 430919.5 ], [ 434805.5, 430919.5 ], [ 434805.5, 430919.75 ], [ 434805.25, 430919.75 ], [ 434805.25, 430920.0 ], [ 434805.0, 430920.0 ], [ 434805.0, 430920.25 ], [ 434804.75, 430920.25 ], [ 434804.75, 430920.5 ], [ 434804.5, 430920.5 ], [ 434804.5, 430920.75 ], [ 434804.25, 430920.75 ], [ 434804.25, 430921.25 ], [ 434804.0, 430921.25 ], [ 434804.0, 430922.0 ], [ 434803.75, 430922.0 ], [ 434803.75, 430930.5 ], [ 434804.0, 430930.5 ], [ 434804.0, 430933.5 ], [ 434804.25, 430933.5 ], [ 434804.25, 430935.25 ], [ 434804.5, 430935.25 ], [ 434804.5, 430936.25 ], [ 434804.75, 430936.25 ], [ 434804.75, 430937.5 ], [ 434805.0, 430937.5 ], [ 434805.0, 430938.5 ], [ 434805.25, 430938.5 ], [ 434805.25, 430939.75 ], [ 434805.5, 430939.75 ], [ 434805.5, 430941.0 ], [ 434806.0, 430941.0 ], [ 434806.0, 430941.25 ], [ 434806.25, 430941.25 ], [ 434806.25, 430941.5 ], [ 434807.0, 430941.5 ], [ 434807.0, 430941.25 ], [ 434807.5, 430941.25 ], [ 434807.5, 430941.0 ], [ 434809.0, 430941.0 ], [ 434809.0, 430940.75 ], [ 434809.75, 430940.75 ], [ 434809.75, 430940.5 ], [ 434810.5, 430940.5 ], [ 434810.5, 430940.25 ], [ 434811.25, 430940.25 ], [ 434811.25, 430940.0 ], [ 434811.75, 430940.0 ], [ 434811.75, 430939.75 ], [ 434812.25, 430939.75 ], [ 434812.25, 430939.5 ], [ 434812.5, 430939.5 ], [ 434812.5, 430939.25 ], [ 434812.75, 430939.25 ], [ 434812.75, 430939.0 ], [ 434813.25, 430939.0 ], [ 434813.25, 430938.75 ], [ 434813.5, 430938.75 ], [ 434813.5, 430938.5 ], [ 434814.0, 430938.5 ], [ 434814.0, 430938.25 ], [ 434814.5, 430938.25 ], [ 434814.5, 430938.0 ], [ 434815.25, 430938.0 ], [ 434815.25, 430937.75 ], [ 434816.0, 430937.75 ], [ 434816.0, 430937.5 ], [ 434817.5, 430937.5 ], [ 434817.5, 430937.25 ], [ 434818.75, 430937.25 ], [ 434818.75, 430937.5 ], [ 434820.5, 430937.5 ], [ 434820.5, 430937.25 ], [ 434824.25, 430937.25 ], [ 434824.25, 430937.5 ], [ 434825.25, 430937.5 ], [ 434825.25, 430937.25 ], [ 434829.5, 430937.25 ], [ 434829.5, 430937.0 ], [ 434831.0, 430937.0 ], [ 434831.0, 430936.75 ], [ 434832.75, 430936.75 ], [ 434832.75, 430936.5 ], [ 434834.75, 430936.5 ], [ 434834.75, 430936.25 ], [ 434837.5, 430936.25 ], [ 434837.5, 430936.0 ], [ 434841.0, 430936.0 ], [ 434841.0, 430935.75 ], [ 434849.25, 430935.75 ], [ 434849.25, 430935.5 ], [ 434852.75, 430935.5 ], [ 434852.75, 430935.75 ], [ 434853.75, 430935.75 ], [ 434853.75, 430936.0 ], [ 434854.25, 430936.0 ], [ 434854.25, 430936.25 ], [ 434854.5, 430936.25 ], [ 434854.5, 430936.5 ], [ 434854.75, 430936.5 ], [ 434854.75, 430937.0 ], [ 434855.0, 430937.0 ], [ 434855.0, 430937.5 ], [ 434855.25, 430937.5 ], [ 434855.25, 430938.5 ], [ 434855.5, 430938.5 ], [ 434855.5, 430940.25 ], [ 434855.75, 430940.25 ], [ 434855.75, 430942.25 ], [ 434856.0, 430942.25 ], [ 434856.0, 430943.5 ], [ 434856.25, 430943.5 ], [ 434856.25, 430944.5 ], [ 434856.5, 430944.5 ], [ 434856.5, 430946.0 ], [ 434856.75, 430946.0 ], [ 434856.75, 430949.75 ], [ 434857.0, 430949.75 ], [ 434857.0, 430950.5 ], [ 434857.25, 430950.5 ], [ 434857.25, 430951.25 ], [ 434857.5, 430951.25 ], [ 434857.5, 430951.5 ], [ 434857.75, 430951.5 ], [ 434857.75, 430951.75 ], [ 434858.0, 430951.75 ], [ 434858.0, 430952.25 ], [ 434858.25, 430952.25 ], [ 434858.25, 430952.5 ], [ 434858.75, 430952.5 ], [ 434858.75, 430952.75 ], [ 434859.5, 430952.75 ], [ 434859.5, 430953.0 ], [ 434860.75, 430953.0 ], [ 434860.75, 430953.25 ], [ 434862.0, 430953.25 ], [ 434862.0, 430953.5 ], [ 434863.5, 430953.5 ], [ 434863.5, 430953.75 ], [ 434865.0, 430953.75 ], [ 434865.0, 430954.0 ], [ 434866.25, 430954.0 ], [ 434866.25, 430954.25 ], [ 434867.75, 430954.25 ], [ 434867.75, 430954.5 ], [ 434869.25, 430954.5 ], [ 434869.25, 430954.75 ], [ 434871.25, 430954.75 ], [ 434871.25, 430955.0 ], [ 434873.25, 430955.0 ], [ 434873.25, 430955.25 ], [ 434875.25, 430955.25 ], [ 434875.25, 430955.5 ], [ 434876.5, 430955.5 ], [ 434876.5, 430955.75 ], [ 434878.0, 430955.75 ], [ 434878.0, 430956.0 ], [ 434879.25, 430956.0 ], [ 434879.25, 430956.25 ], [ 434880.25, 430956.25 ], [ 434880.25, 430956.5 ], [ 434881.5, 430956.5 ], [ 434881.5, 430956.75 ], [ 434882.25, 430956.75 ], [ 434882.25, 430957.0 ], [ 434883.0, 430957.0 ], [ 434883.0, 430957.25 ], [ 434884.0, 430957.25 ], [ 434884.0, 430957.5 ], [ 434885.0, 430957.5 ], [ 434885.0, 430957.75 ], [ 434886.0, 430957.75 ], [ 434886.0, 430958.0 ], [ 434887.5, 430958.0 ], [ 434887.5, 430958.25 ], [ 434889.0, 430958.25 ], [ 434889.0, 430958.5 ], [ 434892.0, 430958.5 ], [ 434892.0, 430958.75 ], [ 434894.25, 430958.75 ], [ 434894.25, 430959.0 ], [ 434896.0, 430959.0 ], [ 434896.0, 430959.25 ], [ 434899.75, 430959.25 ], [ 434899.75, 430959.5 ], [ 434902.0, 430959.5 ], [ 434902.0, 430959.75 ], [ 434903.25, 430959.75 ], [ 434903.25, 430960.0 ], [ 434904.25, 430960.0 ], [ 434904.25, 430960.25 ], [ 434905.25, 430960.25 ], [ 434905.25, 430960.5 ], [ 434906.0, 430960.5 ], [ 434906.0, 430960.75 ], [ 434907.0, 430960.75 ], [ 434907.0, 430961.0 ], [ 434908.25, 430961.0 ], [ 434908.25, 430961.25 ], [ 434909.0, 430961.25 ], [ 434909.0, 430961.5 ], [ 434909.75, 430961.5 ], [ 434909.75, 430961.75 ], [ 434911.0, 430961.75 ], [ 434911.0, 430962.0 ], [ 434912.75, 430962.0 ], [ 434912.75, 430962.25 ], [ 434914.25, 430962.25 ], [ 434914.25, 430962.5 ], [ 434917.25, 430962.5 ], [ 434917.25, 430962.75 ], [ 434919.75, 430962.75 ], [ 434919.75, 430963.0 ], [ 434921.25, 430963.0 ], [ 434921.25, 430963.25 ], [ 434923.0, 430963.25 ], [ 434923.0, 430963.5 ], [ 434924.0, 430963.5 ], [ 434924.0, 430963.75 ], [ 434924.75, 430963.75 ], [ 434924.75, 430964.0 ], [ 434926.0, 430964.0 ], [ 434926.0, 430964.25 ], [ 434927.0, 430964.25 ], [ 434927.0, 430964.5 ], [ 434927.75, 430964.5 ], [ 434927.75, 430964.75 ], [ 434929.0, 430964.75 ], [ 434929.0, 430965.0 ], [ 434930.0, 430965.0 ], [ 434930.0, 430965.25 ], [ 434931.25, 430965.25 ], [ 434931.25, 430965.5 ], [ 434932.25, 430965.5 ], [ 434932.25, 430965.75 ], [ 434933.5, 430965.75 ], [ 434933.5, 430966.0 ], [ 434938.0, 430966.0 ], [ 434938.0, 430966.25 ], [ 434943.25, 430966.25 ], [ 434943.25, 430966.0 ], [ 434944.25, 430966.0 ] ] ] } },
{ "type": "Feature", "properties": { }, "geometry": { "type": "Polygon", "coordinates": [ [ [ 434914.75, 430868.5 ], [ 434914.75, 430868.25 ], [ 434912.25, 430868.25 ], [ 434912.25, 430868.5 ], [ 434912.5, 430868.5 ], [ 434912.5, 430868.75 ], [ 434914.5, 430868.75 ], [ 434914.5, 430868.5 ], [ 434914.75, 430868.5 ] ] ] } },
{ "type": "Feature", "properties": { }, "geometry": { "type": "Polygon", "coordinates": [ [ [ 434973.0, 430923.5 ], [ 434973.0, 430923.25 ], [ 434974.0, 430923.25 ], [ 434974.0, 430923.0 ], [ 434974.75, 430923.0 ], [ 434974.75, 430922.75 ], [ 434976.0, 430922.75 ], [ 434976.0, 430922.5 ], [ 434976.75, 430922.5 ], [ 434976.75, 430922.25 ], [ 434977.25, 430922.25 ], [ 434977.25, 430922.0 ], [ 434977.75, 430922.0 ], [ 434977.75, 430921.75 ], [ 434978.25, 430921.75 ], [ 434978.25, 430921.5 ], [ 434978.75, 430921.5 ], [ 434978.75, 430921.25 ], [ 434979.0, 430921.25 ], [ 434979.0, 430921.0 ], [ 434979.5, 430921.0 ], [ 434979.5, 430920.75 ], [ 434979.75, 430920.75 ], [ 434979.75, 430920.5 ], [ 434980.0, 430920.5 ], [ 434980.0, 430920.25 ], [ 434980.25, 430920.25 ], [ 434980.25, 430920.0 ], [ 434980.75, 430920.0 ], [ 434980.75, 430919.75 ], [ 434981.0, 430919.75 ], [ 434981.0, 430919.5 ], [ 434981.25, 430919.5 ], [ 434981.25, 430919.25 ], [ 434981.5, 430919.25 ], [ 434981.5, 430919.0 ], [ 434981.75, 430919.0 ], [ 434981.75, 430918.75 ], [ 434982.0, 430918.75 ], [ 434982.0, 430918.5 ], [ 434982.25, 430918.5 ], [ 434982.25, 430918.25 ], [ 434982.5, 430918.25 ], [ 434982.5, 430917.75 ], [ 434982.75, 430917.75 ], [ 434982.75, 430917.5 ], [ 434983.0, 430917.5 ], [ 434983.0, 430917.0 ], [ 434983.25, 430917.0 ], [ 434983.25, 430916.75 ], [ 434983.5, 430916.75 ], [ 434983.5, 430916.0 ], [ 434983.75, 430916.0 ], [ 434983.75, 430915.5 ], [ 434984.0, 430915.5 ], [ 434984.0, 430915.0 ], [ 434984.25, 430915.0 ], [ 434984.25, 430914.75 ], [ 434984.5, 430914.75 ], [ 434984.5, 430914.0 ], [ 434984.75, 430914.0 ], [ 434984.75, 430913.75 ], [ 434985.0, 430913.75 ], [ 434985.0, 430913.5 ], [ 434985.25, 430913.5 ], [ 434985.25, 430913.0 ], [ 434985.5, 430913.0 ], [ 434985.5, 430912.75 ], [ 434985.75, 430912.75 ], [ 434985.75, 430912.25 ], [ 434986.0, 430912.25 ], [ 434986.0, 430912.0 ], [ 434986.25, 430912.0 ], [ 434986.25, 430911.75 ], [ 434986.5, 430911.75 ], [ 434986.5, 430911.5 ], [ 434986.75, 430911.5 ], [ 434986.75, 430911.25 ], [ 434987.0, 430911.25 ], [ 434987.0, 430911.0 ], [ 434987.25, 430911.0 ], [ 434987.25, 430910.75 ], [ 434987.5, 430910.75 ], [ 434987.5, 430910.25 ], [ 434987.75, 430910.25 ], [ 434987.75, 430910.0 ], [ 434988.0, 430910.0 ], [ 434988.0, 430909.75 ], [ 434988.25, 430909.75 ], [ 434988.25, 430909.25 ], [ 434988.5, 430909.25 ], [ 434988.5, 430908.75 ], [ 434988.75, 430908.75 ], [ 434988.75, 430908.0 ], [ 434989.0, 430908.0 ], [ 434989.0, 430907.5 ], [ 434989.25, 430907.5 ], [ 434989.25, 430906.5 ], [ 434989.5, 430906.5 ], [ 434989.5, 430905.5 ], [ 434989.75, 430905.5 ], [ 434989.75, 430903.75 ], [ 434990.0, 430903.75 ], [ 434990.0, 430901.75 ], [ 434989.75, 430901.75 ], [ 434989.75, 430901.0 ], [ 434989.5, 430901.0 ], [ 434989.5, 430899.25 ], [ 434989.25, 430899.25 ], [ 434989.25, 430897.0 ], [ 434989.0, 430897.0 ], [ 434989.0, 430895.5 ], [ 434988.75, 430895.5 ], [ 434988.75, 430894.75 ], [ 434988.5, 430894.75 ], [ 434988.5, 430893.75 ], [ 434988.25, 430893.75 ], [ 434988.25, 430892.5 ], [ 434988.0, 430892.5 ], [ 434988.0, 430891.75 ], [ 434987.75, 430891.75 ], [ 434987.75, 430891.0 ], [ 434987.5, 430891.0 ], [ 434987.5, 430890.0 ], [ 434987.25, 430890.0 ], [ 434987.25, 430889.25 ], [ 434987.0, 430889.25 ], [ 434987.0, 430889.0 ], [ 434986.5, 430889.0 ], [ 434986.5, 430888.5 ], [ 434986.25, 430888.5 ], [ 434986.25, 430888.25 ], [ 434986.0, 430888.25 ], [ 434986.0, 430888.0 ], [ 434985.75, 430888.0 ], [ 434985.75, 430887.5 ], [ 434985.5, 430887.5 ], [ 434985.5, 430887.25 ], [ 434985.25, 430887.25 ], [ 434985.25, 430886.75 ], [ 434985.0, 430886.75 ], [ 434985.0, 430886.25 ], [ 434984.75, 430886.25 ], [ 434984.75, 430885.5 ], [ 434984.5, 430885.5 ], [ 434984.5, 430884.0 ], [ 434984.25, 430884.0 ], [ 434984.25, 430882.5 ], [ 434984.0, 430882.5 ], [ 434984.0, 430881.25 ], [ 434983.75, 430881.25 ], [ 434983.75, 430880.0 ], [ 434983.5, 430880.0 ], [ 434983.5, 430879.25 ], [ 434983.25, 430879.25 ], [ 434983.25, 430878.75 ], [ 434983.0, 430878.75 ], [ 434983.0, 430878.25 ], [ 434982.75, 430878.25 ], [ 434982.75, 430878.0 ], [ 434982.5, 430878.0 ], [ 434982.5, 430877.75 ], [ 434982.25, 430877.75 ], [ 434982.25, 430877.25 ], [ 434982.0, 430877.25 ], [ 434982.0, 430877.0 ], [ 434981.75, 430877.0 ], [ 434981.75, 430876.5 ], [ 434981.5, 430876.5 ], [ 434981.5, 430876.0 ], [ 434981.25, 430876.0 ], [ 434981.25, 430875.75 ], [ 434981.0, 430875.75 ], [ 434981.0, 430875.25 ], [ 434980.75, 430875.25 ], [ 434980.75, 430874.75 ], [ 434980.5, 430874.75 ], [ 434980.5, 430874.25 ], [ 434980.25, 430874.25 ], [ 434980.25, 430874.0 ], [ 434980.0, 430874.0 ], [ 434980.0, 430873.25 ], [ 434979.75, 430873.25 ], [ 434979.75, 430872.0 ], [ 434976.0, 430872.0 ], [ 434976.0, 430870.5 ], [ 434975.75, 430870.5 ], [ 434975.75, 430870.0 ], [ 434975.5, 430870.0 ], [ 434975.5, 430869.75 ], [ 434975.25, 430869.75 ], [ 434975.25, 430869.5 ], [ 434975.0, 430869.5 ], [ 434975.0, 430869.25 ], [ 434974.75, 430869.25 ], [ 434974.75, 430868.75 ], [ 434974.5, 430868.75 ], [ 434974.5, 430868.5 ], [ 434974.0, 430868.5 ], [ 434974.0, 430868.25 ], [ 434973.5, 430868.25 ], [ 434973.5, 430868.0 ], [ 434972.5, 430868.0 ], [ 434972.5, 430867.75 ], [ 434971.5, 430867.75 ], [ 434971.5, 430867.5 ], [ 434970.25, 430867.5 ], [ 434970.25, 430867.25 ], [ 434968.5, 430867.25 ], [ 434968.5, 430867.0 ], [ 434966.75, 430867.0 ], [ 434966.75, 430866.75 ], [ 434965.25, 430866.75 ], [ 434965.25, 430866.5 ], [ 434963.75, 430866.5 ], [ 434963.75, 430866.25 ], [ 434962.0, 430866.25 ], [ 434962.0, 430866.0 ], [ 434961.0, 430866.0 ], [ 434961.0, 430865.75 ], [ 434959.75, 430865.75 ], [ 434959.75, 430865.5 ], [ 434958.5, 430865.5 ], [ 434958.5, 430865.25 ], [ 434957.25, 430865.25 ], [ 434957.25, 430865.0 ], [ 434956.25, 430865.0 ], [ 434956.25, 430864.75 ], [ 434955.0, 430864.75 ], [ 434955.0, 430864.5 ], [ 434953.5, 430864.5 ], [ 434953.5, 430864.25 ], [ 434950.75, 430864.25 ], [ 434950.75, 430864.0 ], [ 434949.25, 430864.0 ], [ 434949.25, 430863.75 ], [ 434948.0, 430863.75 ], [ 434948.0, 430863.5 ], [ 434946.25, 430863.5 ], [ 434946.25, 430863.25 ], [ 434944.5, 430863.25 ], [ 434944.5, 430863.0 ], [ 434943.25, 430863.0 ], [ 434943.25, 430862.75 ], [ 434942.0, 430862.75 ], [ 434942.0, 430862.5 ], [ 434941.0, 430862.5 ], [ 434941.0, 430862.25 ], [ 434939.5, 430862.25 ], [ 434939.5, 430862.0 ], [ 434938.5, 430862.0 ], [ 434938.5, 430861.75 ], [ 434937.5, 430861.75 ], [ 434937.5, 430861.5 ], [ 434936.5, 430861.5 ], [ 434936.5, 430861.25 ], [ 434934.75, 430861.25 ], [ 434934.75, 430861.0 ], [ 434933.0, 430861.0 ], [ 434933.0, 430860.75 ], [ 434931.25, 430860.75 ], [ 434931.25, 430860.5 ], [ 434928.75, 430860.5 ], [ 434928.75, 430860.25 ], [ 434925.25, 430860.25 ], [ 434925.25, 430860.0 ], [ 434924.0, 430860.0 ], [ 434924.0, 430859.75 ], [ 434922.75, 430859.75 ], [ 434922.75, 430859.5 ], [ 434921.0, 430859.5 ], [ 434921.0, 430859.25 ], [ 434918.5, 430859.25 ], [ 434918.5, 430859.0 ], [ 434917.0, 430859.0 ], [ 434917.0, 430858.75 ], [ 434916.0, 430858.75 ], [ 434916.0, 430858.5 ], [ 434915.0, 430858.5 ], [ 434915.0, 430858.25 ], [ 434913.75, 430858.25 ], [ 434913.75, 430858.0 ], [ 434912.5, 430858.0 ], [ 434912.5, 430857.75 ], [ 434911.75, 430857.75 ], [ 434911.75, 430857.5 ], [ 434910.25, 430857.5 ], [ 434910.25, 430857.25 ], [ 434907.25, 430857.25 ], [ 434907.25, 430857.0 ], [ 434905.0, 430857.0 ], [ 434905.0, 430856.75 ], [ 434902.5, 430856.75 ], [ 434902.5, 430856.5 ], [ 434899.75, 430856.5 ], [ 434899.75, 430856.25 ], [ 434896.0, 430856.25 ], [ 434896.0, 430854.75 ], [ 434893.5, 430854.75 ], [ 434893.5, 430854.5 ], [ 434891.75, 430854.5 ], [ 434891.75, 430854.25 ], [ 434890.0, 430854.25 ], [ 434890.0, 430854.0 ], [ 434888.75, 430854.0 ], [ 434888.75, 430853.75 ], [ 434887.75, 430853.75 ], [ 434887.75, 430853.5 ], [ 434886.75, 430853.5 ], [ 434886.75, 430853.25 ], [ 434885.25, 430853.25 ], [ 434885.25, 430853.0 ], [ 434883.75, 430853.0 ], [ 434883.75, 430852.75 ], [ 434882.5, 430852.75 ], [ 434882.5, 430852.5 ], [ 434881.0, 430852.5 ], [ 434881.0, 430852.25 ], [ 434879.0, 430852.25 ], [ 434879.0, 430852.0 ], [ 434876.75, 430852.0 ], [ 434876.75, 430851.75 ], [ 434874.75, 430851.75 ], [ 434874.75, 430851.5 ], [ 434872.75, 430851.5 ], [ 434872.75, 430851.25 ], [ 434870.25, 430851.25 ], [ 434870.25, 430851.0 ], [ 434866.5, 430851.0 ], [ 434866.5, 430850.75 ], [ 434862.5, 430850.75 ], [ 434862.5, 430851.0 ], [ 434859.25, 430851.0 ], [ 434859.25, 430851.25 ], [ 434855.75, 430851.25 ], [ 434855.75, 430851.5 ], [ 434844.0, 430851.5 ], [ 434844.0, 430851.75 ], [ 434839.25, 430851.75 ], [ 434839.25, 430852.0 ], [ 434833.0, 430852.0 ], [ 434833.0, 430852.25 ], [ 434828.25, 430852.25 ], [ 434828.25, 430852.5 ], [ 434825.0, 430852.5 ], [ 434825.0, 430852.75 ], [ 434822.25, 430852.75 ], [ 434822.25, 430853.0 ], [ 434820.0, 430853.0 ], [ 434820.0, 430853.25 ], [ 434817.75, 430853.25 ], [ 434817.75, 430853.5 ], [ 434816.0, 430853.5 ], [ 434816.0, 430853.75 ], [ 434813.25, 430853.75 ], [ 434813.25, 430854.0 ], [ 434802.25, 430854.0 ], [ 434802.25, 430854.25 ], [ 434801.25, 430854.25 ], [ 434801.25, 430854.5 ], [ 434800.5, 430854.5 ], [ 434800.5, 430854.75 ], [ 434799.25, 430854.75 ], [ 434799.25, 430855.0 ], [ 434797.5, 430855.0 ], [ 434797.5, 430855.25 ], [ 434795.5, 430855.25 ], [ 434795.5, 430855.5 ], [ 434792.25, 430855.5 ], [ 434792.25, 430855.75 ], [ 434786.25, 430855.75 ], [ 434786.25, 430856.0 ], [ 434780.25, 430856.0 ], [ 434780.25, 430856.25 ], [ 434772.0, 430856.25 ], [ 434772.0, 430856.5 ], [ 434766.5, 430856.5 ], [ 434766.5, 430856.75 ], [ 434762.75, 430856.75 ], [ 434762.75, 430857.0 ], [ 434761.25, 430857.0 ], [ 434761.25, 430857.25 ], [ 434760.0, 430857.25 ], [ 434760.0, 430857.5 ], [ 434758.75, 430857.5 ], [ 434758.75, 430857.75 ], [ 434758.25, 430857.75 ], [ 434758.25, 430858.0 ], [ 434758.0, 430858.0 ], [ 434758.0, 430858.25 ], [ 434757.75, 430858.25 ], [ 434757.75, 430858.5 ], [ 434757.5, 430858.5 ], [ 434757.5, 430858.75 ], [ 434757.25, 430858.75 ], [ 434757.25, 430859.5 ], [ 434757.0, 430859.5 ], [ 434757.0, 430860.75 ], [ 434756.75, 430860.75 ], [ 434756.75, 430861.75 ], [ 434756.5, 430861.75 ], [ 434756.5, 430862.25 ], [ 434756.25, 430862.25 ], [ 434756.25, 430867.503502949955873 ], [ 434762.896163680241443, 430906.648840447363909 ], [ 434764.198485571483616, 430912.704651662381366 ], [ 434765.445314683543984, 430918.5 ], [ 434766.25, 430918.5 ], [ 434766.25, 430918.25 ], [ 434767.0, 430918.25 ], [ 434767.0, 430918.0 ], [ 434768.0, 430918.0 ], [ 434768.0, 430910.0 ], [ 434769.5, 430910.0 ], [ 434769.5, 430910.25 ], [ 434770.25, 430910.25 ], [ 434770.25, 430910.5 ], [ 434771.75, 430910.5 ], [ 434771.75, 430910.75 ], [ 434773.25, 430910.75 ], [ 434773.25, 430911.0 ], [ 434777.25, 430911.0 ], [ 434777.25, 430910.75 ], [ 434777.75, 430910.75 ], [ 434777.75, 430911.0 ], [ 434785.75, 430911.0 ], [ 434785.75, 430910.75 ], [ 434790.5, 430910.75 ], [ 434790.5, 430910.5 ], [ 434792.25, 430910.5 ], [ 434792.25, 430910.25 ], [ 434795.0, 430910.25 ], [ 434795.0, 430910.0 ], [ 434799.0, 430910.0 ], [ 434799.0, 430910.25 ], [ 434802.5, 430910.25 ], [ 434802.5, 430910.0 ], [ 434804.25, 430910.0 ], [ 434804.25, 430909.75 ], [ 434806.0, 430909.75 ], [ 434806.0, 430909.5 ], [ 434806.75, 430909.5 ], [ 434806.75, 430909.25 ], [ 434807.5, 430909.25 ], [ 434807.5, 430909.0 ], [ 434808.25, 430909.0 ], [ 434808.25, 430908.75 ], [ 434809.5, 430908.75 ], [ 434809.5, 430908.5 ], [ 434811.0, 430908.5 ], [ 434811.0, 430908.25 ], [ 434812.75, 430908.25 ], [ 434812.75, 430908.0 ], [ 434814.75, 430908.0 ], [ 434814.75, 430907.75 ], [ 434819.75, 430907.75 ], [ 434819.75, 430907.5 ], [ 434827.25, 430907.5 ], [ 434827.25, 430907.25 ], [ 434843.25, 430907.25 ], [ 434843.25, 430907.0 ], [ 434853.75, 430907.0 ], [ 434853.75, 430907.25 ], [ 434854.75, 430907.25 ], [ 434854.75, 430907.0 ], [ 434859.5, 430907.0 ], [ 434859.5, 430907.25 ], [ 434863.5, 430907.25 ], [ 434863.5, 430907.5 ], [ 434871.75, 430907.5 ], [ 434871.75, 430907.75 ], [ 434873.25, 430907.75 ], [ 434873.25, 430908.0 ], [ 434874.25, 430908.0 ], [ 434874.25, 430908.25 ], [ 434875.0, 430908.25 ], [ 434875.0, 430908.5 ], [ 434875.75, 430908.5 ], [ 434875.75, 430908.75 ], [ 434876.5, 430908.75 ], [ 434876.5, 430909.0 ], [ 434877.25, 430909.0 ], [ 434877.25, 430909.25 ], [ 434878.0, 430909.25 ], [ 434878.0, 430909.5 ], [ 434878.5, 430909.5 ], [ 434878.5, 430909.75 ], [ 434879.25, 430909.75 ], [ 434879.25, 430910.0 ], [ 434880.0, 430910.0 ], [ 434880.0, 430910.25 ], [ 434880.75, 430910.25 ], [ 434880.75, 430910.5 ], [ 434881.25, 430910.5 ], [ 434881.25, 430910.75 ], [ 434882.0, 430910.75 ], [ 434882.0, 430911.0 ], [ 434883.0, 430911.0 ], [ 434883.0, 430911.25 ], [ 434885.25, 430911.25 ], [ 434885.25, 430911.5 ], [ 434887.25, 430911.5 ], [ 434887.25, 430911.75 ], [ 434889.25, 430911.75 ], [ 434889.25, 430912.0 ], [ 434890.75, 430912.0 ], [ 434890.75, 430912.25 ], [ 434892.25, 430912.25 ], [ 434892.25, 430912.5 ], [ 434894.5, 430912.5 ], [ 434894.5, 430912.75 ], [ 434896.0, 430912.75 ], [ 434896.0, 430912.25 ], [ 434897.25, 430912.25 ], [ 434897.25, 430912.5 ], [ 434900.5, 430912.5 ], [ 434900.5, 430912.75 ], [ 434901.75, 430912.75 ], [ 434901.75, 430913.0 ], [ 434903.0, 430913.0 ], [ 434903.0, 430913.25 ], [ 434904.5, 430913.25 ], [ 434904.5, 430913.5 ], [ 434905.75, 430913.5 ], [ 434905.75, 430913.75 ], [ 434907.0, 430913.75 ], [ 434907.0, 430914.0 ], [ 434909.75, 430914.0 ], [ 434909.75, 430914.25 ], [ 434914.25, 430914.25 ], [ 434914.25, 430914.5 ], [ 434920.5, 430914.5 ], [ 434920.5, 430914.75 ], [ 434921.25, 430914.75 ], [ 434921.25, 430915.0 ], [ 434922.5, 430915.0 ], [ 434922.5, 430915.25 ], [ 434923.0, 430915.25 ], [ 434923.0, 430915.5 ], [ 434924.0, 430915.5 ], [ 434924.0, 430915.75 ], [ 434924.75, 430915.75 ], [ 434924.75, 430916.0 ], [ 434925.5, 430916.0 ], [ 434925.5, 430916.25 ], [ 434926.25, 430916.25 ], [ 434926.25, 430916.5 ], [ 434927.25, 430916.5 ], [ 434927.25, 430916.75 ], [ 434929.5, 430916.75 ], [ 434929.5, 430917.0 ], [ 434930.0, 430917.0 ], [ 434930.0, 430917.25 ], [ 434930.5, 430917.25 ], [ 434930.5, 430917.5 ], [ 434931.0, 430917.5 ], [ 434931.0, 430917.75 ], [ 434931.5, 430917.75 ], [ 434931.5, 430918.0 ], [ 434932.25, 430918.0 ], [ 434932.25, 430918.25 ], [ 434933.0, 430918.25 ], [ 434933.0, 430918.5 ], [ 434934.75, 430918.5 ], [ 434934.75, 430918.75 ], [ 434936.25, 430918.75 ], [ 434936.25, 430919.0 ], [ 434937.75, 430919.0 ], [ 434937.75, 430919.25 ], [ 434941.25, 430919.25 ], [ 434941.25, 430919.5 ], [ 434943.0, 430919.5 ], [ 434943.0, 430919.75 ], [ 434944.5, 430919.75 ], [ 434944.5, 430920.0 ], [ 434946.0, 430920.0 ], [ 434946.0, 430920.25 ], [ 434947.25, 430920.25 ], [ 434947.25, 430920.5 ], [ 434948.25, 430920.5 ], [ 434948.25, 430920.75 ], [ 434949.0, 430920.75 ], [ 434949.0, 430921.0 ], [ 434950.0, 430921.0 ], [ 434950.0, 430921.25 ], [ 434951.25, 430921.25 ], [ 434951.25, 430921.5 ], [ 434952.5, 430921.5 ], [ 434952.5, 430921.75 ], [ 434953.25, 430921.75 ], [ 434953.25, 430922.0 ], [ 434954.75, 430922.0 ], [ 434954.75, 430922.25 ], [ 434957.0, 430922.25 ], [ 434957.0, 430922.5 ], [ 434959.0, 430922.5 ], [ 434959.0, 430922.75 ], [ 434961.5, 430922.75 ], [ 434961.5, 430923.0 ], [ 434963.75, 430923.0 ], [ 434963.75, 430923.25 ], [ 434966.0, 430923.25 ], [ 434966.0, 430923.5 ], [ 434968.0, 430923.5 ], [ 434968.0, 430923.75 ], [ 434972.0, 430923.75 ], [ 434972.0, 430923.5 ], [ 434973.0, 430923.5 ] ], [ [ 434907.0, 430871.25 ], [ 434907.25, 430871.25 ], [ 434907.25, 430871.0 ], [ 434907.5, 430871.0 ], [ 434907.5, 430870.75 ], [ 434908.0, 430870.75 ], [ 434908.0, 430870.5 ], [ 434908.25, 430870.5 ], [ 434908.25, 430870.25 ], [ 434908.0, 430870.25 ], [ 434908.0, 430869.75 ], [ 434907.75, 430869.75 ], [ 434907.75, 430869.5 ], [ 434907.5, 430869.5 ], [ 434907.5, 430869.25 ], [ 434907.0, 430869.25 ], [ 434907.0, 430869.0 ], [ 434906.5, 430869.0 ], [ 434906.5, 430868.75 ], [ 434906.0, 430868.75 ], [ 434906.0, 430868.5 ], [ 434904.75, 430868.5 ], [ 434904.75, 430868.25 ], [ 434903.0, 430868.25 ], [ 434903.0, 430868.5 ], [ 434898.75, 430868.5 ], [ 434898.75, 430868.25 ], [ 434897.25, 430868.25 ], [ 434897.25, 430868.0 ], [ 434897.0, 430868.0 ], [ 434897.0, 430867.75 ], [ 434896.75, 430867.75 ], [ 434896.75, 430867.5 ], [ 434896.0, 430867.5 ], [ 434896.0, 430865.75 ], [ 434896.5, 430865.75 ], [ 434896.5, 430865.5 ], [ 434897.25, 430865.5 ], [ 434897.25, 430865.25 ], [ 434898.75, 430865.25 ], [ 434898.75, 430865.0 ], [ 434900.75, 430865.0 ], [ 434900.75, 430864.75 ], [ 434903.75, 430864.75 ], [ 434903.75, 430865.0 ], [ 434906.0, 430865.0 ], [ 434906.0, 430865.25 ], [ 434908.0, 430865.25 ], [ 434908.0, 430865.5 ], [ 434910.25, 430865.5 ], [ 434910.25, 430865.75 ], [ 434911.25, 430865.75 ], [ 434911.25, 430866.0 ], [ 434912.0, 430866.0 ], [ 434912.0, 430866.25 ], [ 434912.5, 430866.25 ], [ 434912.5, 430866.5 ], [ 434913.0, 430866.5 ], [ 434913.0, 430866.75 ], [ 434913.5, 430866.75 ], [ 434913.5, 430867.0 ], [ 434914.5, 430867.0 ], [ 434914.5, 430867.25 ], [ 434915.25, 430867.25 ], [ 434915.25, 430867.5 ], [ 434915.5, 430867.5 ], [ 434915.5, 430867.75 ], [ 434915.75, 430867.75 ], [ 434915.75, 430868.0 ], [ 434916.5, 430868.0 ], [ 434916.5, 430868.25 ], [ 434917.5, 430868.25 ], [ 434917.5, 430868.5 ], [ 434918.0, 430868.5 ], [ 434918.0, 430868.75 ], [ 434918.25, 430868.75 ], [ 434918.25, 430869.0 ], [ 434918.5, 430869.0 ], [ 434918.5, 430869.25 ], [ 434918.75, 430869.25 ], [ 434918.75, 430869.5 ], [ 434919.0, 430869.5 ], [ 434919.0, 430869.75 ], [ 434919.25, 430869.75 ], [ 434919.25, 430870.0 ], [ 434919.5, 430870.0 ], [ 434919.5, 430870.25 ], [ 434920.25, 430870.25 ], [ 434920.25, 430870.5 ], [ 434920.75, 430870.5 ], [ 434920.75, 430870.75 ], [ 434920.5, 430870.75 ], [ 434920.5, 430871.25 ], [ 434920.25, 430871.25 ], [ 434920.25, 430872.0 ], [ 434906.75, 430872.0 ], [ 434906.75, 430871.5 ], [ 434907.0, 430871.5 ], [ 434907.0, 430871.25 ] ] ] } },
{ "type": "Feature", "properties": { }, "geometry": { "type": "Polygon", "coordinates": [ [ [ 434646.25, 430609.0 ], [ 434646.25, 430606.5 ], [ 434646.0, 430606.5 ], [ 434646.0, 430606.0 ], [ 434645.75, 430606.0 ], [ 434645.75, 430605.0 ], [ 434645.5, 430605.0 ], [ 434645.5, 430604.25 ], [ 434645.25, 430604.25 ], [ 434645.25, 430604.0 ], [ 434645.0, 430604.0 ], [ 434645.0, 430603.5 ], [ 434644.75, 430603.5 ], [ 434644.75, 430602.75 ], [ 434644.5, 430602.75 ], [ 434644.5, 430601.0 ], [ 434644.25, 430601.0 ], [ 434644.25, 430600.5 ], [ 434644.0, 430600.5 ], [ 434644.0, 430600.25 ], [ 434643.75, 430600.25 ], [ 434643.75, 430599.25 ], [ 434643.5, 430599.25 ], [ 434643.5, 430597.5 ], [ 434643.25, 430597.5 ], [ 434643.25, 430596.75 ], [ 434643.0, 430596.75 ], [ 434643.0, 430595.25 ], [ 434642.75, 430595.25 ], [ 434642.75, 430594.75 ], [ 434642.5, 430594.75 ], [ 434642.5, 430594.5 ], [ 434642.25, 430594.5 ], [ 434642.25, 430593.25 ], [ 434642.0, 430593.25 ], [ 434642.0, 430592.75 ], [ 434641.75, 430592.75 ], [ 434641.75, 430592.5 ], [ 434641.5, 430592.5 ], [ 434641.5, 430592.25 ], [ 434640.5, 430592.25 ], [ 434640.5, 430592.0 ], [ 434640.0, 430592.0 ], [ 434640.0, 430616.0 ], [ 434646.5, 430616.0 ], [ 434646.5, 430609.0 ], [ 434646.25, 430609.0 ] ] ] } }
]
}
