{
"type": "FeatureCollection",
"name": "se3438_rgb_250_03_removal",
"crs": { "type": "name", "properties": { "name": "urn:ogc:def:crs:EPSG::27700" } },
"features": [
{ "type": "Feature", "properties": { }, "geometry": { "type": "Polygon", "coordinates": [ [ [ 434637.0, 438999.25 ], [ 434637.0, 438997.5 ], [ 434636.75, 438997.5 ], [ 434636.75, 438997.0 ], [ 434636.5, 438997.0 ], [ 434636.5, 438996.5 ], [ 434636.25, 438996.5 ], [ 434636.25, 438996.0 ], [ 434636.0, 438996.0 ], [ 434636.0, 438995.5 ], [ 434635.5, 438995.5 ], [ 434635.5, 438995.0 ], [ 434635.25, 438995.0 ], [ 434635.25, 438994.75 ], [ 434635.0, 438994.75 ], [ 434635.0, 438994.5 ], [ 434634.75, 438994.5 ], [ 434634.75, 438994.25 ], [ 434634.5, 438994.25 ], [ 434634.5, 438994.0 ], [ 434634.0, 438994.0 ], [ 434634.0, 438993.75 ], [ 434633.75, 438993.75 ], [ 434633.75, 438993.5 ], [ 434633.5, 438993.5 ], [ 434633.5, 438993.25 ], [ 434633.25, 438993.25 ], [ 434633.25, 438993.0 ], [ 434633.0, 438993.0 ], [ 434633.0, 438992.75 ], [ 434632.75, 438992.75 ], [ 434632.75, 438992.5 ], [ 434632.5, 438992.5 ], [ 434632.5, 438992.0 ], [ 434632.25, 438992.0 ], [ 434632.25, 438991.75 ], [ 434632.0, 438991.75 ], [ 434632.0, 438991.5 ], [ 434631.75, 438991.5 ], [ 434631.75, 438991.25 ], [ 434631.5, 438991.25 ], [ 434631.5, 438991.0 ], [ 434631.0, 438991.0 ], [ 434631.0, 438990.75 ], [ 434630.75, 438990.75 ], [ 434630.75, 438990.5 ], [ 434630.25, 438990.5 ], [ 434630.25, 438990.25 ], [ 434629.5, 438990.25 ], [ 434629.5, 438990.0 ], [ 434628.5, 438990.0 ], [ 434628.5, 438990.25 ], [ 434627.5, 438990.25 ], [ 434627.5, 438990.5 ], [ 434626.75, 438990.5 ], [ 434626.75, 438990.75 ], [ 434626.0, 438990.75 ], [ 434626.0, 438991.0 ], [ 434625.5, 438991.0 ], [ 434625.5, 438991.25 ], [ 434625.0, 438991.25 ], [ 434625.0, 438991.5 ], [ 434624.5, 438991.5 ], [ 434624.5, 438991.75 ], [ 434624.0, 438991.75 ], [ 434624.0, 438992.0 ], [ 434623.25, 438992.0 ], [ 434623.25, 438992.25 ], [ 434622.75, 438992.25 ], [ 434622.75, 438992.5 ], [ 434622.5, 438992.5 ], [ 434622.5, 438992.75 ], [ 434622.25, 438992.75 ], [ 434622.25, 438993.0 ], [ 434622.0, 438993.0 ], [ 434622.0, 438993.5 ], [ 434621.75, 438993.5 ], [ 434621.75, 438993.75 ], [ 434621.5, 438993.75 ], [ 434621.5, 438994.25 ], [ 434621.25, 438994.25 ], [ 434621.25, 438994.75 ], [ 434621.0, 438994.75 ], [ 434621.0, 438995.25 ], [ 434620.75, 438995.25 ], [ 434620.75, 438995.5 ], [ 434620.5, 438995.5 ], [ 434620.5, 438996.25 ], [ 434620.25, 438996.25 ], [ 434620.25, 438996.75 ], [ 434620.0, 438996.75 ], [ 434620.0, 438997.25 ], [ 434619.75, 438997.25 ], [ 434619.75, 438997.5 ], [ 434619.5, 438997.5 ], [ 434619.5, 438999.0 ], [ 434619.25, 438999.0 ], [ 434619.25, 439000.0 ], [ 434621.825164225127082, 439000.0 ], [ 434622.77026143076364, 438999.079320549732074 ], [ 434623.638800977903884, 438999.964738563168794 ], [ 434629.795561364677269, 438993.968530850368552 ], [ 434634.262272102350835, 438998.53006475919392 ], [ 434632.752976865274832, 439000.0 ], [ 434636.75, 439000.0 ], [ 434636.75, 438999.25 ], [ 434637.0, 438999.25 ] ] ] } },
{ "type": "Feature", "properties": { }, "geometry": { "type": "Polygon", "coordinates": [ [ [ 434685.75, 438602.75 ], [ 434685.75, 438602.5 ], [ 434688.25, 438602.5 ], [ 434688.25, 438602.25 ], [ 434689.0, 438602.25 ], [ 434689.0, 438602.0 ], [ 434690.75, 438602.0 ], [ 434690.75, 438601.75 ], [ 434692.25, 438601.75 ], [ 434692.25, 438601.5 ], [ 434693.25, 438601.5 ], [ 434693.25, 438601.25 ], [ 434693.75, 438601.25 ], [ 434693.75, 438601.0 ], [ 434694.0, 438601.0 ], [ 434694.0, 438600.75 ], [ 434694.5, 438600.75 ], [ 434694.5, 438600.5 ], [ 434695.0, 438600.5 ], [ 434695.0, 438600.25 ], [ 434695.25, 438600.25 ], [ 434695.25, 438600.0 ], [ 434695.75, 438600.0 ], [ 434695.75, 438599.75 ], [ 434696.25, 438599.75 ], [ 434696.25, 438599.5 ], [ 434696.75, 438599.5 ], [ 434696.75, 438599.25 ], [ 434697.0, 438599.25 ], [ 434697.0, 438599.0 ], [ 434697.5, 438599.0 ], [ 434697.5, 438598.75 ], [ 434698.0, 438598.75 ], [ 434698.0, 438598.5 ], [ 434698.25, 438598.5 ], [ 434698.25, 438598.25 ], [ 434698.5, 438598.25 ], [ 434698.5, 438598.0 ], [ 434698.75, 438598.0 ], [ 434698.75, 438597.75 ], [ 434699.25, 438597.75 ], [ 434699.25, 438597.5 ], [ 434699.5, 438597.5 ], [ 434699.5, 438597.25 ], [ 434699.25, 438597.25 ], [ 434699.25, 438597.0 ], [ 434699.0, 438597.0 ], [ 434699.0, 438596.75 ], [ 434698.5, 438596.75 ], [ 434698.5, 438596.25 ], [ 434698.75, 438596.25 ], [ 434698.75, 438595.75 ], [ 434699.0, 438595.75 ], [ 434699.0, 438595.25 ], [ 434698.75, 438595.25 ], [ 434698.75, 438594.75 ], [ 434698.5, 438594.75 ], [ 434698.5, 438594.5 ], [ 434698.25, 438594.5 ], [ 434698.25, 438594.25 ], [ 434698.0, 438594.25 ], [ 434698.0, 438594.0 ], [ 434697.75, 438594.0 ], [ 434697.75, 438593.75 ], [ 434697.25, 438593.75 ], [ 434697.25, 438593.25 ], [ 434697.5, 438593.25 ], [ 434697.5, 438593.0 ], [ 434698.5, 438593.0 ], [ 434698.5, 438592.75 ], [ 434699.0, 438592.75 ], [ 434699.0, 438592.5 ], [ 434699.25, 438592.5 ], [ 434699.25, 438592.0 ], [ 434699.5, 438592.0 ], [ 434699.5, 438591.5 ], [ 434699.75, 438591.5 ], [ 434699.75, 438591.25 ], [ 434700.0, 438591.25 ], [ 434700.0, 438590.5 ], [ 434700.25, 438590.5 ], [ 434700.25, 438590.0 ], [ 434700.5, 438590.0 ], [ 434700.5, 438589.75 ], [ 434700.75, 438589.75 ], [ 434700.75, 438588.75 ], [ 434701.0, 438588.75 ], [ 434701.0, 438588.5 ], [ 434700.75, 438588.5 ], [ 434700.75, 438588.25 ], [ 434699.25, 438588.25 ], [ 434699.25, 438588.5 ], [ 434698.75, 438588.5 ], [ 434698.75, 438588.75 ], [ 434698.25, 438588.75 ], [ 434698.25, 438589.0 ], [ 434698.0, 438589.0 ], [ 434698.0, 438589.5 ], [ 434697.75, 438589.5 ], [ 434697.75, 438589.75 ], [ 434696.0, 438589.75 ], [ 434696.0, 438589.5 ], [ 434695.75, 438589.5 ], [ 434695.75, 438589.25 ], [ 434695.0, 438589.25 ], [ 434695.0, 438589.0 ], [ 434694.5, 438589.0 ], [ 434694.5, 438589.5 ], [ 434694.25, 438589.5 ], [ 434694.25, 438589.75 ], [ 434693.75, 438589.75 ], [ 434693.75, 438590.0 ], [ 434692.25, 438590.0 ], [ 434692.25, 438589.75 ], [ 434692.0, 438589.75 ], [ 434692.0, 438589.5 ], [ 434691.75, 438589.5 ], [ 434691.75, 438589.25 ], [ 434691.5, 438589.25 ], [ 434691.5, 438589.0 ], [ 434690.5, 438589.0 ], [ 434690.5, 438588.75 ], [ 434690.0, 438588.75 ], [ 434690.0, 438588.5 ], [ 434689.5, 438588.5 ], [ 434689.5, 438588.25 ], [ 434689.0, 438588.25 ], [ 434689.0, 438588.5 ], [ 434688.25, 438588.5 ], [ 434688.25, 438588.25 ], [ 434686.25, 438588.25 ], [ 434686.25, 438588.5 ], [ 434685.5, 438588.5 ], [ 434685.5, 438588.75 ], [ 434685.0, 438588.75 ], [ 434685.0, 438589.0 ], [ 434684.5, 438589.0 ], [ 434684.5, 438589.25 ], [ 434684.25, 438589.25 ], [ 434684.25, 438589.5 ], [ 434684.0, 438589.5 ], [ 434684.0, 438589.75 ], [ 434683.75, 438589.75 ], [ 434683.75, 438590.0 ], [ 434683.5, 438590.0 ], [ 434683.5, 438590.25 ], [ 434683.25, 438590.25 ], [ 434683.25, 438590.5 ], [ 434683.0, 438590.5 ], [ 434683.0, 438591.25 ], [ 434682.75, 438591.25 ], [ 434682.75, 438591.75 ], [ 434682.5, 438591.75 ], [ 434682.5, 438592.75 ], [ 434682.25, 438592.75 ], [ 434682.25, 438593.5 ], [ 434682.0, 438593.5 ], [ 434682.0, 438593.75 ], [ 434681.75, 438593.75 ], [ 434681.75, 438594.0 ], [ 434681.5, 438594.0 ], [ 434681.5, 438594.25 ], [ 434681.25, 438594.25 ], [ 434681.25, 438594.75 ], [ 434681.0, 438594.75 ], [ 434681.0, 438595.0 ], [ 434680.75, 438595.0 ], [ 434680.75, 438595.25 ], [ 434680.25, 438595.25 ], [ 434680.25, 438595.5 ], [ 434680.0, 438595.5 ], [ 434680.0, 438595.75 ], [ 434679.75, 438595.75 ], [ 434679.75, 438596.0 ], [ 434679.25, 438596.0 ], [ 434679.25, 438596.25 ], [ 434678.75, 438596.25 ], [ 434678.75, 438596.5 ], [ 434678.0, 438596.5 ], [ 434678.0, 438596.75 ], [ 434677.5, 438596.75 ], [ 434677.5, 438597.0 ], [ 434676.75, 438597.0 ], [ 434676.75, 438597.25 ], [ 434676.25, 438597.25 ], [ 434676.25, 438597.5 ], [ 434676.0, 438597.5 ], [ 434676.0, 438597.75 ], [ 434675.5, 438597.75 ], [ 434675.5, 438598.0 ], [ 434675.25, 438598.0 ], [ 434675.25, 438597.75 ], [ 434674.75, 438597.75 ], [ 434674.75, 438597.5 ], [ 434674.5, 438597.5 ], [ 434674.5, 438597.75 ], [ 434674.25, 438597.75 ], [ 434674.25, 438598.5 ], [ 434674.0, 438598.5 ], [ 434674.0, 438599.0 ], [ 434673.75, 438599.0 ], [ 434673.75, 438600.75 ], [ 434674.0, 438600.75 ], [ 434674.0, 438601.0 ], [ 434674.25, 438601.0 ], [ 434674.25, 438601.5 ], [ 434674.5, 438601.5 ], [ 434674.5, 438601.75 ], [ 434675.0, 438601.75 ], [ 434675.0, 438602.0 ], [ 434675.75, 438602.0 ], [ 434675.75, 438602.25 ], [ 434677.0, 438602.25 ], [ 434677.0, 438602.5 ], [ 434680.25, 438602.5 ], [ 434680.25, 438602.75 ], [ 434682.75, 438602.75 ], [ 434682.75, 438603.0 ], [ 434684.5, 438603.0 ], [ 434684.5, 438602.75 ], [ 434685.75, 438602.75 ] ] ] } },
{ "type": "Feature", "properties": { }, "geometry": { "type": "Polygon", "coordinates": [ [ [ 434709.5, 438579.75 ], [ 434709.5, 438579.5 ], [ 434709.75, 438579.5 ], [ 434709.75, 438579.25 ], [ 434710.0, 438579.25 ], [ 434710.0, 438578.75 ], [ 434710.25, 438578.75 ], [ 434710.25, 438578.5 ], [ 434710.5, 438578.5 ], [ 434710.5, 438578.0 ], [ 434710.75, 438578.0 ], [ 434710.75, 438577.0 ], [ 434711.0, 438577.0 ], [ 434711.0, 438575.75 ], [ 434711.25, 438575.75 ], [ 434711.25, 438574.25 ], [ 434711.5, 438574.25 ], [ 434711.5, 438573.25 ], [ 434711.25, 438573.25 ], [ 434711.25, 438563.75 ], [ 434711.5, 438563.75 ], [ 434711.5, 438559.0 ], [ 434711.75, 438559.0 ], [ 434711.75, 438557.25 ], [ 434712.0, 438557.25 ], [ 434712.0, 438555.25 ], [ 434712.25, 438555.25 ], [ 434712.25, 438553.75 ], [ 434712.5, 438553.75 ], [ 434712.5, 438552.5 ], [ 434712.75, 438552.5 ], [ 434712.75, 438551.25 ], [ 434713.0, 438551.25 ], [ 434713.0, 438550.25 ], [ 434713.25, 438550.25 ], [ 434713.25, 438549.5 ], [ 434713.5, 438549.5 ], [ 434713.5, 438548.75 ], [ 434713.75, 438548.75 ], [ 434713.75, 438547.75 ], [ 434714.0, 438547.75 ], [ 434714.0, 438547.0 ], [ 434714.25, 438547.0 ], [ 434714.25, 438546.25 ], [ 434714.5, 438546.25 ], [ 434714.5, 438545.5 ], [ 434714.75, 438545.5 ], [ 434714.75, 438545.0 ], [ 434715.0, 438545.0 ], [ 434715.0, 438544.25 ], [ 434715.25, 438544.25 ], [ 434715.25, 438543.75 ], [ 434715.5, 438543.75 ], [ 434715.5, 438543.0 ], [ 434715.75, 438543.0 ], [ 434715.75, 438542.25 ], [ 434716.0, 438542.25 ], [ 434716.0, 438541.5 ], [ 434716.25, 438541.5 ], [ 434716.25, 438541.0 ], [ 434716.5, 438541.0 ], [ 434716.5, 438540.25 ], [ 434716.75, 438540.25 ], [ 434716.75, 438539.75 ], [ 434717.0, 438539.75 ], [ 434717.0, 438539.5 ], [ 434717.25, 438539.5 ], [ 434717.25, 438539.0 ], [ 434717.5, 438539.0 ], [ 434717.5, 438538.75 ], [ 434717.75, 438538.75 ], [ 434717.75, 438538.25 ], [ 434718.0, 438538.25 ], [ 434718.0, 438538.0 ], [ 434718.25, 438538.0 ], [ 434718.25, 438537.75 ], [ 434718.5, 438537.75 ], [ 434718.5, 438537.25 ], [ 434718.75, 438537.25 ], [ 434718.75, 438536.75 ], [ 434719.0, 438536.75 ], [ 434719.0, 438536.25 ], [ 434719.25, 438536.25 ], [ 434719.25, 438535.75 ], [ 434719.5, 438535.75 ], [ 434719.5, 438535.25 ], [ 434719.75, 438535.25 ], [ 434719.75, 438534.5 ], [ 434720.0, 438534.5 ], [ 434720.0, 438533.5 ], [ 434720.25, 438533.5 ], [ 434720.25, 438532.75 ], [ 434720.5, 438532.75 ], [ 434720.5, 438532.0 ], [ 434720.75, 438532.0 ], [ 434720.75, 438531.25 ], [ 434721.0, 438531.25 ], [ 434721.0, 438530.75 ], [ 434721.25, 438530.75 ], [ 434721.25, 438530.5 ], [ 434721.5, 438530.5 ], [ 434721.5, 438530.0 ], [ 434721.75, 438530.0 ], [ 434721.75, 438529.5 ], [ 434722.0, 438529.5 ], [ 434722.0, 438529.0 ], [ 434722.25, 438529.0 ], [ 434722.25, 438528.75 ], [ 434722.5, 438528.75 ], [ 434722.5, 438528.25 ], [ 434722.75, 438528.25 ], [ 434722.75, 438527.75 ], [ 434723.0, 438527.75 ], [ 434723.0, 438527.25 ], [ 434723.25, 438527.25 ], [ 434723.25, 438526.75 ], [ 434723.5, 438526.75 ], [ 434723.5, 438526.0 ], [ 434723.75, 438526.0 ], [ 434723.75, 438525.25 ], [ 434724.0, 438525.25 ], [ 434724.0, 438524.25 ], [ 434724.25, 438524.25 ], [ 434724.25, 438523.75 ], [ 434724.5, 438523.75 ], [ 434724.5, 438523.25 ], [ 434724.75, 438523.25 ], [ 434724.75, 438522.5 ], [ 434725.0, 438522.5 ], [ 434725.0, 438522.0 ], [ 434725.25, 438522.0 ], [ 434725.25, 438521.75 ], [ 434725.5, 438521.75 ], [ 434725.5, 438521.25 ], [ 434725.75, 438521.25 ], [ 434725.75, 438520.75 ], [ 434726.0, 438520.75 ], [ 434726.0, 438520.5 ], [ 434726.25, 438520.5 ], [ 434726.25, 438520.0 ], [ 434726.5, 438520.0 ], [ 434726.5, 438519.75 ], [ 434726.75, 438519.75 ], [ 434726.75, 438519.25 ], [ 434727.0, 438519.25 ], [ 434727.0, 438518.75 ], [ 434727.25, 438518.75 ], [ 434727.25, 438518.0 ], [ 434727.5, 438518.0 ], [ 434727.5, 438517.25 ], [ 434727.75, 438517.25 ], [ 434727.75, 438516.25 ], [ 434728.0, 438516.25 ], [ 434728.0, 438515.25 ], [ 434728.25, 438515.25 ], [ 434728.25, 438514.0 ], [ 434728.5, 438514.0 ], [ 434728.5, 438512.75 ], [ 434728.25, 438512.75 ], [ 434728.25, 438511.75 ], [ 434728.0, 438511.75 ], [ 434728.0, 438510.75 ], [ 434727.75, 438510.75 ], [ 434727.75, 438509.75 ], [ 434727.5, 438509.75 ], [ 434727.5, 438509.0 ], [ 434727.25, 438509.0 ], [ 434727.25, 438508.5 ], [ 434727.0, 438508.5 ], [ 434727.0, 438508.0 ], [ 434726.75, 438508.0 ], [ 434726.75, 438507.75 ], [ 434726.5, 438507.75 ], [ 434726.5, 438507.25 ], [ 434726.25, 438507.25 ], [ 434726.25, 438507.0 ], [ 434726.0, 438507.0 ], [ 434726.0, 438506.75 ], [ 434725.75, 438506.75 ], [ 434725.75, 438506.5 ], [ 434725.0, 438506.5 ], [ 434725.0, 438506.25 ], [ 434723.75, 438506.25 ], [ 434723.75, 438506.0 ], [ 434722.0, 438506.0 ], [ 434722.0, 438506.25 ], [ 434721.5, 438506.25 ], [ 434721.5, 438506.5 ], [ 434721.25, 438506.5 ], [ 434721.25, 438506.75 ], [ 434721.0, 438506.75 ], [ 434721.0, 438507.0 ], [ 434720.75, 438507.0 ], [ 434720.75, 438507.25 ], [ 434720.5, 438507.25 ], [ 434720.5, 438507.5 ], [ 434720.25, 438507.5 ], [ 434720.25, 438507.75 ], [ 434720.0, 438507.75 ], [ 434720.0, 438508.0 ], [ 434719.75, 438508.0 ], [ 434719.75, 438508.25 ], [ 434719.5, 438508.25 ], [ 434719.5, 438508.5 ], [ 434719.25, 438508.5 ], [ 434719.25, 438509.0 ], [ 434719.0, 438509.0 ], [ 434719.0, 438509.25 ], [ 434718.75, 438509.25 ], [ 434718.75, 438509.75 ], [ 434718.5, 438509.75 ], [ 434718.5, 438510.0 ], [ 434718.25, 438510.0 ], [ 434718.25, 438510.5 ], [ 434718.0, 438510.5 ], [ 434718.0, 438511.0 ], [ 434717.75, 438511.0 ], [ 434717.75, 438511.75 ], [ 434717.5, 438511.75 ], [ 434717.5, 438512.5 ], [ 434717.25, 438512.5 ], [ 434717.25, 438513.25 ], [ 434717.0, 438513.25 ], [ 434717.0, 438513.5 ], [ 434716.75, 438513.5 ], [ 434716.75, 438513.75 ], [ 434716.5, 438513.75 ], [ 434716.5, 438514.0 ], [ 434716.25, 438514.0 ], [ 434716.25, 438514.25 ], [ 434716.0, 438514.25 ], [ 434716.0, 438514.5 ], [ 434715.75, 438514.5 ], [ 434715.75, 438515.0 ], [ 434715.5, 438515.0 ], [ 434715.5, 438515.25 ], [ 434715.25, 438515.25 ], [ 434715.25, 438515.75 ], [ 434715.0, 438515.75 ], [ 434715.0, 438516.75 ], [ 434714.75, 438516.75 ], [ 434714.75, 438517.75 ], [ 434714.5, 438517.75 ], [ 434714.5, 438518.5 ], [ 434714.25, 438518.5 ], [ 434714.25, 438519.0 ], [ 434714.0, 438519.0 ], [ 434714.0, 438519.25 ], [ 434713.75, 438519.25 ], [ 434713.75, 438519.5 ], [ 434713.5, 438519.5 ], [ 434713.5, 438519.75 ], [ 434713.25, 438519.75 ], [ 434713.25, 438520.0 ], [ 434713.0, 438520.0 ], [ 434713.0, 438520.5 ], [ 434712.75, 438520.5 ], [ 434712.75, 438520.75 ], [ 434712.5, 438520.75 ], [ 434712.5, 438521.25 ], [ 434712.25, 438521.25 ], [ 434712.25, 438521.75 ], [ 434712.0, 438521.75 ], [ 434712.0, 438522.25 ], [ 434711.75, 438522.25 ], [ 434711.75, 438522.75 ], [ 434711.5, 438522.75 ], [ 434711.5, 438523.0 ], [ 434711.25, 438523.0 ], [ 434711.25, 438523.25 ], [ 434711.0, 438523.25 ], [ 434711.0, 438523.75 ], [ 434710.75, 438523.75 ], [ 434710.75, 438524.25 ], [ 434710.5, 438524.25 ], [ 434710.5, 438524.75 ], [ 434710.25, 438524.75 ], [ 434710.25, 438525.0 ], [ 434710.0, 438525.0 ], [ 434710.0, 438525.75 ], [ 434709.75, 438525.75 ], [ 434709.75, 438526.25 ], [ 434709.5, 438526.25 ], [ 434709.5, 438526.75 ], [ 434709.25, 438526.75 ], [ 434709.25, 438527.5 ], [ 434709.0, 438527.5 ], [ 434709.0, 438528.75 ], [ 434708.75, 438528.75 ], [ 434708.75, 438529.5 ], [ 434708.5, 438529.5 ], [ 434708.5, 438530.0 ], [ 434708.25, 438530.0 ], [ 434708.25, 438530.75 ], [ 434708.0, 438530.75 ], [ 434708.0, 438531.0 ], [ 434707.75, 438531.0 ], [ 434707.75, 438531.25 ], [ 434707.5, 438531.25 ], [ 434707.5, 438531.5 ], [ 434707.25, 438531.5 ], [ 434707.25, 438531.75 ], [ 434707.0, 438531.75 ], [ 434707.0, 438532.0 ], [ 434706.75, 438532.0 ], [ 434706.75, 438532.25 ], [ 434706.5, 438532.25 ], [ 434706.5, 438532.5 ], [ 434706.25, 438532.5 ], [ 434706.25, 438532.75 ], [ 434706.0, 438532.75 ], [ 434706.0, 438533.0 ], [ 434705.75, 438533.0 ], [ 434705.75, 438533.25 ], [ 434705.5, 438533.25 ], [ 434705.5, 438533.5 ], [ 434705.25, 438533.5 ], [ 434705.25, 438533.75 ], [ 434705.0, 438533.75 ], [ 434705.0, 438534.25 ], [ 434704.75, 438534.25 ], [ 434704.75, 438534.5 ], [ 434704.5, 438534.5 ], [ 434704.5, 438535.5 ], [ 434704.25, 438535.5 ], [ 434704.25, 438536.5 ], [ 434704.0, 438536.5 ], [ 434704.0, 438537.25 ], [ 434703.75, 438537.25 ], [ 434703.75, 438537.75 ], [ 434703.5, 438537.75 ], [ 434703.5, 438538.5 ], [ 434703.25, 438538.5 ], [ 434703.25, 438539.0 ], [ 434703.0, 438539.0 ], [ 434703.0, 438539.25 ], [ 434702.75, 438539.25 ], [ 434702.75, 438539.75 ], [ 434702.5, 438539.75 ], [ 434702.5, 438540.0 ], [ 434702.25, 438540.0 ], [ 434702.25, 438540.5 ], [ 434702.0, 438540.5 ], [ 434702.0, 438540.75 ], [ 434701.75, 438540.75 ], [ 434701.75, 438541.0 ], [ 434701.5, 438541.0 ], [ 434701.5, 438541.5 ], [ 434701.25, 438541.5 ], [ 434701.25, 438542.0 ], [ 434701.0, 438542.0 ], [ 434701.0, 438542.75 ], [ 434700.75, 438542.75 ], [ 434700.75, 438543.25 ], [ 434700.5, 438543.25 ], [ 434700.5, 438543.75 ], [ 434700.25, 438543.75 ], [ 434700.25, 438544.25 ], [ 434700.0, 438544.25 ], [ 434700.0, 438545.0 ], [ 434699.75, 438545.0 ], [ 434699.75, 438545.75 ], [ 434699.5, 438545.75 ], [ 434699.5, 438546.5 ], [ 434699.25, 438546.5 ], [ 434699.25, 438547.0 ], [ 434699.0, 438547.0 ], [ 434699.0, 438547.5 ], [ 434698.75, 438547.5 ], [ 434698.75, 438547.75 ], [ 434698.5, 438547.75 ], [ 434698.5, 438548.25 ], [ 434698.25, 438548.25 ], [ 434698.25, 438548.75 ], [ 434698.0, 438548.75 ], [ 434698.0, 438549.25 ], [ 434697.75, 438549.25 ], [ 434697.75, 438550.0 ], [ 434697.5, 438550.0 ], [ 434697.5, 438551.75 ], [ 434697.25, 438551.75 ], [ 434697.25, 438553.25 ], [ 434697.0, 438553.25 ], [ 434697.0, 438559.25 ], [ 434697.25, 438559.25 ], [ 434697.25, 438563.25 ], [ 434697.0, 438563.25 ], [ 434697.0, 438565.25 ], [ 434697.25, 438565.25 ], [ 434697.25, 438568.25 ], [ 434697.5, 438568.25 ], [ 434697.5, 438569.5 ], [ 434697.75, 438569.5 ], [ 434697.75, 438570.0 ], [ 434698.0, 438570.0 ], [ 434698.0, 438570.5 ], [ 434698.25, 438570.5 ], [ 434698.25, 438571.0 ], [ 434698.5, 438571.0 ], [ 434698.5, 438571.25 ], [ 434698.75, 438571.25 ], [ 434698.75, 438571.5 ], [ 434699.0, 438571.5 ], [ 434699.0, 438571.75 ], [ 434699.25, 438571.75 ], [ 434699.25, 438572.0 ], [ 434699.5, 438572.0 ], [ 434699.5, 438572.25 ], [ 434699.75, 438572.25 ], [ 434699.75, 438572.75 ], [ 434700.0, 438572.75 ], [ 434700.0, 438573.5 ], [ 434700.25, 438573.5 ], [ 434700.25, 438574.25 ], [ 434700.5, 438574.25 ], [ 434700.5, 438574.5 ], [ 434700.75, 438574.5 ], [ 434700.75, 438575.0 ], [ 434701.0, 438575.0 ], [ 434701.0, 438575.25 ], [ 434701.25, 438575.25 ], [ 434701.25, 438575.5 ], [ 434701.5, 438575.5 ], [ 434701.5, 438575.75 ], [ 434701.75, 438575.75 ], [ 434701.75, 438576.25 ], [ 434702.0, 438576.25 ], [ 434702.0, 438576.5 ], [ 434702.25, 438576.5 ], [ 434702.25, 438576.75 ], [ 434702.75, 438576.75 ], [ 434702.75, 438577.0 ], [ 434703.0, 438577.0 ], [ 434703.0, 438577.25 ], [ 434703.25, 438577.25 ], [ 434703.25, 438577.5 ], [ 434703.5, 438577.5 ], [ 434703.5, 438577.75 ], [ 434703.75, 438577.75 ], [ 434703.75, 438578.0 ], [ 434704.0, 438578.0 ], [ 434704.0, 438578.25 ], [ 434704.25, 438578.25 ], [ 434704.25, 438578.5 ], [ 434704.5, 438578.5 ], [ 434704.5, 438578.75 ], [ 434705.0, 438578.75 ], [ 434705.0, 438579.0 ], [ 434705.25, 438579.0 ], [ 434705.25, 438579.25 ], [ 434705.75, 438579.25 ], [ 434705.75, 438579.5 ], [ 434706.25, 438579.5 ], [ 434706.25, 438579.75 ], [ 434708.25, 438579.75 ], [ 434708.25, 438580.0 ], [ 434708.75, 438580.0 ], [ 434708.75, 438579.75 ], [ 434709.5, 438579.75 ] ] ] } },
{ "type": "Feature", "properties": { }, "geometry": { "type": "Polygon", "coordinates": [ [ [ 434496.75, 438577.5 ], [ 434497.0, 438577.5 ], [ 434497.0, 438578.0 ], [ 434496.75, 438578.0 ], [ 434496.75, 438582.0 ], [ 434497.0, 438582.0 ], [ 434497.0, 438583.25 ], [ 434497.25, 438583.25 ], [ 434497.25, 438584.5 ], [ 434497.5, 438584.5 ], [ 434497.5, 438586.0 ], [ 434497.25, 438586.0 ], [ 434497.25, 438588.0 ], [ 434497.5, 438588.0 ], [ 434497.5, 438588.063781761389691 ], [ 434520.527113231713884, 438588.65223983861506 ], [ 434540.443104719277471, 438588.954603385878727 ], [ 434554.038522908987943, 438589.159416386741214 ], [ 434558.258450192864984, 438587.711772787384689 ], [ 434560.558449986507185, 438585.125530669523869 ], [ 434562.471688979712781, 438580.484064816730097 ], [ 434562.529319729714189, 438572.673640253953636 ], [ 434562.522546477324795, 438552.209626915049739 ], [ 434562.514556206064299, 438539.460408280487172 ], [ 434561.657367800304201, 438534.180862601962872 ], [ 434558.526849217712879, 438529.631375651049893 ], [ 434554.664345084747765, 438525.716481871204451 ], [ 434549.513732529070694, 438522.005166138580535 ], [ 434549.505487031012308, 438521.999212028400507 ], [ 434546.275611366319936, 438519.661903172847815 ], [ 434537.448095084750094, 438514.166156404651701 ], [ 434526.43089884868823, 438509.542023245361634 ], [ 434505.230623530922458, 438508.014590021863114 ], [ 434504.558738576073665, 438507.920025675091892 ], [ 434501.379791737999767, 438507.25 ], [ 434500.5, 438507.25 ], [ 434500.5, 438507.064566558285151 ], [ 434500.193662998382933, 438507.0 ], [ 434499.75, 438507.0 ], [ 434499.75, 438506.90648928238079 ], [ 434499.735364824475255, 438506.903404630837031 ], [ 434498.934740473225247, 438506.75 ], [ 434497.0, 438506.75 ], [ 434497.0, 438507.0 ], [ 434496.5, 438507.0 ], [ 434496.5, 438507.25 ], [ 434496.25, 438507.25 ], [ 434496.25, 438507.5 ], [ 434496.0, 438507.5 ], [ 434496.0, 438507.75 ], [ 434495.75, 438507.75 ], [ 434495.75, 438508.5 ], [ 434495.5, 438508.5 ], [ 434495.5, 438509.25 ], [ 434495.25, 438509.25 ], [ 434495.25, 438510.0 ], [ 434495.0, 438510.0 ], [ 434495.0, 438511.0 ], [ 434494.75, 438511.0 ], [ 434494.75, 438512.25 ], [ 434494.5, 438512.25 ], [ 434494.5, 438512.75 ], [ 434494.0, 438512.75 ], [ 434494.0, 438513.0 ], [ 434493.5, 438513.0 ], [ 434493.5, 438512.75 ], [ 434493.25, 438512.75 ], [ 434493.25, 438512.0 ], [ 434493.0, 438512.0 ], [ 434493.0, 438511.25 ], [ 434492.75, 438511.25 ], [ 434492.75, 438510.5 ], [ 434492.5, 438510.5 ], [ 434492.5, 438510.25 ], [ 434492.25, 438510.25 ], [ 434492.25, 438509.75 ], [ 434491.75, 438509.75 ], [ 434491.75, 438509.25 ], [ 434491.5, 438509.25 ], [ 434491.5, 438508.5 ], [ 434491.25, 438508.5 ], [ 434491.25, 438508.25 ], [ 434491.0, 438508.25 ], [ 434491.0, 438508.0 ], [ 434490.75, 438508.0 ], [ 434490.75, 438507.75 ], [ 434490.25, 438507.75 ], [ 434490.25, 438508.0 ], [ 434490.0, 438508.0 ], [ 434490.0, 438508.25 ], [ 434487.75, 438508.25 ], [ 434487.75, 438508.5 ], [ 434487.0, 438508.5 ], [ 434487.0, 438508.75 ], [ 434484.75, 438508.75 ], [ 434484.75, 438508.5 ], [ 434483.0, 438508.5 ], [ 434483.0, 438508.25 ], [ 434482.5, 438508.25 ], [ 434482.5, 438508.0 ], [ 434481.75, 438508.0 ], [ 434481.75, 438507.75 ], [ 434480.0, 438507.75 ], [ 434480.0, 438507.5 ], [ 434478.0, 438507.5 ], [ 434478.0, 438507.25 ], [ 434476.25, 438507.25 ], [ 434476.25, 438507.0 ], [ 434475.5, 438507.0 ], [ 434475.5, 438506.75 ], [ 434474.0, 438506.75 ], [ 434474.0, 438506.5 ], [ 434472.25, 438506.5 ], [ 434472.25, 438506.25 ], [ 434469.75, 438506.25 ], [ 434469.75, 438506.0 ], [ 434468.75, 438506.0 ], [ 434468.75, 438505.75 ], [ 434466.5, 438505.75 ], [ 434466.5, 438505.5 ], [ 434465.75, 438505.5 ], [ 434465.75, 438505.25 ], [ 434464.5, 438505.25 ], [ 434464.5, 438505.0 ], [ 434463.75, 438505.0 ], [ 434463.75, 438504.75 ], [ 434463.0, 438504.75 ], [ 434463.0, 438504.5 ], [ 434461.75, 438504.5 ], [ 434461.75, 438504.25 ], [ 434456.25, 438504.25 ], [ 434456.25, 438504.0 ], [ 434449.75, 438504.0 ], [ 434449.75, 438504.25 ], [ 434449.0, 438504.25 ], [ 434449.0, 438504.5 ], [ 434448.75, 438504.5 ], [ 434448.75, 438504.75 ], [ 434448.5, 438504.75 ], [ 434448.5, 438505.0 ], [ 434448.25, 438505.0 ], [ 434448.25, 438505.25 ], [ 434448.0, 438505.25 ], [ 434448.0, 438505.5 ], [ 434447.75, 438505.5 ], [ 434447.75, 438506.0 ], [ 434447.5, 438506.0 ], [ 434447.5, 438506.75 ], [ 434447.25, 438506.75 ], [ 434447.25, 438510.75 ], [ 434447.5, 438510.75 ], [ 434447.5, 438511.5 ], [ 434447.75, 438511.5 ], [ 434447.75, 438511.75 ], [ 434448.0, 438511.75 ], [ 434448.0, 438512.0 ], [ 434448.5, 438512.0 ], [ 434448.5, 438512.25 ], [ 434448.75, 438512.25 ], [ 434448.75, 438513.5 ], [ 434449.25, 438513.5 ], [ 434449.25, 438513.75 ], [ 434449.75, 438513.75 ], [ 434449.75, 438514.0 ], [ 434450.25, 438514.0 ], [ 434450.25, 438514.25 ], [ 434450.75, 438514.25 ], [ 434450.75, 438514.5 ], [ 434451.0, 438514.5 ], [ 434451.0, 438514.75 ], [ 434451.25, 438514.75 ], [ 434451.25, 438515.0 ], [ 434451.5, 438515.0 ], [ 434451.5, 438515.5 ], [ 434451.75, 438515.5 ], [ 434451.75, 438515.75 ], [ 434452.0, 438515.75 ], [ 434452.0, 438516.25 ], [ 434452.25, 438516.25 ], [ 434452.25, 438516.5 ], [ 434452.5, 438516.5 ], [ 434452.5, 438517.5 ], [ 434452.75, 438517.5 ], [ 434452.75, 438519.0 ], [ 434452.5, 438519.0 ], [ 434452.5, 438522.25 ], [ 434452.75, 438522.25 ], [ 434452.75, 438523.0 ], [ 434453.0, 438523.0 ], [ 434453.0, 438523.5 ], [ 434453.25, 438523.5 ], [ 434453.25, 438524.0 ], [ 434453.5, 438524.0 ], [ 434453.5, 438524.5 ], [ 434453.75, 438524.5 ], [ 434453.75, 438525.0 ], [ 434454.0, 438525.0 ], [ 434454.0, 438526.0 ], [ 434454.25, 438526.0 ], [ 434454.25, 438528.25 ], [ 434454.5, 438528.25 ], [ 434454.5, 438535.5 ], [ 434454.75, 438535.5 ], [ 434454.75, 438540.75 ], [ 434455.0, 438540.75 ], [ 434455.0, 438541.75 ], [ 434455.25, 438541.75 ], [ 434455.25, 438542.5 ], [ 434455.5, 438542.5 ], [ 434455.5, 438543.0 ], [ 434455.75, 438543.0 ], [ 434455.75, 438543.25 ], [ 434456.0, 438543.25 ], [ 434456.0, 438543.5 ], [ 434456.25, 438543.5 ], [ 434456.25, 438544.0 ], [ 434456.5, 438544.0 ], [ 434456.5, 438544.25 ], [ 434457.25, 438544.25 ], [ 434457.25, 438544.5 ], [ 434458.5, 438544.5 ], [ 434458.5, 438544.75 ], [ 434458.75, 438544.75 ], [ 434458.75, 438545.0 ], [ 434459.25, 438545.0 ], [ 434459.25, 438545.25 ], [ 434459.75, 438545.25 ], [ 434459.75, 438545.5 ], [ 434462.25, 438545.5 ], [ 434462.25, 438545.75 ], [ 434462.75, 438545.75 ], [ 434462.75, 438545.5 ], [ 434463.25, 438545.5 ], [ 434463.25, 438545.25 ], [ 434463.5, 438545.25 ], [ 434463.5, 438545.0 ], [ 434464.0, 438545.0 ], [ 434464.0, 438544.75 ], [ 434464.5, 438544.75 ], [ 434464.5, 438544.5 ], [ 434465.75, 438544.5 ], [ 434465.75, 438544.25 ], [ 434466.0, 438544.25 ], [ 434466.0, 438544.0 ], [ 434466.25, 438544.0 ], [ 434466.25, 438543.75 ], [ 434466.75, 438543.75 ], [ 434466.75, 438543.5 ], [ 434467.25, 438543.5 ], [ 434467.25, 438543.25 ], [ 434468.5, 438543.25 ], [ 434468.5, 438543.5 ], [ 434469.75, 438543.5 ], [ 434469.75, 438544.0 ], [ 434470.0, 438544.0 ], [ 434470.0, 438544.25 ], [ 434470.25, 438544.25 ], [ 434470.25, 438544.5 ], [ 434470.5, 438544.5 ], [ 434470.5, 438545.0 ], [ 434470.75, 438545.0 ], [ 434470.75, 438545.5 ], [ 434471.0, 438545.5 ], [ 434471.0, 438546.75 ], [ 434471.25, 438546.75 ], [ 434471.25, 438547.75 ], [ 434471.5, 438547.75 ], [ 434471.5, 438548.75 ], [ 434471.75, 438548.75 ], [ 434471.75, 438551.0 ], [ 434472.0, 438551.0 ], [ 434472.0, 438552.25 ], [ 434472.25, 438552.25 ], [ 434472.25, 438552.75 ], [ 434472.5, 438552.75 ], [ 434472.5, 438553.25 ], [ 434472.75, 438553.25 ], [ 434472.75, 438553.5 ], [ 434473.0, 438553.5 ], [ 434473.0, 438553.75 ], [ 434473.25, 438553.75 ], [ 434473.25, 438554.25 ], [ 434474.5, 438554.25 ], [ 434474.5, 438554.0 ], [ 434474.75, 438554.0 ], [ 434474.75, 438553.5 ], [ 434475.0, 438553.5 ], [ 434475.0, 438552.5 ], [ 434475.25, 438552.5 ], [ 434475.25, 438550.75 ], [ 434475.5, 438550.75 ], [ 434475.5, 438549.0 ], [ 434475.75, 438549.0 ], [ 434475.75, 438547.75 ], [ 434476.0, 438547.75 ], [ 434476.0, 438546.75 ], [ 434476.25, 438546.75 ], [ 434476.25, 438545.75 ], [ 434476.412157094106078, 438545.75 ], [ 434476.784251610457432, 438526.793150496087037 ], [ 434481.0, 438526.873940690187737 ], [ 434481.0, 438526.5 ], [ 434481.25, 438526.5 ], [ 434481.25, 438525.5 ], [ 434481.5, 438525.5 ], [ 434481.5, 438525.0 ], [ 434482.0, 438525.0 ], [ 434482.0, 438524.75 ], [ 434486.75, 438524.75 ], [ 434486.75, 438524.5 ], [ 434487.0, 438524.5 ], [ 434487.0, 438524.25 ], [ 434487.25, 438524.25 ], [ 434487.25, 438523.75 ], [ 434487.5, 438523.75 ], [ 434487.5, 438523.5 ], [ 434487.75, 438523.5 ], [ 434487.75, 438523.25 ], [ 434488.25, 438523.25 ], [ 434488.25, 438523.0 ], [ 434489.75, 438523.0 ], [ 434489.75, 438522.75 ], [ 434490.75, 438522.75 ], [ 434490.75, 438522.5 ], [ 434493.5, 438522.5 ], [ 434493.5, 438522.75 ], [ 434494.75, 438522.75 ], [ 434494.75, 438523.0 ], [ 434495.0, 438523.0 ], [ 434495.0, 438523.25 ], [ 434495.5, 438523.25 ], [ 434495.5, 438523.5 ], [ 434495.75, 438523.5 ], [ 434495.75, 438523.75 ], [ 434496.0, 438523.75 ], [ 434496.0, 438524.0 ], [ 434496.25, 438524.0 ], [ 434496.25, 438524.25 ], [ 434496.5, 438524.25 ], [ 434496.5, 438524.5 ], [ 434496.75, 438524.5 ], [ 434496.75, 438524.858674912364222 ], [ 434499.013106173835695, 438524.898377722129226 ], [ 434498.650513152708299, 438546.436701930244453 ], [ 434493.75, 438546.350729657802731 ], [ 434493.75, 438546.5 ], [ 434492.75, 438546.5 ], [ 434492.75, 438546.333186133357231 ], [ 434492.5, 438546.328800252231304 ], [ 434492.5, 438546.5 ], [ 434492.25, 438546.5 ], [ 434492.25, 438546.75 ], [ 434492.0, 438546.75 ], [ 434492.0, 438547.0 ], [ 434491.75, 438547.0 ], [ 434491.75, 438547.75 ], [ 434491.5, 438547.75 ], [ 434491.5, 438548.25 ], [ 434491.25, 438548.25 ], [ 434491.25, 438550.5 ], [ 434491.0, 438550.5 ], [ 434491.0, 438552.25 ], [ 434490.75, 438552.25 ], [ 434490.75, 438552.71317135123536 ], [ 434499.136207336618099, 438552.860296104918234 ], [ 434498.767115615482908, 438574.387446802924387 ], [ 434496.5, 438574.350224243185949 ], [ 434496.5, 438576.75 ], [ 434496.75, 438576.75 ], [ 434496.75, 438577.5 ] ] ] } },
{ "type": "Feature", "properties": { }, "geometry": { "type": "Polygon", "coordinates": [ [ [ 434126.5, 438455.5 ], [ 434126.5, 438455.25 ], [ 434126.75, 438455.25 ], [ 434126.75, 438455.0 ], [ 434127.0, 438455.0 ], [ 434127.0, 438454.75 ], [ 434127.25, 438454.75 ], [ 434127.25, 438454.5 ], [ 434127.0, 438454.5 ], [ 434127.0, 438454.25 ], [ 434126.75, 438454.25 ], [ 434126.75, 438454.0 ], [ 434126.5, 438454.0 ], [ 434126.5, 438453.75 ], [ 434126.25, 438453.75 ], [ 434126.25, 438453.5 ], [ 434126.0, 438453.5 ], [ 434126.0, 438453.25 ], [ 434125.75, 438453.25 ], [ 434125.75, 438453.0 ], [ 434125.0, 438453.0 ], [ 434125.0, 438453.25 ], [ 434124.0, 438453.25 ], [ 434124.0, 438453.5 ], [ 434123.5, 438453.5 ], [ 434123.5, 438454.0 ], [ 434123.25, 438454.0 ], [ 434123.25, 438454.75 ], [ 434123.5, 438454.75 ], [ 434123.5, 438455.25 ], [ 434123.75, 438455.25 ], [ 434123.75, 438455.5 ], [ 434124.0, 438455.5 ], [ 434124.0, 438455.75 ], [ 434126.25, 438455.75 ], [ 434126.25, 438455.5 ], [ 434126.5, 438455.5 ] ] ] } },
{ "type": "Feature", "properties": { }, "geometry": { "type": "Polygon", "coordinates": [ [ [ 434999.25, 438367.25 ], [ 434999.25, 438365.75 ], [ 434999.0, 438365.75 ], [ 434999.0, 438365.0 ], [ 434998.75, 438365.0 ], [ 434998.75, 438364.25 ], [ 434998.5, 438364.25 ], [ 434998.5, 438363.75 ], [ 434998.25, 438363.75 ], [ 434998.25, 438363.5 ], [ 434998.0, 438363.5 ], [ 434998.0, 438363.0 ], [ 434997.75, 438363.0 ], [ 434997.75, 438362.75 ], [ 434997.25, 438362.75 ], [ 434997.25, 438362.5 ], [ 434997.0, 438362.5 ], [ 434997.0, 438362.25 ], [ 434996.75, 438362.25 ], [ 434996.75, 438362.0 ], [ 434996.5, 438362.0 ], [ 434996.5, 438361.75 ], [ 434996.25, 438361.75 ], [ 434996.25, 438360.0 ], [ 434993.175873100466561, 438360.0 ], [ 434999.5, 438373.280283072090242 ], [ 434999.5, 438367.25 ], [ 434999.25, 438367.25 ] ] ] } },
{ "type": "Feature", "properties": { }, "geometry": { "type": "Polygon", "coordinates": [ [ [ 434928.0, 438342.75 ], [ 434928.0, 438343.0 ], [ 434928.5, 438343.0 ], [ 434928.5, 438343.25 ], [ 434928.75, 438343.25 ], [ 434928.75, 438343.5 ], [ 434929.25, 438343.5 ], [ 434929.25, 438343.75 ], [ 434929.75, 438343.75 ], [ 434929.75, 438344.0 ], [ 434930.0, 438344.0 ], [ 434930.0, 438344.25 ], [ 434930.5, 438344.25 ], [ 434930.5, 438344.5 ], [ 434930.75, 438344.5 ], [ 434930.75, 438344.75 ], [ 434931.0, 438344.75 ], [ 434931.0, 438345.0 ], [ 434931.25, 438345.0 ], [ 434931.25, 438345.25 ], [ 434931.5, 438345.25 ], [ 434931.5, 438345.5 ], [ 434931.75, 438345.5 ], [ 434931.75, 438345.75 ], [ 434932.0, 438345.75 ], [ 434932.0, 438346.25 ], [ 434932.25, 438346.25 ], [ 434932.25, 438346.75 ], [ 434932.5, 438346.75 ], [ 434932.5, 438347.5 ], [ 434932.75, 438347.5 ], [ 434932.75, 438348.0 ], [ 434933.0, 438348.0 ], [ 434933.0, 438348.5 ], [ 434933.25, 438348.5 ], [ 434933.25, 438349.25 ], [ 434933.5, 438349.25 ], [ 434933.5, 438349.75 ], [ 434933.75, 438349.75 ], [ 434933.75, 438350.5 ], [ 434934.0, 438350.5 ], [ 434934.0, 438351.5 ], [ 434934.25, 438351.5 ], [ 434934.25, 438352.25 ], [ 434934.5, 438352.25 ], [ 434934.5, 438353.0 ], [ 434934.75, 438353.0 ], [ 434934.75, 438353.75 ], [ 434935.0, 438353.75 ], [ 434935.0, 438354.5 ], [ 434935.25, 438354.5 ], [ 434935.25, 438355.25 ], [ 434935.5, 438355.25 ], [ 434935.5, 438356.0 ], [ 434935.75, 438356.0 ], [ 434935.75, 438357.0 ], [ 434936.0, 438357.0 ], [ 434936.0, 438358.75 ], [ 434936.25, 438358.75 ], [ 434936.25, 438360.0 ], [ 434956.515728447760921, 438360.0 ], [ 434958.5, 438359.063053430465516 ], [ 434958.5, 438358.25 ], [ 434959.0, 438358.25 ], [ 434959.0, 438358.0 ], [ 434959.25, 438358.0 ], [ 434959.25, 438357.75 ], [ 434959.5, 438357.75 ], [ 434959.5, 438357.5 ], [ 434960.0, 438357.5 ], [ 434960.0, 438357.25 ], [ 434960.75, 438357.25 ], [ 434960.75, 438357.0 ], [ 434961.25, 438357.0 ], [ 434961.25, 438356.75 ], [ 434962.0, 438356.75 ], [ 434962.0, 438356.5 ], [ 434962.75, 438356.5 ], [ 434962.75, 438356.25 ], [ 434963.5, 438356.25 ], [ 434963.5, 438356.0 ], [ 434964.0, 438356.0 ], [ 434964.0, 438355.75 ], [ 434964.5, 438355.75 ], [ 434964.5, 438355.5 ], [ 434965.0, 438355.5 ], [ 434965.0, 438355.25 ], [ 434965.5, 438355.25 ], [ 434965.5, 438355.0 ], [ 434965.75, 438355.0 ], [ 434965.75, 438354.75 ], [ 434966.25, 438354.75 ], [ 434966.25, 438354.5 ], [ 434966.5, 438354.5 ], [ 434966.5, 438354.25 ], [ 434967.0, 438354.25 ], [ 434967.0, 438354.0 ], [ 434967.25, 438354.0 ], [ 434967.25, 438353.5 ], [ 434967.5, 438353.5 ], [ 434967.5, 438353.25 ], [ 434967.75, 438353.25 ], [ 434967.75, 438353.131399736972526 ], [ 434964.394675466290209, 438346.093859595654067 ], [ 434968.5, 438344.13654271356063 ], [ 434968.5, 438344.13244268996641 ], [ 434964.391755192773417, 438346.087729185179342 ], [ 434964.155666122445837, 438345.591683362959884 ], [ 434942.480180316721089, 438355.834718478377908 ], [ 434938.139281021547504, 438346.711948327138089 ], [ 434959.80992043344304, 438336.460854093777016 ], [ 434958.155234140926041, 438332.984199196682312 ], [ 434955.780026756285224, 438328.009623259131331 ], [ 434955.76950992125785, 438327.987527569115628 ], [ 434954.639518215612043, 438325.605929535697214 ], [ 434952.109972662641667, 438320.298723358137067 ], [ 434952.076204175304156, 438320.227146243618336 ], [ 434951.036240940215066, 438318.0 ], [ 434950.5, 438318.0 ], [ 434950.5, 438318.25 ], [ 434950.25, 438318.25 ], [ 434950.25, 438318.5 ], [ 434949.75, 438318.5 ], [ 434949.75, 438318.75 ], [ 434949.25, 438318.75 ], [ 434949.25, 438319.0 ], [ 434948.75, 438319.0 ], [ 434948.75, 438319.25 ], [ 434948.25, 438319.25 ], [ 434948.25, 438319.5 ], [ 434947.5, 438319.5 ], [ 434947.5, 438319.75 ], [ 434946.75, 438319.75 ], [ 434946.75, 438320.0 ], [ 434946.0, 438320.0 ], [ 434946.0, 438320.25 ], [ 434945.25, 438320.25 ], [ 434945.25, 438320.5 ], [ 434944.5, 438320.5 ], [ 434944.5, 438320.75 ], [ 434944.0, 438320.75 ], [ 434944.0, 438321.0 ], [ 434943.75, 438321.0 ], [ 434943.75, 438321.25 ], [ 434943.25, 438321.25 ], [ 434943.25, 438321.5 ], [ 434942.75, 438321.5 ], [ 434942.75, 438321.75 ], [ 434942.25, 438321.75 ], [ 434942.25, 438322.0 ], [ 434941.5, 438322.0 ], [ 434941.5, 438322.25 ], [ 434940.75, 438322.25 ], [ 434940.75, 438322.5 ], [ 434939.75, 438322.5 ], [ 434939.75, 438322.75 ], [ 434938.5, 438322.75 ], [ 434938.5, 438323.0 ], [ 434937.75, 438323.0 ], [ 434937.75, 438323.25 ], [ 434937.0, 438323.25 ], [ 434937.0, 438323.5 ], [ 434936.25, 438323.5 ], [ 434936.25, 438323.75 ], [ 434935.5, 438323.75 ], [ 434935.5, 438324.0 ], [ 434935.0, 438324.0 ], [ 434935.0, 438324.25 ], [ 434934.5, 438324.25 ], [ 434934.5, 438324.5 ], [ 434934.0, 438324.5 ], [ 434934.0, 438324.75 ], [ 434933.25, 438324.75 ], [ 434933.25, 438325.0 ], [ 434932.75, 438325.0 ], [ 434932.75, 438325.25 ], [ 434932.5, 438325.25 ], [ 434932.5, 438325.5 ], [ 434932.0, 438325.5 ], [ 434932.0, 438325.75 ], [ 434931.75, 438325.75 ], [ 434931.75, 438326.0 ], [ 434931.5, 438326.0 ], [ 434931.5, 438326.25 ], [ 434931.25, 438326.25 ], [ 434931.25, 438326.5 ], [ 434931.0, 438326.5 ], [ 434931.0, 438326.75 ], [ 434930.75, 438326.75 ], [ 434930.75, 438327.0 ], [ 434930.5, 438327.0 ], [ 434930.5, 438327.5 ], [ 434930.0, 438327.5 ], [ 434930.0, 438327.75 ], [ 434929.75, 438327.75 ], [ 434929.75, 438328.0 ], [ 434928.25, 438328.0 ], [ 434928.25, 438327.75 ], [ 434926.75, 438327.75 ], [ 434926.75, 438327.5 ], [ 434925.5, 438327.5 ], [ 434925.5, 438327.25 ], [ 434925.0, 438327.25 ], [ 434925.0, 438327.0 ], [ 434924.25, 438327.0 ], [ 434924.25, 438326.75 ], [ 434923.75, 438326.75 ], [ 434923.75, 438326.5 ], [ 434923.0, 438326.5 ], [ 434923.0, 438326.25 ], [ 434921.5, 438326.25 ], [ 434921.5, 438326.5 ], [ 434921.25, 438326.5 ], [ 434921.25, 438326.75 ], [ 434921.0, 438326.75 ], [ 434921.0, 438327.25 ], [ 434920.75, 438327.25 ], [ 434920.75, 438327.5 ], [ 434920.5, 438327.5 ], [ 434920.5, 438328.25 ], [ 434920.25, 438328.25 ], [ 434920.25, 438328.75 ], [ 434920.0, 438328.75 ], [ 434920.0, 438329.5 ], [ 434919.75, 438329.5 ], [ 434919.75, 438329.75 ], [ 434919.5, 438329.75 ], [ 434919.5, 438330.0 ], [ 434919.25, 438330.0 ], [ 434919.25, 438330.25 ], [ 434919.0, 438330.25 ], [ 434919.0, 438330.5 ], [ 434918.5, 438330.5 ], [ 434918.5, 438330.75 ], [ 434918.0, 438330.75 ], [ 434918.0, 438331.0 ], [ 434917.5, 438331.0 ], [ 434917.5, 438331.25 ], [ 434916.75, 438331.25 ], [ 434916.75, 438331.5 ], [ 434915.25, 438331.5 ], [ 434915.25, 438331.25 ], [ 434913.25, 438331.25 ], [ 434913.25, 438331.0 ], [ 434913.093814750900492, 438331.0 ], [ 434908.193133260530885, 438332.346870074630715 ], [ 434907.888429358426947, 438331.25 ], [ 434907.75, 438331.25 ], [ 434907.75, 438331.5 ], [ 434907.0, 438331.5 ], [ 434907.0, 438331.75 ], [ 434906.5, 438331.75 ], [ 434906.5, 438332.0 ], [ 434906.0, 438332.0 ], [ 434906.0, 438332.25 ], [ 434905.25, 438332.25 ], [ 434905.25, 438332.5 ], [ 434903.75, 438332.5 ], [ 434903.75, 438332.75 ], [ 434903.0, 438332.75 ], [ 434903.0, 438333.0 ], [ 434902.25, 438333.0 ], [ 434902.25, 438333.25 ], [ 434901.75, 438333.25 ], [ 434901.75, 438333.5 ], [ 434901.5, 438333.5 ], [ 434901.5, 438334.0 ], [ 434901.25, 438334.0 ], [ 434901.25, 438334.5 ], [ 434901.0, 438334.5 ], [ 434901.0, 438338.25 ], [ 434901.25, 438338.25 ], [ 434901.25, 438339.0 ], [ 434901.5, 438339.0 ], [ 434901.5, 438340.5 ], [ 434901.75, 438340.5 ], [ 434901.75, 438340.75 ], [ 434902.5, 438340.75 ], [ 434902.5, 438340.989189930434804 ], [ 434902.962309487513267, 438340.836059414665215 ], [ 434902.981718730588909, 438340.89465699181892 ], [ 434902.921671394084115, 438341.0 ], [ 434903.0, 438341.0 ], [ 434903.0, 438341.25 ], [ 434903.5, 438341.25 ], [ 434903.5, 438341.5 ], [ 434904.25, 438341.5 ], [ 434904.25, 438341.75 ], [ 434904.75, 438341.75 ], [ 434904.75, 438342.021270777739119 ], [ 434908.687810819596052, 438341.162269224936608 ], [ 434909.252303339890204, 438343.75 ], [ 434910.0, 438343.75 ], [ 434910.0, 438344.0 ], [ 434912.75, 438344.0 ], [ 434912.75, 438343.75 ], [ 434914.75, 438343.75 ], [ 434914.75, 438343.5 ], [ 434916.25, 438343.5 ], [ 434916.25, 438343.25 ], [ 434917.0, 438343.25 ], [ 434917.0, 438343.0 ], [ 434919.5, 438343.0 ], [ 434919.5, 438342.75 ], [ 434922.25, 438342.75 ], [ 434922.25, 438342.5 ], [ 434923.0, 438342.5 ], [ 434923.0, 438342.25 ], [ 434923.5, 438342.25 ], [ 434923.5, 438342.0 ], [ 434924.0, 438342.0 ], [ 434924.0, 438341.75 ], [ 434924.5, 438341.75 ], [ 434924.5, 438341.5 ], [ 434925.25, 438341.5 ], [ 434925.25, 438341.25 ], [ 434926.75, 438341.25 ], [ 434926.75, 438341.514432184922043 ], [ 434927.123541995533742, 438341.41145706770476 ], [ 434927.426032491377555, 438342.5 ], [ 434927.75, 438342.5 ], [ 434927.75, 438342.75 ], [ 434928.0, 438342.75 ] ] ] } },
{ "type": "Feature", "properties": { }, "geometry": { "type": "Polygon", "coordinates": [ [ [ 434117.75, 438310.5 ], [ 434117.75, 438310.25 ], [ 434116.5, 438310.25 ], [ 434116.5, 438310.75 ], [ 434117.0, 438310.75 ], [ 434117.0, 438310.5 ], [ 434117.75, 438310.5 ] ] ] } },
{ "type": "Feature", "properties": { }, "geometry": { "type": "Polygon", "coordinates": [ [ [ 434120.75, 438310.0 ], [ 434121.75, 438310.0 ], [ 434121.75, 438309.75 ], [ 434122.0, 438309.75 ], [ 434122.0, 438309.25 ], [ 434120.25, 438309.25 ], [ 434120.25, 438309.5 ], [ 434120.0, 438309.5 ], [ 434120.0, 438309.75 ], [ 434119.75, 438309.75 ], [ 434119.75, 438310.0 ], [ 434119.25, 438310.0 ], [ 434119.25, 438310.5 ], [ 434120.445991265994962, 438310.5 ], [ 434120.5, 438310.481845519912895 ], [ 434120.5, 438310.25 ], [ 434120.75, 438310.25 ], [ 434120.75, 438310.0 ] ] ] } },
{ "type": "Feature", "properties": { }, "geometry": { "type": "Polygon", "coordinates": [ [ [ 434119.25, 438308.5 ], [ 434119.25, 438308.75 ], [ 434119.5, 438308.75 ], [ 434119.5, 438309.0 ], [ 434119.75, 438309.0 ], [ 434119.75, 438308.5 ], [ 434119.25, 438308.5 ] ] ] } },
{ "type": "Feature", "properties": { }, "geometry": { "type": "Polygon", "coordinates": [ [ [ 434167.0, 438230.25 ], [ 434167.0, 438229.0 ], [ 434167.25, 438229.0 ], [ 434167.25, 438228.5 ], [ 434167.0, 438228.5 ], [ 434167.0, 438228.25 ], [ 434166.75, 438228.25 ], [ 434166.75, 438228.0 ], [ 434166.5, 438228.0 ], [ 434166.5, 438227.75 ], [ 434166.25, 438227.75 ], [ 434166.25, 438227.5 ], [ 434166.0, 438227.5 ], [ 434166.0, 438226.75 ], [ 434165.75, 438226.75 ], [ 434165.75, 438226.5 ], [ 434165.0, 438226.5 ], [ 434165.0, 438226.75 ], [ 434164.75, 438226.75 ], [ 434164.75, 438227.0 ], [ 434164.5, 438227.0 ], [ 434164.5, 438227.25 ], [ 434164.25, 438227.25 ], [ 434164.25, 438227.75 ], [ 434164.5, 438227.75 ], [ 434164.5, 438228.0 ], [ 434165.0, 438228.0 ], [ 434165.0, 438228.5 ], [ 434165.25, 438228.5 ], [ 434165.25, 438229.75 ], [ 434165.5, 438229.75 ], [ 434165.5, 438230.75 ], [ 434166.75, 438230.75 ], [ 434166.75, 438230.25 ], [ 434167.0, 438230.25 ] ] ] } },
{ "type": "Feature", "properties": { }, "geometry": { "type": "Polygon", "coordinates": [ [ [ 434150.75, 438227.5 ], [ 434150.75, 438227.75 ], [ 434151.5, 438227.75 ], [ 434151.5, 438227.5 ], [ 434152.0, 438227.5 ], [ 434152.0, 438227.25 ], [ 434152.25, 438227.25 ], [ 434152.25, 438227.0 ], [ 434153.75, 438227.0 ], [ 434153.75, 438227.25 ], [ 434155.0, 438227.25 ], [ 434155.0, 438226.75 ], [ 434155.25, 438226.75 ], [ 434155.25, 438226.5 ], [ 434154.0, 438226.5 ], [ 434154.0, 438226.25 ], [ 434152.0, 438226.25 ], [ 434152.0, 438226.0 ], [ 434150.75, 438226.0 ], [ 434150.75, 438225.75 ], [ 434150.25, 438225.75 ], [ 434150.25, 438225.5 ], [ 434146.25, 438225.5 ], [ 434146.25, 438225.75 ], [ 434146.0, 438225.75 ], [ 434146.0, 438226.0 ], [ 434145.5, 438226.0 ], [ 434145.5, 438226.25 ], [ 434145.25, 438226.25 ], [ 434145.25, 438226.75 ], [ 434146.75, 438226.75 ], [ 434146.75, 438227.0 ], [ 434148.0, 438227.0 ], [ 434148.0, 438227.25 ], [ 434148.5, 438227.25 ], [ 434148.5, 438227.5 ], [ 434149.0, 438227.5 ], [ 434149.0, 438227.75 ], [ 434150.5, 438227.75 ], [ 434150.5, 438227.5 ], [ 434150.75, 438227.5 ] ] ] } },
{ "type": "Feature", "properties": { }, "geometry": { "type": "Polygon", "coordinates": [ [ [ 434557.25, 438213.5 ], [ 434557.25, 438213.0 ], [ 434555.25, 438213.0 ], [ 434555.25, 438213.25 ], [ 434554.75, 438213.25 ], [ 434554.75, 438213.5 ], [ 434554.5, 438213.5 ], [ 434554.5, 438213.75 ], [ 434554.75, 438213.75 ], [ 434554.75, 438214.25 ], [ 434555.0, 438214.25 ], [ 434555.0, 438214.5 ], [ 434555.25, 438214.5 ], [ 434555.25, 438214.75 ], [ 434557.5, 438214.75 ], [ 434557.5, 438213.5 ], [ 434557.25, 438213.5 ] ] ] } },
{ "type": "Feature", "properties": { }, "geometry": { "type": "Polygon", "coordinates": [ [ [ 434004.0, 438145.75 ], [ 434004.0, 438145.5 ], [ 434004.5, 438145.5 ], [ 434004.5, 438145.25 ], [ 434004.75, 438145.25 ], [ 434004.75, 438145.0 ], [ 434005.0, 438145.0 ], [ 434005.0, 438144.75 ], [ 434005.5, 438144.75 ], [ 434005.5, 438144.5 ], [ 434005.75, 438144.5 ], [ 434005.75, 438144.0 ], [ 434006.0, 438144.0 ], [ 434006.0, 438143.5 ], [ 434006.25, 438143.5 ], [ 434006.25, 438143.25 ], [ 434006.5, 438143.25 ], [ 434006.5, 438143.0 ], [ 434006.75, 438143.0 ], [ 434006.75, 438142.75 ], [ 434007.25, 438142.75 ], [ 434007.25, 438142.5 ], [ 434007.5, 438142.5 ], [ 434007.5, 438142.25 ], [ 434007.75, 438142.25 ], [ 434007.75, 438142.0 ], [ 434008.25, 438142.0 ], [ 434008.25, 438141.75 ], [ 434008.5, 438141.75 ], [ 434008.5, 438141.5 ], [ 434008.75, 438141.5 ], [ 434008.75, 438141.25 ], [ 434009.25, 438141.25 ], [ 434009.25, 438141.0 ], [ 434009.5, 438141.0 ], [ 434009.5, 438140.75 ], [ 434009.75, 438140.75 ], [ 434009.75, 438140.5 ], [ 434010.0, 438140.5 ], [ 434010.0, 438139.5 ], [ 434010.25, 438139.5 ], [ 434010.25, 438138.5 ], [ 434010.5, 438138.5 ], [ 434010.5, 438138.0 ], [ 434010.75, 438138.0 ], [ 434010.75, 438137.25 ], [ 434011.0, 438137.25 ], [ 434011.0, 438136.5 ], [ 434011.25, 438136.5 ], [ 434011.25, 438136.0 ], [ 434011.5, 438136.0 ], [ 434011.5, 438135.5 ], [ 434011.75, 438135.5 ], [ 434011.75, 438135.25 ], [ 434012.0, 438135.25 ], [ 434012.0, 438134.75 ], [ 434012.25, 438134.75 ], [ 434012.25, 438134.25 ], [ 434012.5, 438134.25 ], [ 434012.5, 438133.75 ], [ 434012.75, 438133.75 ], [ 434012.75, 438133.25 ], [ 434013.0, 438133.25 ], [ 434013.0, 438132.75 ], [ 434013.25, 438132.75 ], [ 434013.25, 438132.25 ], [ 434013.5, 438132.25 ], [ 434013.5, 438132.0 ], [ 434013.75, 438132.0 ], [ 434013.75, 438131.5 ], [ 434014.0, 438131.5 ], [ 434014.0, 438131.0 ], [ 434014.25, 438131.0 ], [ 434014.25, 438130.25 ], [ 434014.5, 438130.25 ], [ 434014.5, 438129.75 ], [ 434014.75, 438129.75 ], [ 434014.75, 438129.0 ], [ 434015.0, 438129.0 ], [ 434015.0, 438128.0 ], [ 434015.25, 438128.0 ], [ 434015.25, 438127.0 ], [ 434015.5, 438127.0 ], [ 434015.5, 438126.25 ], [ 434015.75, 438126.25 ], [ 434015.75, 438125.5 ], [ 434016.0, 438125.5 ], [ 434016.0, 438124.75 ], [ 434016.25, 438124.75 ], [ 434016.25, 438124.0 ], [ 434016.5, 438124.0 ], [ 434016.5, 438123.5 ], [ 434016.75, 438123.5 ], [ 434016.75, 438122.75 ], [ 434017.0, 438122.75 ], [ 434017.0, 438122.25 ], [ 434017.25, 438122.25 ], [ 434017.25, 438121.75 ], [ 434017.5, 438121.75 ], [ 434017.5, 438121.25 ], [ 434017.75, 438121.25 ], [ 434017.75, 438121.0 ], [ 434018.0, 438121.0 ], [ 434018.0, 438120.75 ], [ 434018.25, 438120.75 ], [ 434018.25, 438120.25 ], [ 434018.5, 438120.25 ], [ 434018.5, 438120.0 ], [ 434018.75, 438120.0 ], [ 434018.75, 438119.75 ], [ 434019.0, 438119.75 ], [ 434019.0, 438119.5 ], [ 434019.25, 438119.5 ], [ 434019.25, 438119.25 ], [ 434019.5, 438119.25 ], [ 434019.5, 438119.0 ], [ 434019.75, 438119.0 ], [ 434019.75, 438118.75 ], [ 434020.25, 438118.75 ], [ 434020.25, 438118.5 ], [ 434020.75, 438118.5 ], [ 434020.75, 438118.0 ], [ 434021.0, 438118.0 ], [ 434021.0, 438117.5 ], [ 434021.25, 438117.5 ], [ 434021.25, 438117.0 ], [ 434021.5, 438117.0 ], [ 434021.5, 438116.75 ], [ 434021.75, 438116.75 ], [ 434021.75, 438116.0 ], [ 434022.0, 438116.0 ], [ 434022.0, 438115.5 ], [ 434022.25, 438115.5 ], [ 434022.25, 438115.25 ], [ 434022.5, 438115.25 ], [ 434022.5, 438114.75 ], [ 434022.75, 438114.75 ], [ 434022.75, 438114.25 ], [ 434023.0, 438114.25 ], [ 434023.0, 438113.75 ], [ 434023.25, 438113.75 ], [ 434023.25, 438113.5 ], [ 434023.5, 438113.5 ], [ 434023.5, 438113.0 ], [ 434023.75, 438113.0 ], [ 434023.75, 438112.75 ], [ 434024.0, 438112.75 ], [ 434024.0, 438112.0 ], [ 434024.25, 438112.0 ], [ 434024.25, 438111.75 ], [ 434024.5, 438111.75 ], [ 434024.5, 438111.5 ], [ 434024.75, 438111.5 ], [ 434024.75, 438111.25 ], [ 434025.25, 438111.25 ], [ 434025.25, 438111.0 ], [ 434026.5, 438111.0 ], [ 434026.5, 438110.75 ], [ 434026.75, 438110.75 ], [ 434026.75, 438110.5 ], [ 434027.0, 438110.5 ], [ 434027.0, 438109.75 ], [ 434027.25, 438109.75 ], [ 434027.25, 438109.0 ], [ 434027.5, 438109.0 ], [ 434027.5, 438108.0 ], [ 434027.75, 438108.0 ], [ 434027.75, 438107.75 ], [ 434028.0, 438107.75 ], [ 434028.0, 438107.25 ], [ 434027.75, 438107.25 ], [ 434027.75, 438104.0 ], [ 434000.0, 438104.0 ], [ 434000.0, 438145.75 ], [ 434001.75, 438145.75 ], [ 434001.75, 438146.0 ], [ 434003.0, 438146.0 ], [ 434003.0, 438145.75 ], [ 434004.0, 438145.75 ] ] ] } },
{ "type": "Feature", "properties": { }, "geometry": { "type": "Polygon", "coordinates": [ [ [ 434725.75, 438104.0 ], [ 434725.75, 438104.5 ], [ 434726.25, 438104.5 ], [ 434726.25, 438104.75 ], [ 434726.75, 438104.75 ], [ 434726.75, 438104.0 ], [ 434725.75, 438104.0 ] ] ] } }
]
}
