{
"type": "FeatureCollection",
"name": "se3439_rgb_250_03_removal",
"crs": { "type": "name", "properties": { "name": "urn:ogc:def:crs:EPSG::27700" } },
"features": [
{ "type": "Feature", "properties": { }, "geometry": { "type": "Polygon", "coordinates": [ [ [ 434039.32452555547934, 439996.612189638603013 ], [ 434029.49839453730965, 440000.0 ], [ 434038.759696277382318, 440000.0 ], [ 434039.32452555547934, 439996.612189638603013 ] ] ] } },
{ "type": "Feature", "properties": { }, "geometry": { "type": "Polygon", "coordinates": [ [ [ 434040.0, 439985.75 ], [ 434039.25, 439985.75 ], [ 434039.25, 439985.5 ], [ 434039.0, 439985.5 ], [ 434039.0, 439985.25 ], [ 434038.75, 439985.25 ], [ 434038.75, 439985.0 ], [ 434037.75, 439985.0 ], [ 434037.75, 439985.25 ], [ 434037.0, 439985.25 ], [ 434037.0, 439985.0 ], [ 434036.5, 439985.0 ], [ 434036.5, 439984.75 ], [ 434036.25, 439984.75 ], [ 434036.25, 439984.5 ], [ 434036.0, 439984.5 ], [ 434036.0, 439984.25 ], [ 434035.75, 439984.25 ], [ 434035.75, 439983.5 ], [ 434035.5, 439983.5 ], [ 434035.5, 439983.25 ], [ 434034.25, 439983.25 ], [ 434034.25, 439983.75 ], [ 434034.0, 439983.75 ], [ 434034.0, 439984.5 ], [ 434033.75, 439984.5 ], [ 434033.75, 439984.75 ], [ 434032.25, 439984.75 ], [ 434032.25, 439984.5 ], [ 434031.75, 439984.5 ], [ 434031.75, 439984.25 ], [ 434031.5, 439984.25 ], [ 434031.5, 439984.5 ], [ 434030.5, 439984.5 ], [ 434030.5, 439984.75 ], [ 434030.25, 439984.75 ], [ 434030.25, 439985.25 ], [ 434030.0, 439985.25 ], [ 434030.0, 439985.5 ], [ 434029.75, 439985.5 ], [ 434029.75, 439985.75 ], [ 434029.5, 439985.75 ], [ 434029.5, 439986.25 ], [ 434029.25, 439986.25 ], [ 434029.25, 439987.25 ], [ 434029.0, 439987.25 ], [ 434029.0, 439988.0 ], [ 434028.75, 439988.0 ], [ 434028.75, 439988.5 ], [ 434028.5, 439988.5 ], [ 434028.5, 439989.25 ], [ 434028.25, 439989.25 ], [ 434028.25, 439989.852749784127809 ], [ 434040.017975997645408, 439985.79543862643186 ], [ 434040.0, 439985.748699273797683 ], [ 434040.0, 439985.75 ] ] ] } },
{ "type": "Feature", "properties": { }, "geometry": { "type": "Polygon", "coordinates": [ [ [ 434042.0, 439961.0 ], [ 434041.5, 439961.0 ], [ 434041.5, 439961.25 ], [ 434041.25, 439961.25 ], [ 434041.25, 439961.5 ], [ 434041.0, 439961.5 ], [ 434041.0, 439961.75 ], [ 434040.75, 439961.75 ], [ 434040.75, 439962.0 ], [ 434040.5, 439962.0 ], [ 434040.5, 439962.25 ], [ 434040.25, 439962.25 ], [ 434040.25, 439963.25 ], [ 434040.0, 439963.25 ], [ 434040.0, 439966.5 ], [ 434040.25, 439966.5 ], [ 434040.25, 439967.0 ], [ 434040.5, 439967.0 ], [ 434040.5, 439967.75 ], [ 434040.75, 439967.75 ], [ 434040.75, 439968.5 ], [ 434041.0, 439968.5 ], [ 434041.0, 439969.0 ], [ 434041.25, 439969.0 ], [ 434041.25, 439969.5 ], [ 434041.5, 439969.5 ], [ 434041.5, 439970.5 ], [ 434041.75, 439970.5 ], [ 434041.75, 439971.0 ], [ 434042.0, 439971.0 ], [ 434042.0, 439971.25 ], [ 434042.25, 439971.25 ], [ 434042.25, 439971.75 ], [ 434042.75, 439971.75 ], [ 434042.75, 439972.0 ], [ 434043.0, 439972.0 ], [ 434043.0, 439972.5 ], [ 434043.25, 439972.5 ], [ 434043.25, 439973.0 ], [ 434043.473398836504202, 439973.0 ], [ 434042.016861010226421, 439960.75 ], [ 434042.0, 439960.75 ], [ 434042.0, 439961.0 ] ] ] } },
{ "type": "Feature", "properties": { }, "geometry": { "type": "Polygon", "coordinates": [ [ [ 434043.532849360024557, 439973.5 ], [ 434043.5, 439973.223725224786904 ], [ 434043.5, 439973.5 ], [ 434043.532849360024557, 439973.5 ] ] ] } },
{ "type": "Feature", "properties": { }, "geometry": { "type": "Polygon", "coordinates": [ [ [ 434580.75, 439879.25 ], [ 434580.75, 439879.0 ], [ 434582.0, 439879.0 ], [ 434582.0, 439878.75 ], [ 434583.0, 439878.75 ], [ 434583.0, 439878.5 ], [ 434583.5, 439878.5 ], [ 434583.5, 439878.25 ], [ 434583.75, 439878.25 ], [ 434583.75, 439878.0 ], [ 434584.0, 439878.0 ], [ 434584.0, 439877.75 ], [ 434584.25, 439877.75 ], [ 434584.25, 439877.5 ], [ 434584.5, 439877.5 ], [ 434584.5, 439877.25 ], [ 434584.75, 439877.25 ], [ 434584.75, 439877.0 ], [ 434585.0, 439877.0 ], [ 434585.0, 439876.75 ], [ 434585.5, 439876.75 ], [ 434585.5, 439876.5 ], [ 434586.0, 439876.5 ], [ 434586.0, 439876.25 ], [ 434586.5, 439876.25 ], [ 434586.5, 439876.0 ], [ 434586.75, 439876.0 ], [ 434586.75, 439875.75 ], [ 434587.0, 439875.75 ], [ 434587.0, 439875.5 ], [ 434587.25, 439875.5 ], [ 434587.25, 439875.0 ], [ 434587.5, 439875.0 ], [ 434587.5, 439874.5 ], [ 434587.75, 439874.5 ], [ 434587.75, 439872.0 ], [ 434569.25, 439872.0 ], [ 434569.25, 439873.0 ], [ 434569.5, 439873.0 ], [ 434569.5, 439873.5 ], [ 434569.75, 439873.5 ], [ 434569.75, 439874.25 ], [ 434570.0, 439874.25 ], [ 434570.0, 439874.5 ], [ 434570.25, 439874.5 ], [ 434570.25, 439874.75 ], [ 434570.5, 439874.75 ], [ 434570.5, 439875.0 ], [ 434570.75, 439875.0 ], [ 434570.75, 439875.25 ], [ 434571.25, 439875.25 ], [ 434571.25, 439875.5 ], [ 434572.0, 439875.5 ], [ 434572.0, 439875.75 ], [ 434572.5, 439875.75 ], [ 434572.5, 439876.0 ], [ 434572.75, 439876.0 ], [ 434572.75, 439876.25 ], [ 434573.0, 439876.25 ], [ 434573.0, 439876.75 ], [ 434573.25, 439876.75 ], [ 434573.25, 439877.25 ], [ 434573.5, 439877.25 ], [ 434573.5, 439877.5 ], [ 434573.75, 439877.5 ], [ 434573.75, 439877.75 ], [ 434574.0, 439877.75 ], [ 434574.0, 439878.0 ], [ 434574.25, 439878.0 ], [ 434574.25, 439878.25 ], [ 434574.75, 439878.25 ], [ 434574.75, 439878.5 ], [ 434575.25, 439878.5 ], [ 434575.25, 439878.75 ], [ 434575.75, 439878.75 ], [ 434575.75, 439879.0 ], [ 434576.75, 439879.0 ], [ 434576.75, 439879.25 ], [ 434578.0, 439879.25 ], [ 434578.0, 439879.5 ], [ 434579.75, 439879.5 ], [ 434579.75, 439879.25 ], [ 434580.75, 439879.25 ] ] ] } },
{ "type": "Feature", "properties": { }, "geometry": { "type": "Polygon", "coordinates": [ [ [ 434307.25, 439870.25 ], [ 434307.25, 439869.5 ], [ 434307.0, 439869.5 ], [ 434307.0, 439868.75 ], [ 434306.75, 439868.75 ], [ 434306.75, 439867.5 ], [ 434306.5, 439867.5 ], [ 434306.5, 439867.0 ], [ 434306.0, 439867.0 ], [ 434306.0, 439866.75 ], [ 434305.75, 439866.75 ], [ 434305.75, 439866.666500075021759 ], [ 434305.5, 439866.71198983915383 ], [ 434305.5, 439866.75 ], [ 434305.291105968644843, 439866.75 ], [ 434305.25, 439866.757479603285901 ], [ 434305.25, 439867.5 ], [ 434305.0, 439867.5 ], [ 434305.0, 439867.75 ], [ 434305.25, 439867.75 ], [ 434305.25, 439870.0 ], [ 434305.5, 439870.0 ], [ 434305.5, 439871.5 ], [ 434305.25, 439871.5 ], [ 434305.25, 439872.0 ], [ 434307.5, 439872.0 ], [ 434307.5, 439870.25 ], [ 434307.25, 439870.25 ] ] ] } },
{ "type": "Feature", "properties": { }, "geometry": { "type": "Polygon", "coordinates": [ [ [ 434339.0, 439867.75 ], [ 434339.0, 439861.25 ], [ 434338.75, 439861.25 ], [ 434338.75, 439860.661851208715234 ], [ 434322.75, 439863.57319611357525 ], [ 434322.75, 439864.25 ], [ 434322.5, 439864.25 ], [ 434322.5, 439864.75 ], [ 434322.75, 439864.75 ], [ 434322.75, 439866.5 ], [ 434323.0, 439866.5 ], [ 434323.0, 439872.0 ], [ 434338.75, 439872.0 ], [ 434338.75, 439867.75 ], [ 434339.0, 439867.75 ] ] ] } },
{ "type": "Feature", "properties": { }, "geometry": { "type": "Polygon", "coordinates": [ [ [ 434760.25, 439777.75 ], [ 434760.5, 439777.75 ], [ 434760.5, 439778.25 ], [ 434760.75, 439778.25 ], [ 434760.75, 439778.5 ], [ 434761.0, 439778.5 ], [ 434761.0, 439778.75 ], [ 434761.25, 439778.75 ], [ 434761.25, 439779.0 ], [ 434761.5, 439779.0 ], [ 434761.5, 439779.25 ], [ 434761.75, 439779.25 ], [ 434761.75, 439779.5 ], [ 434762.0, 439779.5 ], [ 434762.0, 439779.75 ], [ 434762.25, 439779.75 ], [ 434762.25, 439780.0 ], [ 434762.5, 439780.0 ], [ 434762.5, 439780.25 ], [ 434762.75, 439780.25 ], [ 434762.75, 439780.5 ], [ 434763.0, 439780.5 ], [ 434763.0, 439780.75 ], [ 434763.5, 439780.75 ], [ 434763.5, 439781.0 ], [ 434763.75, 439781.0 ], [ 434763.75, 439781.25 ], [ 434764.0, 439781.25 ], [ 434764.0, 439781.5 ], [ 434764.25, 439781.5 ], [ 434764.25, 439781.75 ], [ 434764.5, 439781.75 ], [ 434764.5, 439782.0 ], [ 434764.75, 439782.0 ], [ 434764.75, 439782.25 ], [ 434765.0, 439782.25 ], [ 434765.0, 439782.5 ], [ 434765.25, 439782.5 ], [ 434765.25, 439782.75 ], [ 434765.5, 439782.75 ], [ 434765.5, 439783.0 ], [ 434766.0, 439783.0 ], [ 434766.0, 439783.25 ], [ 434766.25, 439783.25 ], [ 434766.25, 439783.5 ], [ 434766.334844951808918, 439783.5 ], [ 434767.99075056950096, 439778.782928036584053 ], [ 434768.0, 439778.760111928626429 ], [ 434768.0, 439770.25 ], [ 434766.0, 439770.25 ], [ 434766.0, 439770.0 ], [ 434765.0, 439770.0 ], [ 434765.0, 439770.25 ], [ 434764.25, 439770.25 ], [ 434764.25, 439770.5 ], [ 434763.5, 439770.5 ], [ 434763.5, 439770.75 ], [ 434763.25, 439770.75 ], [ 434763.25, 439771.0 ], [ 434762.75, 439771.0 ], [ 434762.75, 439771.25 ], [ 434762.25, 439771.25 ], [ 434762.25, 439771.5 ], [ 434762.0, 439771.5 ], [ 434762.0, 439771.75 ], [ 434761.75, 439771.75 ], [ 434761.75, 439772.0 ], [ 434761.5, 439772.0 ], [ 434761.5, 439772.25 ], [ 434761.25, 439772.25 ], [ 434761.25, 439772.5 ], [ 434761.0, 439772.5 ], [ 434761.0, 439772.75 ], [ 434760.75, 439772.75 ], [ 434760.75, 439773.0 ], [ 434760.5, 439773.0 ], [ 434760.5, 439773.096104804368224 ], [ 434760.964959734759759, 439774.18931382347364 ], [ 434760.5, 439774.385638428095262 ], [ 434760.5, 439775.0 ], [ 434760.25, 439775.0 ], [ 434760.25, 439777.75 ] ] ] } },
{ "type": "Feature", "properties": { }, "geometry": { "type": "Polygon", "coordinates": [ [ [ 434988.0, 439766.0 ], [ 434988.0, 439765.75 ], [ 434988.25, 439765.75 ], [ 434988.25, 439764.5 ], [ 434987.75, 439764.5 ], [ 434987.75, 439764.25 ], [ 434986.75, 439764.25 ], [ 434986.75, 439764.5 ], [ 434986.25, 439764.5 ], [ 434986.25, 439765.75 ], [ 434986.5, 439765.75 ], [ 434986.5, 439766.0 ], [ 434986.75, 439766.0 ], [ 434986.75, 439766.25 ], [ 434987.75, 439766.25 ], [ 434987.75, 439766.0 ], [ 434988.0, 439766.0 ] ] ] } },
{ "type": "Feature", "properties": { }, "geometry": { "type": "Polygon", "coordinates": [ [ [ 434989.0, 439765.0 ], [ 434989.193940097407904, 439765.0 ], [ 434989.165142435696907, 439764.25 ], [ 434989.0, 439764.25 ], [ 434989.0, 439765.0 ] ] ] } },
{ "type": "Feature", "properties": { }, "geometry": { "type": "Polygon", "coordinates": [ [ [ 434600.75, 439716.75 ], [ 434600.75, 439715.25 ], [ 434600.5, 439715.25 ], [ 434600.5, 439714.25 ], [ 434600.25, 439714.25 ], [ 434600.25, 439712.25 ], [ 434600.0, 439712.25 ], [ 434600.0, 439711.0 ], [ 434599.75, 439711.0 ], [ 434599.75, 439709.75 ], [ 434599.5, 439709.75 ], [ 434599.5, 439709.25 ], [ 434599.25, 439709.25 ], [ 434599.25, 439709.0 ], [ 434599.0, 439709.0 ], [ 434599.0, 439708.75 ], [ 434598.75, 439708.75 ], [ 434598.75, 439708.5 ], [ 434598.25, 439708.5 ], [ 434598.25, 439708.25 ], [ 434597.75, 439708.25 ], [ 434597.75, 439708.0 ], [ 434593.0, 439708.0 ], [ 434593.0, 439708.25 ], [ 434591.5, 439708.25 ], [ 434591.5, 439708.5 ], [ 434590.5, 439708.5 ], [ 434590.5, 439708.75 ], [ 434589.5, 439708.75 ], [ 434589.5, 439709.0 ], [ 434588.5, 439709.0 ], [ 434588.5, 439709.25 ], [ 434588.0, 439709.25 ], [ 434588.0, 439709.5 ], [ 434587.75, 439709.5 ], [ 434587.75, 439709.75 ], [ 434587.5, 439709.75 ], [ 434587.5, 439710.0 ], [ 434586.75, 439710.0 ], [ 434586.75, 439710.25 ], [ 434586.25, 439710.25 ], [ 434586.25, 439710.75 ], [ 434586.0, 439710.75 ], [ 434586.0, 439711.75 ], [ 434585.75, 439711.75 ], [ 434585.75, 439712.0 ], [ 434585.5, 439712.0 ], [ 434585.5, 439712.75 ], [ 434585.25, 439712.75 ], [ 434585.25, 439714.40823338564951 ], [ 434596.704830910137389, 439713.189901922189165 ], [ 434597.334543812903576, 439719.110503203468397 ], [ 434601.0, 439719.076858470914885 ], [ 434601.0, 439716.75 ], [ 434600.75, 439716.75 ] ] ] } },
{ "type": "Feature", "properties": { }, "geometry": { "type": "Polygon", "coordinates": [ [ [ 434585.255107397970278, 439719.0 ], [ 434585.25, 439718.951979915145785 ], [ 434585.25, 439719.0 ], [ 434585.255107397970278, 439719.0 ] ] ] } },
{ "type": "Feature", "properties": { }, "geometry": { "type": "Polygon", "coordinates": [ [ [ 434585.68054587818915, 439723.0 ], [ 434585.5, 439721.302496021380648 ], [ 434585.5, 439723.0 ], [ 434585.68054587818915, 439723.0 ] ] ] } },
{ "type": "Feature", "properties": { }, "geometry": { "type": "Polygon", "coordinates": [ [ [ 434585.840085308300331, 439724.5 ], [ 434585.75, 439723.653012127673719 ], [ 434585.75, 439724.5 ], [ 434585.840085308300331, 439724.5 ] ] ] } },
{ "type": "Feature", "properties": { }, "geometry": { "type": "Polygon", "coordinates": [ [ [ 434715.75, 439650.0 ], [ 434716.0, 439650.0 ], [ 434716.0, 439650.5 ], [ 434716.25, 439650.5 ], [ 434716.25, 439650.75 ], [ 434716.5, 439650.75 ], [ 434716.5, 439651.0 ], [ 434716.75, 439651.0 ], [ 434716.75, 439651.25 ], [ 434717.0, 439651.25 ], [ 434717.0, 439651.5 ], [ 434717.25, 439651.5 ], [ 434717.25, 439651.75 ], [ 434717.75, 439651.75 ], [ 434717.75, 439652.0 ], [ 434718.25, 439652.0 ], [ 434718.25, 439652.25 ], [ 434718.75, 439652.25 ], [ 434718.75, 439652.5 ], [ 434719.75, 439652.5 ], [ 434719.75, 439652.75 ], [ 434720.5, 439652.75 ], [ 434720.5, 439653.0 ], [ 434722.5, 439653.0 ], [ 434722.5, 439653.25 ], [ 434723.75, 439653.25 ], [ 434723.75, 439653.5 ], [ 434725.0, 439653.5 ], [ 434725.0, 439653.75 ], [ 434726.0, 439653.75 ], [ 434726.0, 439654.0 ], [ 434726.5, 439654.0 ], [ 434726.5, 439654.25 ], [ 434727.25, 439654.25 ], [ 434727.25, 439654.5 ], [ 434728.233763377589639, 439654.5 ], [ 434734.319656569568906, 439642.869888571847696 ], [ 434734.667873910279013, 439642.277238290349487 ], [ 434739.05283888138365, 439635.589320068771485 ], [ 434739.376837956195232, 439635.135646452894434 ], [ 434741.75, 439632.077877966105007 ], [ 434741.75, 439632.0 ], [ 434741.5, 439632.0 ], [ 434741.5, 439631.5 ], [ 434741.25, 439631.5 ], [ 434741.25, 439631.0 ], [ 434741.0, 439631.0 ], [ 434741.0, 439630.75 ], [ 434740.5, 439630.75 ], [ 434740.5, 439630.5 ], [ 434740.25, 439630.5 ], [ 434740.25, 439630.25 ], [ 434739.75, 439630.25 ], [ 434739.75, 439630.0 ], [ 434739.25, 439630.0 ], [ 434739.25, 439629.75 ], [ 434738.75, 439629.75 ], [ 434738.75, 439629.5 ], [ 434737.75, 439629.5 ], [ 434737.75, 439629.25 ], [ 434736.25, 439629.25 ], [ 434736.25, 439629.0 ], [ 434735.25, 439629.0 ], [ 434735.25, 439628.75 ], [ 434734.5, 439628.75 ], [ 434734.5, 439628.5 ], [ 434733.75, 439628.5 ], [ 434733.75, 439628.25 ], [ 434732.5, 439628.25 ], [ 434732.5, 439628.0 ], [ 434728.5, 439628.0 ], [ 434728.5, 439627.75 ], [ 434727.0, 439627.75 ], [ 434727.0, 439627.5 ], [ 434726.25, 439627.5 ], [ 434726.25, 439627.25 ], [ 434725.75, 439627.25 ], [ 434725.75, 439627.0 ], [ 434725.25, 439627.0 ], [ 434725.25, 439626.75 ], [ 434725.0, 439626.75 ], [ 434725.0, 439626.5 ], [ 434724.75, 439626.5 ], [ 434724.75, 439626.25 ], [ 434724.25, 439626.25 ], [ 434724.25, 439626.0 ], [ 434722.75, 439626.0 ], [ 434722.75, 439625.75 ], [ 434721.5, 439625.75 ], [ 434721.5, 439626.0 ], [ 434720.75, 439626.0 ], [ 434720.75, 439626.25 ], [ 434720.25, 439626.25 ], [ 434720.25, 439626.5 ], [ 434720.0, 439626.5 ], [ 434720.0, 439626.75 ], [ 434719.75, 439626.75 ], [ 434719.75, 439627.0 ], [ 434719.5, 439627.0 ], [ 434719.5, 439627.5 ], [ 434719.25, 439627.5 ], [ 434719.25, 439628.0 ], [ 434719.0, 439628.0 ], [ 434719.0, 439628.25 ], [ 434718.75, 439628.25 ], [ 434718.75, 439628.75 ], [ 434718.585553211974911, 439628.75 ], [ 434718.5, 439629.285181625455152 ], [ 434718.5, 439629.75 ], [ 434718.425694936013315, 439629.75 ], [ 434717.592285289545543, 439634.963428216637112 ], [ 434719.274439668166451, 439635.231810176977888 ], [ 434718.867264512402471, 439637.799029447021894 ], [ 434717.1785327171674, 439637.530598863377236 ], [ 434715.5, 439647.98148987442255 ], [ 434715.5, 439649.25 ], [ 434715.75, 439649.25 ], [ 434715.75, 439650.0 ] ] ] } },
{ "type": "Feature", "properties": { }, "geometry": { "type": "Polygon", "coordinates": [ [ [ 434387.0, 439624.25 ], [ 434387.0, 439624.0 ], [ 434387.5, 439624.0 ], [ 434387.5, 439623.75 ], [ 434388.0, 439623.75 ], [ 434388.0, 439623.5 ], [ 434388.25, 439623.5 ], [ 434388.25, 439623.25 ], [ 434388.5, 439623.25 ], [ 434388.5, 439623.0 ], [ 434388.75, 439623.0 ], [ 434388.75, 439622.75 ], [ 434389.0, 439622.75 ], [ 434389.0, 439622.0 ], [ 434389.25, 439622.0 ], [ 434389.25, 439621.25 ], [ 434389.5, 439621.25 ], [ 434389.5, 439620.75 ], [ 434389.75, 439620.75 ], [ 434389.75, 439619.75 ], [ 434390.0, 439619.75 ], [ 434390.0, 439619.5 ], [ 434390.25, 439619.5 ], [ 434390.25, 439619.0 ], [ 434390.5, 439619.0 ], [ 434390.5, 439618.5 ], [ 434390.25, 439618.5 ], [ 434390.25, 439618.25 ], [ 434390.0, 439618.25 ], [ 434390.0, 439617.25 ], [ 434390.25, 439617.25 ], [ 434390.25, 439617.0 ], [ 434390.5, 439617.0 ], [ 434390.5, 439616.75 ], [ 434391.75, 439616.75 ], [ 434391.75, 439616.0 ], [ 434384.0, 439616.0 ], [ 434384.0, 439624.5 ], [ 434386.5, 439624.5 ], [ 434386.5, 439624.25 ], [ 434387.0, 439624.25 ] ] ] } },
{ "type": "Feature", "properties": { }, "geometry": { "type": "Polygon", "coordinates": [ [ [ 434383.5, 439614.25 ], [ 434383.5, 439614.5 ], [ 434384.0, 439614.5 ], [ 434384.0, 439614.25 ], [ 434383.5, 439614.25 ] ] ] } },
{ "type": "Feature", "properties": { }, "geometry": { "type": "Polygon", "coordinates": [ [ [ 434374.25, 439611.25 ], [ 434374.25, 439612.0 ], [ 434374.5, 439612.0 ], [ 434374.5, 439612.25 ], [ 434374.75, 439612.25 ], [ 434374.75, 439611.25 ], [ 434374.25, 439611.25 ] ] ] } },
{ "type": "Feature", "properties": { }, "geometry": { "type": "Polygon", "coordinates": [ [ [ 434618.25, 439609.25 ], [ 434618.25, 439609.0 ], [ 434617.25, 439609.0 ], [ 434617.25, 439609.25 ], [ 434615.5, 439609.25 ], [ 434615.5, 439609.5 ], [ 434614.25, 439609.5 ], [ 434614.25, 439609.75 ], [ 434614.0, 439609.75 ], [ 434614.0, 439610.0 ], [ 434613.75, 439610.0 ], [ 434613.75, 439610.25 ], [ 434613.5, 439610.25 ], [ 434613.5, 439610.5 ], [ 434613.25, 439610.5 ], [ 434613.25, 439611.0 ], [ 434613.0, 439611.0 ], [ 434613.0, 439611.25 ], [ 434612.75, 439611.25 ], [ 434612.75, 439611.5 ], [ 434612.5, 439611.5 ], [ 434612.5, 439612.0 ], [ 434612.25, 439612.0 ], [ 434612.25, 439612.25 ], [ 434612.0, 439612.25 ], [ 434612.0, 439613.0 ], [ 434611.75, 439613.0 ], [ 434611.75, 439613.5 ], [ 434611.5, 439613.5 ], [ 434611.5, 439614.5 ], [ 434611.25, 439614.5 ], [ 434611.25, 439614.75 ], [ 434611.5, 439614.75 ], [ 434611.5, 439616.0 ], [ 434609.75, 439616.0 ], [ 434609.75, 439617.5 ], [ 434609.5, 439617.5 ], [ 434609.5, 439618.75 ], [ 434609.25, 439618.75 ], [ 434609.25, 439619.75 ], [ 434609.0, 439619.75 ], [ 434609.0, 439624.25 ], [ 434609.25, 439624.25 ], [ 434609.25, 439625.0 ], [ 434609.5, 439625.0 ], [ 434609.5, 439625.5 ], [ 434610.0, 439625.5 ], [ 434610.0, 439625.75 ], [ 434610.25, 439625.75 ], [ 434610.25, 439626.0 ], [ 434610.5, 439626.0 ], [ 434610.5, 439626.25 ], [ 434611.0, 439626.25 ], [ 434611.0, 439626.5 ], [ 434611.5, 439626.5 ], [ 434611.5, 439626.75 ], [ 434612.5, 439626.75 ], [ 434612.5, 439627.0 ], [ 434613.75, 439627.0 ], [ 434613.75, 439627.25 ], [ 434615.0, 439627.25 ], [ 434615.0, 439627.5 ], [ 434616.75, 439627.5 ], [ 434616.75, 439627.75 ], [ 434619.0, 439627.75 ], [ 434619.0, 439628.0 ], [ 434620.0, 439628.0 ], [ 434620.0, 439627.75 ], [ 434620.75, 439627.75 ], [ 434620.75, 439627.5 ], [ 434621.25, 439627.5 ], [ 434621.25, 439627.25 ], [ 434621.75, 439627.25 ], [ 434621.75, 439627.0 ], [ 434622.0, 439627.0 ], [ 434622.0, 439626.75 ], [ 434622.5, 439626.75 ], [ 434622.5, 439626.5 ], [ 434622.75, 439626.5 ], [ 434622.75, 439626.0 ], [ 434623.0, 439626.0 ], [ 434623.0, 439625.75 ], [ 434623.25, 439625.75 ], [ 434623.25, 439625.25 ], [ 434623.5, 439625.25 ], [ 434623.5, 439625.0 ], [ 434623.75, 439625.0 ], [ 434623.75, 439624.5 ], [ 434624.0, 439624.5 ], [ 434624.0, 439624.0 ], [ 434624.25, 439624.0 ], [ 434624.25, 439623.5 ], [ 434624.5, 439623.5 ], [ 434624.5, 439623.25 ], [ 434624.75, 439623.25 ], [ 434624.75, 439623.0 ], [ 434625.0, 439623.0 ], [ 434625.0, 439622.75 ], [ 434625.25, 439622.75 ], [ 434625.25, 439622.5 ], [ 434625.5, 439622.5 ], [ 434625.5, 439622.25 ], [ 434625.75, 439622.25 ], [ 434625.75, 439622.0 ], [ 434626.0, 439622.0 ], [ 434626.0, 439621.75 ], [ 434626.5, 439621.75 ], [ 434626.5, 439621.5 ], [ 434626.75, 439621.5 ], [ 434626.75, 439621.25 ], [ 434627.0, 439621.25 ], [ 434627.0, 439621.0 ], [ 434627.25, 439621.0 ], [ 434627.25, 439620.75 ], [ 434628.75, 439620.75 ], [ 434628.75, 439620.5 ], [ 434629.75, 439620.5 ], [ 434629.75, 439620.25 ], [ 434630.25, 439620.25 ], [ 434630.25, 439620.0 ], [ 434630.75, 439620.0 ], [ 434630.75, 439619.75 ], [ 434631.25, 439619.75 ], [ 434631.25, 439619.5 ], [ 434632.0, 439619.5 ], [ 434632.0, 439619.25 ], [ 434633.5, 439619.25 ], [ 434633.5, 439619.0 ], [ 434634.0, 439619.0 ], [ 434634.0, 439618.75 ], [ 434634.25, 439618.75 ], [ 434634.25, 439618.25 ], [ 434634.5, 439618.25 ], [ 434634.5, 439617.5 ], [ 434634.75, 439617.5 ], [ 434634.75, 439616.0 ], [ 434640.0, 439616.0 ], [ 434640.0, 439612.75 ], [ 434638.25, 439612.75 ], [ 434638.25, 439612.5 ], [ 434637.5, 439612.5 ], [ 434637.5, 439612.25 ], [ 434637.25, 439612.25 ], [ 434637.25, 439612.0 ], [ 434636.75, 439612.0 ], [ 434636.75, 439611.75 ], [ 434636.25, 439611.75 ], [ 434636.25, 439611.5 ], [ 434635.75, 439611.5 ], [ 434635.75, 439611.25 ], [ 434635.0, 439611.25 ], [ 434635.0, 439611.0 ], [ 434634.25, 439611.0 ], [ 434634.25, 439610.75 ], [ 434633.25, 439610.75 ], [ 434633.25, 439610.5 ], [ 434630.25, 439610.5 ], [ 434630.25, 439610.25 ], [ 434626.25, 439610.25 ], [ 434626.25, 439610.0 ], [ 434625.0, 439610.0 ], [ 434625.0, 439609.75 ], [ 434624.25, 439609.75 ], [ 434624.25, 439609.5 ], [ 434622.25, 439609.5 ], [ 434622.25, 439609.25 ], [ 434620.75, 439609.25 ], [ 434620.75, 439609.00958255288424 ], [ 434620.690206235216465, 439609.0 ], [ 434620.25, 439609.0 ], [ 434620.25, 439609.25 ], [ 434618.25, 439609.25 ] ] ] } },
{ "type": "Feature", "properties": { }, "geometry": { "type": "Polygon", "coordinates": [ [ [ 434686.75, 439607.0 ], [ 434686.75, 439606.0 ], [ 434686.5, 439606.0 ], [ 434686.5, 439605.75 ], [ 434686.25, 439605.75 ], [ 434686.25, 439605.5 ], [ 434685.5, 439605.5 ], [ 434685.5, 439605.25 ], [ 434685.0, 439605.25 ], [ 434685.0, 439605.0 ], [ 434684.75, 439605.0 ], [ 434684.75, 439604.75 ], [ 434683.5, 439604.75 ], [ 434683.5, 439605.0 ], [ 434683.25, 439605.0 ], [ 434683.25, 439605.25 ], [ 434683.0, 439605.25 ], [ 434683.0, 439605.75 ], [ 434683.5, 439605.75 ], [ 434683.5, 439606.0 ], [ 434683.75, 439606.0 ], [ 434683.75, 439606.25 ], [ 434684.0, 439606.25 ], [ 434684.0, 439606.5 ], [ 434684.75, 439606.5 ], [ 434684.75, 439606.75 ], [ 434685.25, 439606.75 ], [ 434685.25, 439607.0 ], [ 434686.0, 439607.0 ], [ 434686.0, 439607.25 ], [ 434686.5, 439607.25 ], [ 434686.5, 439607.0 ], [ 434686.75, 439607.0 ] ] ] } },
{ "type": "Feature", "properties": { }, "geometry": { "type": "Polygon", "coordinates": [ [ [ 434894.75, 439604.5 ], [ 434894.75, 439604.75 ], [ 434894.0, 439604.75 ], [ 434894.0, 439605.0 ], [ 434893.5, 439605.0 ], [ 434893.5, 439605.25 ], [ 434893.25, 439605.25 ], [ 434893.25, 439605.5 ], [ 434893.0, 439605.5 ], [ 434893.0, 439605.75 ], [ 434892.75, 439605.75 ], [ 434892.75, 439606.0 ], [ 434892.5, 439606.0 ], [ 434892.5, 439606.25 ], [ 434892.25, 439606.25 ], [ 434892.25, 439606.5 ], [ 434892.0, 439606.5 ], [ 434892.0, 439607.0 ], [ 434891.75, 439607.0 ], [ 434891.75, 439607.25 ], [ 434891.5, 439607.25 ], [ 434891.5, 439607.5 ], [ 434891.25, 439607.5 ], [ 434891.25, 439608.0 ], [ 434891.0, 439608.0 ], [ 434891.0, 439608.5 ], [ 434890.75, 439608.5 ], [ 434890.75, 439608.75 ], [ 434890.5, 439608.75 ], [ 434890.5, 439609.25 ], [ 434890.25, 439609.25 ], [ 434890.25, 439609.5 ], [ 434890.0, 439609.5 ], [ 434890.0, 439610.25 ], [ 434889.75, 439610.25 ], [ 434889.75, 439610.75 ], [ 434889.5, 439610.75 ], [ 434889.5, 439611.25 ], [ 434889.25, 439611.25 ], [ 434889.25, 439611.75 ], [ 434889.0, 439611.75 ], [ 434889.0, 439612.5 ], [ 434888.75, 439612.5 ], [ 434888.75, 439613.5 ], [ 434888.5, 439613.5 ], [ 434888.5, 439614.25 ], [ 434888.25, 439614.25 ], [ 434888.25, 439616.0 ], [ 434896.0, 439616.0 ], [ 434896.0, 439604.5 ], [ 434894.75, 439604.5 ] ] ] } },
{ "type": "Feature", "properties": { }, "geometry": { "type": "Polygon", "coordinates": [ [ [ 434681.25, 439604.75 ], [ 434681.25, 439604.25 ], [ 434680.75, 439604.25 ], [ 434680.75, 439604.0 ], [ 434678.25, 439604.0 ], [ 434678.25, 439604.25 ], [ 434678.0, 439604.25 ], [ 434678.0, 439604.5 ], [ 434678.25, 439604.5 ], [ 434678.25, 439604.75 ], [ 434678.5, 439604.75 ], [ 434678.5, 439605.0 ], [ 434681.0, 439605.0 ], [ 434681.0, 439604.75 ], [ 434681.25, 439604.75 ] ] ] } },
{ "type": "Feature", "properties": { }, "geometry": { "type": "Polygon", "coordinates": [ [ [ 434579.5, 439614.75 ], [ 434579.5, 439614.25 ], [ 434579.25, 439614.25 ], [ 434579.25, 439613.25 ], [ 434579.0, 439613.25 ], [ 434579.0, 439612.0 ], [ 434578.75, 439612.0 ], [ 434578.75, 439611.5 ], [ 434578.5, 439611.5 ], [ 434578.5, 439611.0 ], [ 434578.25, 439611.0 ], [ 434578.25, 439610.75 ], [ 434577.75, 439610.75 ], [ 434577.75, 439610.5 ], [ 434577.5, 439610.5 ], [ 434577.5, 439610.25 ], [ 434577.25, 439610.25 ], [ 434577.25, 439610.0 ], [ 434577.0, 439610.0 ], [ 434577.0, 439609.5 ], [ 434576.75, 439609.5 ], [ 434576.75, 439609.0 ], [ 434576.5, 439609.0 ], [ 434576.5, 439608.75 ], [ 434576.25, 439608.75 ], [ 434576.25, 439608.25 ], [ 434576.0, 439608.25 ], [ 434576.0, 439607.75 ], [ 434575.75, 439607.75 ], [ 434575.75, 439607.25 ], [ 434575.5, 439607.25 ], [ 434575.5, 439606.75 ], [ 434575.25, 439606.75 ], [ 434575.25, 439606.25 ], [ 434575.0, 439606.25 ], [ 434575.0, 439606.0 ], [ 434574.75, 439606.0 ], [ 434574.75, 439605.5 ], [ 434574.5, 439605.5 ], [ 434574.5, 439605.25 ], [ 434574.25, 439605.25 ], [ 434574.25, 439605.0 ], [ 434574.0, 439605.0 ], [ 434574.0, 439604.75 ], [ 434573.5, 439604.75 ], [ 434573.5, 439604.5 ], [ 434572.25, 439604.5 ], [ 434572.25, 439604.25 ], [ 434568.5, 439604.25 ], [ 434568.5, 439604.0 ], [ 434566.5, 439604.0 ], [ 434566.5, 439603.75 ], [ 434563.5, 439603.75 ], [ 434563.5, 439604.0 ], [ 434560.25, 439604.0 ], [ 434560.25, 439604.25 ], [ 434558.25, 439604.25 ], [ 434558.25, 439604.5 ], [ 434556.5, 439604.5 ], [ 434556.5, 439604.75 ], [ 434555.25, 439604.75 ], [ 434555.25, 439605.0 ], [ 434554.75, 439605.0 ], [ 434554.75, 439605.25 ], [ 434554.5, 439605.25 ], [ 434554.5, 439605.5 ], [ 434554.0, 439605.5 ], [ 434554.0, 439605.75 ], [ 434553.75, 439605.75 ], [ 434553.75, 439606.0 ], [ 434553.5, 439606.0 ], [ 434553.5, 439606.25 ], [ 434553.25, 439606.25 ], [ 434553.25, 439606.75 ], [ 434553.0, 439606.75 ], [ 434553.0, 439607.0 ], [ 434552.75, 439607.0 ], [ 434552.75, 439607.25 ], [ 434552.5, 439607.25 ], [ 434552.5, 439607.5 ], [ 434552.25, 439607.5 ], [ 434552.25, 439607.75 ], [ 434552.0, 439607.75 ], [ 434552.0, 439608.0 ], [ 434551.5, 439608.0 ], [ 434551.5, 439608.25 ], [ 434551.25, 439608.25 ], [ 434551.25, 439608.5 ], [ 434551.0, 439608.5 ], [ 434551.0, 439608.646835010964423 ], [ 434562.534582482650876, 439609.840976438601501 ], [ 434574.833224649890326, 439611.111101221002173 ], [ 434574.328330580028705, 439616.0 ], [ 434579.25, 439616.0 ], [ 434579.25, 439614.75 ], [ 434579.5, 439614.75 ] ] ] } },
{ "type": "Feature", "properties": { }, "geometry": { "type": "Polygon", "coordinates": [ [ [ 434550.75, 439609.25 ], [ 434550.5, 439609.25 ], [ 434550.5, 439609.5 ], [ 434550.25, 439609.5 ], [ 434550.25, 439610.25 ], [ 434550.0, 439610.25 ], [ 434550.0, 439611.0 ], [ 434549.75, 439611.0 ], [ 434549.75, 439611.5 ], [ 434549.5, 439611.5 ], [ 434549.5, 439614.0 ], [ 434549.75, 439614.0 ], [ 434549.75, 439616.0 ], [ 434550.084422272047959, 439616.0 ], [ 434550.809111701149959, 439609.0 ], [ 434550.75, 439609.0 ], [ 434550.75, 439609.25 ] ] ] } },
{ "type": "Feature", "properties": { }, "geometry": { "type": "Polygon", "coordinates": [ [ [ 434681.5, 439615.0 ], [ 434681.5, 439615.25 ], [ 434682.5, 439615.25 ], [ 434682.5, 439615.5 ], [ 434682.75, 439615.5 ], [ 434682.75, 439616.0 ], [ 434694.5, 439616.0 ], [ 434694.5, 439613.75 ], [ 434694.25, 439613.75 ], [ 434694.25, 439612.75 ], [ 434694.0, 439612.75 ], [ 434694.0, 439607.75 ], [ 434694.25, 439607.75 ], [ 434694.25, 439607.25 ], [ 434694.0, 439607.25 ], [ 434694.0, 439606.0 ], [ 434693.75, 439606.0 ], [ 434693.75, 439605.75 ], [ 434692.75, 439605.75 ], [ 434692.75, 439606.0 ], [ 434692.0, 439606.0 ], [ 434692.0, 439606.25 ], [ 434691.25, 439606.25 ], [ 434691.25, 439608.25 ], [ 434691.5, 439608.25 ], [ 434691.5, 439610.5 ], [ 434691.0, 439610.5 ], [ 434691.0, 439610.75 ], [ 434689.75, 439610.75 ], [ 434689.75, 439611.0 ], [ 434689.0, 439611.0 ], [ 434689.0, 439611.25 ], [ 434687.75, 439611.25 ], [ 434687.75, 439611.5 ], [ 434687.5, 439611.5 ], [ 434687.5, 439611.75 ], [ 434687.25, 439611.75 ], [ 434687.25, 439612.5 ], [ 434686.75, 439612.5 ], [ 434686.75, 439612.75 ], [ 434686.5, 439612.75 ], [ 434686.5, 439612.5 ], [ 434686.25, 439612.5 ], [ 434686.25, 439612.25 ], [ 434685.75, 439612.25 ], [ 434685.75, 439612.0 ], [ 434685.25, 439612.0 ], [ 434685.25, 439612.25 ], [ 434684.5, 439612.25 ], [ 434684.5, 439612.5 ], [ 434683.25, 439612.5 ], [ 434683.25, 439612.75 ], [ 434683.0, 439612.75 ], [ 434683.0, 439613.0 ], [ 434682.5, 439613.0 ], [ 434682.5, 439613.25 ], [ 434680.75, 439613.25 ], [ 434680.75, 439613.0 ], [ 434680.25, 439613.0 ], [ 434680.25, 439613.25 ], [ 434680.0, 439613.25 ], [ 434680.0, 439613.5 ], [ 434679.75, 439613.5 ], [ 434679.75, 439613.75 ], [ 434679.5, 439613.75 ], [ 434679.5, 439614.0 ], [ 434679.25, 439614.0 ], [ 434679.25, 439614.25 ], [ 434678.0, 439614.25 ], [ 434678.0, 439614.0 ], [ 434677.75, 439614.0 ], [ 434677.75, 439613.75 ], [ 434677.5, 439613.75 ], [ 434677.5, 439613.5 ], [ 434677.25, 439613.5 ], [ 434677.25, 439613.25 ], [ 434677.0, 439613.25 ], [ 434677.0, 439613.0 ], [ 434676.5, 439613.0 ], [ 434676.5, 439612.75 ], [ 434676.0, 439612.75 ], [ 434676.0, 439613.0 ], [ 434675.25, 439613.0 ], [ 434675.25, 439612.75 ], [ 434675.0, 439612.75 ], [ 434675.0, 439612.5 ], [ 434674.5, 439612.5 ], [ 434674.5, 439612.25 ], [ 434674.25, 439612.25 ], [ 434674.25, 439612.0 ], [ 434673.75, 439612.0 ], [ 434673.75, 439611.75 ], [ 434673.5, 439611.75 ], [ 434673.5, 439611.5 ], [ 434669.25, 439611.5 ], [ 434669.25, 439611.75 ], [ 434668.75, 439611.75 ], [ 434668.75, 439612.0 ], [ 434668.25, 439612.0 ], [ 434668.25, 439611.75 ], [ 434668.0, 439611.75 ], [ 434668.0, 439611.5 ], [ 434667.75, 439611.5 ], [ 434667.75, 439611.25 ], [ 434666.0, 439611.25 ], [ 434666.0, 439611.0 ], [ 434665.5, 439611.0 ], [ 434665.5, 439610.75 ], [ 434665.25, 439610.75 ], [ 434665.25, 439610.5 ], [ 434665.0, 439610.5 ], [ 434665.0, 439610.0 ], [ 434664.75, 439610.0 ], [ 434664.75, 439609.25 ], [ 434664.5, 439609.25 ], [ 434664.5, 439608.5 ], [ 434664.25, 439608.5 ], [ 434664.25, 439607.25 ], [ 434664.0, 439607.25 ], [ 434664.0, 439606.5 ], [ 434663.75, 439606.5 ], [ 434663.75, 439606.25 ], [ 434664.0, 439606.25 ], [ 434664.0, 439605.25 ], [ 434664.25, 439605.25 ], [ 434664.25, 439604.5 ], [ 434664.5, 439604.5 ], [ 434664.5, 439604.0 ], [ 434664.75, 439604.0 ], [ 434664.75, 439603.75 ], [ 434665.25, 439603.75 ], [ 434665.25, 439603.5 ], [ 434666.5, 439603.5 ], [ 434666.5, 439603.75 ], [ 434666.75, 439603.75 ], [ 434666.75, 439604.0 ], [ 434667.0, 439604.0 ], [ 434667.0, 439604.25 ], [ 434670.0, 439604.25 ], [ 434670.0, 439604.0 ], [ 434671.5, 439604.0 ], [ 434671.5, 439604.25 ], [ 434672.0, 439604.25 ], [ 434672.0, 439604.5 ], [ 434672.25, 439604.5 ], [ 434672.25, 439604.75 ], [ 434674.25, 439604.75 ], [ 434674.25, 439604.5 ], [ 434675.0, 439604.5 ], [ 434675.0, 439604.75 ], [ 434675.5, 439604.75 ], [ 434675.5, 439604.5 ], [ 434675.75, 439604.5 ], [ 434675.75, 439604.25 ], [ 434676.0, 439604.25 ], [ 434676.0, 439603.5 ], [ 434676.25, 439603.5 ], [ 434676.25, 439603.25 ], [ 434677.0, 439603.25 ], [ 434677.0, 439603.0 ], [ 434677.5, 439603.0 ], [ 434677.5, 439602.75 ], [ 434677.75, 439602.75 ], [ 434677.75, 439602.5 ], [ 434677.5, 439602.5 ], [ 434677.5, 439602.25 ], [ 434676.25, 439602.25 ], [ 434676.25, 439602.0 ], [ 434675.75, 439602.0 ], [ 434675.75, 439601.75 ], [ 434675.25, 439601.75 ], [ 434675.25, 439601.5 ], [ 434673.5, 439601.5 ], [ 434673.5, 439601.75 ], [ 434672.5, 439601.75 ], [ 434672.5, 439602.0 ], [ 434670.25, 439602.0 ], [ 434670.25, 439601.75 ], [ 434669.0, 439601.75 ], [ 434669.0, 439602.0 ], [ 434665.75, 439602.0 ], [ 434665.75, 439601.75 ], [ 434665.25, 439601.75 ], [ 434665.25, 439601.5 ], [ 434664.75, 439601.5 ], [ 434664.75, 439601.25 ], [ 434662.5, 439601.25 ], [ 434662.5, 439601.5 ], [ 434662.25, 439601.5 ], [ 434662.25, 439601.75 ], [ 434662.0, 439601.75 ], [ 434662.0, 439602.0 ], [ 434661.75, 439602.0 ], [ 434661.75, 439602.25 ], [ 434661.5, 439602.25 ], [ 434661.5, 439602.5 ], [ 434661.25, 439602.5 ], [ 434661.25, 439604.25 ], [ 434661.5, 439604.25 ], [ 434661.5, 439605.0 ], [ 434661.25, 439605.0 ], [ 434661.25, 439606.25 ], [ 434661.0, 439606.25 ], [ 434661.0, 439607.25 ], [ 434660.75, 439607.25 ], [ 434660.75, 439607.75 ], [ 434660.5, 439607.75 ], [ 434660.5, 439608.5 ], [ 434660.25, 439608.5 ], [ 434660.25, 439609.75 ], [ 434660.0, 439609.75 ], [ 434660.0, 439610.0 ], [ 434659.75, 439610.0 ], [ 434659.75, 439610.5 ], [ 434659.5, 439610.5 ], [ 434659.5, 439611.0 ], [ 434659.25, 439611.0 ], [ 434659.25, 439611.75 ], [ 434659.0, 439611.75 ], [ 434659.0, 439612.5 ], [ 434658.75, 439612.5 ], [ 434658.75, 439613.25 ], [ 434658.5, 439613.25 ], [ 434658.5, 439616.0 ], [ 434678.5, 439616.0 ], [ 434678.5, 439615.0 ], [ 434681.5, 439615.0 ] ] ] } },
{ "type": "Feature", "properties": { }, "geometry": { "type": "Polygon", "coordinates": [ [ [ 434377.75, 439602.0 ], [ 434376.5, 439602.0 ], [ 434376.5, 439602.25 ], [ 434375.25, 439602.25 ], [ 434375.25, 439603.25 ], [ 434375.5, 439603.25 ], [ 434375.5, 439603.5 ], [ 434375.25, 439603.5 ], [ 434375.25, 439603.75 ], [ 434375.0, 439603.75 ], [ 434375.0, 439604.0 ], [ 434374.75, 439604.0 ], [ 434374.75, 439604.25 ], [ 434374.25, 439604.25 ], [ 434374.25, 439604.0 ], [ 434373.75, 439604.0 ], [ 434373.75, 439603.75 ], [ 434373.5, 439603.75 ], [ 434373.5, 439603.5 ], [ 434373.25, 439603.5 ], [ 434373.25, 439603.0 ], [ 434373.0, 439603.0 ], [ 434373.0, 439602.5 ], [ 434372.75, 439602.5 ], [ 434372.75, 439602.25 ], [ 434372.5, 439602.25 ], [ 434372.5, 439602.0 ], [ 434372.25, 439602.0 ], [ 434372.25, 439601.75 ], [ 434372.0, 439601.75 ], [ 434372.0, 439601.5 ], [ 434371.25, 439601.5 ], [ 434371.25, 439601.75 ], [ 434371.0, 439601.75 ], [ 434371.0, 439602.25 ], [ 434370.75, 439602.25 ], [ 434370.75, 439603.25 ], [ 434370.5, 439603.25 ], [ 434370.5, 439605.5 ], [ 434370.75, 439605.5 ], [ 434370.75, 439605.75 ], [ 434371.0, 439605.75 ], [ 434371.0, 439606.0 ], [ 434371.25, 439606.0 ], [ 434371.25, 439606.25 ], [ 434371.5, 439606.25 ], [ 434371.5, 439606.5 ], [ 434372.0, 439606.5 ], [ 434372.0, 439606.75 ], [ 434372.25, 439606.75 ], [ 434372.25, 439607.0 ], [ 434372.5, 439607.0 ], [ 434372.5, 439607.25 ], [ 434373.0, 439607.25 ], [ 434373.0, 439607.5 ], [ 434373.5, 439607.5 ], [ 434373.5, 439607.75 ], [ 434373.75, 439607.75 ], [ 434373.75, 439607.5 ], [ 434374.25, 439607.5 ], [ 434374.25, 439606.75 ], [ 434374.0, 439606.75 ], [ 434374.0, 439606.25 ], [ 434374.25, 439606.25 ], [ 434374.25, 439605.75 ], [ 434374.5, 439605.75 ], [ 434374.5, 439606.0 ], [ 434374.75, 439606.0 ], [ 434374.75, 439607.25 ], [ 434374.5, 439607.25 ], [ 434374.5, 439607.5 ], [ 434374.75, 439607.5 ], [ 434374.75, 439607.75 ], [ 434375.0, 439607.75 ], [ 434375.0, 439608.25 ], [ 434375.25, 439608.25 ], [ 434375.25, 439608.5 ], [ 434375.5, 439608.5 ], [ 434375.5, 439608.75 ], [ 434376.25, 439608.75 ], [ 434376.25, 439608.5 ], [ 434377.25, 439608.5 ], [ 434377.25, 439608.25 ], [ 434377.75, 439608.25 ], [ 434377.75, 439608.5 ], [ 434378.0, 439608.5 ], [ 434378.0, 439608.75 ], [ 434379.25, 439608.75 ], [ 434379.25, 439609.0 ], [ 434379.75, 439609.0 ], [ 434379.75, 439609.25 ], [ 434380.25, 439609.25 ], [ 434380.25, 439609.5 ], [ 434381.75, 439609.5 ], [ 434381.75, 439609.25 ], [ 434382.75, 439609.25 ], [ 434382.75, 439609.0 ], [ 434384.0, 439609.0 ], [ 434384.0, 439601.498674835369457 ], [ 434378.25, 439601.526649048959371 ], [ 434378.25, 439601.75 ], [ 434377.75, 439601.75 ], [ 434377.75, 439602.0 ] ] ] } },
{ "type": "Feature", "properties": { }, "geometry": { "type": "Polygon", "coordinates": [ [ [ 434129.0, 439526.25 ], [ 434129.0, 439526.0 ], [ 434129.25, 439526.0 ], [ 434129.25, 439525.75 ], [ 434129.5, 439525.75 ], [ 434129.5, 439525.25 ], [ 434129.75, 439525.25 ], [ 434129.75, 439523.0 ], [ 434130.0, 439523.0 ], [ 434130.0, 439522.0 ], [ 434129.75, 439522.0 ], [ 434129.75, 439521.0 ], [ 434130.0, 439521.0 ], [ 434130.0, 439520.25 ], [ 434130.25, 439520.25 ], [ 434130.25, 439519.75 ], [ 434130.5, 439519.75 ], [ 434130.5, 439519.0 ], [ 434130.25, 439519.0 ], [ 434130.25, 439518.25 ], [ 434130.0, 439518.25 ], [ 434130.0, 439518.0 ], [ 434129.75, 439518.0 ], [ 434129.75, 439517.75 ], [ 434129.5, 439517.75 ], [ 434129.5, 439517.5 ], [ 434129.25, 439517.5 ], [ 434129.25, 439517.0 ], [ 434129.0, 439517.0 ], [ 434129.0, 439516.75 ], [ 434128.75, 439516.75 ], [ 434128.75, 439516.25 ], [ 434128.5, 439516.25 ], [ 434128.5, 439515.25 ], [ 434128.0, 439515.25 ], [ 434128.0, 439526.5 ], [ 434128.75, 439526.5 ], [ 434128.75, 439526.25 ], [ 434129.0, 439526.25 ] ] ] } },
{ "type": "Feature", "properties": { }, "geometry": { "type": "Polygon", "coordinates": [ [ [ 434156.75, 439230.5 ], [ 434156.75, 439230.0 ], [ 434156.5, 439230.0 ], [ 434156.5, 439229.75 ], [ 434156.25, 439229.75 ], [ 434156.25, 439229.5 ], [ 434156.0, 439229.5 ], [ 434156.0, 439229.25 ], [ 434155.5, 439229.25 ], [ 434155.5, 439229.0 ], [ 434155.0, 439229.0 ], [ 434155.0, 439228.75 ], [ 434154.75, 439228.75 ], [ 434154.75, 439228.5 ], [ 434154.25, 439228.5 ], [ 434154.25, 439228.25 ], [ 434153.5, 439228.25 ], [ 434153.5, 439228.0 ], [ 434152.75, 439228.0 ], [ 434152.75, 439227.75 ], [ 434152.25, 439227.75 ], [ 434152.25, 439227.5 ], [ 434151.75, 439227.5 ], [ 434151.75, 439227.25 ], [ 434151.5, 439227.25 ], [ 434151.5, 439227.0 ], [ 434151.0, 439227.0 ], [ 434151.0, 439226.75 ], [ 434150.75, 439226.75 ], [ 434150.75, 439226.5 ], [ 434150.0, 439226.5 ], [ 434150.0, 439226.25 ], [ 434149.25, 439226.25 ], [ 434149.25, 439226.0 ], [ 434148.5, 439226.0 ], [ 434148.5, 439225.75 ], [ 434148.0, 439225.75 ], [ 434148.0, 439225.5 ], [ 434147.5, 439225.5 ], [ 434147.5, 439225.25 ], [ 434146.5, 439225.25 ], [ 434146.5, 439225.0 ], [ 434145.75, 439225.0 ], [ 434145.75, 439224.75 ], [ 434145.25, 439224.75 ], [ 434145.25, 439224.5 ], [ 434144.5, 439224.5 ], [ 434144.5, 439224.25 ], [ 434143.5, 439224.25 ], [ 434143.5, 439224.0 ], [ 434143.0, 439224.0 ], [ 434143.0, 439223.75 ], [ 434142.0, 439223.75 ], [ 434142.0, 439224.0 ], [ 434141.5, 439224.0 ], [ 434141.5, 439224.25 ], [ 434141.2378361254232, 439224.25 ], [ 434141.0, 439224.497037772554904 ], [ 434141.0, 439224.5 ], [ 434140.997148109425325, 439224.5 ], [ 434137.330816455883905, 439228.308178440085612 ], [ 434137.0, 439228.70233686233405 ], [ 434137.0, 439229.0 ], [ 434136.750171863124706, 439229.0 ], [ 434136.75, 439229.000204770010896 ], [ 434136.75, 439230.25 ], [ 434136.5, 439230.25 ], [ 434136.5, 439232.0 ], [ 434136.670927326660603, 439232.0 ], [ 434136.731013784825336, 439231.928901016246527 ], [ 434142.697259909880813, 439224.862522145849653 ], [ 434148.765654073271435, 439229.958213531179354 ], [ 434147.431697425723542, 439231.539584916317835 ], [ 434147.978423993627075, 439232.0 ], [ 434157.0, 439232.0 ], [ 434157.0, 439230.5 ], [ 434156.75, 439230.5 ] ] ] } },
{ "type": "Feature", "properties": { }, "geometry": { "type": "Polygon", "coordinates": [ [ [ 434450.75, 439108.0 ], [ 434450.75, 439107.75 ], [ 434451.25, 439107.75 ], [ 434451.25, 439107.5 ], [ 434452.0, 439107.5 ], [ 434452.0, 439107.25 ], [ 434452.5, 439107.25 ], [ 434452.5, 439107.0 ], [ 434452.75, 439107.0 ], [ 434452.75, 439106.75 ], [ 434453.0, 439106.75 ], [ 434453.0, 439106.0 ], [ 434452.75, 439106.0 ], [ 434452.75, 439105.5 ], [ 434452.5, 439105.5 ], [ 434452.5, 439105.25 ], [ 434452.75, 439105.25 ], [ 434452.75, 439105.0 ], [ 434453.0, 439105.0 ], [ 434453.0, 439104.75 ], [ 434453.25, 439104.75 ], [ 434453.25, 439104.0 ], [ 434449.75, 439104.0 ], [ 434449.75, 439104.75 ], [ 434449.5, 439104.75 ], [ 434449.5, 439105.0 ], [ 434449.25, 439105.0 ], [ 434449.25, 439105.25 ], [ 434449.0, 439105.25 ], [ 434449.0, 439105.75 ], [ 434449.25, 439105.75 ], [ 434449.25, 439107.5 ], [ 434449.5, 439107.5 ], [ 434449.5, 439107.75 ], [ 434449.75, 439107.75 ], [ 434449.75, 439108.0 ], [ 434450.25, 439108.0 ], [ 434450.25, 439108.25 ], [ 434450.5, 439108.25 ], [ 434450.5, 439108.0 ], [ 434450.75, 439108.0 ] ] ] } }
]
}
