{
"type": "FeatureCollection",
"name": "se3437_rgb_250_03_removal",
"crs": { "type": "name", "properties": { "name": "urn:ogc:def:crs:EPSG::27700" } },
"features": [
{ "type": "Feature", "properties": { }, "geometry": { "type": "Polygon", "coordinates": [ [ [ 434832.5, 437848.0 ], [ 434832.5, 437847.75 ], [ 434834.0, 437847.75 ], [ 434834.0, 437847.5 ], [ 434834.75, 437847.5 ], [ 434834.75, 437847.25 ], [ 434835.25, 437847.25 ], [ 434835.25, 437847.0 ], [ 434835.75, 437847.0 ], [ 434835.75, 437846.75 ], [ 434836.25, 437846.75 ], [ 434836.25, 437846.5 ], [ 434836.5, 437846.5 ], [ 434836.5, 437846.25 ], [ 434836.75, 437846.25 ], [ 434836.75, 437846.0 ], [ 434837.25, 437846.0 ], [ 434837.25, 437845.75 ], [ 434837.5, 437845.75 ], [ 434837.5, 437845.5 ], [ 434837.75, 437845.5 ], [ 434837.75, 437845.25 ], [ 434838.0, 437845.25 ], [ 434838.0, 437845.0 ], [ 434838.25, 437845.0 ], [ 434838.25, 437844.75 ], [ 434838.5, 437844.75 ], [ 434838.5, 437844.5 ], [ 434838.75, 437844.5 ], [ 434838.75, 437843.75 ], [ 434839.0, 437843.75 ], [ 434839.0, 437843.5 ], [ 434839.25, 437843.5 ], [ 434839.25, 437843.0 ], [ 434839.5, 437843.0 ], [ 434839.5, 437842.0 ], [ 434839.75, 437842.0 ], [ 434839.75, 437839.5 ], [ 434839.5, 437839.5 ], [ 434839.5, 437837.0 ], [ 434839.25, 437837.0 ], [ 434839.25, 437836.25 ], [ 434839.0, 437836.25 ], [ 434839.0, 437835.25 ], [ 434838.75, 437835.25 ], [ 434838.75, 437834.5 ], [ 434838.5, 437834.5 ], [ 434838.5, 437834.0 ], [ 434838.25, 437834.0 ], [ 434838.25, 437833.75 ], [ 434838.0, 437833.75 ], [ 434838.0, 437833.25 ], [ 434837.75, 437833.25 ], [ 434837.75, 437832.75 ], [ 434837.5, 437832.75 ], [ 434837.5, 437832.5 ], [ 434837.25, 437832.5 ], [ 434837.25, 437832.25 ], [ 434837.0, 437832.25 ], [ 434837.0, 437831.75 ], [ 434836.75, 437831.75 ], [ 434836.75, 437831.25 ], [ 434836.5, 437831.25 ], [ 434836.5, 437831.0 ], [ 434836.25, 437831.0 ], [ 434836.25, 437830.5 ], [ 434836.0, 437830.5 ], [ 434836.0, 437829.75 ], [ 434835.75, 437829.75 ], [ 434835.75, 437829.0 ], [ 434835.5, 437829.0 ], [ 434835.5, 437828.25 ], [ 434835.25, 437828.25 ], [ 434835.25, 437827.75 ], [ 434835.0, 437827.75 ], [ 434835.0, 437827.0 ], [ 434834.75, 437827.0 ], [ 434834.75, 437826.0 ], [ 434834.5, 437826.0 ], [ 434834.5, 437824.0 ], [ 434834.25, 437824.0 ], [ 434834.25, 437823.5 ], [ 434834.0, 437823.5 ], [ 434834.0, 437823.25 ], [ 434833.75, 437823.25 ], [ 434833.75, 437823.0 ], [ 434833.5, 437823.0 ], [ 434833.5, 437822.5 ], [ 434833.0, 437822.5 ], [ 434833.0, 437822.25 ], [ 434832.0, 437822.25 ], [ 434832.0, 437822.5 ], [ 434830.75, 437822.5 ], [ 434830.75, 437822.75 ], [ 434830.25, 437822.75 ], [ 434830.25, 437822.5 ], [ 434828.0, 437822.5 ], [ 434828.0, 437822.75 ], [ 434827.0, 437822.75 ], [ 434827.0, 437823.0 ], [ 434826.5, 437823.0 ], [ 434826.5, 437823.25 ], [ 434826.0, 437823.25 ], [ 434826.0, 437823.5 ], [ 434825.5, 437823.5 ], [ 434825.5, 437823.75 ], [ 434825.0, 437823.75 ], [ 434825.0, 437824.0 ], [ 434824.25, 437824.0 ], [ 434824.25, 437824.25 ], [ 434823.25, 437824.25 ], [ 434823.25, 437824.5 ], [ 434822.5, 437824.5 ], [ 434822.5, 437824.75 ], [ 434821.75, 437824.75 ], [ 434821.75, 437825.0 ], [ 434821.5, 437825.0 ], [ 434821.5, 437825.25 ], [ 434821.0, 437825.25 ], [ 434821.0, 437825.5 ], [ 434820.75, 437825.5 ], [ 434820.75, 437825.75 ], [ 434820.5, 437825.75 ], [ 434820.5, 437826.5 ], [ 434820.25, 437826.5 ], [ 434820.25, 437827.0 ], [ 434820.5, 437827.0 ], [ 434820.5, 437831.25 ], [ 434820.75, 437831.25 ], [ 434820.75, 437832.25 ], [ 434821.0, 437832.25 ], [ 434821.0, 437833.0 ], [ 434821.25, 437833.0 ], [ 434821.25, 437833.75 ], [ 434821.5, 437833.75 ], [ 434821.5, 437834.25 ], [ 434821.75, 437834.25 ], [ 434821.75, 437834.75 ], [ 434822.0, 437834.75 ], [ 434822.0, 437835.5 ], [ 434822.25, 437835.5 ], [ 434822.25, 437836.25 ], [ 434822.5, 437836.25 ], [ 434822.5, 437836.75 ], [ 434822.75, 437836.75 ], [ 434822.75, 437837.25 ], [ 434823.0, 437837.25 ], [ 434823.0, 437838.25 ], [ 434823.25, 437838.25 ], [ 434823.25, 437839.0 ], [ 434823.5, 437839.0 ], [ 434823.5, 437839.75 ], [ 434823.75, 437839.75 ], [ 434823.75, 437840.5 ], [ 434824.0, 437840.5 ], [ 434824.0, 437841.25 ], [ 434824.25, 437841.25 ], [ 434824.25, 437842.0 ], [ 434824.5, 437842.0 ], [ 434824.5, 437842.5 ], [ 434824.75, 437842.5 ], [ 434824.75, 437843.25 ], [ 434825.0, 437843.25 ], [ 434825.0, 437844.0 ], [ 434825.25, 437844.0 ], [ 434825.25, 437844.5 ], [ 434825.5, 437844.5 ], [ 434825.5, 437845.25 ], [ 434825.75, 437845.25 ], [ 434825.75, 437845.75 ], [ 434826.0, 437845.75 ], [ 434826.0, 437846.25 ], [ 434826.25, 437846.25 ], [ 434826.25, 437846.75 ], [ 434826.5, 437846.75 ], [ 434826.5, 437847.0 ], [ 434826.75, 437847.0 ], [ 434826.75, 437847.25 ], [ 434827.25, 437847.25 ], [ 434827.25, 437847.5 ], [ 434827.5, 437847.5 ], [ 434827.5, 437847.75 ], [ 434828.0, 437847.75 ], [ 434828.0, 437848.0 ], [ 434828.75, 437848.0 ], [ 434828.75, 437848.25 ], [ 434831.0, 437848.25 ], [ 434831.0, 437848.0 ], [ 434832.5, 437848.0 ] ] ] } },
{ "type": "Feature", "properties": { }, "geometry": { "type": "Polygon", "coordinates": [ [ [ 434905.0, 437812.75 ], [ 434905.0, 437812.5 ], [ 434905.75, 437812.5 ], [ 434905.75, 437812.25 ], [ 434906.5, 437812.25 ], [ 434906.5, 437812.0 ], [ 434907.5, 437812.0 ], [ 434907.5, 437811.75 ], [ 434908.0, 437811.75 ], [ 434908.0, 437811.5 ], [ 434908.25, 437811.5 ], [ 434908.25, 437811.25 ], [ 434908.5, 437811.25 ], [ 434908.5, 437811.0 ], [ 434908.75, 437811.0 ], [ 434908.75, 437810.75 ], [ 434909.0, 437810.75 ], [ 434909.0, 437810.25 ], [ 434909.25, 437810.25 ], [ 434909.25, 437809.25 ], [ 434909.0, 437809.25 ], [ 434909.0, 437808.25 ], [ 434908.75, 437808.25 ], [ 434908.75, 437807.75 ], [ 434908.5, 437807.75 ], [ 434908.5, 437807.25 ], [ 434908.0, 437807.25 ], [ 434908.0, 437807.0 ], [ 434907.75, 437807.0 ], [ 434907.75, 437806.75 ], [ 434907.5, 437806.75 ], [ 434907.5, 437806.5 ], [ 434907.0, 437806.5 ], [ 434907.0, 437806.25 ], [ 434904.0, 437806.25 ], [ 434904.0, 437806.5 ], [ 434903.5, 437806.5 ], [ 434903.5, 437806.75 ], [ 434903.25, 437806.75 ], [ 434903.25, 437807.0 ], [ 434903.0, 437807.0 ], [ 434903.0, 437807.25 ], [ 434902.5, 437807.25 ], [ 434902.5, 437807.5 ], [ 434902.0, 437807.5 ], [ 434902.0, 437807.75 ], [ 434901.5, 437807.75 ], [ 434901.5, 437808.0 ], [ 434901.25, 437808.0 ], [ 434901.25, 437808.25 ], [ 434901.0, 437808.25 ], [ 434901.0, 437808.5 ], [ 434900.5, 437808.5 ], [ 434900.5, 437809.0 ], [ 434900.25, 437809.0 ], [ 434900.25, 437809.25 ], [ 434900.0, 437809.25 ], [ 434900.0, 437809.5 ], [ 434899.75, 437809.5 ], [ 434899.75, 437809.75 ], [ 434899.5, 437809.75 ], [ 434899.5, 437810.5 ], [ 434899.25, 437810.5 ], [ 434899.25, 437810.75 ], [ 434899.5, 437810.75 ], [ 434899.5, 437811.75 ], [ 434899.75, 437811.75 ], [ 434899.75, 437812.5 ], [ 434900.25, 437812.5 ], [ 434900.25, 437812.75 ], [ 434901.75, 437812.75 ], [ 434901.75, 437813.0 ], [ 434903.0, 437813.0 ], [ 434903.0, 437812.75 ], [ 434905.0, 437812.75 ] ] ] } },
{ "type": "Feature", "properties": { }, "geometry": { "type": "Polygon", "coordinates": [ [ [ 434472.25, 437755.75 ], [ 434472.25, 437755.5 ], [ 434473.0, 437755.5 ], [ 434473.0, 437755.25 ], [ 434473.75, 437755.25 ], [ 434473.75, 437755.0 ], [ 434474.25, 437755.0 ], [ 434474.25, 437754.75 ], [ 434474.75, 437754.75 ], [ 434474.75, 437754.5 ], [ 434475.25, 437754.5 ], [ 434475.25, 437754.25 ], [ 434475.5, 437754.25 ], [ 434475.5, 437753.75 ], [ 434476.0, 437753.75 ], [ 434476.0, 437753.5 ], [ 434476.5, 437753.5 ], [ 434476.5, 437753.25 ], [ 434476.75, 437753.25 ], [ 434476.75, 437752.75 ], [ 434477.0, 437752.75 ], [ 434477.0, 437752.5 ], [ 434477.5, 437752.5 ], [ 434477.5, 437752.25 ], [ 434477.75, 437752.25 ], [ 434477.75, 437752.0 ], [ 434478.0, 437752.0 ], [ 434478.0, 437751.75 ], [ 434478.25, 437751.75 ], [ 434478.25, 437751.5 ], [ 434478.5, 437751.5 ], [ 434478.5, 437751.25 ], [ 434478.75, 437751.25 ], [ 434478.75, 437751.0 ], [ 434479.0, 437751.0 ], [ 434479.0, 437750.75 ], [ 434479.25, 437750.75 ], [ 434479.25, 437750.0 ], [ 434479.5, 437750.0 ], [ 434479.5, 437749.25 ], [ 434479.0, 437749.25 ], [ 434479.0, 437749.0 ], [ 434478.75, 437749.0 ], [ 434478.75, 437748.75 ], [ 434478.25, 437748.75 ], [ 434478.25, 437748.5 ], [ 434477.75, 437748.5 ], [ 434477.75, 437748.25 ], [ 434477.0, 437748.25 ], [ 434477.0, 437748.0 ], [ 434476.25, 437748.0 ], [ 434476.25, 437747.75 ], [ 434475.5, 437747.75 ], [ 434475.5, 437747.5 ], [ 434474.75, 437747.5 ], [ 434474.75, 437747.25 ], [ 434474.0, 437747.25 ], [ 434474.0, 437747.0 ], [ 434473.25, 437747.0 ], [ 434473.25, 437746.75 ], [ 434472.75, 437746.75 ], [ 434472.75, 437746.5 ], [ 434472.0, 437746.5 ], [ 434472.0, 437746.25 ], [ 434471.5, 437746.25 ], [ 434471.5, 437746.0 ], [ 434471.0, 437746.0 ], [ 434471.0, 437745.75 ], [ 434470.5, 437745.75 ], [ 434470.5, 437745.5 ], [ 434470.25, 437745.5 ], [ 434470.25, 437745.25 ], [ 434469.75, 437745.25 ], [ 434469.75, 437745.0 ], [ 434469.0, 437745.0 ], [ 434469.0, 437744.75 ], [ 434468.0, 437744.75 ], [ 434468.0, 437744.5 ], [ 434467.75, 437744.5 ], [ 434467.75, 437744.0 ], [ 434466.25, 437744.0 ], [ 434466.25, 437745.5 ], [ 434466.0, 437745.5 ], [ 434466.0, 437745.75 ], [ 434465.25, 437745.75 ], [ 434465.25, 437746.0 ], [ 434464.5, 437746.0 ], [ 434464.5, 437746.25 ], [ 434464.0, 437746.25 ], [ 434464.0, 437746.5 ], [ 434463.5, 437746.5 ], [ 434463.5, 437746.75 ], [ 434463.25, 437746.75 ], [ 434463.25, 437747.0 ], [ 434463.0, 437747.0 ], [ 434463.0, 437747.25 ], [ 434462.75, 437747.25 ], [ 434462.75, 437747.5 ], [ 434462.5, 437747.5 ], [ 434462.5, 437748.0 ], [ 434462.25, 437748.0 ], [ 434462.25, 437748.5 ], [ 434462.0, 437748.5 ], [ 434462.0, 437748.75 ], [ 434461.5, 437748.75 ], [ 434461.5, 437749.0 ], [ 434461.25, 437749.0 ], [ 434461.25, 437749.5 ], [ 434461.0, 437749.5 ], [ 434461.0, 437749.75 ], [ 434461.25, 437749.75 ], [ 434461.25, 437750.5 ], [ 434461.5, 437750.5 ], [ 434461.5, 437751.0 ], [ 434461.75, 437751.0 ], [ 434461.75, 437751.25 ], [ 434462.0, 437751.25 ], [ 434462.0, 437751.5 ], [ 434462.25, 437751.5 ], [ 434462.25, 437751.75 ], [ 434462.5, 437751.75 ], [ 434462.5, 437752.0 ], [ 434462.75, 437752.0 ], [ 434462.75, 437752.25 ], [ 434463.0, 437752.25 ], [ 434463.0, 437752.5 ], [ 434463.25, 437752.5 ], [ 434463.25, 437752.75 ], [ 434463.5, 437752.75 ], [ 434463.5, 437753.0 ], [ 434463.75, 437753.0 ], [ 434463.75, 437753.25 ], [ 434464.25, 437753.25 ], [ 434464.25, 437753.5 ], [ 434464.75, 437753.5 ], [ 434464.75, 437753.75 ], [ 434465.0, 437753.75 ], [ 434465.0, 437754.0 ], [ 434465.25, 437754.0 ], [ 434465.25, 437754.25 ], [ 434465.5, 437754.25 ], [ 434465.5, 437754.5 ], [ 434465.75, 437754.5 ], [ 434465.75, 437754.75 ], [ 434466.25, 437754.75 ], [ 434466.25, 437755.0 ], [ 434466.75, 437755.0 ], [ 434466.75, 437755.25 ], [ 434467.5, 437755.25 ], [ 434467.5, 437755.5 ], [ 434468.0, 437755.5 ], [ 434468.0, 437755.75 ], [ 434469.0, 437755.75 ], [ 434469.0, 437756.0 ], [ 434471.5, 437756.0 ], [ 434471.5, 437755.75 ], [ 434472.25, 437755.75 ] ] ] } },
{ "type": "Feature", "properties": { }, "geometry": { "type": "Polygon", "coordinates": [ [ [ 434982.0, 437707.75 ], [ 434982.0, 437707.25 ], [ 434981.75, 437707.25 ], [ 434981.75, 437707.0 ], [ 434981.5, 437707.0 ], [ 434981.5, 437706.75 ], [ 434981.0, 437706.75 ], [ 434981.0, 437708.25 ], [ 434981.25, 437708.25 ], [ 434981.25, 437708.5 ], [ 434981.75, 437708.5 ], [ 434981.75, 437707.75 ], [ 434982.0, 437707.75 ] ] ] } },
{ "type": "Feature", "properties": { }, "geometry": { "type": "Polygon", "coordinates": [ [ [ 434980.25, 437707.0 ], [ 434980.25, 437706.75 ], [ 434981.0, 437706.75 ], [ 434981.0, 437706.5 ], [ 434980.75, 437706.5 ], [ 434980.75, 437706.25 ], [ 434980.0, 437706.25 ], [ 434980.0, 437706.0 ], [ 434979.5, 437706.0 ], [ 434979.5, 437706.25 ], [ 434979.0, 437706.25 ], [ 434979.0, 437706.75 ], [ 434979.25, 437706.75 ], [ 434979.25, 437707.0 ], [ 434979.5, 437707.0 ], [ 434979.5, 437707.25 ], [ 434979.75, 437707.25 ], [ 434979.75, 437707.0 ], [ 434980.25, 437707.0 ] ] ] } },
{ "type": "Feature", "properties": { }, "geometry": { "type": "Polygon", "coordinates": [ [ [ 434986.5, 437703.5 ], [ 434986.5, 437703.25 ], [ 434986.75, 437703.25 ], [ 434986.75, 437702.75 ], [ 434987.0, 437702.75 ], [ 434987.0, 437702.0 ], [ 434986.75, 437702.0 ], [ 434986.75, 437701.75 ], [ 434986.25, 437701.75 ], [ 434986.25, 437702.0 ], [ 434986.0, 437702.0 ], [ 434986.0, 437702.25 ], [ 434985.75, 437702.25 ], [ 434985.75, 437702.5 ], [ 434985.5, 437702.5 ], [ 434985.5, 437703.0 ], [ 434985.25, 437703.0 ], [ 434985.25, 437703.75 ], [ 434986.25, 437703.75 ], [ 434986.25, 437703.5 ], [ 434986.5, 437703.5 ] ] ] } },
{ "type": "Feature", "properties": { }, "geometry": { "type": "Polygon", "coordinates": [ [ [ 434983.75, 437698.0 ], [ 434983.75, 437696.5 ], [ 434984.0, 437696.5 ], [ 434984.0, 437696.25 ], [ 434984.25, 437696.25 ], [ 434984.25, 437696.0 ], [ 434984.5, 437696.0 ], [ 434984.5, 437695.5 ], [ 434984.75, 437695.5 ], [ 434984.75, 437695.25 ], [ 434985.5, 437695.25 ], [ 434985.5, 437695.0 ], [ 434986.25, 437695.0 ], [ 434986.25, 437694.75 ], [ 434986.75, 437694.75 ], [ 434986.75, 437694.5 ], [ 434987.0, 437694.5 ], [ 434987.0, 437694.25 ], [ 434987.25, 437694.25 ], [ 434987.25, 437694.0 ], [ 434987.5, 437694.0 ], [ 434987.5, 437693.75 ], [ 434987.75, 437693.75 ], [ 434987.75, 437692.75 ], [ 434988.0, 437692.75 ], [ 434988.0, 437692.25 ], [ 434988.25, 437692.25 ], [ 434988.25, 437691.75 ], [ 434989.75, 437691.75 ], [ 434989.75, 437691.0 ], [ 434989.5, 437691.0 ], [ 434989.5, 437690.5 ], [ 434989.25, 437690.5 ], [ 434989.25, 437690.25 ], [ 434989.0, 437690.25 ], [ 434989.0, 437690.0 ], [ 434988.75, 437690.0 ], [ 434988.75, 437689.5 ], [ 434988.5, 437689.5 ], [ 434988.5, 437689.25 ], [ 434988.25, 437689.25 ], [ 434988.25, 437689.0 ], [ 434988.0, 437689.0 ], [ 434988.0, 437688.75 ], [ 434987.75, 437688.75 ], [ 434987.75, 437688.5 ], [ 434987.25, 437688.5 ], [ 434987.25, 437688.25 ], [ 434985.0, 437688.25 ], [ 434985.0, 437688.5 ], [ 434984.75, 437688.5 ], [ 434984.75, 437688.75 ], [ 434984.5, 437688.75 ], [ 434984.5, 437689.0 ], [ 434984.25, 437689.0 ], [ 434984.25, 437689.25 ], [ 434984.0, 437689.25 ], [ 434984.0, 437689.5 ], [ 434983.75, 437689.5 ], [ 434983.75, 437689.75 ], [ 434983.5, 437689.75 ], [ 434983.5, 437690.0 ], [ 434983.25, 437690.0 ], [ 434983.25, 437690.25 ], [ 434983.0, 437690.25 ], [ 434983.0, 437690.5 ], [ 434982.75, 437690.5 ], [ 434982.75, 437690.75 ], [ 434982.5, 437690.75 ], [ 434982.5, 437691.25 ], [ 434982.25, 437691.25 ], [ 434982.25, 437691.75 ], [ 434982.0, 437691.75 ], [ 434982.0, 437692.5 ], [ 434981.75, 437692.5 ], [ 434981.75, 437692.75 ], [ 434982.0, 437692.75 ], [ 434982.0, 437693.5 ], [ 434982.25, 437693.5 ], [ 434982.25, 437693.75 ], [ 434982.75, 437693.75 ], [ 434982.75, 437693.5 ], [ 434983.0, 437693.5 ], [ 434983.0, 437693.25 ], [ 434983.75, 437693.25 ], [ 434983.75, 437693.5 ], [ 434984.0, 437693.5 ], [ 434984.0, 437695.0 ], [ 434983.75, 437695.0 ], [ 434983.75, 437695.25 ], [ 434983.5, 437695.25 ], [ 434983.5, 437695.5 ], [ 434983.25, 437695.5 ], [ 434983.25, 437697.0 ], [ 434983.0, 437697.0 ], [ 434983.0, 437697.5 ], [ 434982.75, 437697.5 ], [ 434982.75, 437697.75 ], [ 434983.0, 437697.75 ], [ 434983.0, 437698.25 ], [ 434983.25, 437698.25 ], [ 434983.25, 437698.5 ], [ 434983.5, 437698.5 ], [ 434983.5, 437698.0 ], [ 434983.75, 437698.0 ] ] ] } },
{ "type": "Feature", "properties": { }, "geometry": { "type": "Polygon", "coordinates": [ [ [ 434132.25, 437545.5 ], [ 434132.25, 437545.75 ], [ 434132.5, 437545.75 ], [ 434132.5, 437546.5 ], [ 434132.75, 437546.5 ], [ 434132.75, 437547.0 ], [ 434133.0, 437547.0 ], [ 434133.0, 437547.5 ], [ 434133.25, 437547.5 ], [ 434133.25, 437548.0 ], [ 434133.5, 437548.0 ], [ 434133.5, 437548.25 ], [ 434133.75, 437548.25 ], [ 434133.75, 437548.75 ], [ 434134.0, 437548.75 ], [ 434134.0, 437549.25 ], [ 434134.25, 437549.25 ], [ 434134.25, 437549.75 ], [ 434134.5, 437549.75 ], [ 434134.5, 437550.25 ], [ 434134.75, 437550.25 ], [ 434134.75, 437550.5 ], [ 434135.0, 437550.5 ], [ 434135.0, 437551.25 ], [ 434135.25, 437551.25 ], [ 434135.25, 437552.0 ], [ 434135.5, 437552.0 ], [ 434135.5, 437552.5 ], [ 434135.75, 437552.5 ], [ 434135.75, 437553.0 ], [ 434136.0, 437553.0 ], [ 434136.0, 437553.5 ], [ 434136.25, 437553.5 ], [ 434136.25, 437554.25 ], [ 434136.5, 437554.25 ], [ 434136.5, 437554.75 ], [ 434136.75, 437554.75 ], [ 434136.75, 437555.0 ], [ 434137.0, 437555.0 ], [ 434137.0, 437555.5 ], [ 434137.25, 437555.5 ], [ 434137.25, 437555.75 ], [ 434137.5, 437555.75 ], [ 434137.5, 437556.0 ], [ 434138.0, 437556.0 ], [ 434138.0, 437556.25 ], [ 434140.25, 437556.25 ], [ 434140.25, 437556.0 ], [ 434141.25, 437556.0 ], [ 434141.25, 437555.75 ], [ 434142.25, 437555.75 ], [ 434142.25, 437555.5 ], [ 434142.75, 437555.5 ], [ 434142.75, 437555.25 ], [ 434143.25, 437555.25 ], [ 434143.25, 437555.0 ], [ 434143.5, 437555.0 ], [ 434143.5, 437554.75 ], [ 434144.0, 437554.75 ], [ 434144.0, 437554.5 ], [ 434144.5, 437554.5 ], [ 434144.5, 437554.25 ], [ 434144.75, 437554.25 ], [ 434144.75, 437554.0 ], [ 434145.0, 437554.0 ], [ 434145.0, 437553.75 ], [ 434145.5, 437553.75 ], [ 434145.5, 437553.5 ], [ 434146.0, 437553.5 ], [ 434146.0, 437553.25 ], [ 434146.5, 437553.25 ], [ 434146.5, 437553.0 ], [ 434147.25, 437553.0 ], [ 434147.25, 437552.75 ], [ 434147.75, 437552.75 ], [ 434147.75, 437552.5 ], [ 434148.5, 437552.5 ], [ 434148.5, 437552.25 ], [ 434149.25, 437552.25 ], [ 434149.25, 437552.0 ], [ 434149.75, 437552.0 ], [ 434149.75, 437551.75 ], [ 434150.25, 437551.75 ], [ 434150.25, 437551.5 ], [ 434150.75, 437551.5 ], [ 434150.75, 437551.25 ], [ 434151.0, 437551.25 ], [ 434151.0, 437551.0 ], [ 434151.25, 437551.0 ], [ 434151.25, 437550.75 ], [ 434151.5, 437550.75 ], [ 434151.5, 437550.5 ], [ 434151.75, 437550.5 ], [ 434151.75, 437550.25 ], [ 434152.0, 437550.25 ], [ 434152.0, 437549.75 ], [ 434152.25, 437549.75 ], [ 434152.25, 437549.5 ], [ 434152.5, 437549.5 ], [ 434152.5, 437548.75 ], [ 434152.75, 437548.75 ], [ 434152.75, 437547.5 ], [ 434153.0, 437547.5 ], [ 434153.0, 437546.25 ], [ 434153.25, 437546.25 ], [ 434153.25, 437543.75 ], [ 434153.5, 437543.75 ], [ 434153.5, 437538.5 ], [ 434153.25, 437538.5 ], [ 434153.25, 437538.25 ], [ 434153.0, 437538.25 ], [ 434153.0, 437538.0 ], [ 434152.75, 437538.0 ], [ 434152.75, 437537.75 ], [ 434152.5, 437537.75 ], [ 434152.5, 437537.5 ], [ 434152.25, 437537.5 ], [ 434152.25, 437537.25 ], [ 434152.0, 437537.25 ], [ 434152.0, 437537.0 ], [ 434151.5, 437537.0 ], [ 434151.5, 437536.75 ], [ 434150.75, 437536.75 ], [ 434150.75, 437536.5 ], [ 434149.5, 437536.5 ], [ 434149.5, 437536.25 ], [ 434148.25, 437536.25 ], [ 434148.25, 437536.0 ], [ 434146.75, 437536.0 ], [ 434146.75, 437535.75 ], [ 434138.75, 437535.75 ], [ 434138.75, 437536.0 ], [ 434136.5, 437536.0 ], [ 434136.5, 437536.25 ], [ 434134.25, 437536.25 ], [ 434134.25, 437536.5 ], [ 434133.25, 437536.5 ], [ 434133.25, 437536.75 ], [ 434132.25, 437536.75 ], [ 434132.25, 437537.0 ], [ 434131.75, 437537.0 ], [ 434131.75, 437537.25 ], [ 434131.25, 437537.25 ], [ 434131.25, 437537.5 ], [ 434131.0, 437537.5 ], [ 434131.0, 437537.75 ], [ 434130.75, 437537.75 ], [ 434130.75, 437538.0 ], [ 434130.5, 437538.0 ], [ 434130.5, 437538.5 ], [ 434130.25, 437538.5 ], [ 434130.25, 437539.0 ], [ 434130.5, 437539.0 ], [ 434130.5, 437540.75 ], [ 434130.75, 437540.75 ], [ 434130.75, 437541.953155838884413 ], [ 434130.853488904191181, 437542.25 ], [ 434131.0, 437542.25 ], [ 434131.0, 437542.670247597212438 ], [ 434131.114961718267296, 437543.0 ], [ 434131.25, 437543.0 ], [ 434131.25, 437543.387339355598669 ], [ 434131.37643453234341, 437543.75 ], [ 434131.5, 437543.75 ], [ 434131.5, 437544.104431113926694 ], [ 434131.550749741727486, 437544.25 ], [ 434131.75, 437544.25 ], [ 434131.75, 437544.821522872312926 ], [ 434131.812222555745393, 437545.0 ], [ 434132.0, 437545.0 ], [ 434132.0, 437545.5 ], [ 434132.25, 437545.5 ] ] ] } },
{ "type": "Feature", "properties": { }, "geometry": { "type": "Polygon", "coordinates": [ [ [ 434171.75, 437547.75 ], [ 434171.75, 437547.5 ], [ 434173.0, 437547.5 ], [ 434173.0, 437547.25 ], [ 434174.5, 437547.25 ], [ 434174.5, 437547.0 ], [ 434175.25, 437547.0 ], [ 434175.25, 437546.75 ], [ 434176.25, 437546.75 ], [ 434176.25, 437546.5 ], [ 434176.75, 437546.5 ], [ 434176.75, 437546.25 ], [ 434177.5, 437546.25 ], [ 434177.5, 437546.0 ], [ 434178.0, 437546.0 ], [ 434178.0, 437545.75 ], [ 434178.5, 437545.75 ], [ 434178.5, 437545.5 ], [ 434178.75, 437545.5 ], [ 434178.75, 437545.25 ], [ 434179.0, 437545.25 ], [ 434179.0, 437545.0 ], [ 434179.25, 437545.0 ], [ 434179.25, 437544.75 ], [ 434179.75, 437544.75 ], [ 434179.75, 437544.5 ], [ 434180.0, 437544.5 ], [ 434180.0, 437544.25 ], [ 434180.25, 437544.25 ], [ 434180.25, 437544.0 ], [ 434180.5, 437544.0 ], [ 434180.5, 437543.75 ], [ 434181.0, 437543.75 ], [ 434181.0, 437543.5 ], [ 434181.25, 437543.5 ], [ 434181.25, 437543.25 ], [ 434181.5, 437543.25 ], [ 434181.5, 437543.0 ], [ 434181.75, 437543.0 ], [ 434181.75, 437542.75 ], [ 434182.0, 437542.75 ], [ 434182.0, 437542.5 ], [ 434182.25, 437542.5 ], [ 434182.25, 437542.25 ], [ 434182.5, 437542.25 ], [ 434182.5, 437541.75 ], [ 434182.75, 437541.75 ], [ 434182.75, 437541.0 ], [ 434183.0, 437541.0 ], [ 434183.0, 437540.5 ], [ 434183.25, 437540.5 ], [ 434183.25, 437539.75 ], [ 434183.5, 437539.75 ], [ 434183.5, 437539.0 ], [ 434183.75, 437539.0 ], [ 434183.75, 437537.25 ], [ 434184.0, 437537.25 ], [ 434184.0, 437533.25 ], [ 434183.75, 437533.25 ], [ 434183.75, 437532.5 ], [ 434183.5, 437532.5 ], [ 434183.5, 437532.0 ], [ 434183.25, 437532.0 ], [ 434183.25, 437531.5 ], [ 434183.0, 437531.5 ], [ 434183.0, 437531.25 ], [ 434182.75, 437531.25 ], [ 434182.75, 437530.75 ], [ 434182.5, 437530.75 ], [ 434182.5, 437530.5 ], [ 434182.25, 437530.5 ], [ 434182.25, 437530.0 ], [ 434182.0, 437530.0 ], [ 434182.0, 437529.5 ], [ 434181.75, 437529.5 ], [ 434181.75, 437528.25 ], [ 434181.5, 437528.25 ], [ 434181.5, 437527.25 ], [ 434181.25, 437527.25 ], [ 434181.25, 437526.0 ], [ 434181.0, 437526.0 ], [ 434181.0, 437524.75 ], [ 434180.75, 437524.75 ], [ 434180.75, 437523.5 ], [ 434180.5, 437523.5 ], [ 434180.5, 437522.25 ], [ 434180.25, 437522.25 ], [ 434180.25, 437521.75 ], [ 434180.0, 437521.75 ], [ 434180.0, 437521.25 ], [ 434179.75, 437521.25 ], [ 434179.75, 437521.0 ], [ 434179.5, 437521.0 ], [ 434179.5, 437520.75 ], [ 434179.25, 437520.75 ], [ 434179.25, 437520.5 ], [ 434179.0, 437520.5 ], [ 434179.0, 437520.25 ], [ 434178.5, 437520.25 ], [ 434178.5, 437520.0 ], [ 434176.75, 437520.0 ], [ 434176.75, 437520.25 ], [ 434176.0, 437520.25 ], [ 434176.0, 437520.5 ], [ 434175.5, 437520.5 ], [ 434175.5, 437520.75 ], [ 434174.75, 437520.75 ], [ 434174.75, 437521.0 ], [ 434172.75, 437521.0 ], [ 434172.75, 437520.75 ], [ 434172.25, 437520.75 ], [ 434172.25, 437521.0 ], [ 434171.0, 437521.0 ], [ 434171.0, 437521.25 ], [ 434169.0, 437521.25 ], [ 434169.0, 437521.0 ], [ 434168.5, 437521.0 ], [ 434168.5, 437520.75 ], [ 434166.25, 437520.75 ], [ 434166.25, 437521.0 ], [ 434165.5, 437521.0 ], [ 434165.5, 437521.25 ], [ 434165.0, 437521.25 ], [ 434165.0, 437521.0 ], [ 434164.25, 437521.0 ], [ 434164.25, 437521.25 ], [ 434162.25, 437521.25 ], [ 434162.25, 437521.5 ], [ 434161.75, 437521.5 ], [ 434161.75, 437521.75 ], [ 434161.5, 437521.75 ], [ 434161.5, 437522.0 ], [ 434161.25, 437522.0 ], [ 434161.25, 437522.25 ], [ 434161.0, 437522.25 ], [ 434161.0, 437522.75 ], [ 434160.75, 437522.75 ], [ 434160.75, 437523.75 ], [ 434160.5, 437523.75 ], [ 434160.5, 437524.5 ], [ 434160.25, 437524.5 ], [ 434160.25, 437527.25 ], [ 434160.5, 437527.25 ], [ 434160.5, 437528.0 ], [ 434160.75, 437528.0 ], [ 434160.75, 437528.25 ], [ 434161.0, 437528.25 ], [ 434161.0, 437528.5 ], [ 434161.25, 437528.5 ], [ 434161.25, 437528.75 ], [ 434161.5, 437528.75 ], [ 434161.5, 437529.0 ], [ 434162.0, 437529.0 ], [ 434162.0, 437529.25 ], [ 434162.75, 437529.25 ], [ 434162.75, 437529.5 ], [ 434163.25, 437529.5 ], [ 434163.25, 437529.75 ], [ 434163.5, 437529.75 ], [ 434163.5, 437530.0 ], [ 434164.0, 437530.0 ], [ 434164.0, 437530.25 ], [ 434165.5, 437530.25 ], [ 434165.5, 437530.5 ], [ 434165.75, 437530.5 ], [ 434165.75, 437530.75 ], [ 434165.5, 437530.75 ], [ 434165.5, 437531.0 ], [ 434165.0, 437531.0 ], [ 434165.0, 437530.75 ], [ 434164.25, 437530.75 ], [ 434164.25, 437531.0 ], [ 434163.75, 437531.0 ], [ 434163.75, 437531.25 ], [ 434163.5, 437531.25 ], [ 434163.5, 437531.5 ], [ 434163.25, 437531.5 ], [ 434163.25, 437531.75 ], [ 434163.0, 437531.75 ], [ 434163.0, 437532.0 ], [ 434162.75, 437532.0 ], [ 434162.75, 437532.25 ], [ 434162.5, 437532.25 ], [ 434162.5, 437532.5 ], [ 434162.25, 437532.5 ], [ 434162.25, 437532.75 ], [ 434162.0, 437532.75 ], [ 434162.0, 437533.25 ], [ 434161.75, 437533.25 ], [ 434161.75, 437533.5 ], [ 434161.5, 437533.5 ], [ 434161.5, 437533.75 ], [ 434161.25, 437533.75 ], [ 434161.25, 437534.0 ], [ 434161.0, 437534.0 ], [ 434161.0, 437534.25 ], [ 434160.75, 437534.25 ], [ 434160.75, 437534.5 ], [ 434160.5, 437534.5 ], [ 434160.5, 437534.75 ], [ 434160.25, 437534.75 ], [ 434160.25, 437535.0 ], [ 434160.0, 437535.0 ], [ 434160.0, 437535.25 ], [ 434159.75, 437535.25 ], [ 434159.75, 437535.5 ], [ 434159.5, 437535.5 ], [ 434159.5, 437535.75 ], [ 434159.25, 437535.75 ], [ 434159.25, 437536.0 ], [ 434159.0, 437536.0 ], [ 434159.0, 437536.25 ], [ 434158.75, 437536.25 ], [ 434158.75, 437536.5 ], [ 434158.5, 437536.5 ], [ 434158.5, 437536.75 ], [ 434158.25, 437536.75 ], [ 434158.25, 437537.0 ], [ 434158.0, 437537.0 ], [ 434158.0, 437537.5 ], [ 434157.75, 437537.5 ], [ 434157.75, 437537.75 ], [ 434157.5, 437537.75 ], [ 434157.5, 437538.25 ], [ 434157.25, 437538.25 ], [ 434157.25, 437539.0 ], [ 434157.5, 437539.0 ], [ 434157.5, 437539.5 ], [ 434157.75, 437539.5 ], [ 434157.75, 437539.75 ], [ 434158.0, 437539.75 ], [ 434158.0, 437540.0 ], [ 434158.5, 437540.0 ], [ 434158.5, 437540.25 ], [ 434158.75, 437540.25 ], [ 434158.75, 437540.5 ], [ 434159.0, 437540.5 ], [ 434159.0, 437540.75 ], [ 434159.25, 437540.75 ], [ 434159.25, 437541.0 ], [ 434159.5, 437541.0 ], [ 434159.5, 437541.25 ], [ 434159.75, 437541.25 ], [ 434159.75, 437541.75 ], [ 434160.25, 437541.75 ], [ 434160.25, 437542.0 ], [ 434160.5, 437542.0 ], [ 434160.5, 437542.25 ], [ 434160.75, 437542.25 ], [ 434160.75, 437542.5 ], [ 434161.0, 437542.5 ], [ 434161.0, 437542.75 ], [ 434161.5, 437542.75 ], [ 434161.5, 437543.0 ], [ 434161.75, 437543.0 ], [ 434161.75, 437543.25 ], [ 434162.25, 437543.25 ], [ 434162.25, 437543.5 ], [ 434162.5, 437543.5 ], [ 434162.5, 437543.75 ], [ 434163.0, 437543.75 ], [ 434163.0, 437544.0 ], [ 434163.25, 437544.0 ], [ 434163.25, 437544.25 ], [ 434163.5, 437544.25 ], [ 434163.5, 437544.75 ], [ 434163.75, 437544.75 ], [ 434163.75, 437545.0 ], [ 434164.0, 437545.0 ], [ 434164.0, 437545.25 ], [ 434164.25, 437545.25 ], [ 434164.25, 437545.75 ], [ 434164.5, 437545.75 ], [ 434164.5, 437546.0 ], [ 434164.75, 437546.0 ], [ 434164.75, 437546.5 ], [ 434165.0, 437546.5 ], [ 434165.0, 437546.75 ], [ 434165.25, 437546.75 ], [ 434165.25, 437547.0 ], [ 434165.5, 437547.0 ], [ 434165.5, 437547.25 ], [ 434166.0, 437547.25 ], [ 434166.0, 437547.5 ], [ 434166.5, 437547.5 ], [ 434166.5, 437547.75 ], [ 434167.25, 437547.75 ], [ 434167.25, 437548.0 ], [ 434170.75, 437548.0 ], [ 434170.75, 437547.75 ], [ 434171.75, 437547.75 ] ] ] } },
{ "type": "Feature", "properties": { }, "geometry": { "type": "Polygon", "coordinates": [ [ [ 434899.0, 437513.0 ], [ 434899.0, 437512.75 ], [ 434899.25, 437512.75 ], [ 434899.25, 437512.5 ], [ 434899.5, 437512.5 ], [ 434899.5, 437512.25 ], [ 434899.75, 437512.25 ], [ 434899.75, 437512.0 ], [ 434900.0, 437512.0 ], [ 434900.0, 437511.75 ], [ 434900.25, 437511.75 ], [ 434900.25, 437511.5 ], [ 434900.5, 437511.5 ], [ 434900.5, 437511.25 ], [ 434900.75, 437511.25 ], [ 434900.75, 437511.0 ], [ 434901.0, 437511.0 ], [ 434901.0, 437510.75 ], [ 434901.5, 437510.75 ], [ 434901.5, 437510.25 ], [ 434901.75, 437510.25 ], [ 434901.75, 437509.25 ], [ 434902.0, 437509.25 ], [ 434902.0, 437507.5 ], [ 434901.75, 437507.5 ], [ 434901.75, 437506.25 ], [ 434902.0, 437506.25 ], [ 434902.0, 437504.25 ], [ 434901.75, 437504.25 ], [ 434901.75, 437504.0 ], [ 434901.5, 437504.0 ], [ 434901.5, 437503.75 ], [ 434901.25, 437503.75 ], [ 434901.25, 437503.5 ], [ 434900.75, 437503.5 ], [ 434900.75, 437503.25 ], [ 434899.75, 437503.25 ], [ 434899.75, 437503.0 ], [ 434899.25, 437503.0 ], [ 434899.25, 437502.75 ], [ 434898.75, 437502.75 ], [ 434898.75, 437502.5 ], [ 434898.5, 437502.5 ], [ 434898.5, 437501.75 ], [ 434897.25, 437501.75 ], [ 434897.25, 437502.0 ], [ 434896.0, 437502.0 ], [ 434896.0, 437513.0 ], [ 434898.25, 437513.0 ], [ 434898.25, 437513.25 ], [ 434898.5, 437513.25 ], [ 434898.5, 437513.0 ], [ 434899.0, 437513.0 ] ] ] } },
{ "type": "Feature", "properties": { }, "geometry": { "type": "Polygon", "coordinates": [ [ [ 434854.5, 437494.796554137486964 ], [ 434854.06159587012371, 437495.0 ], [ 434854.5, 437495.0 ], [ 434854.5, 437494.796554137486964 ] ] ] } },
{ "type": "Feature", "properties": { }, "geometry": { "type": "Polygon", "coordinates": [ [ [ 434857.25, 437494.5 ], [ 434858.25, 437494.5 ], [ 434858.25, 437494.25 ], [ 434858.75, 437494.25 ], [ 434858.75, 437494.0 ], [ 434859.0, 437494.0 ], [ 434859.0, 437493.75 ], [ 434859.5, 437493.75 ], [ 434859.5, 437493.5 ], [ 434859.75, 437493.5 ], [ 434859.75, 437493.25 ], [ 434860.0, 437493.25 ], [ 434860.0, 437493.0 ], [ 434860.5, 437493.0 ], [ 434860.5, 437492.75 ], [ 434860.75, 437492.75 ], [ 434860.75, 437492.5 ], [ 434861.25, 437492.5 ], [ 434861.25, 437492.25 ], [ 434861.5, 437492.25 ], [ 434861.5, 437492.0 ], [ 434862.0, 437492.0 ], [ 434862.0, 437491.75 ], [ 434862.25, 437491.75 ], [ 434862.25, 437491.5 ], [ 434862.5, 437491.5 ], [ 434862.5, 437491.0 ], [ 434862.75, 437491.0 ], [ 434862.75, 437490.75 ], [ 434863.0, 437490.75 ], [ 434863.0, 437490.5 ], [ 434863.25, 437490.5 ], [ 434863.25, 437490.09871448884951 ], [ 434861.997026435332373, 437491.136256737983786 ], [ 434861.655641330988146, 437491.395114255254157 ], [ 434861.293349434738047, 437491.623796536179725 ], [ 434860.912810708163306, 437491.820624586252961 ], [ 434854.600319199904334, 437494.75 ], [ 434857.25, 437494.75 ], [ 434857.25, 437494.5 ] ] ] } },
{ "type": "Feature", "properties": { }, "geometry": { "type": "Polygon", "coordinates": [ [ [ 434863.5, 437489.891698499384802 ], [ 434863.369211188866757, 437490.0 ], [ 434863.5, 437490.0 ], [ 434863.5, 437489.891698499384802 ] ] ] } },
{ "type": "Feature", "properties": { }, "geometry": { "type": "Polygon", "coordinates": [ [ [ 434845.20793937088456, 437497.0 ], [ 434844.25, 437496.97553251235513 ], [ 434844.25, 437497.0 ], [ 434845.20793937088456, 437497.0 ] ] ] } },
{ "type": "Feature", "properties": { }, "geometry": { "type": "Polygon", "coordinates": [ [ [ 434122.75, 437485.75 ], [ 434122.5, 437485.75 ], [ 434122.5, 437485.25 ], [ 434122.25, 437485.25 ], [ 434122.25, 437485.0 ], [ 434122.0, 437485.0 ], [ 434122.0, 437484.75 ], [ 434121.75, 437484.75 ], [ 434121.75, 437484.25 ], [ 434121.5, 437484.25 ], [ 434121.5, 437484.0 ], [ 434121.0, 437484.0 ], [ 434121.0, 437483.5 ], [ 434120.75, 437483.5 ], [ 434120.75, 437483.25 ], [ 434120.0, 437483.25 ], [ 434120.0, 437483.0 ], [ 434119.25, 437483.0 ], [ 434119.25, 437482.75 ], [ 434117.75, 437482.75 ], [ 434117.75, 437482.5 ], [ 434116.5, 437482.5 ], [ 434116.5, 437482.75 ], [ 434115.5, 437482.75 ], [ 434115.5, 437483.0 ], [ 434114.0, 437483.0 ], [ 434114.0, 437483.25 ], [ 434112.25, 437483.25 ], [ 434112.25, 437483.5 ], [ 434111.75, 437483.5 ], [ 434111.75, 437483.75 ], [ 434111.25, 437483.75 ], [ 434111.25, 437484.0 ], [ 434110.5, 437484.0 ], [ 434110.5, 437484.25 ], [ 434110.25, 437484.25 ], [ 434110.25, 437484.5 ], [ 434110.0, 437484.5 ], [ 434110.0, 437484.75 ], [ 434109.75, 437484.75 ], [ 434109.75, 437486.75 ], [ 434110.0, 437486.75 ], [ 434110.0, 437487.25 ], [ 434110.25, 437487.25 ], [ 434110.25, 437488.0 ], [ 434091.75, 437488.0 ], [ 434091.75, 437488.75 ], [ 434092.0, 437488.75 ], [ 434092.0, 437490.75 ], [ 434092.25, 437490.75 ], [ 434092.25, 437491.5 ], [ 434092.5, 437491.5 ], [ 434092.5, 437492.5 ], [ 434092.75, 437492.5 ], [ 434092.75, 437493.5 ], [ 434093.0, 437493.5 ], [ 434093.0, 437494.5 ], [ 434092.75, 437494.5 ], [ 434092.75, 437495.25 ], [ 434092.5, 437495.25 ], [ 434092.5, 437496.5 ], [ 434092.25, 437496.5 ], [ 434092.25, 437497.5 ], [ 434092.0, 437497.5 ], [ 434092.0, 437497.75 ], [ 434091.75, 437497.75 ], [ 434091.75, 437498.25 ], [ 434091.5, 437498.25 ], [ 434091.5, 437498.5 ], [ 434091.25, 437498.5 ], [ 434091.25, 437499.0 ], [ 434091.0, 437499.0 ], [ 434091.0, 437499.25 ], [ 434090.75, 437499.25 ], [ 434090.75, 437500.5 ], [ 434090.5, 437500.5 ], [ 434090.5, 437501.0 ], [ 434090.25, 437501.0 ], [ 434090.25, 437501.5 ], [ 434090.0, 437501.5 ], [ 434090.0, 437502.0 ], [ 434089.75, 437502.0 ], [ 434089.75, 437502.75 ], [ 434089.5, 437502.75 ], [ 434089.5, 437503.5 ], [ 434089.25, 437503.5 ], [ 434089.25, 437504.0 ], [ 434089.0, 437504.0 ], [ 434089.0, 437504.75 ], [ 434088.75, 437504.75 ], [ 434088.75, 437505.25 ], [ 434088.5, 437505.25 ], [ 434088.5, 437506.5 ], [ 434088.25, 437506.5 ], [ 434088.25, 437506.75 ], [ 434088.0, 437506.75 ], [ 434088.0, 437507.0 ], [ 434087.75, 437507.0 ], [ 434087.75, 437507.25 ], [ 434087.5, 437507.25 ], [ 434087.5, 437507.5 ], [ 434087.25, 437507.5 ], [ 434087.25, 437508.0 ], [ 434087.0, 437508.0 ], [ 434087.0, 437508.25 ], [ 434086.75, 437508.25 ], [ 434086.75, 437508.5 ], [ 434086.5, 437508.5 ], [ 434086.5, 437509.0 ], [ 434086.25, 437509.0 ], [ 434086.25, 437509.5 ], [ 434086.0, 437509.5 ], [ 434086.0, 437509.75 ], [ 434085.5, 437509.75 ], [ 434085.5, 437510.0 ], [ 434085.25, 437510.0 ], [ 434085.25, 437510.5 ], [ 434085.0, 437510.5 ], [ 434085.0, 437510.75 ], [ 434084.75, 437510.75 ], [ 434084.75, 437511.0 ], [ 434084.5, 437511.0 ], [ 434084.5, 437511.25 ], [ 434084.25, 437511.25 ], [ 434084.25, 437511.5 ], [ 434083.75, 437511.5 ], [ 434083.75, 437511.75 ], [ 434083.5, 437511.75 ], [ 434083.5, 437512.0 ], [ 434083.25, 437512.0 ], [ 434083.25, 437512.25 ], [ 434083.0, 437512.25 ], [ 434083.0, 437512.5 ], [ 434082.5, 437512.5 ], [ 434082.5, 437512.75 ], [ 434082.25, 437512.75 ], [ 434082.25, 437513.25 ], [ 434082.0, 437513.25 ], [ 434082.0, 437513.5 ], [ 434081.75, 437513.5 ], [ 434081.75, 437513.75 ], [ 434081.5, 437513.75 ], [ 434081.5, 437514.25 ], [ 434081.25, 437514.25 ], [ 434081.25, 437514.5 ], [ 434081.0, 437514.5 ], [ 434081.0, 437515.0 ], [ 434080.75, 437515.0 ], [ 434080.75, 437515.5 ], [ 434080.5, 437515.5 ], [ 434080.5, 437516.0 ], [ 434080.25, 437516.0 ], [ 434080.25, 437516.5 ], [ 434080.0, 437516.5 ], [ 434080.0, 437517.0 ], [ 434079.75, 437517.0 ], [ 434079.75, 437517.5 ], [ 434079.5, 437517.5 ], [ 434079.5, 437519.5 ], [ 434079.75, 437519.5 ], [ 434079.75, 437520.25 ], [ 434080.0, 437520.25 ], [ 434080.0, 437521.0 ], [ 434080.25, 437521.0 ], [ 434080.25, 437521.75 ], [ 434080.5, 437521.75 ], [ 434080.5, 437522.0 ], [ 434080.75, 437522.0 ], [ 434080.75, 437522.5 ], [ 434081.0, 437522.5 ], [ 434081.0, 437522.75 ], [ 434081.25, 437522.75 ], [ 434081.25, 437523.0 ], [ 434081.5, 437523.0 ], [ 434081.5, 437523.25 ], [ 434081.75, 437523.25 ], [ 434081.75, 437523.5 ], [ 434082.25, 437523.5 ], [ 434082.25, 437523.75 ], [ 434082.5, 437523.75 ], [ 434082.5, 437524.0 ], [ 434083.0, 437524.0 ], [ 434083.0, 437524.25 ], [ 434083.25, 437524.25 ], [ 434083.25, 437524.5 ], [ 434083.75, 437524.5 ], [ 434083.75, 437524.75 ], [ 434084.0, 437524.75 ], [ 434084.0, 437525.0 ], [ 434084.25, 437525.0 ], [ 434084.25, 437525.25 ], [ 434084.5, 437525.25 ], [ 434084.5, 437525.5 ], [ 434084.75, 437525.5 ], [ 434084.75, 437525.75 ], [ 434085.0, 437525.75 ], [ 434085.0, 437526.0 ], [ 434085.25, 437526.0 ], [ 434085.25, 437526.25 ], [ 434085.5, 437526.25 ], [ 434085.5, 437526.5 ], [ 434086.0, 437526.5 ], [ 434086.0, 437526.75 ], [ 434086.25, 437526.75 ], [ 434086.25, 437527.0 ], [ 434086.75, 437527.0 ], [ 434086.75, 437527.25 ], [ 434087.0, 437527.25 ], [ 434087.0, 437527.5 ], [ 434087.5, 437527.5 ], [ 434087.5, 437527.75 ], [ 434087.75, 437527.75 ], [ 434087.75, 437528.0 ], [ 434088.25, 437528.0 ], [ 434088.25, 437528.25 ], [ 434088.5, 437528.25 ], [ 434088.5, 437528.5 ], [ 434089.0, 437528.5 ], [ 434089.0, 437528.75 ], [ 434089.5, 437528.75 ], [ 434089.5, 437529.0 ], [ 434090.25, 437529.0 ], [ 434090.25, 437529.25 ], [ 434093.5, 437529.25 ], [ 434093.5, 437529.0 ], [ 434094.25, 437529.0 ], [ 434094.25, 437528.75 ], [ 434094.75, 437528.75 ], [ 434094.75, 437528.5 ], [ 434095.25, 437528.5 ], [ 434095.25, 437528.25 ], [ 434095.75, 437528.25 ], [ 434095.75, 437528.0 ], [ 434096.25, 437528.0 ], [ 434096.25, 437527.75 ], [ 434096.75, 437527.75 ], [ 434096.75, 437527.5 ], [ 434097.0, 437527.5 ], [ 434097.0, 437527.25 ], [ 434097.25, 437527.25 ], [ 434097.25, 437527.0 ], [ 434097.75, 437527.0 ], [ 434097.75, 437526.75 ], [ 434098.0, 437526.75 ], [ 434098.0, 437526.5 ], [ 434098.25, 437526.5 ], [ 434098.25, 437526.25 ], [ 434098.5, 437526.25 ], [ 434098.5, 437525.75 ], [ 434098.75, 437525.75 ], [ 434098.75, 437525.5 ], [ 434099.0, 437525.5 ], [ 434099.0, 437523.75 ], [ 434098.75, 437523.75 ], [ 434098.75, 437522.75 ], [ 434098.5, 437522.75 ], [ 434098.5, 437519.75 ], [ 434098.75, 437519.75 ], [ 434098.75, 437519.25 ], [ 434098.5, 437519.25 ], [ 434098.5, 437518.25 ], [ 434098.75, 437518.25 ], [ 434098.75, 437518.0 ], [ 434099.25, 437518.0 ], [ 434099.25, 437517.75 ], [ 434099.75, 437517.75 ], [ 434099.75, 437517.5 ], [ 434100.5, 437517.5 ], [ 434100.5, 437517.25 ], [ 434101.25, 437517.25 ], [ 434101.25, 437517.0 ], [ 434104.5, 437517.0 ], [ 434104.5, 437516.75 ], [ 434106.0, 437516.75 ], [ 434106.0, 437517.0 ], [ 434107.25, 437517.0 ], [ 434107.25, 437517.25 ], [ 434109.75, 437517.25 ], [ 434109.75, 437517.0 ], [ 434110.0, 437517.0 ], [ 434110.0, 437516.75 ], [ 434110.25, 437516.75 ], [ 434110.25, 437516.5 ], [ 434110.5, 437516.5 ], [ 434110.5, 437516.25 ], [ 434110.75, 437516.25 ], [ 434110.75, 437515.75 ], [ 434111.0, 437515.75 ], [ 434111.0, 437515.0 ], [ 434111.25, 437515.0 ], [ 434111.25, 437514.0 ], [ 434111.5, 437514.0 ], [ 434111.5, 437512.5 ], [ 434111.75, 437512.5 ], [ 434111.75, 437511.5 ], [ 434112.0, 437511.5 ], [ 434112.0, 437510.25 ], [ 434112.25, 437510.25 ], [ 434112.25, 437509.5 ], [ 434112.5, 437509.5 ], [ 434112.5, 437508.75 ], [ 434112.75, 437508.75 ], [ 434112.75, 437508.25 ], [ 434113.0, 437508.25 ], [ 434113.0, 437507.75 ], [ 434113.25, 437507.75 ], [ 434113.25, 437506.75 ], [ 434113.5, 437506.75 ], [ 434113.5, 437506.25 ], [ 434113.25, 437506.25 ], [ 434113.25, 437504.75 ], [ 434113.5, 437504.75 ], [ 434113.5, 437502.0 ], [ 434113.25, 437502.0 ], [ 434113.25, 437501.25 ], [ 434113.5, 437501.25 ], [ 434113.5, 437501.0 ], [ 434113.75, 437501.0 ], [ 434113.75, 437500.5 ], [ 434114.0, 437500.5 ], [ 434114.0, 437500.25 ], [ 434114.25, 437500.25 ], [ 434114.25, 437499.75 ], [ 434114.5, 437499.75 ], [ 434114.5, 437499.25 ], [ 434114.75, 437499.25 ], [ 434114.75, 437499.0 ], [ 434115.0, 437499.0 ], [ 434115.0, 437498.5 ], [ 434115.25, 437498.5 ], [ 434115.25, 437498.25 ], [ 434115.5, 437498.25 ], [ 434115.5, 437498.0 ], [ 434116.0, 437498.0 ], [ 434116.0, 437497.75 ], [ 434116.25, 437497.75 ], [ 434116.25, 437497.5 ], [ 434116.75, 437497.5 ], [ 434116.75, 437497.25 ], [ 434117.25, 437497.25 ], [ 434117.25, 437497.0 ], [ 434118.0, 437497.0 ], [ 434118.0, 437496.75 ], [ 434118.5, 437496.75 ], [ 434118.5, 437496.5 ], [ 434119.0, 437496.5 ], [ 434119.0, 437496.25 ], [ 434119.5, 437496.25 ], [ 434119.5, 437496.0 ], [ 434119.75, 437496.0 ], [ 434119.75, 437495.75 ], [ 434120.0, 437495.75 ], [ 434120.0, 437495.5 ], [ 434120.25, 437495.5 ], [ 434120.25, 437495.0 ], [ 434120.5, 437495.0 ], [ 434120.5, 437494.75 ], [ 434120.75, 437494.75 ], [ 434120.75, 437494.0 ], [ 434121.0, 437494.0 ], [ 434121.0, 437493.5 ], [ 434121.25, 437493.5 ], [ 434121.25, 437492.75 ], [ 434121.5, 437492.75 ], [ 434121.5, 437492.25 ], [ 434121.75, 437492.25 ], [ 434121.75, 437491.5 ], [ 434122.0, 437491.5 ], [ 434122.0, 437490.75 ], [ 434122.121186650183517, 437490.75 ], [ 434122.029484023456462, 437488.527618700521998 ], [ 434122.5, 437488.508304056362249 ], [ 434122.5, 437487.0 ], [ 434122.75, 437487.0 ], [ 434122.75, 437485.75 ] ] ] } },
{ "type": "Feature", "properties": { }, "geometry": { "type": "Polygon", "coordinates": [ [ [ 434347.75, 437485.5 ], [ 434347.75, 437483.25 ], [ 434347.5, 437483.25 ], [ 434347.5, 437482.25 ], [ 434347.25, 437482.25 ], [ 434347.25, 437481.5 ], [ 434347.0, 437481.5 ], [ 434347.0, 437481.25 ], [ 434346.75, 437481.25 ], [ 434346.75, 437480.75 ], [ 434346.5, 437480.75 ], [ 434346.5, 437480.5 ], [ 434345.75, 437480.5 ], [ 434345.75, 437480.25 ], [ 434344.25, 437480.25 ], [ 434344.25, 437480.0 ], [ 434340.25, 437480.0 ], [ 434340.25, 437480.25 ], [ 434337.0, 437480.25 ], [ 434337.0, 437480.5 ], [ 434335.5, 437480.5 ], [ 434335.5, 437480.75 ], [ 434334.25, 437480.75 ], [ 434334.25, 437481.0 ], [ 434332.25, 437481.0 ], [ 434332.25, 437481.25 ], [ 434330.75, 437481.25 ], [ 434330.75, 437481.5 ], [ 434329.75, 437481.5 ], [ 434329.75, 437481.75 ], [ 434328.75, 437481.75 ], [ 434328.75, 437482.0 ], [ 434327.25, 437482.0 ], [ 434327.25, 437482.25 ], [ 434326.25, 437482.25 ], [ 434326.25, 437482.5 ], [ 434325.75, 437482.5 ], [ 434325.75, 437482.75 ], [ 434325.5, 437482.75 ], [ 434325.5, 437483.0 ], [ 434325.25, 437483.0 ], [ 434325.25, 437483.25 ], [ 434324.75, 437483.25 ], [ 434324.75, 437483.75 ], [ 434324.5, 437483.75 ], [ 434324.5, 437484.25 ], [ 434324.25, 437484.25 ], [ 434324.25, 437484.75 ], [ 434324.0, 437484.75 ], [ 434324.0, 437486.25 ], [ 434323.75, 437486.25 ], [ 434323.75, 437488.0 ], [ 434328.657168120262213, 437488.0 ], [ 434328.311155093717389, 437483.402637680876069 ], [ 434345.564744849980343, 437482.104854113305919 ], [ 434346.010380628868006, 437488.0 ], [ 434347.5, 437488.0 ], [ 434347.5, 437485.5 ], [ 434347.75, 437485.5 ] ] ] } },
{ "type": "Feature", "properties": { }, "geometry": { "type": "Polygon", "coordinates": [ [ [ 434838.75, 437429.25 ], [ 434838.75, 437429.5 ], [ 434839.0, 437429.5 ], [ 434839.0, 437431.0 ], [ 434838.75, 437431.0 ], [ 434838.75, 437432.5 ], [ 434839.0, 437432.5 ], [ 434839.0, 437432.75 ], [ 434839.25, 437432.75 ], [ 434839.25, 437433.0 ], [ 434839.5, 437433.0 ], [ 434839.5, 437434.25 ], [ 434839.25, 437434.25 ], [ 434839.25, 437435.25 ], [ 434839.5, 437435.25 ], [ 434839.5, 437436.0 ], [ 434839.75, 437436.0 ], [ 434839.75, 437437.5 ], [ 434840.0, 437437.5 ], [ 434840.0, 437437.75 ], [ 434840.5, 437437.75 ], [ 434840.5, 437438.0 ], [ 434840.75, 437438.0 ], [ 434840.75, 437438.5 ], [ 434841.0, 437438.5 ], [ 434841.0, 437439.0 ], [ 434841.25, 437439.0 ], [ 434841.25, 437440.0 ], [ 434841.5, 437440.0 ], [ 434841.5, 437440.5 ], [ 434842.0, 437440.5 ], [ 434842.0, 437440.75 ], [ 434842.609541500627529, 437440.75 ], [ 434846.532854472228792, 437421.0 ], [ 434846.5, 437421.0 ], [ 434846.5, 437420.0 ], [ 434846.731503230228554, 437420.0 ], [ 434846.75, 437419.906887060729787 ], [ 434846.75, 437417.75 ], [ 434846.5, 437417.75 ], [ 434846.5, 437416.25 ], [ 434846.75, 437416.25 ], [ 434846.75, 437413.75 ], [ 434847.0, 437413.75 ], [ 434847.0, 437413.25 ], [ 434847.25, 437413.25 ], [ 434847.25, 437413.0 ], [ 434847.5, 437413.0 ], [ 434847.5, 437412.0 ], [ 434847.75, 437412.0 ], [ 434847.75, 437411.0 ], [ 434848.0, 437411.0 ], [ 434848.0, 437409.5 ], [ 434847.75, 437409.5 ], [ 434847.75, 437409.0 ], [ 434847.5, 437409.0 ], [ 434847.5, 437408.5 ], [ 434847.25, 437408.5 ], [ 434847.25, 437408.25 ], [ 434847.0, 437408.25 ], [ 434847.0, 437408.0 ], [ 434846.75, 437408.0 ], [ 434846.75, 437407.75 ], [ 434846.5, 437407.75 ], [ 434846.5, 437407.5 ], [ 434846.0, 437407.5 ], [ 434846.0, 437407.25 ], [ 434844.5, 437407.25 ], [ 434844.5, 437407.0 ], [ 434843.0, 437407.0 ], [ 434843.0, 437406.75 ], [ 434842.25, 437406.75 ], [ 434842.25, 437406.5 ], [ 434841.25, 437406.5 ], [ 434841.25, 437406.25 ], [ 434840.5, 437406.25 ], [ 434840.5, 437406.0 ], [ 434840.0, 437406.0 ], [ 434840.0, 437406.25 ], [ 434839.5, 437406.25 ], [ 434839.5, 437406.0 ], [ 434838.75, 437406.0 ], [ 434838.75, 437405.75 ], [ 434838.25, 437405.75 ], [ 434838.25, 437405.5 ], [ 434837.5, 437405.5 ], [ 434837.5, 437405.25 ], [ 434837.0, 437405.25 ], [ 434837.0, 437405.0 ], [ 434836.5, 437405.0 ], [ 434836.5, 437404.75 ], [ 434836.0, 437404.75 ], [ 434836.0, 437404.5 ], [ 434835.5, 437404.5 ], [ 434835.5, 437404.25 ], [ 434830.75, 437404.25 ], [ 434830.75, 437404.0 ], [ 434830.5, 437404.0 ], [ 434830.5, 437404.25 ], [ 434829.5, 437404.25 ], [ 434829.5, 437404.5 ], [ 434829.25, 437404.5 ], [ 434829.25, 437404.75 ], [ 434829.0, 437404.75 ], [ 434829.0, 437405.0 ], [ 434828.75, 437405.0 ], [ 434828.75, 437405.25 ], [ 434828.5, 437405.25 ], [ 434828.5, 437405.5 ], [ 434828.25, 437405.5 ], [ 434828.25, 437405.75 ], [ 434828.0, 437405.75 ], [ 434828.0, 437406.0 ], [ 434827.75, 437406.0 ], [ 434827.75, 437406.25 ], [ 434827.25, 437406.25 ], [ 434827.25, 437406.5 ], [ 434826.5, 437406.5 ], [ 434826.5, 437406.75 ], [ 434825.5, 437406.75 ], [ 434825.5, 437407.0 ], [ 434824.75, 437407.0 ], [ 434824.75, 437407.25 ], [ 434824.0, 437407.25 ], [ 434824.0, 437407.5 ], [ 434823.25, 437407.5 ], [ 434823.25, 437407.75 ], [ 434822.0, 437407.75 ], [ 434822.0, 437408.0 ], [ 434821.0, 437408.0 ], [ 434821.0, 437408.25 ], [ 434819.5, 437408.25 ], [ 434819.5, 437408.5 ], [ 434818.0, 437408.5 ], [ 434818.0, 437408.75 ], [ 434817.5, 437408.75 ], [ 434817.5, 437409.0 ], [ 434817.0, 437409.0 ], [ 434817.0, 437409.25 ], [ 434816.5, 437409.25 ], [ 434816.5, 437409.5 ], [ 434816.25, 437409.5 ], [ 434816.25, 437410.0 ], [ 434816.0, 437410.0 ], [ 434816.0, 437410.25 ], [ 434815.75, 437410.25 ], [ 434815.75, 437410.5 ], [ 434815.5, 437410.5 ], [ 434815.5, 437411.0 ], [ 434815.25, 437411.0 ], [ 434815.25, 437412.0 ], [ 434815.0, 437412.0 ], [ 434815.0, 437414.25 ], [ 434815.25, 437414.25 ], [ 434815.25, 437414.75 ], [ 434815.5, 437414.75 ], [ 434815.5, 437415.25 ], [ 434815.75, 437415.25 ], [ 434815.75, 437416.25 ], [ 434816.0, 437416.25 ], [ 434816.0, 437417.25 ], [ 434816.25, 437417.25 ], [ 434816.25, 437418.0 ], [ 434816.5, 437418.0 ], [ 434816.5, 437419.0 ], [ 434816.75, 437419.0 ], [ 434816.75, 437420.25 ], [ 434817.0, 437420.25 ], [ 434817.0, 437421.0 ], [ 434817.25, 437421.0 ], [ 434817.25, 437421.75 ], [ 434817.5, 437421.75 ], [ 434817.5, 437422.25 ], [ 434817.75, 437422.25 ], [ 434817.75, 437422.5 ], [ 434818.0, 437422.5 ], [ 434818.0, 437422.75 ], [ 434818.25, 437422.75 ], [ 434818.25, 437423.25 ], [ 434818.5, 437423.25 ], [ 434818.5, 437423.5 ], [ 434818.75, 437423.5 ], [ 434818.75, 437423.75 ], [ 434819.0, 437423.75 ], [ 434819.0, 437424.25 ], [ 434819.25, 437424.25 ], [ 434819.25, 437424.5 ], [ 434819.5, 437424.5 ], [ 434819.5, 437425.0 ], [ 434819.75, 437425.0 ], [ 434819.75, 437425.25 ], [ 434820.0, 437425.25 ], [ 434820.0, 437425.75 ], [ 434820.25, 437425.75 ], [ 434820.25, 437426.0 ], [ 434820.5, 437426.0 ], [ 434820.5, 437426.5 ], [ 434820.75, 437426.5 ], [ 434820.75, 437426.75 ], [ 434821.0, 437426.75 ], [ 434821.0, 437427.0 ], [ 434821.25, 437427.0 ], [ 434821.25, 437427.25 ], [ 434821.5, 437427.25 ], [ 434821.5, 437427.5 ], [ 434822.0, 437427.5 ], [ 434822.0, 437427.75 ], [ 434822.25, 437427.75 ], [ 434822.25, 437428.0 ], [ 434822.75, 437428.0 ], [ 434822.75, 437428.25 ], [ 434823.25, 437428.25 ], [ 434823.25, 437428.5 ], [ 434823.5, 437428.5 ], [ 434823.5, 437428.75 ], [ 434824.0, 437428.75 ], [ 434824.0, 437429.0 ], [ 434824.5, 437429.0 ], [ 434824.5, 437429.25 ], [ 434824.75, 437429.25 ], [ 434824.75, 437429.75 ], [ 434825.0, 437429.75 ], [ 434825.0, 437430.0 ], [ 434825.25, 437430.0 ], [ 434825.25, 437430.5 ], [ 434825.5, 437430.5 ], [ 434825.5, 437430.75 ], [ 434825.75, 437430.75 ], [ 434825.75, 437431.0 ], [ 434826.0, 437431.0 ], [ 434826.0, 437431.5 ], [ 434826.25, 437431.5 ], [ 434826.25, 437431.75 ], [ 434826.5, 437431.75 ], [ 434826.5, 437432.0 ], [ 434826.75, 437432.0 ], [ 434826.75, 437432.25 ], [ 434827.0, 437432.25 ], [ 434827.0, 437432.5 ], [ 434827.25, 437432.5 ], [ 434827.25, 437432.75 ], [ 434827.5, 437432.75 ], [ 434827.5, 437433.25 ], [ 434827.75, 437433.25 ], [ 434827.75, 437433.5 ], [ 434828.0, 437433.5 ], [ 434828.0, 437434.0 ], [ 434828.25, 437434.0 ], [ 434828.25, 437434.5 ], [ 434828.5, 437434.5 ], [ 434828.5, 437434.75 ], [ 434828.75, 437434.75 ], [ 434828.75, 437435.0 ], [ 434829.0, 437435.0 ], [ 434829.0, 437435.25 ], [ 434829.25, 437435.25 ], [ 434829.25, 437435.75 ], [ 434829.5, 437435.75 ], [ 434829.5, 437436.0 ], [ 434829.75, 437436.0 ], [ 434829.75, 437436.25 ], [ 434830.0, 437436.25 ], [ 434830.0, 437436.5 ], [ 434830.5, 437436.5 ], [ 434830.5, 437436.75 ], [ 434830.75, 437436.75 ], [ 434830.75, 437436.5 ], [ 434831.0, 437436.5 ], [ 434831.0, 437436.25 ], [ 434831.25, 437436.25 ], [ 434831.25, 437436.0 ], [ 434831.5, 437436.0 ], [ 434831.5, 437435.75 ], [ 434831.75, 437435.75 ], [ 434831.75, 437435.5 ], [ 434832.25, 437435.5 ], [ 434832.25, 437435.25 ], [ 434832.5, 437435.25 ], [ 434832.5, 437435.0 ], [ 434832.75, 437435.0 ], [ 434832.75, 437434.75 ], [ 434833.25, 437434.75 ], [ 434833.25, 437434.25 ], [ 434833.5, 437434.25 ], [ 434833.5, 437433.75 ], [ 434833.75, 437433.75 ], [ 434833.75, 437434.0 ], [ 434835.0, 437434.0 ], [ 434835.0, 437433.75 ], [ 434835.75, 437433.75 ], [ 434835.75, 437433.0 ], [ 434835.5, 437433.0 ], [ 434835.5, 437432.5 ], [ 434835.25, 437432.5 ], [ 434835.25, 437431.25 ], [ 434835.5, 437431.25 ], [ 434835.5, 437431.115308763808571 ], [ 434832.028439999790862, 437430.429739337763749 ], [ 434835.857697277911939, 437411.131407627952285 ], [ 434841.601787841296755, 437412.264509425964206 ], [ 434841.5, 437412.776605600607581 ], [ 434841.5, 437413.0 ], [ 434842.5, 437413.0 ], [ 434842.5, 437413.5 ], [ 434842.75, 437413.5 ], [ 434842.75, 437414.75 ], [ 434842.0, 437414.75 ], [ 434842.0, 437415.0 ], [ 434841.25, 437415.0 ], [ 434841.25, 437414.75 ], [ 434841.107754234690219, 437414.75 ], [ 434838.971008544845972, 437425.5 ], [ 434839.0, 437425.5 ], [ 434839.0, 437426.25 ], [ 434839.25, 437426.25 ], [ 434839.25, 437427.0 ], [ 434839.0, 437427.0 ], [ 434839.0, 437427.5 ], [ 434838.75, 437427.5 ], [ 434838.75, 437427.75 ], [ 434838.523782702803146, 437427.75 ], [ 434838.5, 437427.869651138666086 ], [ 434838.5, 437428.0 ], [ 434838.474090942530893, 437428.0 ], [ 434838.275323901616503, 437429.0 ], [ 434838.5, 437429.0 ], [ 434838.5, 437429.25 ], [ 434838.75, 437429.25 ] ] ] } },
{ "type": "Feature", "properties": { }, "geometry": { "type": "Polygon", "coordinates": [ [ [ 434902.75, 437359.902609908080194 ], [ 434902.75, 437358.25 ], [ 434903.0, 437358.25 ], [ 434903.0, 437357.5 ], [ 434903.25, 437357.5 ], [ 434903.25, 437357.0 ], [ 434903.5, 437357.0 ], [ 434903.5, 437356.5 ], [ 434903.75, 437356.5 ], [ 434903.75, 437356.0 ], [ 434904.0, 437356.0 ], [ 434904.0, 437355.75 ], [ 434904.25, 437355.75 ], [ 434904.25, 437355.5 ], [ 434904.5, 437355.5 ], [ 434904.5, 437355.25 ], [ 434904.75, 437355.25 ], [ 434904.75, 437355.0 ], [ 434905.0, 437355.0 ], [ 434905.0, 437354.75 ], [ 434905.25, 437354.75 ], [ 434905.25, 437354.25 ], [ 434905.5, 437354.25 ], [ 434905.5, 437353.75 ], [ 434905.75, 437353.75 ], [ 434905.75, 437353.25 ], [ 434906.0, 437353.25 ], [ 434906.0, 437351.0 ], [ 434906.25, 437351.0 ], [ 434906.25, 437350.25 ], [ 434906.5, 437350.25 ], [ 434906.5, 437346.5 ], [ 434906.25, 437346.5 ], [ 434906.25, 437345.75 ], [ 434906.0, 437345.75 ], [ 434906.0, 437345.0 ], [ 434905.75, 437345.0 ], [ 434905.75, 437343.5 ], [ 434905.5, 437343.5 ], [ 434905.5, 437341.75 ], [ 434905.25, 437341.75 ], [ 434905.25, 437341.25 ], [ 434905.0, 437341.25 ], [ 434905.0, 437341.0 ], [ 434904.75, 437341.0 ], [ 434904.75, 437340.75 ], [ 434904.5, 437340.75 ], [ 434904.5, 437340.25 ], [ 434904.25, 437340.25 ], [ 434904.25, 437340.0 ], [ 434904.0, 437340.0 ], [ 434904.0, 437339.75 ], [ 434903.75, 437339.75 ], [ 434903.75, 437339.25 ], [ 434903.5, 437339.25 ], [ 434903.5, 437338.25 ], [ 434903.25, 437338.25 ], [ 434903.25, 437337.25 ], [ 434903.0, 437337.25 ], [ 434903.0, 437336.5 ], [ 434902.75, 437336.5 ], [ 434902.75, 437336.0 ], [ 434902.5, 437336.0 ], [ 434902.5, 437335.75 ], [ 434902.25, 437335.75 ], [ 434902.25, 437335.25 ], [ 434902.0, 437335.25 ], [ 434902.0, 437334.75 ], [ 434901.75, 437334.75 ], [ 434901.75, 437334.0 ], [ 434901.5, 437334.0 ], [ 434901.5, 437333.5 ], [ 434901.25, 437333.5 ], [ 434901.25, 437333.25 ], [ 434901.0, 437333.25 ], [ 434901.0, 437333.0 ], [ 434900.75, 437333.0 ], [ 434900.75, 437332.75 ], [ 434900.5, 437332.75 ], [ 434900.5, 437332.5 ], [ 434900.0, 437332.5 ], [ 434900.0, 437332.25 ], [ 434899.75, 437332.25 ], [ 434899.75, 437332.0 ], [ 434899.25, 437332.0 ], [ 434899.25, 437331.75 ], [ 434899.0, 437331.75 ], [ 434899.0, 437331.5 ], [ 434898.25, 437331.5 ], [ 434898.25, 437331.25 ], [ 434897.5, 437331.25 ], [ 434897.5, 437331.0 ], [ 434896.0, 437331.0 ], [ 434896.0, 437343.008707998378668 ], [ 434896.597127263841685, 437342.754535944666713 ], [ 434897.839162886259146, 437345.667810702347197 ], [ 434896.0, 437346.450504325854126 ], [ 434896.0, 437347.261583885992877 ], [ 434897.220265834534075, 437350.113817058620043 ], [ 434896.0, 437350.632225456938613 ], [ 434896.0, 437360.0 ], [ 434902.555344259249978, 437360.0 ], [ 434902.75, 437359.902609908080194 ] ] ] } },
{ "type": "Feature", "properties": { }, "geometry": { "type": "Polygon", "coordinates": [ [ [ 434761.0, 437296.5 ], [ 434761.0, 437296.25 ], [ 434761.5, 437296.25 ], [ 434761.5, 437296.0 ], [ 434762.0, 437296.0 ], [ 434762.0, 437295.75 ], [ 434762.25, 437295.75 ], [ 434762.25, 437295.5 ], [ 434762.75, 437295.5 ], [ 434762.75, 437295.0 ], [ 434763.0, 437295.0 ], [ 434763.0, 437294.75 ], [ 434763.25, 437294.75 ], [ 434763.25, 437294.5 ], [ 434763.5, 437294.5 ], [ 434763.5, 437294.25 ], [ 434763.75, 437294.25 ], [ 434763.75, 437294.0 ], [ 434764.25, 437294.0 ], [ 434764.25, 437293.75 ], [ 434764.5, 437293.75 ], [ 434764.5, 437293.5 ], [ 434764.75, 437293.5 ], [ 434764.75, 437293.25 ], [ 434765.25, 437293.25 ], [ 434765.25, 437293.0 ], [ 434766.0, 437293.0 ], [ 434766.0, 437292.75 ], [ 434766.5, 437292.75 ], [ 434766.5, 437292.5 ], [ 434767.0, 437292.5 ], [ 434767.0, 437292.25 ], [ 434767.25, 437292.25 ], [ 434767.25, 437292.0 ], [ 434768.0, 437292.0 ], [ 434768.0, 437279.0 ], [ 434765.75, 437279.0 ], [ 434765.75, 437278.75 ], [ 434764.25, 437278.75 ], [ 434764.25, 437278.5 ], [ 434763.5, 437278.5 ], [ 434763.5, 437278.75 ], [ 434763.0, 437278.75 ], [ 434763.0, 437279.0 ], [ 434762.5, 437279.0 ], [ 434762.5, 437279.25 ], [ 434762.25, 437279.25 ], [ 434762.25, 437279.5 ], [ 434761.75, 437279.5 ], [ 434761.75, 437279.75 ], [ 434758.0, 437279.75 ], [ 434758.0, 437280.0 ], [ 434757.25, 437280.0 ], [ 434757.25, 437280.25 ], [ 434756.75, 437280.25 ], [ 434756.75, 437280.5 ], [ 434756.5, 437280.5 ], [ 434756.5, 437280.75 ], [ 434756.0, 437280.75 ], [ 434756.0, 437281.0 ], [ 434755.75, 437281.0 ], [ 434755.75, 437281.25 ], [ 434755.5, 437281.25 ], [ 434755.5, 437281.5 ], [ 434755.25, 437281.5 ], [ 434755.25, 437281.75 ], [ 434755.0, 437281.75 ], [ 434755.0, 437282.25 ], [ 434754.75, 437282.25 ], [ 434754.75, 437282.75 ], [ 434754.5, 437282.75 ], [ 434754.5, 437283.25 ], [ 434754.25, 437283.25 ], [ 434754.25, 437284.25 ], [ 434754.0, 437284.25 ], [ 434754.0, 437285.0 ], [ 434753.75, 437285.0 ], [ 434753.75, 437285.5 ], [ 434753.5, 437285.5 ], [ 434753.5, 437287.0 ], [ 434753.25, 437287.0 ], [ 434753.25, 437289.75 ], [ 434753.0, 437289.75 ], [ 434753.0, 437291.25 ], [ 434752.75, 437291.25 ], [ 434752.75, 437292.25 ], [ 434752.5, 437292.25 ], [ 434752.5, 437294.5 ], [ 434752.75, 437294.5 ], [ 434752.75, 437294.75 ], [ 434753.0, 437294.75 ], [ 434753.0, 437295.0 ], [ 434753.25, 437295.0 ], [ 434753.25, 437295.5 ], [ 434753.5, 437295.5 ], [ 434753.5, 437295.75 ], [ 434754.25, 437295.75 ], [ 434754.25, 437296.0 ], [ 434755.0, 437296.0 ], [ 434755.0, 437296.25 ], [ 434756.75, 437296.25 ], [ 434756.75, 437296.5 ], [ 434758.0, 437296.5 ], [ 434758.0, 437296.75 ], [ 434760.0, 437296.75 ], [ 434760.0, 437296.5 ], [ 434761.0, 437296.5 ] ] ] } },
{ "type": "Feature", "properties": { }, "geometry": { "type": "Polygon", "coordinates": [ [ [ 434768.0, 437274.25 ], [ 434768.0, 437260.75 ], [ 434767.0, 437260.75 ], [ 434767.0, 437260.5 ], [ 434766.5, 437260.5 ], [ 434766.5, 437260.75 ], [ 434765.5, 437260.75 ], [ 434765.5, 437261.0 ], [ 434765.25, 437261.0 ], [ 434765.25, 437261.25 ], [ 434765.0, 437261.25 ], [ 434765.0, 437261.5 ], [ 434764.75, 437261.5 ], [ 434764.75, 437261.75 ], [ 434764.5, 437261.75 ], [ 434764.5, 437262.0 ], [ 434764.25, 437262.0 ], [ 434764.25, 437263.25 ], [ 434764.0, 437263.25 ], [ 434764.0, 437264.25 ], [ 434763.75, 437264.25 ], [ 434763.75, 437265.25 ], [ 434763.5, 437265.25 ], [ 434763.5, 437268.25 ], [ 434763.25, 437268.25 ], [ 434763.25, 437268.75 ], [ 434763.5, 437268.75 ], [ 434763.5, 437270.75 ], [ 434763.75, 437270.75 ], [ 434763.75, 437272.75 ], [ 434764.0, 437272.75 ], [ 434764.0, 437273.25 ], [ 434764.25, 437273.25 ], [ 434764.25, 437273.5 ], [ 434765.5, 437273.5 ], [ 434765.5, 437274.5 ], [ 434767.25, 437274.5 ], [ 434767.25, 437274.25 ], [ 434768.0, 437274.25 ] ] ] } },
{ "type": "Feature", "properties": { }, "geometry": { "type": "Polygon", "coordinates": [ [ [ 434000.5, 437033.25 ], [ 434000.5, 437033.0 ], [ 434000.0, 437033.0 ], [ 434000.0, 437033.75 ], [ 434000.75, 437033.75 ], [ 434000.75, 437033.25 ], [ 434000.5, 437033.25 ] ] ] } },
{ "type": "Feature", "properties": { }, "geometry": { "type": "Polygon", "coordinates": [ [ [ 434002.75, 437032.25 ], [ 434002.75, 437031.75 ], [ 434003.0, 437031.75 ], [ 434003.0, 437029.5 ], [ 434002.75, 437029.5 ], [ 434002.75, 437029.0 ], [ 434002.5, 437029.0 ], [ 434002.5, 437028.25 ], [ 434002.25, 437028.25 ], [ 434002.25, 437028.0 ], [ 434002.0, 437028.0 ], [ 434002.0, 437027.75 ], [ 434001.75, 437027.75 ], [ 434001.75, 437027.5 ], [ 434001.5, 437027.5 ], [ 434001.5, 437027.25 ], [ 434001.0, 437027.25 ], [ 434001.0, 437027.5 ], [ 434000.0, 437027.5 ], [ 434000.0, 437032.25 ], [ 434000.75, 437032.25 ], [ 434000.75, 437032.5 ], [ 434002.5, 437032.5 ], [ 434002.5, 437032.25 ], [ 434002.75, 437032.25 ] ] ] } },
{ "type": "Feature", "properties": { }, "geometry": { "type": "Polygon", "coordinates": [ [ [ 434002.0, 437021.5 ], [ 434002.0, 437021.25 ], [ 434001.75, 437021.25 ], [ 434001.75, 437020.75 ], [ 434001.5, 437020.75 ], [ 434001.5, 437021.0 ], [ 434001.25, 437021.0 ], [ 434001.25, 437021.75 ], [ 434001.75, 437021.75 ], [ 434001.75, 437021.5 ], [ 434002.0, 437021.5 ] ] ] } },
{ "type": "Feature", "properties": { }, "geometry": { "type": "Polygon", "coordinates": [ [ [ 434000.0, 437018.25 ], [ 434000.0, 437018.5 ], [ 434001.25, 437018.5 ], [ 434001.25, 437018.25 ], [ 434000.0, 437018.25 ] ] ] } },
{ "type": "Feature", "properties": { }, "geometry": { "type": "Polygon", "coordinates": [ [ [ 434001.25, 437017.5 ], [ 434001.25, 437018.0 ], [ 434001.5, 437018.0 ], [ 434001.5, 437017.5 ], [ 434001.25, 437017.5 ] ] ] } },
{ "type": "Feature", "properties": { }, "geometry": { "type": "Polygon", "coordinates": [ [ [ 434404.0, 437012.5 ], [ 434404.25, 437012.5 ], [ 434404.25, 437012.0 ], [ 434404.5, 437012.0 ], [ 434404.5, 437011.5 ], [ 434404.75, 437011.5 ], [ 434404.75, 437010.75 ], [ 434405.0, 437010.75 ], [ 434405.0, 437003.75 ], [ 434404.75, 437003.75 ], [ 434404.75, 437002.5 ], [ 434404.5, 437002.5 ], [ 434404.5, 437002.25 ], [ 434404.25, 437002.25 ], [ 434404.25, 437002.0 ], [ 434404.0, 437002.0 ], [ 434404.0, 437001.75 ], [ 434403.75, 437001.75 ], [ 434403.75, 437001.5 ], [ 434403.5, 437001.5 ], [ 434403.5, 437001.25 ], [ 434403.25, 437001.25 ], [ 434403.25, 437001.0 ], [ 434403.0, 437001.0 ], [ 434403.0, 437000.75 ], [ 434402.75, 437000.75 ], [ 434402.75, 437000.5 ], [ 434402.25, 437000.5 ], [ 434402.25, 437000.25 ], [ 434401.75, 437000.25 ], [ 434401.75, 437000.0 ], [ 434384.0, 437000.0 ], [ 434384.0, 437002.5 ], [ 434383.5, 437002.5 ], [ 434383.5, 437002.25 ], [ 434383.25, 437002.25 ], [ 434383.25, 437001.75 ], [ 434382.5, 437001.75 ], [ 434382.5, 437001.5 ], [ 434380.5, 437001.5 ], [ 434380.5, 437001.75 ], [ 434380.25, 437001.75 ], [ 434380.25, 437002.25 ], [ 434379.75, 437002.25 ], [ 434379.75, 437002.75 ], [ 434380.0, 437002.75 ], [ 434380.0, 437003.0 ], [ 434380.25, 437003.0 ], [ 434380.25, 437003.25 ], [ 434380.5, 437003.25 ], [ 434380.5, 437005.75 ], [ 434380.75, 437005.75 ], [ 434380.75, 437006.0 ], [ 434381.25, 437006.0 ], [ 434381.25, 437006.25 ], [ 434381.5, 437006.25 ], [ 434381.5, 437006.5 ], [ 434382.25, 437006.5 ], [ 434382.25, 437006.75 ], [ 434384.0, 437006.75 ], [ 434384.0, 437010.5 ], [ 434385.75, 437010.5 ], [ 434385.75, 437010.75 ], [ 434386.5, 437010.75 ], [ 434386.5, 437011.0 ], [ 434386.75, 437011.0 ], [ 434386.75, 437011.25 ], [ 434387.25, 437011.25 ], [ 434387.25, 437011.5 ], [ 434387.5, 437011.5 ], [ 434387.5, 437011.75 ], [ 434388.0, 437011.75 ], [ 434388.0, 437012.0 ], [ 434388.25, 437012.0 ], [ 434388.25, 437012.25 ], [ 434388.5, 437012.25 ], [ 434388.5, 437012.5 ], [ 434389.0, 437012.5 ], [ 434389.0, 437012.75 ], [ 434389.25, 437012.75 ], [ 434389.25, 437013.0 ], [ 434389.75, 437013.0 ], [ 434389.75, 437013.25 ], [ 434390.25, 437013.25 ], [ 434390.25, 437013.5 ], [ 434390.75, 437013.5 ], [ 434390.75, 437013.75 ], [ 434391.25, 437013.75 ], [ 434391.25, 437014.0 ], [ 434391.5, 437014.0 ], [ 434391.5, 437014.25 ], [ 434392.0, 437014.25 ], [ 434392.0, 437014.5 ], [ 434392.25, 437014.5 ], [ 434392.25, 437014.75 ], [ 434392.5, 437014.75 ], [ 434392.5, 437015.0 ], [ 434392.75, 437015.0 ], [ 434392.75, 437015.25 ], [ 434393.0, 437015.25 ], [ 434393.0, 437015.5 ], [ 434393.25, 437015.5 ], [ 434393.25, 437015.75 ], [ 434393.5, 437015.75 ], [ 434393.5, 437016.0 ], [ 434393.75, 437016.0 ], [ 434393.75, 437016.25 ], [ 434394.25, 437016.25 ], [ 434394.25, 437016.5 ], [ 434394.5, 437016.5 ], [ 434394.5, 437016.75 ], [ 434395.0, 437016.75 ], [ 434395.0, 437017.0 ], [ 434395.25, 437017.0 ], [ 434395.25, 437017.25 ], [ 434395.75, 437017.25 ], [ 434395.75, 437017.5 ], [ 434397.25, 437017.5 ], [ 434397.25, 437017.25 ], [ 434397.5, 437017.25 ], [ 434397.5, 437017.0 ], [ 434398.5, 437017.0 ], [ 434398.5, 437016.75 ], [ 434399.0, 437016.75 ], [ 434399.0, 437016.5 ], [ 434399.25, 437016.5 ], [ 434399.25, 437016.25 ], [ 434399.5, 437016.25 ], [ 434399.5, 437016.0 ], [ 434400.0, 437016.0 ], [ 434400.0, 437015.75 ], [ 434401.25, 437015.75 ], [ 434401.25, 437015.5 ], [ 434402.0, 437015.5 ], [ 434402.0, 437015.25 ], [ 434402.162236272648443, 437015.25 ], [ 434402.101996187004261, 437013.069306818535551 ], [ 434403.75, 437013.024371694016736 ], [ 434403.75, 437013.0 ], [ 434404.0, 437013.0 ], [ 434404.0, 437012.5 ] ] ] } }
]
}
