{
"type": "FeatureCollection",
"name": "se2728_rgb_250_03_min_2500m2",
"crs": { "type": "name", "properties": { "name": "urn:ogc:def:crs:EPSG::27700" } },
"features": [
{ "type": "Feature", "properties": { "area_m2": 7395.5625 }, "geometry": { "type": "Polygon", "coordinates": [ [ [ 427519.25, 428338.75 ], [ 427519.25, 428338.5 ], [ 427518.0, 428338.5 ], [ 427518.0, 428338.25 ], [ 427517.5, 428338.25 ], [ 427517.5, 428338.0 ], [ 427517.25, 428338.0 ], [ 427517.25, 428337.75 ], [ 427516.5, 428337.75 ], [ 427516.5, 428337.5 ], [ 427516.25, 428337.5 ], [ 427516.25, 428337.25 ], [ 427516.0, 428337.25 ], [ 427516.0, 428337.0 ], [ 427515.75, 428337.0 ], [ 427515.75, 428336.75 ], [ 427515.5, 428336.75 ], [ 427515.5, 428336.5 ], [ 427515.25, 428336.5 ], [ 427515.25, 428336.25 ], [ 427515.0, 428336.25 ], [ 427515.0, 428336.0 ], [ 427514.5, 428336.0 ], [ 427514.5, 428335.75 ], [ 427513.75, 428335.75 ], [ 427513.75, 428335.5 ], [ 427512.5, 428335.5 ], [ 427512.5, 428335.75 ], [ 427512.0, 428335.75 ], [ 427512.0, 428328.25 ], [ 427511.0, 428328.25 ], [ 427511.0, 428328.0 ], [ 427510.5, 428328.0 ], [ 427510.5, 428327.75 ], [ 427510.25, 428327.75 ], [ 427510.25, 428327.5 ], [ 427510.0, 428327.5 ], [ 427510.0, 428327.25 ], [ 427509.5, 428327.25 ], [ 427509.5, 428327.0 ], [ 427509.25, 428327.0 ], [ 427509.25, 428326.25 ], [ 427509.0, 428326.25 ], [ 427509.0, 428326.0 ], [ 427508.75, 428326.0 ], [ 427508.75, 428325.75 ], [ 427508.5, 428325.75 ], [ 427508.5, 428325.25 ], [ 427508.25, 428325.25 ], [ 427508.25, 428324.5 ], [ 427508.0, 428324.5 ], [ 427508.0, 428324.25 ], [ 427507.5, 428324.25 ], [ 427507.5, 428323.75 ], [ 427507.25, 428323.75 ], [ 427507.25, 428323.5 ], [ 427507.0, 428323.5 ], [ 427507.0, 428323.25 ], [ 427506.75, 428323.25 ], [ 427506.75, 428323.0 ], [ 427506.5, 428323.0 ], [ 427506.5, 428322.25 ], [ 427506.25, 428322.25 ], [ 427506.25, 428321.5 ], [ 427506.0, 428321.5 ], [ 427506.0, 428320.5 ], [ 427505.75, 428320.5 ], [ 427505.75, 428319.5 ], [ 427505.5, 428319.5 ], [ 427505.5, 428317.5 ], [ 427505.25, 428317.5 ], [ 427505.25, 428316.25 ], [ 427505.0, 428316.25 ], [ 427505.0, 428315.25 ], [ 427504.75, 428315.25 ], [ 427504.75, 428314.25 ], [ 427504.5, 428314.25 ], [ 427504.5, 428312.75 ], [ 427504.25, 428312.75 ], [ 427504.25, 428312.0 ], [ 427504.0, 428312.0 ], [ 427504.0, 428311.5 ], [ 427503.75, 428311.5 ], [ 427503.75, 428310.75 ], [ 427503.5, 428310.75 ], [ 427503.5, 428309.75 ], [ 427503.25, 428309.75 ], [ 427503.25, 428309.25 ], [ 427503.0, 428309.25 ], [ 427503.0, 428308.75 ], [ 427502.75, 428308.75 ], [ 427502.75, 428308.0 ], [ 427502.5, 428308.0 ], [ 427502.5, 428307.5 ], [ 427502.25, 428307.5 ], [ 427502.25, 428306.5 ], [ 427502.0, 428306.5 ], [ 427502.0, 428305.75 ], [ 427501.75, 428305.75 ], [ 427501.75, 428305.25 ], [ 427501.5, 428305.25 ], [ 427501.5, 428304.0 ], [ 427501.75, 428304.0 ], [ 427501.75, 428303.75 ], [ 427502.0, 428303.75 ], [ 427502.0, 428303.0 ], [ 427502.25, 428303.0 ], [ 427502.25, 428302.75 ], [ 427502.75, 428302.75 ], [ 427502.75, 428302.5 ], [ 427503.5, 428302.5 ], [ 427503.5, 428302.0 ], [ 427503.75, 428302.0 ], [ 427503.75, 428301.0 ], [ 427503.5, 428301.0 ], [ 427503.5, 428300.5 ], [ 427503.25, 428300.5 ], [ 427503.25, 428299.5 ], [ 427503.0, 428299.5 ], [ 427503.0, 428299.0 ], [ 427502.75, 428299.0 ], [ 427502.75, 428297.0 ], [ 427503.0, 428297.0 ], [ 427503.0, 428296.25 ], [ 427502.75, 428296.25 ], [ 427502.75, 428296.0 ], [ 427500.75, 428296.0 ], [ 427500.75, 428295.75 ], [ 427500.5, 428295.75 ], [ 427500.5, 428295.25 ], [ 427500.25, 428295.25 ], [ 427500.25, 428294.75 ], [ 427500.0, 428294.75 ], [ 427500.0, 428294.5 ], [ 427499.75, 428294.5 ], [ 427499.75, 428294.25 ], [ 427500.0, 428294.25 ], [ 427500.0, 428293.25 ], [ 427500.25, 428293.25 ], [ 427500.25, 428293.0 ], [ 427500.75, 428293.0 ], [ 427500.75, 428292.75 ], [ 427501.0, 428292.75 ], [ 427501.0, 428292.0 ], [ 427500.75, 428292.0 ], [ 427500.75, 428291.75 ], [ 427500.5, 428291.75 ], [ 427500.5, 428291.25 ], [ 427501.0, 428291.25 ], [ 427501.0, 428291.0 ], [ 427501.75, 428291.0 ], [ 427501.75, 428291.5 ], [ 427502.0, 428291.5 ], [ 427502.0, 428291.75 ], [ 427502.5, 428291.75 ], [ 427502.5, 428292.0 ], [ 427503.0, 428292.0 ], [ 427503.0, 428292.25 ], [ 427503.25, 428292.25 ], [ 427503.25, 428292.75 ], [ 427503.75, 428292.75 ], [ 427503.75, 428293.0 ], [ 427504.25, 428293.0 ], [ 427504.25, 428293.25 ], [ 427507.5, 428293.25 ], [ 427507.5, 428293.5 ], [ 427508.5, 428293.5 ], [ 427508.5, 428293.25 ], [ 427509.0, 428293.25 ], [ 427509.0, 428293.0 ], [ 427510.75, 428293.0 ], [ 427510.75, 428292.75 ], [ 427512.0, 428292.75 ], [ 427512.0, 428266.25 ], [ 427513.25, 428266.25 ], [ 427513.25, 428266.0 ], [ 427513.75, 428266.0 ], [ 427513.75, 428265.5 ], [ 427514.0, 428265.5 ], [ 427514.0, 428265.25 ], [ 427514.25, 428265.25 ], [ 427514.25, 428265.0 ], [ 427514.75, 428265.0 ], [ 427514.75, 428264.75 ], [ 427515.0, 428264.75 ], [ 427515.0, 428264.5 ], [ 427515.25, 428264.5 ], [ 427515.25, 428264.0 ], [ 427516.5, 428264.0 ], [ 427516.5, 428263.75 ], [ 427516.75, 428263.75 ], [ 427516.75, 428263.5 ], [ 427517.0, 428263.5 ], [ 427517.0, 428263.25 ], [ 427517.25, 428263.25 ], [ 427517.25, 428263.0 ], [ 427517.5, 428263.0 ], [ 427517.5, 428261.25 ], [ 427516.25, 428261.25 ], [ 427516.25, 428261.0 ], [ 427515.75, 428261.0 ], [ 427515.75, 428260.75 ], [ 427515.25, 428260.75 ], [ 427515.25, 428260.5 ], [ 427515.0, 428260.5 ], [ 427515.0, 428259.75 ], [ 427514.75, 428259.75 ], [ 427514.75, 428259.5 ], [ 427515.0, 428259.5 ], [ 427515.0, 428259.0 ], [ 427515.5, 428259.0 ], [ 427515.5, 428258.75 ], [ 427515.75, 428258.75 ], [ 427515.75, 428258.25 ], [ 427515.5, 428258.25 ], [ 427515.5, 428258.0 ], [ 427514.5, 428258.0 ], [ 427514.5, 428257.75 ], [ 427514.25, 428257.75 ], [ 427514.25, 428257.5 ], [ 427514.0, 428257.5 ], [ 427514.0, 428257.25 ], [ 427513.5, 428257.25 ], [ 427513.5, 428257.0 ], [ 427513.0, 428257.0 ], [ 427513.0, 428256.75 ], [ 427512.0, 428256.75 ], [ 427512.0, 428256.0 ], [ 427512.5, 428256.0 ], [ 427512.5, 428255.75 ], [ 427513.0, 428255.75 ], [ 427513.0, 428255.5 ], [ 427512.75, 428255.5 ], [ 427512.75, 428255.25 ], [ 427512.0, 428255.25 ], [ 427512.0, 428248.5 ], [ 427510.5, 428248.5 ], [ 427510.5, 428248.75 ], [ 427509.5, 428248.75 ], [ 427509.5, 428249.0 ], [ 427508.25, 428249.0 ], [ 427508.25, 428249.25 ], [ 427507.0, 428249.25 ], [ 427507.0, 428249.5 ], [ 427506.0, 428249.5 ], [ 427506.0, 428249.75 ], [ 427505.5, 428249.75 ], [ 427505.5, 428250.0 ], [ 427505.0, 428250.0 ], [ 427505.0, 428250.25 ], [ 427504.5, 428250.25 ], [ 427504.5, 428250.5 ], [ 427503.75, 428250.5 ], [ 427503.75, 428250.75 ], [ 427503.5, 428250.75 ], [ 427503.5, 428251.0 ], [ 427503.25, 428251.0 ], [ 427503.25, 428251.25 ], [ 427502.75, 428251.25 ], [ 427502.75, 428251.5 ], [ 427502.25, 428251.5 ], [ 427502.25, 428251.75 ], [ 427501.5, 428251.75 ], [ 427501.5, 428252.0 ], [ 427501.0, 428252.0 ], [ 427501.0, 428252.25 ], [ 427500.25, 428252.25 ], [ 427500.25, 428252.5 ], [ 427499.25, 428252.5 ], [ 427499.25, 428252.75 ], [ 427498.25, 428252.75 ], [ 427498.25, 428253.0 ], [ 427497.5, 428253.0 ], [ 427497.5, 428253.25 ], [ 427496.75, 428253.25 ], [ 427496.75, 428253.5 ], [ 427496.25, 428253.5 ], [ 427496.25, 428253.75 ], [ 427496.0, 428253.75 ], [ 427496.0, 428254.0 ], [ 427495.5, 428254.0 ], [ 427495.5, 428254.25 ], [ 427495.0, 428254.25 ], [ 427495.0, 428254.5 ], [ 427494.75, 428254.5 ], [ 427494.75, 428254.75 ], [ 427494.5, 428254.75 ], [ 427494.5, 428255.0 ], [ 427494.0, 428255.0 ], [ 427494.0, 428255.25 ], [ 427493.5, 428255.25 ], [ 427493.5, 428255.5 ], [ 427492.0, 428255.5 ], [ 427492.0, 428255.75 ], [ 427490.75, 428255.75 ], [ 427490.75, 428256.0 ], [ 427488.25, 428256.0 ], [ 427488.25, 428256.25 ], [ 427485.25, 428256.25 ], [ 427485.25, 428256.0 ], [ 427484.75, 428256.0 ], [ 427484.75, 428255.75 ], [ 427484.25, 428255.75 ], [ 427484.25, 428255.5 ], [ 427484.0, 428255.5 ], [ 427484.0, 428255.25 ], [ 427483.75, 428255.25 ], [ 427483.75, 428255.0 ], [ 427483.5, 428255.0 ], [ 427483.5, 428254.75 ], [ 427483.25, 428254.75 ], [ 427483.25, 428254.5 ], [ 427483.0, 428254.5 ], [ 427483.0, 428253.75 ], [ 427482.75, 428253.75 ], [ 427482.75, 428253.25 ], [ 427482.5, 428253.25 ], [ 427482.5, 428253.0 ], [ 427482.25, 428253.0 ], [ 427482.25, 428252.75 ], [ 427482.0, 428252.75 ], [ 427482.0, 428252.5 ], [ 427481.75, 428252.5 ], [ 427481.75, 428252.25 ], [ 427481.25, 428252.25 ], [ 427481.25, 428252.5 ], [ 427481.0, 428252.5 ], [ 427481.0, 428253.0 ], [ 427480.75, 428253.0 ], [ 427480.75, 428253.5 ], [ 427480.5, 428253.5 ], [ 427480.5, 428254.25 ], [ 427480.25, 428254.25 ], [ 427480.25, 428254.5 ], [ 427480.0, 428254.5 ], [ 427480.0, 428254.75 ], [ 427479.75, 428254.75 ], [ 427479.75, 428255.0 ], [ 427479.5, 428255.0 ], [ 427479.5, 428255.25 ], [ 427479.25, 428255.25 ], [ 427479.25, 428255.5 ], [ 427479.0, 428255.5 ], [ 427479.0, 428256.0 ], [ 427478.75, 428256.0 ], [ 427478.75, 428256.5 ], [ 427478.5, 428256.5 ], [ 427478.5, 428258.5 ], [ 427478.75, 428258.5 ], [ 427478.75, 428260.0 ], [ 427479.0, 428260.0 ], [ 427479.0, 428261.0 ], [ 427479.25, 428261.0 ], [ 427479.25, 428261.5 ], [ 427479.5, 428261.5 ], [ 427479.5, 428261.75 ], [ 427479.75, 428261.75 ], [ 427479.75, 428262.25 ], [ 427480.0, 428262.25 ], [ 427480.0, 428263.0 ], [ 427480.25, 428263.0 ], [ 427480.25, 428263.5 ], [ 427480.5, 428263.5 ], [ 427480.5, 428263.75 ], [ 427480.75, 428263.75 ], [ 427480.75, 428264.0 ], [ 427481.0, 428264.0 ], [ 427481.0, 428264.5 ], [ 427481.25, 428264.5 ], [ 427481.25, 428265.0 ], [ 427481.75, 428265.0 ], [ 427481.75, 428265.25 ], [ 427482.5, 428265.25 ], [ 427482.5, 428265.5 ], [ 427482.75, 428265.5 ], [ 427482.75, 428265.75 ], [ 427482.5, 428265.75 ], [ 427482.5, 428266.25 ], [ 427482.25, 428266.25 ], [ 427482.25, 428268.5 ], [ 427482.5, 428268.5 ], [ 427482.5, 428268.75 ], [ 427482.75, 428268.75 ], [ 427482.75, 428269.25 ], [ 427483.0, 428269.25 ], [ 427483.0, 428269.75 ], [ 427483.25, 428269.75 ], [ 427483.25, 428270.25 ], [ 427483.5, 428270.25 ], [ 427483.5, 428270.5 ], [ 427483.75, 428270.5 ], [ 427483.75, 428270.75 ], [ 427484.0, 428270.75 ], [ 427484.0, 428271.0 ], [ 427485.25, 428271.0 ], [ 427485.25, 428270.75 ], [ 427486.0, 428270.75 ], [ 427486.0, 428271.0 ], [ 427487.0, 428271.0 ], [ 427487.0, 428271.25 ], [ 427487.25, 428271.25 ], [ 427487.25, 428271.5 ], [ 427487.5, 428271.5 ], [ 427487.5, 428271.75 ], [ 427488.75, 428271.75 ], [ 427488.75, 428271.5 ], [ 427489.25, 428271.5 ], [ 427489.25, 428271.25 ], [ 427489.5, 428271.25 ], [ 427489.5, 428271.5 ], [ 427489.75, 428271.5 ], [ 427489.75, 428272.0 ], [ 427490.0, 428272.0 ], [ 427490.0, 428272.75 ], [ 427490.25, 428272.75 ], [ 427490.25, 428273.0 ], [ 427490.5, 428273.0 ], [ 427490.5, 428273.25 ], [ 427490.75, 428273.25 ], [ 427490.75, 428274.5 ], [ 427491.0, 428274.5 ], [ 427491.0, 428275.25 ], [ 427491.25, 428275.25 ], [ 427491.25, 428275.75 ], [ 427491.0, 428275.75 ], [ 427491.0, 428276.25 ], [ 427490.75, 428276.25 ], [ 427490.75, 428276.75 ], [ 427492.0, 428276.75 ], [ 427492.0, 428276.5 ], [ 427492.25, 428276.5 ], [ 427492.25, 428276.25 ], [ 427492.75, 428276.25 ], [ 427492.75, 428276.5 ], [ 427493.0, 428276.5 ], [ 427493.0, 428276.75 ], [ 427493.25, 428276.75 ], [ 427493.25, 428277.0 ], [ 427493.75, 428277.0 ], [ 427493.75, 428277.25 ], [ 427494.25, 428277.25 ], [ 427494.25, 428277.5 ], [ 427494.5, 428277.5 ], [ 427494.5, 428277.75 ], [ 427494.25, 428277.75 ], [ 427494.25, 428278.0 ], [ 427494.0, 428278.0 ], [ 427494.0, 428278.5 ], [ 427493.5, 428278.5 ], [ 427493.5, 428278.75 ], [ 427493.25, 428278.75 ], [ 427493.25, 428279.25 ], [ 427493.0, 428279.25 ], [ 427493.0, 428280.25 ], [ 427492.25, 428280.25 ], [ 427492.25, 428280.75 ], [ 427493.0, 428280.75 ], [ 427493.0, 428280.5 ], [ 427494.75, 428280.5 ], [ 427494.75, 428280.25 ], [ 427495.25, 428280.25 ], [ 427495.25, 428280.0 ], [ 427495.75, 428280.0 ], [ 427495.75, 428280.25 ], [ 427496.25, 428280.25 ], [ 427496.25, 428280.5 ], [ 427496.75, 428280.5 ], [ 427496.75, 428280.25 ], [ 427497.5, 428280.25 ], [ 427497.5, 428280.0 ], [ 427497.75, 428280.0 ], [ 427497.75, 428280.25 ], [ 427499.25, 428280.25 ], [ 427499.25, 428280.0 ], [ 427501.0, 428280.0 ], [ 427501.0, 428280.25 ], [ 427503.0, 428280.25 ], [ 427503.0, 428280.5 ], [ 427506.0, 428280.5 ], [ 427506.0, 428280.75 ], [ 427507.0, 428280.75 ], [ 427507.0, 428281.0 ], [ 427507.25, 428281.0 ], [ 427507.25, 428281.25 ], [ 427508.0, 428281.25 ], [ 427508.0, 428281.5 ], [ 427508.5, 428281.5 ], [ 427508.5, 428282.0 ], [ 427508.75, 428282.0 ], [ 427508.75, 428284.75 ], [ 427509.0, 428284.75 ], [ 427509.0, 428285.75 ], [ 427509.25, 428285.75 ], [ 427509.25, 428287.0 ], [ 427509.0, 428287.0 ], [ 427509.0, 428287.25 ], [ 427508.5, 428287.25 ], [ 427508.5, 428287.5 ], [ 427507.5, 428287.5 ], [ 427507.5, 428287.75 ], [ 427506.75, 428287.75 ], [ 427506.75, 428288.0 ], [ 427505.25, 428288.0 ], [ 427505.25, 428288.25 ], [ 427504.25, 428288.25 ], [ 427504.25, 428288.0 ], [ 427504.0, 428288.0 ], [ 427504.0, 428287.75 ], [ 427503.75, 428287.75 ], [ 427503.75, 428287.25 ], [ 427502.5, 428287.25 ], [ 427502.5, 428287.0 ], [ 427502.25, 428287.0 ], [ 427502.25, 428286.5 ], [ 427502.0, 428286.5 ], [ 427502.0, 428285.75 ], [ 427501.75, 428285.75 ], [ 427501.75, 428284.5 ], [ 427501.5, 428284.5 ], [ 427501.5, 428284.25 ], [ 427501.25, 428284.25 ], [ 427501.25, 428284.0 ], [ 427501.0, 428284.0 ], [ 427501.0, 428283.75 ], [ 427500.75, 428283.75 ], [ 427500.75, 428283.5 ], [ 427500.25, 428283.5 ], [ 427500.25, 428283.25 ], [ 427499.0, 428283.25 ], [ 427499.0, 428283.0 ], [ 427498.25, 428283.0 ], [ 427498.25, 428282.75 ], [ 427498.0, 428282.75 ], [ 427498.0, 428282.25 ], [ 427497.75, 428282.25 ], [ 427497.75, 428282.0 ], [ 427496.25, 428282.0 ], [ 427496.25, 428282.25 ], [ 427495.25, 428282.25 ], [ 427495.25, 428282.5 ], [ 427494.0, 428282.5 ], [ 427494.0, 428282.0 ], [ 427493.75, 428282.0 ], [ 427493.75, 428281.75 ], [ 427493.25, 428281.75 ], [ 427493.25, 428282.0 ], [ 427492.0, 428282.0 ], [ 427492.0, 428282.25 ], [ 427491.75, 428282.25 ], [ 427491.75, 428282.5 ], [ 427491.25, 428282.5 ], [ 427491.25, 428282.75 ], [ 427491.0, 428282.75 ], [ 427491.0, 428283.0 ], [ 427490.75, 428283.0 ], [ 427490.75, 428283.25 ], [ 427490.5, 428283.25 ], [ 427490.5, 428283.5 ], [ 427489.75, 428283.5 ], [ 427489.75, 428283.75 ], [ 427489.5, 428283.75 ], [ 427489.5, 428283.25 ], [ 427489.75, 428283.25 ], [ 427489.75, 428283.0 ], [ 427490.0, 428283.0 ], [ 427490.0, 428282.25 ], [ 427490.25, 428282.25 ], [ 427490.25, 428281.75 ], [ 427490.5, 428281.75 ], [ 427490.5, 428281.5 ], [ 427490.75, 428281.5 ], [ 427490.75, 428281.25 ], [ 427491.25, 428281.25 ], [ 427491.25, 428280.75 ], [ 427491.5, 428280.75 ], [ 427491.5, 428280.5 ], [ 427491.25, 428280.5 ], [ 427491.25, 428280.0 ], [ 427491.0, 428280.0 ], [ 427491.0, 428279.75 ], [ 427490.75, 428279.75 ], [ 427490.75, 428279.5 ], [ 427490.25, 428279.5 ], [ 427490.25, 428279.25 ], [ 427490.0, 428279.25 ], [ 427490.0, 428279.0 ], [ 427489.5, 428279.0 ], [ 427489.5, 428278.75 ], [ 427489.25, 428278.75 ], [ 427489.25, 428278.25 ], [ 427489.5, 428278.25 ], [ 427489.5, 428278.0 ], [ 427489.75, 428278.0 ], [ 427489.75, 428277.75 ], [ 427490.25, 428277.75 ], [ 427490.25, 428277.5 ], [ 427490.5, 428277.5 ], [ 427490.5, 428277.0 ], [ 427490.25, 428277.0 ], [ 427490.25, 428277.25 ], [ 427487.5, 428277.25 ], [ 427487.5, 428277.5 ], [ 427487.25, 428277.5 ], [ 427487.25, 428277.75 ], [ 427486.75, 428277.75 ], [ 427486.75, 428278.0 ], [ 427484.75, 428278.0 ], [ 427484.75, 428277.75 ], [ 427483.75, 428277.75 ], [ 427483.75, 428277.5 ], [ 427484.0, 428277.5 ], [ 427484.0, 428277.25 ], [ 427484.75, 428277.25 ], [ 427484.75, 428277.0 ], [ 427485.75, 428277.0 ], [ 427485.75, 428276.75 ], [ 427486.25, 428276.75 ], [ 427486.25, 428276.5 ], [ 427486.5, 428276.5 ], [ 427486.5, 428275.75 ], [ 427486.75, 428275.75 ], [ 427486.75, 428275.5 ], [ 427486.25, 428275.5 ], [ 427486.25, 428275.25 ], [ 427485.0, 428275.25 ], [ 427485.0, 428275.5 ], [ 427484.25, 428275.5 ], [ 427484.25, 428275.75 ], [ 427483.25, 428275.75 ], [ 427483.25, 428276.0 ], [ 427482.25, 428276.0 ], [ 427482.25, 428276.25 ], [ 427481.75, 428276.25 ], [ 427481.75, 428276.5 ], [ 427480.5, 428276.5 ], [ 427480.5, 428276.75 ], [ 427480.0, 428276.75 ], [ 427480.0, 428277.0 ], [ 427479.5, 428277.0 ], [ 427479.5, 428277.25 ], [ 427479.0, 428277.25 ], [ 427479.0, 428278.0 ], [ 427479.25, 428278.0 ], [ 427479.25, 428278.75 ], [ 427479.0, 428278.75 ], [ 427479.0, 428279.0 ], [ 427478.5, 428279.0 ], [ 427478.5, 428279.25 ], [ 427477.5, 428279.25 ], [ 427477.5, 428279.0 ], [ 427477.25, 428279.0 ], [ 427477.25, 428278.75 ], [ 427476.75, 428278.75 ], [ 427476.75, 428278.5 ], [ 427476.25, 428278.5 ], [ 427476.25, 428278.75 ], [ 427474.75, 428278.75 ], [ 427474.75, 428278.5 ], [ 427473.75, 428278.5 ], [ 427473.75, 428278.25 ], [ 427473.5, 428278.25 ], [ 427473.5, 428278.0 ], [ 427473.25, 428278.0 ], [ 427473.25, 428277.75 ], [ 427473.0, 428277.75 ], [ 427473.0, 428277.5 ], [ 427472.75, 428277.5 ], [ 427472.75, 428277.0 ], [ 427472.5, 428277.0 ], [ 427472.5, 428276.75 ], [ 427472.25, 428276.75 ], [ 427472.25, 428276.5 ], [ 427471.75, 428276.5 ], [ 427471.75, 428276.25 ], [ 427471.25, 428276.25 ], [ 427471.25, 428276.0 ], [ 427471.0, 428276.0 ], [ 427471.0, 428275.75 ], [ 427470.5, 428275.75 ], [ 427470.5, 428275.5 ], [ 427470.0, 428275.5 ], [ 427470.0, 428275.25 ], [ 427469.75, 428275.25 ], [ 427469.75, 428275.0 ], [ 427469.5, 428275.0 ], [ 427469.5, 428274.75 ], [ 427469.25, 428274.75 ], [ 427469.25, 428274.5 ], [ 427469.0, 428274.5 ], [ 427469.0, 428274.0 ], [ 427468.75, 428274.0 ], [ 427468.75, 428273.5 ], [ 427468.5, 428273.5 ], [ 427468.5, 428273.0 ], [ 427468.25, 428273.0 ], [ 427468.25, 428272.75 ], [ 427468.0, 428272.75 ], [ 427468.0, 428272.25 ], [ 427467.75, 428272.25 ], [ 427467.75, 428272.0 ], [ 427467.5, 428272.0 ], [ 427467.5, 428271.75 ], [ 427467.25, 428271.75 ], [ 427467.25, 428271.5 ], [ 427466.75, 428271.5 ], [ 427466.75, 428271.25 ], [ 427466.25, 428271.25 ], [ 427466.25, 428271.0 ], [ 427465.5, 428271.0 ], [ 427465.5, 428270.75 ], [ 427465.25, 428270.75 ], [ 427465.25, 428270.5 ], [ 427465.0, 428270.5 ], [ 427465.0, 428270.25 ], [ 427464.75, 428270.25 ], [ 427464.75, 428270.0 ], [ 427464.5, 428270.0 ], [ 427464.5, 428269.75 ], [ 427464.25, 428269.75 ], [ 427464.25, 428269.5 ], [ 427464.0, 428269.5 ], [ 427464.0, 428269.25 ], [ 427463.75, 428269.25 ], [ 427463.75, 428269.0 ], [ 427463.5, 428269.0 ], [ 427463.5, 428268.75 ], [ 427463.0, 428268.75 ], [ 427463.0, 428268.5 ], [ 427462.75, 428268.5 ], [ 427462.75, 428268.25 ], [ 427462.5, 428268.25 ], [ 427462.5, 428268.0 ], [ 427462.25, 428268.0 ], [ 427462.25, 428267.75 ], [ 427462.0, 428267.75 ], [ 427462.0, 428267.5 ], [ 427461.75, 428267.5 ], [ 427461.75, 428267.25 ], [ 427461.5, 428267.25 ], [ 427461.5, 428267.0 ], [ 427461.25, 428267.0 ], [ 427461.25, 428266.5 ], [ 427461.0, 428266.5 ], [ 427461.0, 428266.0 ], [ 427460.75, 428266.0 ], [ 427460.75, 428265.75 ], [ 427460.5, 428265.75 ], [ 427460.5, 428265.25 ], [ 427460.25, 428265.25 ], [ 427460.25, 428264.75 ], [ 427460.0, 428264.75 ], [ 427460.0, 428264.25 ], [ 427459.75, 428264.25 ], [ 427459.75, 428263.75 ], [ 427459.5, 428263.75 ], [ 427459.5, 428263.25 ], [ 427459.25, 428263.25 ], [ 427459.25, 428263.0 ], [ 427459.0, 428263.0 ], [ 427459.0, 428262.75 ], [ 427458.75, 428262.75 ], [ 427458.75, 428262.5 ], [ 427458.5, 428262.5 ], [ 427458.5, 428262.0 ], [ 427458.25, 428262.0 ], [ 427458.25, 428261.75 ], [ 427458.0, 428261.75 ], [ 427458.0, 428261.25 ], [ 427457.75, 428261.25 ], [ 427457.75, 428260.75 ], [ 427457.5, 428260.75 ], [ 427457.5, 428260.25 ], [ 427457.25, 428260.25 ], [ 427457.25, 428260.0 ], [ 427457.0, 428260.0 ], [ 427457.0, 428259.5 ], [ 427456.75, 428259.5 ], [ 427456.75, 428259.0 ], [ 427456.5, 428259.0 ], [ 427456.5, 428258.5 ], [ 427456.25, 428258.5 ], [ 427456.25, 428258.25 ], [ 427456.0, 428258.25 ], [ 427456.0, 428257.75 ], [ 427455.75, 428257.75 ], [ 427455.75, 428257.25 ], [ 427455.5, 428257.25 ], [ 427455.5, 428257.0 ], [ 427455.25, 428257.0 ], [ 427455.25, 428256.75 ], [ 427455.0, 428256.75 ], [ 427455.0, 428256.5 ], [ 427454.75, 428256.5 ], [ 427454.75, 428256.25 ], [ 427454.5, 428256.25 ], [ 427454.5, 428256.0 ], [ 427454.25, 428256.0 ], [ 427454.25, 428255.75 ], [ 427454.0, 428255.75 ], [ 427454.0, 428255.5 ], [ 427453.75, 428255.5 ], [ 427453.75, 428255.25 ], [ 427453.5, 428255.25 ], [ 427453.5, 428255.0 ], [ 427453.25, 428255.0 ], [ 427453.25, 428254.75 ], [ 427453.0, 428254.75 ], [ 427453.0, 428254.5 ], [ 427452.75, 428254.5 ], [ 427452.75, 428254.0 ], [ 427452.5, 428254.0 ], [ 427452.5, 428253.75 ], [ 427452.25, 428253.75 ], [ 427452.25, 428253.25 ], [ 427452.0, 428253.25 ], [ 427452.0, 428253.0 ], [ 427451.75, 428253.0 ], [ 427451.75, 428252.75 ], [ 427451.5, 428252.75 ], [ 427451.5, 428252.25 ], [ 427451.25, 428252.25 ], [ 427451.25, 428252.0 ], [ 427451.0, 428252.0 ], [ 427451.0, 428251.5 ], [ 427450.75, 428251.5 ], [ 427450.75, 428251.25 ], [ 427450.5, 428251.25 ], [ 427450.5, 428251.0 ], [ 427450.25, 428251.0 ], [ 427450.25, 428250.5 ], [ 427450.0, 428250.5 ], [ 427450.0, 428250.0 ], [ 427449.75, 428250.0 ], [ 427449.75, 428249.75 ], [ 427449.5, 428249.75 ], [ 427449.5, 428249.0 ], [ 427449.25, 428249.0 ], [ 427449.25, 428248.25 ], [ 427449.0, 428248.25 ], [ 427449.0, 428247.75 ], [ 427448.75, 428247.75 ], [ 427448.75, 428247.25 ], [ 427448.5, 428247.25 ], [ 427448.5, 428247.0 ], [ 427448.25, 428247.0 ], [ 427448.25, 428246.5 ], [ 427448.0, 428246.5 ], [ 427448.0, 428246.25 ], [ 427447.75, 428246.25 ], [ 427447.75, 428246.0 ], [ 427447.5, 428246.0 ], [ 427447.5, 428245.75 ], [ 427447.25, 428245.75 ], [ 427447.25, 428245.5 ], [ 427447.0, 428245.5 ], [ 427447.0, 428245.0 ], [ 427446.75, 428245.0 ], [ 427446.75, 428244.75 ], [ 427446.5, 428244.75 ], [ 427446.5, 428244.5 ], [ 427446.0, 428244.5 ], [ 427446.0, 428244.25 ], [ 427445.5, 428244.25 ], [ 427445.5, 428244.0 ], [ 427445.25, 428244.0 ], [ 427445.25, 428243.75 ], [ 427445.0, 428243.75 ], [ 427445.0, 428243.5 ], [ 427444.5, 428243.5 ], [ 427444.5, 428243.25 ], [ 427444.25, 428243.25 ], [ 427444.25, 428243.0 ], [ 427443.75, 428243.0 ], [ 427443.75, 428242.75 ], [ 427443.25, 428242.75 ], [ 427443.25, 428242.5 ], [ 427442.75, 428242.5 ], [ 427442.75, 428242.25 ], [ 427442.5, 428242.25 ], [ 427442.5, 428242.0 ], [ 427442.25, 428242.0 ], [ 427442.25, 428241.75 ], [ 427442.0, 428241.75 ], [ 427442.0, 428241.5 ], [ 427441.75, 428241.5 ], [ 427441.75, 428241.25 ], [ 427441.5, 428241.25 ], [ 427441.5, 428241.0 ], [ 427441.25, 428241.0 ], [ 427441.25, 428240.75 ], [ 427441.0, 428240.75 ], [ 427441.0, 428240.5 ], [ 427440.75, 428240.5 ], [ 427440.75, 428240.0 ], [ 427440.5, 428240.0 ], [ 427440.5, 428239.75 ], [ 427440.25, 428239.75 ], [ 427440.25, 428239.5 ], [ 427440.0, 428239.5 ], [ 427440.0, 428239.25 ], [ 427439.75, 428239.25 ], [ 427439.75, 428239.0 ], [ 427439.25, 428239.0 ], [ 427439.25, 428238.75 ], [ 427439.0, 428238.75 ], [ 427439.0, 428238.5 ], [ 427438.75, 428238.5 ], [ 427438.75, 428238.25 ], [ 427438.5, 428238.25 ], [ 427438.5, 428238.0 ], [ 427438.25, 428238.0 ], [ 427438.25, 428237.75 ], [ 427437.75, 428237.75 ], [ 427437.75, 428237.25 ], [ 427437.5, 428237.25 ], [ 427437.5, 428236.75 ], [ 427437.25, 428236.75 ], [ 427437.25, 428236.25 ], [ 427437.0, 428236.25 ], [ 427437.0, 428235.5 ], [ 427436.75, 428235.5 ], [ 427436.75, 428234.75 ], [ 427436.5, 428234.75 ], [ 427436.5, 428234.0 ], [ 427436.25, 428234.0 ], [ 427436.25, 428233.0 ], [ 427436.0, 428233.0 ], [ 427436.0, 428232.0 ], [ 427460.75, 428232.0 ], [ 427460.75, 428233.0 ], [ 427460.5, 428233.0 ], [ 427460.5, 428233.75 ], [ 427460.75, 428233.75 ], [ 427460.75, 428234.5 ], [ 427461.0, 428234.5 ], [ 427461.0, 428234.75 ], [ 427461.25, 428234.75 ], [ 427461.25, 428235.0 ], [ 427461.5, 428235.0 ], [ 427461.5, 428235.5 ], [ 427461.75, 428235.5 ], [ 427461.75, 428235.75 ], [ 427462.0, 428235.75 ], [ 427462.0, 428236.0 ], [ 427462.25, 428236.0 ], [ 427462.25, 428236.25 ], [ 427462.5, 428236.25 ], [ 427462.5, 428236.5 ], [ 427462.75, 428236.5 ], [ 427462.75, 428236.75 ], [ 427463.0, 428236.75 ], [ 427463.0, 428237.0 ], [ 427463.25, 428237.0 ], [ 427463.25, 428237.25 ], [ 427463.5, 428237.25 ], [ 427463.5, 428237.75 ], [ 427463.75, 428237.75 ], [ 427463.75, 428238.0 ], [ 427464.0, 428238.0 ], [ 427464.0, 428238.25 ], [ 427464.25, 428238.25 ], [ 427464.25, 428238.5 ], [ 427464.5, 428238.5 ], [ 427464.5, 428238.75 ], [ 427465.0, 428238.75 ], [ 427465.0, 428239.0 ], [ 427465.25, 428239.0 ], [ 427465.25, 428239.25 ], [ 427466.0, 428239.25 ], [ 427466.0, 428239.5 ], [ 427466.5, 428239.5 ], [ 427466.5, 428239.75 ], [ 427467.0, 428239.75 ], [ 427467.0, 428240.0 ], [ 427467.25, 428240.0 ], [ 427467.25, 428240.25 ], [ 427467.5, 428240.25 ], [ 427467.5, 428240.5 ], [ 427468.0, 428240.5 ], [ 427468.0, 428240.75 ], [ 427468.25, 428240.75 ], [ 427468.25, 428241.0 ], [ 427468.5, 428241.0 ], [ 427468.5, 428241.25 ], [ 427468.75, 428241.25 ], [ 427468.75, 428241.5 ], [ 427469.0, 428241.5 ], [ 427469.0, 428241.75 ], [ 427469.25, 428241.75 ], [ 427469.25, 428242.0 ], [ 427469.5, 428242.0 ], [ 427469.5, 428242.25 ], [ 427469.75, 428242.25 ], [ 427469.75, 428242.5 ], [ 427470.0, 428242.5 ], [ 427470.0, 428242.75 ], [ 427470.75, 428242.75 ], [ 427470.75, 428243.0 ], [ 427471.25, 428243.0 ], [ 427471.25, 428243.25 ], [ 427471.75, 428243.25 ], [ 427471.75, 428243.5 ], [ 427472.0, 428243.5 ], [ 427472.0, 428243.75 ], [ 427472.25, 428243.75 ], [ 427472.25, 428244.0 ], [ 427472.5, 428244.0 ], [ 427472.5, 428244.25 ], [ 427472.75, 428244.25 ], [ 427472.75, 428244.75 ], [ 427473.0, 428244.75 ], [ 427473.0, 428245.25 ], [ 427473.25, 428245.25 ], [ 427473.25, 428246.0 ], [ 427473.5, 428246.0 ], [ 427473.5, 428246.5 ], [ 427473.75, 428246.5 ], [ 427473.75, 428247.0 ], [ 427474.0, 428247.0 ], [ 427474.0, 428247.25 ], [ 427474.25, 428247.25 ], [ 427474.25, 428247.75 ], [ 427474.5, 428247.75 ], [ 427474.5, 428248.0 ], [ 427474.75, 428248.0 ], [ 427474.75, 428248.25 ], [ 427475.0, 428248.25 ], [ 427475.0, 428248.5 ], [ 427475.25, 428248.5 ], [ 427475.25, 428248.75 ], [ 427475.5, 428248.75 ], [ 427475.5, 428249.0 ], [ 427475.75, 428249.0 ], [ 427475.75, 428249.5 ], [ 427476.0, 428249.5 ], [ 427476.0, 428249.75 ], [ 427476.25, 428249.75 ], [ 427476.25, 428250.0 ], [ 427476.5, 428250.0 ], [ 427476.5, 428250.5 ], [ 427476.75, 428250.5 ], [ 427476.75, 428250.75 ], [ 427477.0, 428250.75 ], [ 427477.0, 428251.25 ], [ 427477.25, 428251.25 ], [ 427477.25, 428251.5 ], [ 427477.5, 428251.5 ], [ 427477.5, 428251.75 ], [ 427478.0, 428251.75 ], [ 427478.0, 428252.0 ], [ 427479.0, 428252.0 ], [ 427479.0, 428251.75 ], [ 427479.25, 428251.75 ], [ 427479.25, 428251.5 ], [ 427479.5, 428251.5 ], [ 427479.5, 428251.25 ], [ 427479.75, 428251.25 ], [ 427479.75, 428250.5 ], [ 427480.0, 428250.5 ], [ 427480.0, 428249.0 ], [ 427480.25, 428249.0 ], [ 427480.25, 428247.5 ], [ 427480.5, 428247.5 ], [ 427480.5, 428242.75 ], [ 427480.75, 428242.75 ], [ 427480.75, 428241.25 ], [ 427481.0, 428241.25 ], [ 427481.0, 428240.25 ], [ 427481.25, 428240.25 ], [ 427481.25, 428240.0 ], [ 427481.5, 428240.0 ], [ 427481.5, 428239.5 ], [ 427481.75, 428239.5 ], [ 427481.75, 428238.75 ], [ 427482.0, 428238.75 ], [ 427482.0, 428236.5 ], [ 427481.75, 428236.5 ], [ 427481.75, 428234.75 ], [ 427481.5, 428234.75 ], [ 427481.5, 428232.75 ], [ 427481.75, 428232.75 ], [ 427481.75, 428232.0 ], [ 427482.0, 428232.0 ], [ 427482.0, 428231.0 ], [ 427481.75, 428231.0 ], [ 427481.75, 428230.25 ], [ 427482.0, 428230.25 ], [ 427482.0, 428228.75 ], [ 427481.75, 428228.75 ], [ 427481.75, 428228.25 ], [ 427482.0, 428228.25 ], [ 427482.0, 428228.0 ], [ 427482.25, 428228.0 ], [ 427482.25, 428227.5 ], [ 427482.5, 428227.5 ], [ 427482.5, 428225.25 ], [ 427482.75, 428225.25 ], [ 427482.75, 428225.0 ], [ 427483.0, 428225.0 ], [ 427483.0, 428224.75 ], [ 427483.5, 428224.75 ], [ 427483.5, 428224.5 ], [ 427483.75, 428224.5 ], [ 427483.75, 428224.25 ], [ 427484.0, 428224.25 ], [ 427484.0, 428224.0 ], [ 427484.5, 428224.0 ], [ 427484.5, 428223.75 ], [ 427484.75, 428223.75 ], [ 427484.75, 428223.5 ], [ 427485.0, 428223.5 ], [ 427485.0, 428222.25 ], [ 427485.25, 428222.25 ], [ 427485.25, 428222.0 ], [ 427485.5, 428222.0 ], [ 427485.5, 428221.75 ], [ 427486.5, 428221.75 ], [ 427486.5, 428217.75 ], [ 427486.75, 428217.75 ], [ 427486.75, 428217.25 ], [ 427487.0, 428217.25 ], [ 427487.0, 428216.5 ], [ 427487.25, 428216.5 ], [ 427487.25, 428215.5 ], [ 427487.5, 428215.5 ], [ 427487.5, 428215.25 ], [ 427488.0, 428215.25 ], [ 427488.0, 428215.0 ], [ 427488.25, 428215.0 ], [ 427488.25, 428214.75 ], [ 427488.5, 428214.75 ], [ 427488.5, 428214.5 ], [ 427488.75, 428214.5 ], [ 427488.75, 428213.75 ], [ 427489.0, 428213.75 ], [ 427489.0, 428212.5 ], [ 427489.25, 428212.5 ], [ 427489.25, 428212.0 ], [ 427489.5, 428212.0 ], [ 427489.5, 428211.25 ], [ 427489.75, 428211.25 ], [ 427489.75, 428210.25 ], [ 427489.5, 428210.25 ], [ 427489.5, 428209.75 ], [ 427489.0, 428209.75 ], [ 427489.0, 428210.0 ], [ 427488.5, 428210.0 ], [ 427488.5, 428209.75 ], [ 427488.25, 428209.75 ], [ 427488.25, 428209.5 ], [ 427488.0, 428209.5 ], [ 427488.0, 428209.25 ], [ 427487.75, 428209.25 ], [ 427487.75, 428206.5 ], [ 427487.5, 428206.5 ], [ 427487.5, 428205.5 ], [ 427487.25, 428205.5 ], [ 427487.25, 428204.5 ], [ 427487.0, 428204.5 ], [ 427487.0, 428202.75 ], [ 427487.25, 428202.75 ], [ 427487.25, 428200.75 ], [ 427487.0, 428200.75 ], [ 427487.0, 428200.0 ], [ 427487.25, 428200.0 ], [ 427487.25, 428199.25 ], [ 427487.0, 428199.25 ], [ 427487.0, 428196.0 ], [ 427486.75, 428196.0 ], [ 427486.75, 428194.75 ], [ 427487.0, 428194.75 ], [ 427487.0, 428193.75 ], [ 427486.75, 428193.75 ], [ 427486.75, 428193.5 ], [ 427487.0, 428193.5 ], [ 427487.0, 428192.5 ], [ 427487.25, 428192.5 ], [ 427487.25, 428191.25 ], [ 427487.5, 428191.25 ], [ 427487.5, 428191.0 ], [ 427488.25, 428191.0 ], [ 427488.25, 428190.75 ], [ 427488.5, 428190.75 ], [ 427488.5, 428190.5 ], [ 427488.75, 428190.5 ], [ 427488.75, 428190.25 ], [ 427489.0, 428190.25 ], [ 427489.0, 428190.0 ], [ 427489.25, 428190.0 ], [ 427489.25, 428189.75 ], [ 427489.5, 428189.75 ], [ 427489.5, 428189.5 ], [ 427490.75, 428189.5 ], [ 427490.75, 428189.25 ], [ 427491.5, 428189.25 ], [ 427491.5, 428189.0 ], [ 427492.25, 428189.0 ], [ 427492.25, 428188.75 ], [ 427492.75, 428188.75 ], [ 427492.75, 428188.5 ], [ 427493.25, 428188.5 ], [ 427493.25, 428188.25 ], [ 427494.0, 428188.25 ], [ 427494.0, 428188.0 ], [ 427494.25, 428188.0 ], [ 427494.25, 428187.75 ], [ 427494.5, 428187.75 ], [ 427494.5, 428187.5 ], [ 427494.75, 428187.5 ], [ 427494.75, 428187.25 ], [ 427495.0, 428187.25 ], [ 427495.0, 428187.0 ], [ 427495.25, 428187.0 ], [ 427495.25, 428186.5 ], [ 427495.5, 428186.5 ], [ 427495.5, 428186.25 ], [ 427496.0, 428186.25 ], [ 427496.0, 428186.0 ], [ 427496.25, 428186.0 ], [ 427496.25, 428185.75 ], [ 427496.5, 428185.75 ], [ 427496.5, 428185.5 ], [ 427497.25, 428185.5 ], [ 427497.25, 428185.25 ], [ 427497.5, 428185.25 ], [ 427497.5, 428185.0 ], [ 427498.25, 428185.0 ], [ 427498.25, 428184.75 ], [ 427499.0, 428184.75 ], [ 427499.0, 428184.5 ], [ 427499.5, 428184.5 ], [ 427499.5, 428184.25 ], [ 427499.75, 428184.25 ], [ 427499.75, 428184.0 ], [ 427500.25, 428184.0 ], [ 427500.25, 428183.75 ], [ 427500.5, 428183.75 ], [ 427500.5, 428183.5 ], [ 427501.0, 428183.5 ], [ 427501.0, 428183.25 ], [ 427501.5, 428183.25 ], [ 427501.5, 428183.0 ], [ 427502.0, 428183.0 ], [ 427502.0, 428182.5 ], [ 427502.5, 428182.5 ], [ 427502.5, 428182.25 ], [ 427503.75, 428182.25 ], [ 427503.75, 428182.0 ], [ 427504.25, 428182.0 ], [ 427504.25, 428181.75 ], [ 427504.5, 428181.75 ], [ 427504.5, 428181.5 ], [ 427505.75, 428181.5 ], [ 427505.75, 428181.25 ], [ 427506.75, 428181.25 ], [ 427506.75, 428181.0 ], [ 427508.0, 428181.0 ], [ 427508.0, 428181.25 ], [ 427508.5, 428181.25 ], [ 427508.5, 428181.5 ], [ 427509.0, 428181.5 ], [ 427509.0, 428181.75 ], [ 427510.75, 428181.75 ], [ 427510.75, 428181.5 ], [ 427512.0, 428181.5 ], [ 427512.0, 428175.25 ], [ 427513.5, 428175.25 ], [ 427513.5, 428175.5 ], [ 427515.75, 428175.5 ], [ 427515.75, 428175.25 ], [ 427516.25, 428175.25 ], [ 427516.25, 428175.0 ], [ 427517.0, 428175.0 ], [ 427517.0, 428174.75 ], [ 427519.0, 428174.75 ], [ 427519.0, 428174.5 ], [ 427519.5, 428174.5 ], [ 427519.5, 428174.25 ], [ 427520.0, 428174.25 ], [ 427520.0, 428174.0 ], [ 427520.25, 428174.0 ], [ 427520.25, 428173.5 ], [ 427520.5, 428173.5 ], [ 427520.5, 428173.25 ], [ 427520.75, 428173.25 ], [ 427520.75, 428173.0 ], [ 427521.0, 428173.0 ], [ 427521.0, 428172.5 ], [ 427521.25, 428172.5 ], [ 427521.25, 428172.0 ], [ 427521.5, 428172.0 ], [ 427521.5, 428171.5 ], [ 427521.75, 428171.5 ], [ 427521.75, 428171.25 ], [ 427522.25, 428171.25 ], [ 427522.25, 428171.0 ], [ 427522.5, 428171.0 ], [ 427522.5, 428171.25 ], [ 427522.75, 428171.25 ], [ 427522.75, 428171.5 ], [ 427523.0, 428171.5 ], [ 427523.0, 428171.75 ], [ 427523.25, 428171.75 ], [ 427523.25, 428172.0 ], [ 427523.5, 428172.0 ], [ 427523.5, 428172.25 ], [ 427523.75, 428172.25 ], [ 427523.75, 428172.5 ], [ 427524.0, 428172.5 ], [ 427524.0, 428172.75 ], [ 427524.25, 428172.75 ], [ 427524.25, 428173.0 ], [ 427524.5, 428173.0 ], [ 427524.5, 428173.25 ], [ 427525.0, 428173.25 ], [ 427525.0, 428173.5 ], [ 427525.5, 428173.5 ], [ 427525.5, 428173.75 ], [ 427526.5, 428173.75 ], [ 427526.5, 428174.0 ], [ 427526.75, 428174.0 ], [ 427526.75, 428174.5 ], [ 427527.0, 428174.5 ], [ 427527.0, 428174.75 ], [ 427527.25, 428174.75 ], [ 427527.25, 428175.0 ], [ 427527.5, 428175.0 ], [ 427527.5, 428175.25 ], [ 427528.0, 428175.25 ], [ 427528.0, 428175.5 ], [ 427528.25, 428175.5 ], [ 427528.25, 428175.75 ], [ 427528.5, 428175.75 ], [ 427528.5, 428176.25 ], [ 427528.75, 428176.25 ], [ 427528.75, 428177.0 ], [ 427529.0, 428177.0 ], [ 427529.0, 428177.75 ], [ 427529.25, 428177.75 ], [ 427529.25, 428178.75 ], [ 427529.5, 428178.75 ], [ 427529.5, 428179.0 ], [ 427530.0, 428179.0 ], [ 427530.0, 428179.25 ], [ 427531.0, 428179.25 ], [ 427531.0, 428179.0 ], [ 427532.5, 428179.0 ], [ 427532.5, 428179.25 ], [ 427532.75, 428179.25 ], [ 427532.75, 428180.5 ], [ 427533.0, 428180.5 ], [ 427533.0, 428181.75 ], [ 427533.25, 428181.75 ], [ 427533.25, 428182.0 ], [ 427533.5, 428182.0 ], [ 427533.5, 428182.25 ], [ 427534.0, 428182.25 ], [ 427534.0, 428182.5 ], [ 427534.25, 428182.5 ], [ 427534.25, 428184.0 ], [ 427534.5, 428184.0 ], [ 427534.5, 428184.5 ], [ 427534.75, 428184.5 ], [ 427534.75, 428184.75 ], [ 427535.0, 428184.75 ], [ 427535.0, 428185.0 ], [ 427535.25, 428185.0 ], [ 427535.25, 428185.5 ], [ 427535.5, 428185.5 ], [ 427535.5, 428186.25 ], [ 427535.75, 428186.25 ], [ 427535.75, 428187.0 ], [ 427535.5, 428187.0 ], [ 427535.5, 428187.75 ], [ 427535.75, 428187.75 ], [ 427535.75, 428189.25 ], [ 427535.5, 428189.25 ], [ 427535.5, 428191.25 ], [ 427535.75, 428191.25 ], [ 427535.75, 428193.25 ], [ 427535.5, 428193.25 ], [ 427535.5, 428194.25 ], [ 427534.5, 428194.25 ], [ 427534.5, 428194.75 ], [ 427535.0, 428194.75 ], [ 427535.0, 428195.0 ], [ 427535.25, 428195.0 ], [ 427535.25, 428196.0 ], [ 427535.0, 428196.0 ], [ 427535.0, 428197.25 ], [ 427534.75, 428197.25 ], [ 427534.75, 428197.75 ], [ 427534.5, 428197.75 ], [ 427534.5, 428199.75 ], [ 427534.25, 428199.75 ], [ 427534.25, 428202.0 ], [ 427534.75, 428202.0 ], [ 427534.75, 428201.75 ], [ 427535.0, 428201.75 ], [ 427535.0, 428201.5 ], [ 427535.25, 428201.5 ], [ 427535.25, 428201.25 ], [ 427536.25, 428201.25 ], [ 427536.25, 428201.5 ], [ 427536.5, 428201.5 ], [ 427536.5, 428201.75 ], [ 427536.75, 428201.75 ], [ 427536.75, 428202.75 ], [ 427537.0, 428202.75 ], [ 427537.0, 428205.5 ], [ 427536.75, 428205.5 ], [ 427536.75, 428206.0 ], [ 427536.5, 428206.0 ], [ 427536.5, 428206.25 ], [ 427536.25, 428206.25 ], [ 427536.25, 428207.25 ], [ 427536.0, 428207.25 ], [ 427536.0, 428207.75 ], [ 427535.75, 428207.75 ], [ 427535.75, 428208.25 ], [ 427535.5, 428208.25 ], [ 427535.5, 428208.5 ], [ 427535.25, 428208.5 ], [ 427535.25, 428208.75 ], [ 427534.25, 428208.75 ], [ 427534.25, 428209.25 ], [ 427534.0, 428209.25 ], [ 427534.0, 428210.0 ], [ 427533.75, 428210.0 ], [ 427533.75, 428211.25 ], [ 427534.0, 428211.25 ], [ 427534.0, 428212.0 ], [ 427534.25, 428212.0 ], [ 427534.25, 428212.5 ], [ 427534.5, 428212.5 ], [ 427534.5, 428213.0 ], [ 427534.75, 428213.0 ], [ 427534.75, 428213.5 ], [ 427535.0, 428213.5 ], [ 427535.0, 428213.75 ], [ 427534.75, 428213.75 ], [ 427534.75, 428214.75 ], [ 427534.5, 428214.75 ], [ 427534.5, 428215.0 ], [ 427534.25, 428215.0 ], [ 427534.25, 428216.25 ], [ 427534.0, 428216.25 ], [ 427534.0, 428218.0 ], [ 427534.25, 428218.0 ], [ 427534.25, 428218.5 ], [ 427534.5, 428218.5 ], [ 427534.5, 428218.75 ], [ 427534.75, 428218.75 ], [ 427534.75, 428219.0 ], [ 427535.0, 428219.0 ], [ 427535.0, 428219.5 ], [ 427535.25, 428219.5 ], [ 427535.25, 428219.75 ], [ 427535.5, 428219.75 ], [ 427535.5, 428220.5 ], [ 427535.75, 428220.5 ], [ 427535.75, 428221.25 ], [ 427536.0, 428221.25 ], [ 427536.0, 428221.75 ], [ 427536.25, 428221.75 ], [ 427536.25, 428222.0 ], [ 427536.5, 428222.0 ], [ 427536.5, 428224.25 ], [ 427536.75, 428224.25 ], [ 427536.75, 428226.5 ], [ 427536.5, 428226.5 ], [ 427536.5, 428228.0 ], [ 427536.25, 428228.0 ], [ 427536.25, 428228.75 ], [ 427536.0, 428228.75 ], [ 427536.0, 428229.25 ], [ 427535.75, 428229.25 ], [ 427535.75, 428230.75 ], [ 427535.5, 428230.75 ], [ 427535.5, 428231.0 ], [ 427535.25, 428231.0 ], [ 427535.25, 428231.25 ], [ 427535.0, 428231.25 ], [ 427535.0, 428232.0 ], [ 427531.25, 428232.0 ], [ 427531.25, 428232.75 ], [ 427531.5, 428232.75 ], [ 427531.5, 428234.75 ], [ 427531.25, 428234.75 ], [ 427531.25, 428235.0 ], [ 427531.0, 428235.0 ], [ 427531.0, 428235.5 ], [ 427530.75, 428235.5 ], [ 427530.75, 428235.75 ], [ 427530.5, 428235.75 ], [ 427530.5, 428236.0 ], [ 427530.25, 428236.0 ], [ 427530.25, 428236.5 ], [ 427530.0, 428236.5 ], [ 427530.0, 428236.75 ], [ 427529.75, 428236.75 ], [ 427529.75, 428237.0 ], [ 427529.5, 428237.0 ], [ 427529.5, 428237.25 ], [ 427529.0, 428237.25 ], [ 427529.0, 428237.5 ], [ 427528.5, 428237.5 ], [ 427528.5, 428237.75 ], [ 427528.25, 428237.75 ], [ 427528.25, 428238.0 ], [ 427528.0, 428238.0 ], [ 427528.0, 428238.25 ], [ 427527.75, 428238.25 ], [ 427527.75, 428238.5 ], [ 427527.25, 428238.5 ], [ 427527.25, 428238.75 ], [ 427527.0, 428238.75 ], [ 427527.0, 428239.0 ], [ 427526.5, 428239.0 ], [ 427526.5, 428239.25 ], [ 427526.0, 428239.25 ], [ 427526.0, 428239.5 ], [ 427525.25, 428239.5 ], [ 427525.25, 428239.75 ], [ 427524.75, 428239.75 ], [ 427524.75, 428240.0 ], [ 427524.0, 428240.0 ], [ 427524.0, 428240.25 ], [ 427523.25, 428240.25 ], [ 427523.25, 428240.5 ], [ 427522.5, 428240.5 ], [ 427522.5, 428240.75 ], [ 427521.75, 428240.75 ], [ 427521.75, 428241.0 ], [ 427521.25, 428241.0 ], [ 427521.25, 428241.25 ], [ 427521.0, 428241.25 ], [ 427521.0, 428241.5 ], [ 427520.75, 428241.5 ], [ 427520.75, 428241.75 ], [ 427520.5, 428241.75 ], [ 427520.5, 428242.0 ], [ 427520.25, 428242.0 ], [ 427520.25, 428242.25 ], [ 427520.0, 428242.25 ], [ 427520.0, 428242.75 ], [ 427519.75, 428242.75 ], [ 427519.75, 428243.0 ], [ 427519.5, 428243.0 ], [ 427519.5, 428243.25 ], [ 427519.25, 428243.25 ], [ 427519.25, 428243.75 ], [ 427519.0, 428243.75 ], [ 427519.0, 428244.25 ], [ 427518.75, 428244.25 ], [ 427518.75, 428244.5 ], [ 427518.5, 428244.5 ], [ 427518.5, 428245.25 ], [ 427518.25, 428245.25 ], [ 427518.25, 428246.0 ], [ 427518.0, 428246.0 ], [ 427518.0, 428247.5 ], [ 427517.75, 428247.5 ], [ 427517.75, 428248.5 ], [ 427518.0, 428248.5 ], [ 427518.0, 428249.0 ], [ 427518.25, 428249.0 ], [ 427518.25, 428249.25 ], [ 427518.75, 428249.25 ], [ 427518.75, 428249.5 ], [ 427519.25, 428249.5 ], [ 427519.25, 428250.0 ], [ 427519.5, 428250.0 ], [ 427519.5, 428250.25 ], [ 427519.75, 428250.25 ], [ 427519.75, 428250.5 ], [ 427520.25, 428250.5 ], [ 427520.25, 428250.75 ], [ 427520.75, 428250.75 ], [ 427520.75, 428251.0 ], [ 427521.0, 428251.0 ], [ 427521.0, 428251.25 ], [ 427521.5, 428251.25 ], [ 427521.5, 428251.5 ], [ 427522.0, 428251.5 ], [ 427522.0, 428251.75 ], [ 427522.25, 428251.75 ], [ 427522.25, 428252.25 ], [ 427522.5, 428252.25 ], [ 427522.5, 428252.5 ], [ 427522.75, 428252.5 ], [ 427522.75, 428252.75 ], [ 427523.25, 428252.75 ], [ 427523.25, 428253.25 ], [ 427523.5, 428253.25 ], [ 427523.5, 428253.5 ], [ 427523.75, 428253.5 ], [ 427523.75, 428253.75 ], [ 427524.0, 428253.75 ], [ 427524.0, 428254.0 ], [ 427524.25, 428254.0 ], [ 427524.25, 428254.25 ], [ 427524.5, 428254.25 ], [ 427524.5, 428255.0 ], [ 427524.75, 428255.0 ], [ 427524.75, 428256.0 ], [ 427525.0, 428256.0 ], [ 427525.0, 428257.75 ], [ 427525.25, 428257.75 ], [ 427525.25, 428258.5 ], [ 427525.5, 428258.5 ], [ 427525.5, 428258.75 ], [ 427525.75, 428258.75 ], [ 427525.75, 428259.0 ], [ 427526.0, 428259.0 ], [ 427526.0, 428259.25 ], [ 427527.0, 428259.25 ], [ 427527.0, 428259.0 ], [ 427527.75, 428259.0 ], [ 427527.75, 428258.75 ], [ 427528.5, 428258.75 ], [ 427528.5, 428258.5 ], [ 427530.0, 428258.5 ], [ 427530.0, 428258.25 ], [ 427532.25, 428258.25 ], [ 427532.25, 428258.5 ], [ 427532.75, 428258.5 ], [ 427532.75, 428258.75 ], [ 427533.0, 428258.75 ], [ 427533.0, 428259.25 ], [ 427533.25, 428259.25 ], [ 427533.25, 428259.5 ], [ 427533.5, 428259.5 ], [ 427533.5, 428259.75 ], [ 427534.25, 428259.75 ], [ 427534.25, 428260.0 ], [ 427534.5, 428260.0 ], [ 427534.5, 428260.25 ], [ 427534.75, 428260.25 ], [ 427534.75, 428260.5 ], [ 427535.0, 428260.5 ], [ 427535.0, 428261.5 ], [ 427535.25, 428261.5 ], [ 427535.25, 428261.75 ], [ 427535.5, 428261.75 ], [ 427535.5, 428262.25 ], [ 427535.75, 428262.25 ], [ 427535.75, 428262.75 ], [ 427536.0, 428262.75 ], [ 427536.0, 428263.5 ], [ 427536.25, 428263.5 ], [ 427536.25, 428263.75 ], [ 427536.5, 428263.75 ], [ 427536.5, 428264.0 ], [ 427536.75, 428264.0 ], [ 427536.75, 428264.5 ], [ 427537.0, 428264.5 ], [ 427537.0, 428265.0 ], [ 427537.25, 428265.0 ], [ 427537.25, 428266.25 ], [ 427537.5, 428266.25 ], [ 427537.5, 428266.5 ], [ 427538.25, 428266.5 ], [ 427538.25, 428266.75 ], [ 427539.0, 428266.75 ], [ 427539.0, 428267.0 ], [ 427540.0, 428267.0 ], [ 427540.0, 428267.25 ], [ 427540.75, 428267.25 ], [ 427540.75, 428267.5 ], [ 427541.0, 428267.5 ], [ 427541.0, 428267.75 ], [ 427541.5, 428267.75 ], [ 427541.5, 428268.0 ], [ 427542.0, 428268.0 ], [ 427542.0, 428268.25 ], [ 427542.25, 428268.25 ], [ 427542.25, 428268.5 ], [ 427542.5, 428268.5 ], [ 427542.5, 428268.75 ], [ 427542.75, 428268.75 ], [ 427542.75, 428269.0 ], [ 427543.0, 428269.0 ], [ 427543.0, 428269.25 ], [ 427543.25, 428269.25 ], [ 427543.25, 428269.5 ], [ 427543.5, 428269.5 ], [ 427543.5, 428269.75 ], [ 427543.75, 428269.75 ], [ 427543.75, 428270.0 ], [ 427544.0, 428270.0 ], [ 427544.0, 428270.25 ], [ 427544.5, 428270.25 ], [ 427544.5, 428270.5 ], [ 427544.75, 428270.5 ], [ 427544.75, 428270.75 ], [ 427545.0, 428270.75 ], [ 427545.0, 428271.0 ], [ 427545.5, 428271.0 ], [ 427545.5, 428271.25 ], [ 427546.0, 428271.25 ], [ 427546.0, 428271.5 ], [ 427546.25, 428271.5 ], [ 427546.25, 428271.75 ], [ 427546.75, 428271.75 ], [ 427546.75, 428272.0 ], [ 427547.25, 428272.0 ], [ 427547.25, 428272.25 ], [ 427547.5, 428272.25 ], [ 427547.5, 428272.5 ], [ 427548.0, 428272.5 ], [ 427548.0, 428272.75 ], [ 427548.25, 428272.75 ], [ 427548.25, 428273.0 ], [ 427548.5, 428273.0 ], [ 427548.5, 428273.25 ], [ 427548.75, 428273.25 ], [ 427548.75, 428273.5 ], [ 427549.0, 428273.5 ], [ 427549.0, 428273.75 ], [ 427549.25, 428273.75 ], [ 427549.25, 428274.0 ], [ 427549.5, 428274.0 ], [ 427549.5, 428274.25 ], [ 427549.75, 428274.25 ], [ 427549.75, 428274.5 ], [ 427550.0, 428274.5 ], [ 427550.0, 428275.0 ], [ 427550.5, 428275.0 ], [ 427550.5, 428275.25 ], [ 427550.75, 428275.25 ], [ 427550.75, 428275.5 ], [ 427551.0, 428275.5 ], [ 427551.0, 428275.75 ], [ 427551.25, 428275.75 ], [ 427551.25, 428276.25 ], [ 427551.5, 428276.25 ], [ 427551.5, 428276.5 ], [ 427551.75, 428276.5 ], [ 427551.75, 428277.0 ], [ 427552.0, 428277.0 ], [ 427552.0, 428281.25 ], [ 427551.75, 428281.25 ], [ 427551.75, 428281.75 ], [ 427552.0, 428281.75 ], [ 427552.0, 428283.25 ], [ 427551.75, 428283.25 ], [ 427551.75, 428284.0 ], [ 427552.0, 428284.0 ], [ 427552.0, 428284.75 ], [ 427551.75, 428284.75 ], [ 427551.75, 428287.25 ], [ 427551.5, 428287.25 ], [ 427551.5, 428288.25 ], [ 427551.25, 428288.25 ], [ 427551.25, 428290.5 ], [ 427551.0, 428290.5 ], [ 427551.0, 428293.25 ], [ 427550.75, 428293.25 ], [ 427550.75, 428297.75 ], [ 427550.5, 428297.75 ], [ 427550.5, 428299.5 ], [ 427550.25, 428299.5 ], [ 427550.25, 428300.0 ], [ 427550.0, 428300.0 ], [ 427550.0, 428300.75 ], [ 427549.75, 428300.75 ], [ 427549.75, 428301.75 ], [ 427549.5, 428301.75 ], [ 427549.5, 428302.25 ], [ 427549.25, 428302.25 ], [ 427549.25, 428302.75 ], [ 427549.0, 428302.75 ], [ 427549.0, 428303.25 ], [ 427548.75, 428303.25 ], [ 427548.75, 428303.75 ], [ 427548.5, 428303.75 ], [ 427548.5, 428304.5 ], [ 427548.25, 428304.5 ], [ 427548.25, 428305.25 ], [ 427548.0, 428305.25 ], [ 427548.0, 428305.75 ], [ 427547.75, 428305.75 ], [ 427547.75, 428306.75 ], [ 427547.5, 428306.75 ], [ 427547.5, 428307.5 ], [ 427547.25, 428307.5 ], [ 427547.25, 428308.0 ], [ 427547.0, 428308.0 ], [ 427547.0, 428308.5 ], [ 427546.75, 428308.5 ], [ 427546.75, 428309.0 ], [ 427546.5, 428309.0 ], [ 427546.5, 428309.5 ], [ 427546.25, 428309.5 ], [ 427546.25, 428310.0 ], [ 427546.0, 428310.0 ], [ 427546.0, 428310.5 ], [ 427545.75, 428310.5 ], [ 427545.75, 428311.0 ], [ 427545.5, 428311.0 ], [ 427545.5, 428311.25 ], [ 427545.25, 428311.25 ], [ 427545.25, 428311.5 ], [ 427545.0, 428311.5 ], [ 427545.0, 428311.75 ], [ 427544.75, 428311.75 ], [ 427544.75, 428312.25 ], [ 427544.5, 428312.25 ], [ 427544.5, 428312.75 ], [ 427544.25, 428312.75 ], [ 427544.25, 428313.25 ], [ 427544.0, 428313.25 ], [ 427544.0, 428313.75 ], [ 427543.75, 428313.75 ], [ 427543.75, 428314.0 ], [ 427543.5, 428314.0 ], [ 427543.5, 428314.5 ], [ 427543.25, 428314.5 ], [ 427543.25, 428315.0 ], [ 427543.0, 428315.0 ], [ 427543.0, 428315.5 ], [ 427542.75, 428315.5 ], [ 427542.75, 428315.75 ], [ 427542.5, 428315.75 ], [ 427542.5, 428316.25 ], [ 427542.25, 428316.25 ], [ 427542.25, 428316.5 ], [ 427542.0, 428316.5 ], [ 427542.0, 428316.75 ], [ 427541.75, 428316.75 ], [ 427541.75, 428317.0 ], [ 427541.5, 428317.0 ], [ 427541.5, 428317.25 ], [ 427541.25, 428317.25 ], [ 427541.25, 428317.75 ], [ 427541.0, 428317.75 ], [ 427541.0, 428318.25 ], [ 427540.75, 428318.25 ], [ 427540.75, 428318.75 ], [ 427540.5, 428318.75 ], [ 427540.5, 428319.25 ], [ 427540.25, 428319.25 ], [ 427540.25, 428319.5 ], [ 427540.0, 428319.5 ], [ 427540.0, 428320.0 ], [ 427539.75, 428320.0 ], [ 427539.75, 428320.75 ], [ 427539.5, 428320.75 ], [ 427539.5, 428321.25 ], [ 427539.25, 428321.25 ], [ 427539.25, 428321.75 ], [ 427539.0, 428321.75 ], [ 427539.0, 428322.25 ], [ 427538.75, 428322.25 ], [ 427538.75, 428322.75 ], [ 427538.25, 428322.75 ], [ 427538.25, 428323.0 ], [ 427538.0, 428323.0 ], [ 427538.0, 428323.25 ], [ 427537.75, 428323.25 ], [ 427537.75, 428323.75 ], [ 427537.5, 428323.75 ], [ 427537.5, 428324.0 ], [ 427537.25, 428324.0 ], [ 427537.25, 428324.25 ], [ 427537.0, 428324.25 ], [ 427537.0, 428324.5 ], [ 427536.75, 428324.5 ], [ 427536.75, 428324.75 ], [ 427536.5, 428324.75 ], [ 427536.5, 428325.25 ], [ 427536.25, 428325.25 ], [ 427536.25, 428325.5 ], [ 427536.0, 428325.5 ], [ 427536.0, 428326.0 ], [ 427535.75, 428326.0 ], [ 427535.75, 428326.5 ], [ 427535.5, 428326.5 ], [ 427535.5, 428327.0 ], [ 427535.25, 428327.0 ], [ 427535.25, 428327.5 ], [ 427535.0, 428327.5 ], [ 427535.0, 428327.75 ], [ 427534.75, 428327.75 ], [ 427534.75, 428328.25 ], [ 427534.5, 428328.25 ], [ 427534.5, 428328.75 ], [ 427534.0, 428328.75 ], [ 427534.0, 428329.0 ], [ 427533.75, 428329.0 ], [ 427533.75, 428329.5 ], [ 427533.5, 428329.5 ], [ 427533.5, 428329.75 ], [ 427533.25, 428329.75 ], [ 427533.25, 428330.0 ], [ 427533.0, 428330.0 ], [ 427533.0, 428330.25 ], [ 427532.75, 428330.25 ], [ 427532.75, 428330.75 ], [ 427532.5, 428330.75 ], [ 427532.5, 428331.0 ], [ 427532.25, 428331.0 ], [ 427532.25, 428331.25 ], [ 427532.0, 428331.25 ], [ 427532.0, 428331.75 ], [ 427531.75, 428331.75 ], [ 427531.75, 428332.25 ], [ 427531.5, 428332.25 ], [ 427531.5, 428333.0 ], [ 427531.25, 428333.0 ], [ 427531.25, 428333.5 ], [ 427531.0, 428333.5 ], [ 427531.0, 428334.0 ], [ 427530.75, 428334.0 ], [ 427530.75, 428334.5 ], [ 427530.5, 428334.5 ], [ 427530.5, 428334.75 ], [ 427530.25, 428334.75 ], [ 427530.25, 428335.0 ], [ 427529.75, 428335.0 ], [ 427529.75, 428335.25 ], [ 427529.25, 428335.25 ], [ 427529.25, 428335.5 ], [ 427528.25, 428335.5 ], [ 427528.25, 428335.75 ], [ 427527.75, 428335.75 ], [ 427527.75, 428336.0 ], [ 427527.0, 428336.0 ], [ 427527.0, 428336.25 ], [ 427526.75, 428336.25 ], [ 427526.75, 428336.5 ], [ 427526.25, 428336.5 ], [ 427526.25, 428336.75 ], [ 427526.0, 428336.75 ], [ 427526.0, 428337.0 ], [ 427525.75, 428337.0 ], [ 427525.75, 428337.25 ], [ 427525.25, 428337.25 ], [ 427525.25, 428337.5 ], [ 427524.75, 428337.5 ], [ 427524.75, 428337.75 ], [ 427524.0, 428337.75 ], [ 427524.0, 428338.0 ], [ 427523.5, 428338.0 ], [ 427523.5, 428338.25 ], [ 427523.0, 428338.25 ], [ 427523.0, 428338.5 ], [ 427522.25, 428338.5 ], [ 427522.25, 428338.75 ], [ 427519.25, 428338.75 ] ], [ [ 427487.25, 428272.5 ], [ 427487.5, 428272.5 ], [ 427487.5, 428272.0 ], [ 427487.25, 428272.0 ], [ 427487.25, 428272.5 ] ], [ [ 427493.0, 428232.0 ], [ 427494.75, 428232.0 ], [ 427494.75, 428230.5 ], [ 427493.25, 428230.5 ], [ 427493.25, 428231.0 ], [ 427493.0, 428231.0 ], [ 427493.0, 428232.0 ] ] ] } }
]
}
