{
"type": "FeatureCollection",
"name": "se3237_rgb_250_03_osm_road_buffers",
"crs": { "type": "name", "properties": { "name": "urn:ogc:def:crs:EPSG::27700" } },
"features": [
{ "type": "Feature", "properties": { "bicycle": "yes", "foot": "yes", "highway": "residential", "horse": "yes", "motorcar": "yes", "name": "Park Avenue", "surface": "asphalt", "osm_type": "way", "osm_id": 2447290, "source": null, "lane_markings": null, "lanes": null, "lit": null, "maxspeed": null, "sidewalk:both": null, "source_ref": null, "fixme": null, "oneway": null, "source:name": null, "postal_code": null, "sidewalk:left": null }, "geometry": { "type": "Polygon", "coordinates": [ [ [ 433203.313739486504346, 437798.464496145199519 ], [ 433203.266407738556154, 437797.950287797721103 ], [ 433203.166293660004158, 437797.443703460972756 ], [ 433202.098782571440097, 437793.205985157284886 ], [ 433200.725775818806142, 437787.441875190997962 ], [ 433200.680568011244759, 437787.266274765017442 ], [ 433197.80750169995008, 437776.889525308040902 ], [ 433196.924000140104908, 437772.308059046743438 ], [ 433196.009894348273519, 437759.543219610874075 ], [ 433195.968113504059147, 437755.600629839638714 ], [ 433195.882622022589203, 437747.533387457602657 ], [ 433196.236373635882046, 437738.322340431564953 ], [ 433197.003658480709419, 437729.527037024789024 ], [ 433199.650886246410664, 437716.4085453042062 ], [ 433202.859551316942088, 437705.739512441854458 ], [ 433203.015929286251776, 437705.042240221286193 ], [ 433203.520145852933638, 437701.685609318898059 ], [ 433203.564826144312974, 437701.271232820348814 ], [ 433204.822753126209136, 437682.158228960062843 ], [ 433207.206934280344285, 437654.29842457693303 ], [ 433211.204168565105647, 437629.129897610691842 ], [ 433218.205207261256874, 437591.977136763744056 ], [ 433238.9493005144177, 437551.094612154061906 ], [ 433243.857039625756443, 437545.241449266555719 ], [ 433256.467547682521399, 437530.222427464148495 ], [ 433256.744310108129866, 437529.860525306954514 ], [ 433256.986981356167234, 437529.474933194753248 ], [ 433276.178573437791783, 437495.654305649222806 ], [ 433289.494093333429191, 437474.773261899885256 ], [ 433289.754506021679845, 437474.31285150203621 ], [ 433289.964822467823979, 437473.827506784233265 ], [ 433290.122688873321749, 437473.322659579047468 ], [ 433290.226338444685098, 437472.803959984856192 ], [ 433290.274611167027615, 437472.277213132125326 ], [ 433290.266966786526609, 437471.748314213531557 ], [ 433287.944516267685685, 437437.328695389849599 ], [ 433287.852113261353225, 437436.652040935819969 ], [ 433285.68218892661389, 437426.166600366937928 ], [ 433285.546036844258197, 437425.649688322097063 ], [ 433285.355479571036994, 437425.150265277770814 ], [ 433285.112695065676235, 437424.674039348668884 ], [ 433284.820458213740494, 437424.226453520008363 ], [ 433275.32292746542953, 437411.252291848650202 ], [ 433274.988047536578961, 437410.842273775604554 ], [ 433259.869221019849647, 437394.212134378030896 ], [ 433259.540471667249221, 437393.882720263500232 ], [ 433259.182518267945852, 437393.585299417551141 ], [ 433234.697653527779039, 437375.097432118898723 ], [ 433234.265333145973273, 437374.805124694947153 ], [ 433233.804900054587051, 437374.559470647713169 ], [ 433233.321370111196302, 437374.363146078656428 ], [ 433200.139715040219016, 437362.868505293386988 ], [ 433192.124473692150787, 437360.086256917566061 ], [ 433191.591284144378733, 437359.933732013392728 ], [ 433191.04448299203068, 437359.841193156549707 ], [ 433152.676555276673753, 437355.51962594629731 ], [ 433152.200185162655544, 437355.488901391567197 ], [ 433112.740484007750638, 437354.83168336522067 ], [ 433057.286454876186326, 437353.898334328550845 ], [ 433043.480100617685821, 437351.812312276801094 ], [ 433025.397068116639275, 437349.083260434272233 ], [ 433010.183757218939718, 437343.65355869778432 ], [ 432988.791178840445355, 437333.548302123846952 ], [ 432988.385820541414432, 437333.356934848998208 ], [ 432980.897819792036898, 437329.812187503557652 ], [ 432955.453208416467533, 437317.750956403499003 ], [ 432949.883515607449226, 437315.109122479159851 ], [ 432902.819863643264398, 437287.00551798514789 ], [ 432881.388141651870683, 437270.330385366338305 ], [ 432871.114655180135742, 437262.344068545324262 ], [ 432851.285482002596837, 437242.868533170898445 ], [ 432838.027364543173462, 437229.843058226630092 ], [ 432820.208505136950407, 437207.873934586357791 ], [ 432818.297705352131743, 437205.514362215995789 ], [ 432818.294258306152187, 437205.510110353585333 ], [ 432804.117847063520458, 437188.043342605757061 ], [ 432798.346924905607011, 437180.119386697886512 ], [ 432790.6406887814519, 437169.539565353305079 ], [ 432780.90550336393062, 437156.182219592155889 ], [ 432758.799379415635485, 437124.123682625824586 ], [ 432717.886286597407889, 437056.648204698925838 ], [ 432700.916450414049905, 437018.59848390344996 ], [ 432690.13728532451205, 436990.789393433369696 ], [ 432680.813225705060177, 436994.403520189924166 ], [ 432691.637335016101133, 437022.328561933711171 ], [ 432691.732932067825459, 437022.558086846373044 ], [ 432708.881439426972065, 437061.00842366903089 ], [ 432709.172412919753697, 437061.564218079671264 ], [ 432750.324456411763094, 437129.433782833162695 ], [ 432750.483659015211742, 437129.679785428568721 ], [ 432772.710076023300644, 437161.912772674462758 ], [ 432772.78564051882131, 437162.019350334361661 ], [ 432782.558045490761288, 437175.427763544779737 ], [ 432790.263567513378803, 437186.006604487134609 ], [ 432796.111423398833722, 437194.036196799017489 ], [ 432796.27091312041739, 437194.243564293137752 ], [ 432810.528057912073564, 437211.809803911950439 ], [ 432812.438349727657624, 437214.16874901088886 ], [ 432830.438659494393505, 437236.361587729945313 ], [ 432830.817811706918292, 437236.778620143595617 ], [ 432844.277536868874449, 437250.00216514460044 ], [ 432864.313925629947335, 437269.681220649334136 ], [ 432864.748803492577281, 437270.061558791843709 ], [ 432875.248199861263856, 437278.223490962584037 ], [ 432896.921886183379684, 437295.086885976023041 ], [ 432897.428832896461245, 437295.433532828988973 ], [ 432944.96158736263169, 437323.817257344198879 ], [ 432945.382245099113788, 437324.041958215064369 ], [ 432951.168191722244956, 437326.786366317537613 ], [ 432976.615645192854572, 437338.848944795317948 ], [ 432984.109521037025843, 437342.396474083303474 ], [ 432984.114311418728903, 437342.39873869746225 ], [ 432984.520522257138509, 437342.590508307737764 ], [ 433006.135400647530332, 437352.800773198890965 ], [ 433006.590298901428469, 437352.988856302981731 ], [ 433022.491594288963825, 437358.664102918177377 ], [ 433022.953194684814662, 437358.804144029680174 ], [ 433023.426141679286957, 437358.899052294553258 ], [ 433041.986562329926528, 437361.700150441029109 ], [ 433056.12206788524054, 437363.835904438747093 ], [ 433056.784903695981484, 437363.891309019527398 ], [ 433112.572636329277884, 437364.830274633481167 ], [ 433151.794734798953868, 437365.483535363629926 ], [ 433189.371562550368253, 437369.715997118677478 ], [ 433196.861946896882728, 437372.316057276213542 ], [ 433229.301933780661784, 437383.55377372528892 ], [ 433252.784018798032776, 437401.284468842612114 ], [ 433267.41045322699938, 437417.372995499987155 ], [ 433276.109805517306086, 437429.256800463830587 ], [ 433277.99024484626716, 437438.343400633079 ], [ 433280.179030696919654, 437470.782057152769994 ], [ 433267.677732800715603, 437490.386259642837103 ], [ 433267.544871222111396, 437490.60695126169594 ], [ 433248.515246387338266, 437524.14214996388182 ], [ 433236.197523686510976, 437538.812466573377606 ], [ 433230.918339467723854, 437545.108627719106153 ], [ 433230.577483200177085, 437545.565752076799981 ], [ 433230.290890545642469, 437546.058712849917356 ], [ 433208.964876139012631, 437588.088089509808924 ], [ 433208.771408698172309, 437588.518609278020449 ], [ 433208.619398385460954, 437588.965453530836385 ], [ 433208.510199776443187, 437589.42464040487539 ], [ 433201.363811015500687, 437627.348737682332285 ], [ 433201.339224109891802, 437627.49037381116068 ], [ 433197.302416382241063, 437652.908074379374739 ], [ 433197.258735214127228, 437653.26600808830699 ], [ 433194.854982329998165, 437681.354513452446554 ], [ 433194.847567440359853, 437681.452478441409767 ], [ 433193.600111744191963, 437700.406381075677928 ], [ 433193.180089842702728, 437703.202517869707663 ], [ 433190.007566658663563, 437713.751376464555506 ], [ 433189.894508790632244, 437714.202359034912661 ], [ 433187.145753095101099, 437727.823978338390589 ], [ 433187.065876906854101, 437728.378470582829323 ], [ 433186.263641939032823, 437737.57440347870579 ], [ 433186.248406987870112, 437737.81705890543526 ], [ 433185.885288153775036, 437747.27201128291199 ], [ 433185.881885576120112, 437747.516879389702808 ], [ 433185.968674974399619, 437755.706597243261058 ], [ 433186.012069459655322, 437759.801455952401739 ], [ 433186.024560045625549, 437760.10561393602984 ], [ 433186.970820469257887, 437773.319470012618694 ], [ 433187.048504525213502, 437773.909097478841431 ], [ 433188.026116083085071, 437778.978578476235271 ], [ 433188.116951472125947, 437779.365991340368055 ], [ 433191.018953325867187, 437789.847248261561617 ], [ 433192.378439454652835, 437795.554596407397185 ], [ 433192.393827416060958, 437795.617393572349101 ], [ 433193.342588754312601, 437799.38370881928131 ], [ 433193.612689413246699, 437806.111080165894236 ], [ 433203.604639229015447, 437805.709908283140976 ], [ 433203.313739486504346, 437798.464496145199519 ] ] ] } },
{ "type": "Feature", "properties": { "bicycle": null, "foot": null, "highway": "residential", "horse": null, "motorcar": null, "name": "Lady Wood Road", "surface": null, "osm_type": "way", "osm_id": 22819448, "source": "OS7", "lane_markings": null, "lanes": null, "lit": null, "maxspeed": null, "sidewalk:both": null, "source_ref": null, "fixme": null, "oneway": null, "source:name": null, "postal_code": null, "sidewalk:left": null }, "geometry": { "type": "Polygon", "coordinates": [ [ [ 432975.467276807117742, 436955.039012192573864 ], [ 432956.338887453137431, 436972.707548830076121 ], [ 432956.228572795691434, 436972.812603471393231 ], [ 432909.03668362298049, 437019.145504428597633 ], [ 432916.042510984116234, 437026.28121623507468 ], [ 432963.180043092812411, 436980.001682932954282 ], [ 432982.251358015753794, 436962.385864743904676 ], [ 433049.857962053327356, 436899.964295417710673 ], [ 433043.074253136815969, 436892.617099126859102 ], [ 432975.467276807117742, 436955.039012192573864 ] ] ] } },
{ "type": "Feature", "properties": { "bicycle": null, "foot": null, "highway": "residential", "horse": null, "motorcar": null, "name": "The Drive", "surface": "asphalt", "osm_type": "way", "osm_id": 23000899, "source": "npe", "lane_markings": "no", "lanes": null, "lit": null, "maxspeed": null, "sidewalk:both": null, "source_ref": null, "fixme": null, "oneway": null, "source:name": null, "postal_code": null, "sidewalk:left": null }, "geometry": { "type": "Polygon", "coordinates": [ [ [ 431704.584051690995693, 437816.129415044910274 ], [ 431742.892743451055139, 437821.028415323409718 ], [ 431742.906832607113756, 437821.03019674384268 ], [ 431745.877944096340798, 437821.401575391180813 ], [ 431811.44545475958148, 437830.68723418697482 ], [ 431818.813647034578025, 437831.959095462982077 ], [ 431894.678210222860798, 437845.213683597743511 ], [ 431894.783172714873217, 437845.230873598193284 ], [ 431985.270942421164364, 437859.063721924554557 ], [ 432061.78496049909154, 437871.200429571559653 ], [ 432063.351581496943254, 437861.32390697253868 ], [ 431986.823699984524865, 437849.185000297729857 ], [ 431986.79596098663751, 437849.18068011518335 ], [ 431896.346888386760838, 437835.353747408196796 ], [ 431820.529697847785428, 437822.107435930287465 ], [ 431820.51966167287901, 437822.105693005258217 ], [ 431813.071930576872546, 437820.820102127385326 ], [ 431812.922536018071696, 437820.796635134203825 ], [ 431747.239721421443392, 437811.494647016574163 ], [ 431747.158774918294512, 437811.48385691823205 ], [ 431744.154191963607445, 437811.108294453646522 ], [ 431705.852446449222043, 437806.210182476381306 ], [ 431633.903046181192622, 437797.012029167090077 ], [ 431632.634947083774023, 437806.931299537362065 ], [ 431704.584051690995693, 437816.129415044910274 ] ] ] } },
{ "type": "Feature", "properties": { "bicycle": null, "foot": null, "highway": "residential", "horse": null, "motorcar": null, "name": "The Avenue", "surface": "asphalt", "osm_type": "way", "osm_id": 23005322, "source": null, "lane_markings": null, "lanes": null, "lit": null, "maxspeed": null, "sidewalk:both": null, "source_ref": null, "fixme": null, "oneway": null, "source:name": null, "postal_code": null, "sidewalk:left": null }, "geometry": { "type": "Polygon", "coordinates": [ [ [ 432218.096835196833126, 438222.777748702792451 ], [ 432213.914582427532878, 438090.51054113113787 ], [ 432209.25394395593321, 437931.94363074679859 ], [ 432208.24229509755969, 437867.615279951831326 ], [ 432208.239021579560358, 437867.496666424616706 ], [ 432204.898066358815413, 437782.86799674591748 ], [ 432194.905849752773065, 437783.262467654712964 ], [ 432198.244464438699652, 437867.831849993614014 ], [ 432199.25571726122871, 437932.135017807944678 ], [ 432199.257257444958668, 437932.203293697908521 ], [ 432203.919062606117222, 438090.809897862491198 ], [ 432203.919401888269931, 438090.821019697003067 ], [ 432208.103406624344643, 438223.143634669249877 ], [ 432208.107552860106807, 438223.24328663997585 ], [ 432212.846043110999744, 438315.069344437273685 ], [ 432222.832755349751096, 438314.554001192504074 ], [ 432218.096835196833126, 438222.777748702792451 ] ] ] } },
{ "type": "Feature", "properties": { "bicycle": null, "foot": null, "highway": "residential", "horse": null, "motorcar": null, "name": "The View", "surface": "asphalt", "osm_type": "way", "osm_id": 23005835, "source": "npe", "lane_markings": null, "lanes": null, "lit": null, "maxspeed": null, "sidewalk:both": null, "source_ref": null, "fixme": null, "oneway": null, "source:name": null, "postal_code": null, "sidewalk:left": null }, "geometry": { "type": "Polygon", "coordinates": [ [ [ 432060.224925610120408, 437942.364183171011973 ], [ 432063.143694594153203, 437942.167337740364019 ], [ 432069.594704637187533, 437941.936674022115767 ], [ 432204.436065624351613, 437937.053119918622542 ], [ 432204.07413254014682, 437927.05967184290057 ], [ 432069.236221003753599, 437931.943101547367405 ], [ 432062.707408635527827, 437932.176547182491049 ], [ 432062.549632961978205, 437932.184686179447453 ], [ 432059.554815153183881, 437932.386660791409668 ], [ 431895.877119073178619, 437943.36434261634713 ], [ 431896.5463046109071, 437953.341927029250655 ], [ 432060.224925610120408, 437942.364183171011973 ] ] ] } },
{ "type": "Feature", "properties": { "bicycle": null, "foot": null, "highway": "residential", "horse": null, "motorcar": null, "name": "Denton Avenue", "surface": "asphalt", "osm_type": "way", "osm_id": 23005837, "source": "npe", "lane_markings": null, "lanes": null, "lit": null, "maxspeed": null, "sidewalk:both": null, "source_ref": null, "fixme": null, "oneway": null, "source:name": null, "postal_code": null, "sidewalk:left": null }, "geometry": { "type": "Polygon", "coordinates": [ [ [ 431779.994389727711678, 437640.388018344587181 ], [ 431780.000435969268437, 437640.388873994350433 ], [ 431881.78089893219294, 437654.729212278791238 ], [ 431990.569876284629572, 437671.057392490154598 ], [ 432025.902535197965335, 437681.992987257079221 ], [ 432028.859198674850632, 437672.440074555459432 ], [ 431993.16481108777225, 437661.392523363116197 ], [ 431992.799894108960871, 437661.294525121571496 ], [ 431992.428618727659341, 437661.224363536399323 ], [ 431883.242914616421331, 437644.836638450447936 ], [ 431883.198359288100619, 437644.830156114185229 ], [ 431781.398627449409105, 437630.487102945335209 ], [ 431671.840505543223117, 437614.914450172975194 ], [ 431670.433244960091542, 437624.814935901027638 ], [ 431779.994389727711678, 437640.388018344587181 ] ] ] } },
{ "type": "Feature", "properties": { "bicycle": null, "foot": null, "highway": "residential", "horse": null, "motorcar": null, "name": "Davies Avenue", "surface": "asphalt", "osm_type": "way", "osm_id": 23005840, "source": "npe", "lane_markings": "no", "lanes": null, "lit": null, "maxspeed": null, "sidewalk:both": null, "source_ref": null, "fixme": null, "oneway": null, "source:name": null, "postal_code": null, "sidewalk:left": null }, "geometry": { "type": "Polygon", "coordinates": [ [ [ 431978.698992721561808, 437542.332212864537723 ], [ 432017.686179483076558, 437554.376983190129977 ], [ 432128.14736281009391, 437595.363105150463525 ], [ 432128.619830445095431, 437595.512230482941959 ], [ 432129.104737085523084, 437595.613865029299632 ], [ 432165.829107391822618, 437601.428968819673173 ], [ 432166.194570970430505, 437601.473117874120362 ], [ 432263.071108396630734, 437609.57140193216037 ], [ 432263.495310177153442, 437609.588774832373019 ], [ 432263.91945654747542, 437609.570097981544677 ], [ 432390.893184296612162, 437598.562714870728087 ], [ 432390.029521107964683, 437588.600080384931061 ], [ 432263.479911923699547, 437599.570696554961614 ], [ 432167.211149032926187, 437591.523218718590215 ], [ 432131.159854182857089, 437585.814692756568547 ], [ 432021.034397316456307, 437544.953140579455066 ], [ 432020.770923890639096, 437544.863638659997378 ], [ 431981.548532887827605, 437532.746203920745756 ], [ 431981.342831956979353, 437532.68744429666549 ], [ 431925.413942213053815, 437517.997588008642197 ], [ 431922.873582105268724, 437527.669535616179928 ], [ 431978.698992721561808, 437542.332212864537723 ] ] ] } },
{ "type": "Feature", "properties": { "bicycle": null, "foot": null, "highway": "residential", "horse": null, "motorcar": null, "name": "Ryder Gardens", "surface": "asphalt", "osm_type": "way", "osm_id": 23033298, "source": "local_knowledge", "lane_markings": null, "lanes": null, "lit": null, "maxspeed": null, "sidewalk:both": null, "source_ref": null, "fixme": null, "oneway": null, "source:name": null, "postal_code": null, "sidewalk:left": null }, "geometry": { "type": "Polygon", "coordinates": [ [ [ 432498.008886072144378, 437061.728734450414777 ], [ 432509.647192040400114, 437046.498618039186113 ], [ 432501.701536368869711, 437040.426834450452588 ], [ 432490.064115245826542, 437055.655793091224041 ], [ 432423.780279958096799, 437142.361204865621403 ], [ 432431.724755854753312, 437148.434532020241022 ], [ 432498.008886072144378, 437061.728734450414777 ] ] ] } },
{ "type": "Feature", "properties": { "bicycle": null, "foot": null, "highway": "tertiary", "horse": null, "motorcar": null, "name": "Gledhow Lane", "surface": "asphalt", "osm_type": "way", "osm_id": 23033300, "source": null, "lane_markings": null, "lanes": "2", "lit": "yes", "maxspeed": "20 mph", "sidewalk:both": "yes", "source_ref": null, "fixme": null, "oneway": null, "source:name": null, "postal_code": null, "sidewalk:left": null }, "geometry": { "type": "Polygon", "coordinates": [ [ [ 432592.967060123453848, 436887.498663820850197 ], [ 432592.608870213560294, 436887.996854004915804 ], [ 432592.29568368679611, 436888.524497511913069 ], [ 432562.465361282578669, 436944.205431668669917 ], [ 432545.246076293697115, 436976.35311423742678 ], [ 432545.167952004179824, 436976.503304757643491 ], [ 432530.231066149950493, 437006.087244233349338 ], [ 432513.93986996129388, 437027.016432251723018 ], [ 432508.280164545751177, 437033.383750262495596 ], [ 432501.836185945780016, 437037.608805537049193 ], [ 432509.512542463489808, 437049.316646952589508 ], [ 432516.73322845378425, 437044.582336160645355 ], [ 432517.232531395333353, 437044.222617563849781 ], [ 432517.69831172429258, 437043.820436533016618 ], [ 432518.126969615521375, 437043.378901360440068 ], [ 432524.555374043644406, 437036.146776666515507 ], [ 432524.847264807613101, 437035.796002498711459 ], [ 432541.696788470784668, 437014.149535002885386 ], [ 432542.086996130354237, 437013.594738874875475 ], [ 432542.42167710524518, 437013.004781752475537 ], [ 432557.627195651177317, 436982.888789386372082 ], [ 432574.806101526774, 436950.816492877609562 ], [ 432604.345689842419233, 436895.678239601897076 ], [ 432630.742106675985269, 436862.167394130898174 ], [ 432619.744255338329822, 436853.504411621775944 ], [ 432592.967060123453848, 436887.498663820850197 ] ] ] } },
{ "type": "Feature", "properties": { "bicycle": null, "foot": null, "highway": "residential", "horse": null, "motorcar": null, "name": "St Catherines Walk", "surface": null, "osm_type": "way", "osm_id": 23033307, "source": null, "lane_markings": null, "lanes": null, "lit": null, "maxspeed": null, "sidewalk:both": null, "source_ref": null, "fixme": null, "oneway": null, "source:name": null, "postal_code": null, "sidewalk:left": null }, "geometry": { "type": "Polygon", "coordinates": [ [ [ 432386.909296242636628, 436996.826859740191139 ], [ 432396.125297746504657, 437000.708266222500242 ], [ 432419.842480227875058, 436944.394249535980634 ], [ 432410.626478724007029, 436940.512843053671531 ], [ 432386.909296242636628, 436996.826859740191139 ] ] ] } },
{ "type": "Feature", "properties": { "bicycle": null, "foot": null, "highway": "tertiary", "horse": null, "motorcar": null, "name": "Lidgett Park Road", "surface": "asphalt", "osm_type": "way", "osm_id": 56076502, "source": "local_knowledge", "lane_markings": null, "lanes": "2", "lit": "yes", "maxspeed": null, "sidewalk:both": null, "source_ref": "npe", "fixme": null, "oneway": null, "source:name": null, "postal_code": null, "sidewalk:left": null }, "geometry": { "type": "Polygon", "coordinates": [ [ [ 431926.47103957174113, 438080.06925479893107 ], [ 431931.902518717863131, 438080.53594088362297 ], [ 431977.296674092067406, 438084.395280377008021 ], [ 431977.665122849401087, 438084.416840233956464 ], [ 432008.489476986869704, 438085.406108841532841 ], [ 432020.872578045993578, 438085.802255961403716 ], [ 432021.087623103754595, 438085.805829683318734 ], [ 432066.636619224620517, 438085.86294193577487 ], [ 432208.337168442434631, 438097.638952052162495 ], [ 432208.813592630205676, 438097.662237626034766 ], [ 432237.035779674013611, 438098.078808665042743 ], [ 432237.479354565322865, 438098.071296257840004 ], [ 432263.719215902092401, 438096.794292226142716 ], [ 432264.341402121004649, 438096.736086430726573 ], [ 432280.683998413442168, 438094.467552555841394 ], [ 432281.278191662568133, 438094.358757594251074 ], [ 432300.834184948529582, 438089.898255860549398 ], [ 432301.212700808129739, 438089.800727083464153 ], [ 432316.541788023663685, 438085.391131074400619 ], [ 432338.787418847670779, 438079.845574340841267 ], [ 432338.915784527780488, 438079.812279780977406 ], [ 432414.631151009409223, 438059.406403213739395 ], [ 432414.6560549933929, 438059.399642134609167 ], [ 432438.068997623224277, 438052.996999763476197 ], [ 432438.434909898263868, 438052.886109784594737 ], [ 432515.073589404346421, 438027.35550567030441 ], [ 432631.896092045470141, 437995.590152467833832 ], [ 432642.445541983877774, 437995.313347960123792 ], [ 432648.409815507067833, 437995.162187155976426 ], [ 432659.501050906255841, 438000.202787228568923 ], [ 432665.293463008012623, 437987.457279704569373 ], [ 432652.737283913302235, 437981.750911119102966 ], [ 432652.150275560270529, 437981.515517940220889 ], [ 432651.544417143741157, 437981.334067301533651 ], [ 432650.924654307658784, 437981.208040391036775 ], [ 432650.296046198229305, 437981.138465971045662 ], [ 432649.66372416599188, 437981.125911979877856 ], [ 432642.087707352475263, 437981.317921415611636 ], [ 432630.687738778011408, 437981.617039682518225 ], [ 432629.853925765492022, 437981.688964935950935 ], [ 432629.034656007250305, 437981.859887272701599 ], [ 432511.210772763530258, 438013.897527130669914 ], [ 432510.835087744693737, 438014.011082023847848 ], [ 432434.191599382611457, 438039.543288109882269 ], [ 432410.975573441770393, 438045.892080473538954 ], [ 432335.336690328433178, 438066.277344181784429 ], [ 432313.033836603397503, 438071.837165866803844 ], [ 432312.791871989378706, 438071.902104951208457 ], [ 432297.530279498372693, 438076.292285292292945 ], [ 432278.459653467987664, 438080.64208022353705 ], [ 432262.726295905478764, 438082.82604499621084 ], [ 432237.020496367069427, 438084.077058072376531 ], [ 432209.258824861433823, 438083.667284431285225 ], [ 432067.511102550779469, 438071.887353999714833 ], [ 432066.940143791842274, 438071.863311509136111 ], [ 432021.212727170321159, 438071.80597554158885 ], [ 432008.938198874006048, 438071.413301803753711 ], [ 431978.298712565680034, 438070.429966295021586 ], [ 431933.097887455136515, 438066.587066253414378 ], [ 431927.615826303896029, 438066.116034038073849 ], [ 431927.508337850158568, 438066.107631736202165 ], [ 431906.170395590015687, 438064.604895422584377 ], [ 431905.186873891972937, 438078.570305730565451 ], [ 431926.47103957174113, 438080.06925479893107 ] ] ] } },
{ "type": "Feature", "properties": { "bicycle": null, "foot": null, "highway": "tertiary", "horse": null, "motorcar": null, "name": "Old Park Road", "surface": "asphalt", "osm_type": "way", "osm_id": 75134090, "source": "local_knowledge", "lane_markings": null, "lanes": "2", "lit": "yes", "maxspeed": null, "sidewalk:both": null, "source_ref": "npe", "fixme": null, "oneway": null, "source:name": null, "postal_code": null, "sidewalk:left": null }, "geometry": { "type": "Polygon", "coordinates": [ [ [ 432501.125269720272627, 437058.821410048112739 ], [ 432501.991652456868906, 437064.027602661633864 ], [ 432502.140135917114094, 437064.708518262195867 ], [ 432510.874893999716733, 437096.957975111610722 ], [ 432511.091488990990911, 437097.623740224575158 ], [ 432535.227474072540645, 437160.869943546596915 ], [ 432536.140455343294889, 437175.104101949429605 ], [ 432531.148641173145734, 437187.75958707742393 ], [ 432457.163867069990374, 437293.430998413008638 ], [ 432419.185882270510774, 437342.480513748538215 ], [ 432419.106800071487669, 437342.584645169845317 ], [ 432381.856813309248537, 437392.596536580298562 ], [ 432377.670001263555605, 437398.221806026645936 ], [ 432377.374395642662421, 437398.651516861165874 ], [ 432377.111606038990431, 437399.102045116189402 ], [ 432372.810770854528528, 437407.150154836417641 ], [ 432372.504345193854533, 437407.802238120872062 ], [ 432372.26657103333855, 437408.482365126663353 ], [ 432369.967967415519524, 437416.332904494425748 ], [ 432369.82518401183188, 437416.910565421392675 ], [ 432367.194923887902405, 437429.899245760228951 ], [ 432367.146243944356684, 437430.166120451351162 ], [ 432364.864094203745481, 437444.214221291767899 ], [ 432364.779400457802694, 437445.049692991713528 ], [ 432364.795362870616373, 437445.889294798194896 ], [ 432365.340204260253813, 437452.769217722176109 ], [ 432365.375954708142672, 437453.112730855878908 ], [ 432367.499840536038391, 437469.566604488471057 ], [ 432369.15752581867855, 437484.058906537247822 ], [ 432369.240041083714459, 437484.595225415017921 ], [ 432379.934955901990179, 437539.780599718505982 ], [ 432382.599184180493467, 437565.173804031568579 ], [ 432383.464550541888457, 437593.792962105420884 ], [ 432383.472380873456132, 437593.974173360329587 ], [ 432386.092037422349676, 437640.587811391567811 ], [ 432386.320209172146861, 437644.6929101148271 ], [ 432386.344973745231982, 437645.009039485361427 ], [ 432389.11723153537605, 437672.410459354752675 ], [ 432389.147201974876225, 437672.661377178621478 ], [ 432391.541204298613593, 437690.035229127504863 ], [ 432391.679006317048334, 437690.754579687141813 ], [ 432391.891218697302975, 437691.455593616818078 ], [ 432420.470898336556274, 437770.660377299063839 ], [ 432447.665006008406635, 437850.378342330979649 ], [ 432447.68665032973513, 437850.440824070654344 ], [ 432470.972638656385243, 437916.648927750939038 ], [ 432477.601065454655327, 437935.4882170704077 ], [ 432489.914556336938404, 437970.487272504775319 ], [ 432494.338180978957098, 437983.074911749514285 ], [ 432505.075659463123884, 438018.246407764148898 ], [ 432506.318565160676371, 438022.581500192522071 ], [ 432519.776362190430518, 438018.723042067023925 ], [ 432518.516976562212221, 438014.330469797132537 ], [ 432518.483037164609414, 438014.21580003213603 ], [ 432507.685536531091202, 437978.847696518758312 ], [ 432507.59464404580649, 437978.570754136890173 ], [ 432503.12227914435789, 437965.844422111520544 ], [ 432490.807538430730347, 437930.841812919359654 ], [ 432484.179466577246785, 437912.003532564791385 ], [ 432460.904583954950795, 437845.827005282044411 ], [ 432433.701327219081577, 437766.082220294338185 ], [ 432433.66066356387455, 437765.966353095485829 ], [ 432405.309766279940959, 437687.395609304134268 ], [ 432403.033406145055778, 437670.875515078019816 ], [ 432400.289832006266806, 437643.757608804327901 ], [ 432400.07034204172669, 437639.808706392010208 ], [ 432397.455413658288307, 437593.279176793876104 ], [ 432396.584924374590628, 437564.490594843460713 ], [ 432396.549909460823983, 437563.971735928149428 ], [ 432393.82677706098184, 437538.017106604820583 ], [ 432393.737126232066657, 437537.415711295150686 ], [ 432383.035973025020212, 437482.198147131013684 ], [ 432381.403383388533257, 437467.925243593985215 ], [ 432381.391133636294398, 437467.824609815201256 ], [ 432379.282872175739612, 437451.491779113770463 ], [ 432378.818322893988807, 437445.625735685578547 ], [ 432380.943332165712491, 437432.544935593905393 ], [ 432383.487561852205545, 437419.981088464788627 ], [ 432385.499220811994746, 437413.110565972106997 ], [ 432389.212785870593507, 437406.161408944928553 ], [ 432393.085375650436617, 437400.958318041695748 ], [ 432430.295586399966851, 437350.999829969136044 ], [ 432468.336499908997212, 437301.869040634424891 ], [ 432468.535908011777792, 437301.598309225286357 ], [ 432543.091290946584195, 437195.111905328230932 ], [ 432543.522597168514039, 437194.411637944693211 ], [ 432543.868793665082194, 437193.665616865095217 ], [ 432549.737987441010773, 437178.785757156147156 ], [ 432549.980482764949556, 437178.055797611305024 ], [ 432550.141424732806627, 437177.303638982877601 ], [ 432550.218870069133118, 437176.538363124709576 ], [ 432550.211883669078816, 437175.76921027287608 ], [ 432549.130930547369644, 437158.916227135050576 ], [ 432549.051105951832142, 437158.21989305538591 ], [ 432548.902046539995354, 437157.535032187530305 ], [ 432548.685246717999689, 437156.868510654720012 ], [ 432524.296377294405829, 437092.95964639482554 ], [ 432515.744459752284456, 437061.385252101696096 ], [ 432514.936378994607367, 437056.529409832321107 ], [ 432512.580089970142581, 437042.317758275254164 ], [ 432498.768638439127244, 437044.607694214384537 ], [ 432501.125269720272627, 437058.821410048112739 ] ] ] } },
{ "type": "Feature", "properties": { "bicycle": null, "foot": null, "highway": "residential", "horse": null, "motorcar": null, "name": "North Park Grove", "surface": "asphalt", "osm_type": "way", "osm_id": 75134095, "source": "npe", "lane_markings": null, "lanes": "2", "lit": null, "maxspeed": null, "sidewalk:both": null, "source_ref": null, "fixme": null, "oneway": null, "source:name": null, "postal_code": null, "sidewalk:left": null }, "geometry": { "type": "Polygon", "coordinates": [ [ [ 432056.663678676588461, 437900.437845695239957 ], [ 432056.663765157514717, 437900.457402163825464 ], [ 432056.886185418814421, 437937.209664588037413 ], [ 432056.888518158521038, 437937.344542125589214 ], [ 432060.779666365531739, 438073.670478101354092 ], [ 432060.93179858190706, 438078.964524997631088 ], [ 432060.959261027281173, 438084.445669603475835 ], [ 432061.458543440210633, 438175.944782967679203 ], [ 432061.460781982576009, 438176.079162942245603 ], [ 432064.406739643483888, 438281.805124183709268 ], [ 432064.770502607221715, 438392.008491530898027 ], [ 432064.782289916533045, 438392.365117553097662 ], [ 432067.09072408702923, 438429.08717938355403 ], [ 432079.067084095964674, 438428.334317553264555 ], [ 432076.769848074531183, 438391.790393408737145 ], [ 432076.406431093753781, 438281.691842917003669 ], [ 432076.404135912947822, 438281.54452813602984 ], [ 432073.457998087047599, 438175.812101044808514 ], [ 432072.95910369977355, 438084.384207187627908 ], [ 432072.931291440443601, 438078.833244292123709 ], [ 432072.928890925424639, 438078.69095820968505 ], [ 432072.774764583911747, 438073.327521738596261 ], [ 432068.885557462694123, 437937.06959148432361 ], [ 432068.663604588422459, 437900.394559113949072 ], [ 432068.568247606221121, 437866.245414128934499 ], [ 432056.568294389813673, 437866.278922415163834 ], [ 432056.663678676588461, 437900.437845695239957 ] ] ] } },
{ "type": "Feature", "properties": { "bicycle": null, "foot": null, "highway": "tertiary", "horse": null, "motorcar": null, "name": "Princes Avenue", "surface": "asphalt", "osm_type": "way", "osm_id": 85202005, "source": "OS_OpenData_StreetView", "lane_markings": null, "lanes": "2", "lit": "yes", "maxspeed": "30 mph", "sidewalk:both": null, "source_ref": null, "fixme": null, "oneway": null, "source:name": null, "postal_code": null, "sidewalk:left": null }, "geometry": { "type": "Polygon", "coordinates": [ [ [ 432669.585765066789463, 437955.339096390875056 ], [ 432669.445534956757911, 437955.679390463454183 ], [ 432666.247990083589684, 437964.057597085658927 ], [ 432660.380759723775554, 437979.475146324373782 ], [ 432655.856890676426701, 437991.335317267512437 ], [ 432651.263254943827633, 438003.402089144976344 ], [ 432651.067888235556893, 438003.99307043600129 ], [ 432650.925791665387806, 438004.599070107447915 ], [ 432643.8934306348674, 438042.001835616189055 ], [ 432643.779786266910378, 438042.98466256656684 ], [ 432641.664633807376958, 438090.602432303596288 ], [ 432641.662865750899073, 438091.180940702732187 ], [ 432641.708873400581069, 438091.757619460870046 ], [ 432641.802342519338708, 438092.328529802151024 ], [ 432642.922760019428097, 438097.754936540848576 ], [ 432656.633551422739401, 438094.924000459606759 ], [ 432655.689559948805254, 438090.352060361474287 ], [ 432657.743987987691071, 438044.101360628206749 ], [ 432664.569355970947072, 438007.799521589942742 ], [ 432668.938439198944252, 437996.322610470640939 ], [ 432673.462449328915682, 437984.462069652916398 ], [ 432679.328972614428494, 437969.046375215810258 ], [ 432682.459683664841577, 437960.843286566436291 ], [ 432696.031686898437329, 437930.219621683703735 ], [ 432683.232358007808216, 437924.547128409147263 ], [ 432669.585765066789463, 437955.339096390875056 ] ] ] } },
{ "type": "Feature", "properties": { "bicycle": null, "foot": null, "highway": "residential", "horse": null, "motorcar": null, "name": "The Drive", "surface": "asphalt", "osm_type": "way", "osm_id": 114459029, "source": "npe", "lane_markings": null, "lanes": null, "lit": null, "maxspeed": null, "sidewalk:both": null, "source_ref": null, "fixme": null, "oneway": null, "source:name": null, "postal_code": null, "sidewalk:left": null }, "geometry": { "type": "Polygon", "coordinates": [ [ [ 432038.454546494118404, 437763.35355489939684 ], [ 432087.932104593957774, 437771.832267629972193 ], [ 432088.05703074100893, 437771.852052458445542 ], [ 432199.18237034737831, 437788.01318061654456 ], [ 432199.702760006242897, 437788.0612626382499 ], [ 432200.225325842271559, 437788.05476457066834 ], [ 432427.399568731198087, 437773.33177519752644 ], [ 432426.752833158243448, 437763.352710456820205 ], [ 432200.102250169904437, 437778.041761831322219 ], [ 432089.558794363692869, 437761.965257924515754 ], [ 432036.533114531135652, 437752.878521959588397 ], [ 432036.05049389944179, 437752.819799415243324 ], [ 432035.564451625104994, 437752.808227083645761 ], [ 432035.079583160229959, 437752.843914379365742 ], [ 432034.600472858757712, 437752.926523884641938 ], [ 432034.131650632189121, 437753.055274539859965 ], [ 432033.677549119922332, 437753.228949028067291 ], [ 432033.242461779213045, 437753.445905284665059 ], [ 432032.830502291501034, 437753.704092022962868 ], [ 432032.445565668051131, 437754.001068128447514 ], [ 432032.091291423130315, 437754.334025739401113 ], [ 432031.771029163268395, 437754.699816794833168 ], [ 432031.487806916993577, 437755.094982798676938 ], [ 432031.244302505510859, 437755.51578751928173 ], [ 431981.596091315441299, 437851.832363569177687 ], [ 431990.484687655756716, 437856.414159625303 ], [ 432038.454546494118404, 437763.35355489939684 ] ] ] } },
{ "type": "Feature", "properties": { "bicycle": null, "foot": null, "highway": "residential", "horse": null, "motorcar": null, "name": "White Grove", "surface": "asphalt", "osm_type": "way", "osm_id": 114459079, "source": null, "lane_markings": null, "lanes": null, "lit": null, "maxspeed": null, "sidewalk:both": null, "source_ref": null, "fixme": null, "oneway": null, "source:name": null, "postal_code": null, "sidewalk:left": null }, "geometry": { "type": "Polygon", "coordinates": [ [ [ 432018.191274673386943, 437601.907341421989258 ], [ 432024.26091565110255, 437550.224040526663885 ], [ 432014.329170160694048, 437549.057665152708068 ], [ 432008.256661579245701, 437600.765383839490823 ], [ 432008.251166635542177, 437600.814246436522808 ], [ 432004.4068480861024, 437636.581836959288921 ], [ 432014.349583463917952, 437637.650487139180768 ], [ 432018.191274673386943, 437601.907341421989258 ] ] ] } },
{ "type": "Feature", "properties": { "bicycle": null, "foot": null, "highway": "residential", "horse": null, "motorcar": null, "name": "Parkwood Avenue", "surface": "asphalt", "osm_type": "way", "osm_id": 146905006, "source": "Bing; photo", "lane_markings": null, "lanes": null, "lit": null, "maxspeed": null, "sidewalk:both": null, "source_ref": null, "fixme": "Many missing streets", "oneway": null, "source:name": null, "postal_code": null, "sidewalk:left": null }, "geometry": { "type": "Polygon", "coordinates": [ [ [ 432334.648613234050572, 437467.575465232715942 ], [ 432293.388898345350754, 437471.09076465817634 ], [ 432270.460236477199942, 437470.544104363012593 ], [ 432250.350574541778769, 437466.617505494214129 ], [ 432235.480330189689994, 437457.738633270608261 ], [ 432196.847776772163343, 437420.300759247562382 ], [ 432191.728870567458216, 437414.871089216554537 ], [ 432188.748257320316043, 437409.6415254168096 ], [ 432186.989993737952318, 437402.307113003800623 ], [ 432185.815163236984517, 437389.250273252895568 ], [ 432185.850645373517182, 437384.081617364310659 ], [ 432186.835523129499052, 437378.893121130415238 ], [ 432200.733665616658982, 437321.458867581677623 ], [ 432205.211369867727626, 437305.406371081597172 ], [ 432195.579086544748861, 437302.719529444002546 ], [ 432191.078134036622941, 437318.855370565317571 ], [ 432191.034535181184765, 437319.022814297582954 ], [ 432177.086735449382104, 437376.662277051946148 ], [ 432177.034191184444353, 437376.9058067019796 ], [ 432175.941588397603482, 437382.661815922823735 ], [ 432175.877486925455742, 437383.108897671801969 ], [ 432175.85399099130882, 437383.559939831786323 ], [ 432175.813739721954335, 437389.423311672115233 ], [ 432175.83374001015909, 437389.905715842382051 ], [ 432177.062896968796849, 437403.566329373046756 ], [ 432177.180542334157508, 437404.283862680837046 ], [ 432179.189677525253501, 437412.66475973901106 ], [ 432179.320951937523205, 437413.117168469703756 ], [ 432179.494219624379184, 437413.555215201922692 ], [ 432179.707942615903448, 437413.97501171665499 ], [ 432183.336844220757484, 437420.342014374153223 ], [ 432183.661368127213791, 437420.840041768446099 ], [ 432184.042702431033831, 437421.296036505256779 ], [ 432189.649002389865927, 437427.242689492064528 ], [ 432189.807536050386261, 437427.403417813591659 ], [ 432228.938501085853204, 437465.324290492222644 ], [ 432229.376307770085987, 437465.702000924095046 ], [ 432229.854793891543522, 437466.026640562224202 ], [ 432245.972953120304737, 437475.65063011366874 ], [ 432246.352790008706506, 437475.855723981047049 ], [ 432246.748901420389302, 437476.027291185804643 ], [ 432247.158334906329401, 437476.164052937820088 ], [ 432247.578038720414042, 437476.264989871997386 ], [ 432268.959482630481943, 437480.439916021423414 ], [ 432269.377066851127893, 437480.50327722117072 ], [ 432269.798508724488784, 437480.53116934071295 ], [ 432293.422818011895288, 437481.094415114144795 ], [ 432293.966451886459254, 437481.077786481298972 ], [ 432335.527787407569122, 437477.53678918472724 ], [ 432335.588267003768124, 437477.531266199890524 ], [ 432374.933670103200711, 437473.697171329520643 ], [ 432373.963793308357708, 437463.744315508054569 ], [ 432334.648613234050572, 437467.575465232715942 ] ] ] } },
{ "type": "Feature", "properties": { "bicycle": null, "foot": null, "highway": "tertiary", "horse": null, "motorcar": null, "name": "Princes Avenue", "surface": "asphalt", "osm_type": "way", "osm_id": 146968872, "source": "OS_OpenData_StreetView", "lane_markings": null, "lanes": "2", "lit": "yes", "maxspeed": "40 mph", "sidewalk:both": null, "source_ref": null, "fixme": null, "oneway": null, "source:name": null, "postal_code": null, "sidewalk:left": null }, "geometry": { "type": "Polygon", "coordinates": [ [ [ 432638.935946751618758, 436957.101457704149652 ], [ 432638.761228541552555, 436957.882528692483902 ], [ 432636.898463714111131, 436969.218558916822076 ], [ 432636.814194338920061, 436970.01147515210323 ], [ 432636.82064748450648, 436970.808830681780819 ], [ 432637.784058955265209, 436985.591493653540965 ], [ 432637.882914056128357, 436986.39264482766157 ], [ 432641.547638398653362, 437006.479194164334331 ], [ 432641.623927474080119, 437006.842495686782058 ], [ 432644.770301260170527, 437020.071531377208885 ], [ 432644.7958697709837, 437020.175496560754254 ], [ 432661.28135674353689, 437085.063962322950829 ], [ 432669.852636515744962, 437135.42308359517483 ], [ 432682.344154387479648, 437234.696694618556648 ], [ 432682.35870872734813, 437234.805471122439485 ], [ 432688.060359248891473, 437275.017874862009194 ], [ 432694.286024277214892, 437345.60265910270391 ], [ 432696.560870358371176, 437409.934657187201083 ], [ 432696.616296718013473, 437410.600304532563314 ], [ 432701.854000390623696, 437450.414020069059916 ], [ 432702.510738787357695, 437455.383433417242486 ], [ 432705.960739053029101, 437481.586444495478645 ], [ 432706.046810285071842, 437482.094736495462712 ], [ 432717.6013503629365, 437537.785377452266403 ], [ 432726.675980989472009, 437592.111411326448433 ], [ 432726.692613031424116, 437592.206906900391914 ], [ 432735.915115168027114, 437643.073349044308998 ], [ 432741.134326588711701, 437689.893440448504407 ], [ 432743.961926744610537, 437749.723019956494682 ], [ 432738.51998868706869, 437792.725036745483521 ], [ 432724.688402708328795, 437835.497079308144748 ], [ 432683.286030864226632, 437924.428990042069927 ], [ 432695.978014042018913, 437930.337760050781071 ], [ 432737.562229514063802, 437841.015250890515745 ], [ 432737.87664263881743, 437840.214701778255403 ], [ 432752.042644194967579, 437796.40853071201127 ], [ 432752.214553650585003, 437795.777679748542141 ], [ 432752.326851053570863, 437795.133540716720745 ], [ 432757.927407766575925, 437750.878124493174255 ], [ 432757.977383493329398, 437750.274503080698196 ], [ 432757.974991689494345, 437749.668821099679917 ], [ 432755.108174117514864, 437689.009434906067327 ], [ 432755.072887416812591, 437688.564379652903881 ], [ 432749.802421480591875, 437641.284498271241318 ], [ 432749.733219458081294, 437640.811213429900818 ], [ 432740.476673200086225, 437589.757001925259829 ], [ 432731.387499590113293, 437535.343905266490765 ], [ 432731.337193002400454, 437535.075151644006837 ], [ 432719.807275230123196, 437479.503185422043316 ], [ 432716.390724723110907, 437453.554227772401646 ], [ 432715.734133332909551, 437448.585929868218955 ], [ 432710.540309940290172, 437409.105764508421998 ], [ 432708.270768881367985, 437344.923790939152241 ], [ 432708.248070931818802, 437344.556142576271668 ], [ 432701.989955043012742, 437273.603439892292954 ], [ 432701.947704996913671, 437273.235771232342813 ], [ 432696.227771648205817, 437232.894423001271207 ], [ 432683.724130597605836, 437133.524465660564601 ], [ 432683.679655757907312, 437133.223848045803607 ], [ 432675.035746778361499, 437082.438006008858792 ], [ 432674.919456352072302, 437081.888882660889067 ], [ 432658.377989104192238, 437016.7800731388852 ], [ 432655.286964928905945, 437003.783756771415938 ], [ 432651.728129623224959, 436984.277590886224061 ], [ 432650.843121023906861, 436970.697947869310156 ], [ 432652.51096320693614, 436960.548137695819605 ], [ 432655.24869134061737, 436950.928548679628875 ], [ 432641.783397309307475, 436947.096335657231975 ], [ 432638.935946751618758, 436957.101457704149652 ] ] ] } },
{ "type": "Feature", "properties": { "bicycle": null, "foot": null, "highway": "residential", "horse": null, "motorcar": null, "name": "Park Avenue", "surface": "asphalt", "osm_type": "way", "osm_id": 149693955, "source": null, "lane_markings": null, "lanes": null, "lit": null, "maxspeed": null, "sidewalk:both": null, "source_ref": null, "fixme": null, "oneway": "yes", "source:name": null, "postal_code": null, "sidewalk:left": null }, "geometry": { "type": "Polygon", "coordinates": [ [ [ 432687.088469160196837, 436997.329060929303523 ], [ 432683.862041869375389, 436987.863852693990339 ], [ 432646.820751107705291, 437000.490202630462591 ], [ 432650.047178398526739, 437009.955410865775775 ], [ 432687.088469160196837, 436997.329060929303523 ] ] ] } },
{ "type": "Feature", "properties": { "bicycle": null, "foot": null, "highway": "residential", "horse": null, "motorcar": null, "name": "Avenue Victoria", "surface": "asphalt", "osm_type": "way", "osm_id": 151231779, "source": null, "lane_markings": null, "lanes": null, "lit": null, "maxspeed": null, "sidewalk:both": null, "source_ref": null, "fixme": null, "oneway": null, "source:name": null, "postal_code": null, "sidewalk:left": null }, "geometry": { "type": "Polygon", "coordinates": [ [ [ 432398.976848967547994, 437694.054523578903172 ], [ 432397.974513665365521, 437684.104884191357996 ], [ 432291.921120413637254, 437694.788795017579105 ], [ 432292.923455715819728, 437704.738434405124281 ], [ 432398.976848967547994, 437694.054523578903172 ] ] ] } },
{ "type": "Feature", "properties": { "bicycle": null, "foot": null, "highway": "residential", "horse": null, "motorcar": null, "name": "North Park Road", "surface": "asphalt", "osm_type": "way", "osm_id": 151231780, "source": null, "lane_markings": null, "lanes": null, "lit": null, "maxspeed": null, "sidewalk:both": null, "source_ref": null, "fixme": null, "oneway": null, "source:name": "OS_OpenData_Locator", "postal_code": null, "sidewalk:left": null }, "geometry": { "type": "Polygon", "coordinates": [ [ [ 432454.673596572189126, 437853.103593626001384 ], [ 432453.906667993345764, 437843.13304597028764 ], [ 432278.564457112399396, 437856.620264250726905 ], [ 432279.331385691242758, 437866.590811906440649 ], [ 432454.673596572189126, 437853.103593626001384 ] ] ] } },
{ "type": "Feature", "properties": { "bicycle": null, "foot": null, "highway": "residential", "horse": null, "motorcar": null, "name": "Greenview Court", "surface": "asphalt", "osm_type": "way", "osm_id": 151231781, "source": null, "lane_markings": null, "lanes": null, "lit": null, "maxspeed": null, "sidewalk:both": null, "source_ref": null, "fixme": null, "oneway": null, "source:name": null, "postal_code": null, "sidewalk:left": null }, "geometry": { "type": "Polygon", "coordinates": [ [ [ 432260.875783302879427, 437547.9552766266861 ], [ 432260.40377252799226, 437548.019763983611483 ], [ 432259.940041558991652, 437548.128880339907482 ], [ 432259.488800197374076, 437548.28163512510946 ], [ 432259.054144862631802, 437548.476641614222899 ], [ 432258.640021404367872, 437548.712129516527057 ], [ 432258.250189281592611, 437548.985961046651937 ], [ 432257.888187433825806, 437549.295650331361685 ], [ 432257.557302154309582, 437549.63838597672293 ], [ 432257.260537256486714, 437550.011056590359658 ], [ 432257.000586805224884, 437550.410279026720673 ], [ 432256.779810659762006, 437550.832429100060835 ], [ 432256.600213050551247, 437551.273674484866206 ], [ 432256.463424384826794, 437551.730009506281931 ], [ 432256.370686445268802, 437552.197291504009627 ], [ 432256.322841117333155, 437552.671278439927846 ], [ 432256.320322746178135, 437553.147667407698464 ], [ 432256.467504188360181, 437556.619202196656261 ], [ 432258.492033433809411, 437604.798698275175411 ], [ 432268.48321647249395, 437604.378863202116918 ], [ 432266.513178774388507, 437557.496150212944485 ], [ 432276.593165965052322, 437556.605550988751929 ], [ 432275.713062359835021, 437546.644355395634193 ], [ 432260.875783302879427, 437547.9552766266861 ] ] ] } },
{ "type": "Feature", "properties": { "bicycle": null, "foot": null, "highway": "residential", "horse": null, "motorcar": null, "name": "Parkwood Mews", "surface": "paving_stones", "osm_type": "way", "osm_id": 151231785, "source": null, "lane_markings": null, "lanes": null, "lit": null, "maxspeed": null, "sidewalk:both": null, "source_ref": null, "fixme": null, "oneway": null, "source:name": null, "postal_code": null, "sidewalk:left": null }, "geometry": { "type": "Polygon", "coordinates": [ [ [ 432097.179352465260308, 437266.002371153561398 ], [ 432103.552449809852988, 437268.121802819892764 ], [ 432108.606885616842192, 437271.840515338175464 ], [ 432112.283460854145233, 437276.92041386658093 ], [ 432114.085921602381859, 437282.475036734016612 ], [ 432112.350602305145003, 437293.32346459699329 ], [ 432122.225069557898678, 437294.902988726156764 ], [ 432124.150476415059529, 437282.866219798335806 ], [ 432124.202962138166185, 437282.396927410387434 ], [ 432124.210941541241482, 437281.924776559812017 ], [ 432124.17434345127549, 437281.453978645266034 ], [ 432124.093494308646768, 437280.988732997560874 ], [ 432123.969115255749784, 437280.533189423673321 ], [ 432121.551921582431532, 437273.084151065500919 ], [ 432121.365533387695905, 437272.597687007801142 ], [ 432121.129541094589513, 437272.133256737317424 ], [ 432120.846506520581897, 437271.695901883183978 ], [ 432116.249739610706456, 437265.344580897246487 ], [ 432115.925748179841321, 437264.94241404015338 ], [ 432115.562001523794606, 437264.575812078255694 ], [ 432115.162380217516329, 437264.248686047794763 ], [ 432108.842635792505462, 437259.599044900329318 ], [ 432108.406726999382954, 437259.312142157286871 ], [ 432107.943289063056, 437259.072236052597873 ], [ 432107.457370299380273, 437258.881939928221982 ], [ 432100.010381660948042, 437256.405375914589968 ], [ 432099.349430333182681, 437256.234679206623696 ], [ 432082.074076942459214, 437253.012144740438089 ], [ 432080.240314560185652, 437262.84257278428413 ], [ 432097.179352465260308, 437266.002371153561398 ] ] ] } },
{ "type": "Feature", "properties": { "bicycle": null, "foot": null, "highway": "residential", "horse": null, "motorcar": null, "name": "Wedgewood Drive", "surface": "asphalt", "osm_type": "way", "osm_id": 151231786, "source": "bing", "lane_markings": null, "lanes": null, "lit": null, "maxspeed": null, "sidewalk:both": null, "source_ref": null, "fixme": null, "oneway": null, "source:name": "OS_OpenData_Locator", "postal_code": null, "sidewalk:left": null }, "geometry": { "type": "Polygon", "coordinates": [ [ [ 432387.100159647641703, 437971.611982982372865 ], [ 432407.96301942988066, 438053.876684989896603 ], [ 432417.656163245264906, 438051.41844110970851 ], [ 432396.778125604090746, 437969.0938910250552 ], [ 432396.746296667202841, 437968.974587911565322 ], [ 432393.933244567073416, 437958.93018626695266 ], [ 432384.30375862546498, 437961.627036374120507 ], [ 432387.100159647641703, 437971.611982982372865 ] ] ] } },
{ "type": "Feature", "properties": { "bicycle": null, "foot": null, "highway": "residential", "horse": null, "motorcar": null, "name": "Parkwood Avenue", "surface": "asphalt", "osm_type": "way", "osm_id": 151231787, "source": null, "lane_markings": null, "lanes": null, "lit": null, "maxspeed": null, "sidewalk:both": null, "source_ref": null, "fixme": null, "oneway": null, "source:name": null, "postal_code": null, "sidewalk:left": null }, "geometry": { "type": "Polygon", "coordinates": [ [ [ 432061.689504418231081, 437270.637569495360367 ], [ 432061.681288151303306, 437271.061771342472639 ], [ 432061.70906524307793, 437271.485142512130551 ], [ 432061.772635682078544, 437271.904634482751135 ], [ 432062.930006287468132, 437277.831829212780576 ], [ 432063.061513713211752, 437278.354009145812597 ], [ 432063.248414102825336, 437278.859018383198418 ], [ 432063.488539665238932, 437279.340999502921477 ], [ 432066.467155219928827, 437284.590812858077697 ], [ 432066.758124060346745, 437285.044735724048223 ], [ 432067.096278656623326, 437285.464688463427592 ], [ 432067.477686827653088, 437285.845787717436906 ], [ 432071.978441949991975, 437289.882106492470484 ], [ 432072.395598151895683, 437290.217712268931791 ], [ 432072.846247751789633, 437290.506789200124331 ], [ 432073.325223591644317, 437290.746022723789793 ], [ 432078.870476912532467, 437293.15390352968825 ], [ 432079.27267812617356, 437293.308313716726843 ], [ 432079.686678636062425, 437293.427527390012983 ], [ 432080.109404764662031, 437293.510659467603546 ], [ 432116.321499796118587, 437299.023721510253381 ], [ 432128.547655026486609, 437301.983686855237465 ], [ 432194.246288551716134, 437324.9193992226501 ], [ 432197.542262844508514, 437315.478183545579668 ], [ 432131.611314486188348, 437292.461368940479588 ], [ 432131.139844125660602, 437292.32236689212732 ], [ 432118.464352717390284, 437289.253616774687544 ], [ 432118.040382895153016, 437289.170183765992988 ], [ 432082.25715390604455, 437283.722413861192763 ], [ 432078.051581763138529, 437281.896254467777908 ], [ 432074.761908162210602, 437278.94604478997644 ], [ 432072.588414464669768, 437275.115259637997951 ], [ 432071.709945953509305, 437270.616394792275969 ], [ 432073.157786019437481, 437247.221137810382061 ], [ 432063.176880605926272, 437246.603458989295177 ], [ 432061.689504418231081, 437270.637569495360367 ] ] ] } },
{ "type": "Feature", "properties": { "bicycle": null, "foot": null, "highway": "residential", "horse": null, "motorcar": null, "name": "Wedgewood Grove", "surface": "asphalt", "osm_type": "way", "osm_id": 151231790, "source": null, "lane_markings": null, "lanes": null, "lit": null, "maxspeed": null, "sidewalk:both": null, "source_ref": null, "fixme": null, "oneway": null, "source:name": "OS_OpenData_Locator", "postal_code": null, "sidewalk:left": null }, "geometry": { "type": "Polygon", "coordinates": [ [ [ 432332.275348497612868, 438074.387017752393149 ], [ 432341.91310121427523, 438071.719861481687985 ], [ 432312.691642323625274, 437966.12830019753892 ], [ 432303.053889606962912, 437968.795456468244083 ], [ 432332.275348497612868, 438074.387017752393149 ] ] ] } },
{ "type": "Feature", "properties": { "bicycle": null, "foot": null, "highway": "tertiary", "horse": null, "motorcar": null, "name": "Wetherby Road", "surface": "asphalt", "osm_type": "way", "osm_id": 184041418, "source": null, "lane_markings": null, "lanes": "2", "lit": "yes", "maxspeed": "30 mph", "sidewalk:both": null, "source_ref": null, "fixme": null, "oneway": null, "source:name": null, "postal_code": null, "sidewalk:left": null }, "geometry": { "type": "Polygon", "coordinates": [ [ [ 434167.749268501298502, 437036.780303396459203 ], [ 434139.494623516860884, 437039.387870122154709 ], [ 434138.803581350541208, 437039.486599174153525 ], [ 434138.125808548356872, 437039.653664221346844 ], [ 434045.857776696211658, 437067.344013814756181 ], [ 434045.840609484934248, 437067.349189803993795 ], [ 433998.133608844713308, 437081.799740039976314 ], [ 433949.444355548010208, 437095.908455449680332 ], [ 433910.09150837699417, 437106.287008046521805 ], [ 433847.849043565976899, 437120.598361523356289 ], [ 433800.247696466569323, 437131.536890182236675 ], [ 433793.040657901437953, 437133.191766015428584 ], [ 433786.085008644440677, 437134.234689995006192 ], [ 433769.887346950359643, 437136.666113429469988 ], [ 433769.831763461697847, 437136.674685501493514 ], [ 433739.933310400461778, 437141.408659066946711 ], [ 433728.67738750949502, 437143.15043144999072 ], [ 433717.495336281310301, 437144.880801010411233 ], [ 433694.444205216306727, 437147.86309385986533 ], [ 433672.28116649761796, 437150.72644461231539 ], [ 433652.274408910481725, 437152.202860422548838 ], [ 433652.008793005603366, 437152.227558583777864 ], [ 433619.32412356173154, 437155.896127242420334 ], [ 433604.844937687914353, 437156.271912673371844 ], [ 433604.337767066026572, 437156.303526122064795 ], [ 433576.113301155390218, 437159.094291793589946 ], [ 433575.179206688248087, 437159.251044073142111 ], [ 433564.392421314085368, 437161.821895334403962 ], [ 433563.919241928262636, 437161.952360345341731 ], [ 433553.832499073294457, 437165.117952186323237 ], [ 433553.779174434370361, 437165.134921858669259 ], [ 433541.026476989907678, 437169.249462305568159 ], [ 433540.431942591676489, 437169.471513572440017 ], [ 433539.859963072813116, 437169.746499655302614 ], [ 433452.070676076575182, 437216.966181644878816 ], [ 433419.502822775451932, 437232.924785734969191 ], [ 433401.056302358279936, 437241.239855384104885 ], [ 433389.240459121356253, 437244.757520825194661 ], [ 433377.555151274253149, 437245.615372658823617 ], [ 433367.305150883330498, 437243.953435931238346 ], [ 433323.062312862137333, 437234.039242290542461 ], [ 433214.101416722929571, 437203.947842919966206 ], [ 433192.119957364338916, 437197.871799308806658 ], [ 433164.66081390256295, 437185.77432789671002 ], [ 433150.67260616045678, 437179.606813393183984 ], [ 433133.625254803686403, 437169.944124107540119 ], [ 433103.488879672018811, 437152.865667103906162 ], [ 433081.457030177058186, 437136.872456672717817 ], [ 433034.494895001873374, 437102.797773968777619 ], [ 433014.905046362255234, 437086.091195703716949 ], [ 433014.385981951025315, 437085.689006122294813 ], [ 432916.562779781699646, 437016.985009544063359 ], [ 432916.373920041951351, 437016.856913530442398 ], [ 432887.806452093238477, 436998.153270238079131 ], [ 432864.500277199607808, 436982.891382172296289 ], [ 432825.624698985891882, 436957.439455878862645 ], [ 432771.252518399443943, 436921.854865907051135 ], [ 432758.751265927567147, 436913.667992736329325 ], [ 432758.373459883325268, 436913.437304591469001 ], [ 432724.974795860529412, 436894.467097764660139 ], [ 432718.060401979077142, 436906.640476804634091 ], [ 432751.266514079004992, 436925.501315490284469 ], [ 432763.583375381422229, 436933.567433790885843 ], [ 432817.956675158522557, 436969.15275647805538 ], [ 432856.830897154228296, 436994.603794811933767 ], [ 432880.137038635730278, 437009.86566099798074 ], [ 432908.60980055964319, 437028.507298557204194 ], [ 433006.070642386970576, 437096.95679923723219 ], [ 433025.61940324032912, 437113.628337092930451 ], [ 433026.050731664872728, 437113.967892908782233 ], [ 433073.233326404704712, 437148.202535968797747 ], [ 433095.583046825428028, 437164.426493101753294 ], [ 433096.243941758933943, 437164.851732571201865 ], [ 433126.721965197939426, 437182.123803606664296 ], [ 433144.075009382679127, 437191.959764079831075 ], [ 433144.702737062470987, 437192.275054662663024 ], [ 433159.013655179471243, 437198.584854793793056 ], [ 433186.941770768200513, 437210.888938101765234 ], [ 433187.898979578749277, 437211.230050141690299 ], [ 433210.372238554060459, 437217.442035405780189 ], [ 433319.500850848504342, 437247.5797526325332 ], [ 433319.833624079881702, 437247.662934915686492 ], [ 433364.447831894329283, 437257.660347269440535 ], [ 433364.858123324112967, 437257.739506668120157 ], [ 433376.126682235393673, 437259.566592639603186 ], [ 433376.941020103578921, 437259.650138263299596 ], [ 433377.759543006250169, 437259.638043116545305 ], [ 433391.022647187463008, 437258.664360746275634 ], [ 433391.772411279438529, 437258.568397514347453 ], [ 433392.507456856546924, 437258.392150145198684 ], [ 433405.50158763199579, 437254.52369963779347 ], [ 433406.380886034225114, 437254.196316629298963 ], [ 433425.358601094281767, 437245.641802339465357 ], [ 433425.562144381343387, 437245.54608807322802 ], [ 433458.350013850955293, 437229.479673655761871 ], [ 433458.585748030454852, 437229.358574578771368 ], [ 433545.931100169837009, 437182.37767414766131 ], [ 433558.051310831389856, 437178.4671997394762 ], [ 433567.877056197554339, 437175.383518534363247 ], [ 433577.96323084004689, 437172.979646212654188 ], [ 433605.462323683663271, 437170.260603643371724 ], [ 433619.987823737901635, 437169.883616197737865 ], [ 433620.58699649159098, 437169.842291487904731 ], [ 433653.437792480515782, 437166.155076575640123 ], [ 433673.502907295536716, 437164.674354243790731 ], [ 433673.884646878228523, 437164.635638849751558 ], [ 433696.23864747287007, 437161.747616803913843 ], [ 433719.377959383476991, 437158.753915469278581 ], [ 433719.550279911141843, 437158.729439254384488 ], [ 433730.818322158127557, 437156.985762990312651 ], [ 433742.086356017680373, 437155.242116522742435 ], [ 433742.110605482885148, 437155.238320549950004 ], [ 433771.993405425513629, 437150.506825422111433 ], [ 433788.161527639837004, 437148.079836047021672 ], [ 433795.382824237574823, 437146.997081136971246 ], [ 433795.91142074263189, 437146.8969179468113 ], [ 433803.38139898981899, 437145.18166606297018 ], [ 433850.984884261211846, 437134.242646163271274 ], [ 433913.337334851967171, 437119.906003814539872 ], [ 433913.553839018626604, 437119.852578501275275 ], [ 433953.096370737242978, 437109.424000272352714 ], [ 433953.259540714672767, 437109.378849985136185 ], [ 434002.070686668972485, 437095.234813663701061 ], [ 434002.151703149138484, 437095.210806486371439 ], [ 434049.890559287799988, 437080.750607153342571 ], [ 434141.478899254871067, 437053.264238348638173 ], [ 434169.05152723757783, 437050.71961365750758 ], [ 434169.082906575116795, 437050.716646455402952 ], [ 434207.979022147483192, 437046.950292628549505 ], [ 434206.629697737284005, 437033.015468494908419 ], [ 434167.749268501298502, 437036.780303396459203 ] ] ] } },
{ "type": "Feature", "properties": { "bicycle": null, "foot": null, "highway": "residential", "horse": null, "motorcar": null, "name": "Parkwood View", "surface": "asphalt", "osm_type": "way", "osm_id": 193798465, "source": "bing", "lane_markings": null, "lanes": null, "lit": null, "maxspeed": null, "sidewalk:both": null, "source_ref": null, "fixme": null, "oneway": null, "source:name": "OS_OpenData_Locator", "postal_code": null, "sidewalk:left": null }, "geometry": { "type": "Polygon", "coordinates": [ [ [ 432217.205321861431003, 437520.067170653026551 ], [ 432226.051352212554775, 437524.730618629138917 ], [ 432252.959255063324235, 437473.689387650927529 ], [ 432244.113224712200463, 437469.025939674815163 ], [ 432217.205321861431003, 437520.067170653026551 ] ] ] } },
{ "type": "Feature", "properties": { "bicycle": null, "foot": null, "highway": "residential", "horse": null, "motorcar": null, "name": "Parkwood Way", "surface": "paving_stones", "osm_type": "way", "osm_id": 193798468, "source": "bing", "lane_markings": null, "lanes": null, "lit": null, "maxspeed": null, "sidewalk:both": null, "source_ref": null, "fixme": null, "oneway": null, "source:name": "OS_OpenData_Locator", "postal_code": null, "sidewalk:left": null }, "geometry": { "type": "Polygon", "coordinates": [ [ [ 432168.888614907220472, 437376.223499819054268 ], [ 432155.849291244230699, 437372.39854678499978 ], [ 432142.400154686241876, 437367.9094430959085 ], [ 432137.51381717476761, 437364.688782529847231 ], [ 432133.47424011642579, 437360.337563063832931 ], [ 432126.145598928793333, 437367.141313378349878 ], [ 432130.594967130862642, 437371.933938262751326 ], [ 432131.028117116715293, 437372.347759175929241 ], [ 432131.507649478502572, 437372.706807045207825 ], [ 432137.443948387168348, 437376.619513394020032 ], [ 432137.816514753270894, 437376.842498071375303 ], [ 432138.207021972863004, 437377.032318973506335 ], [ 432138.612525186385028, 437377.187544639280532 ], [ 432152.770493892603554, 437381.913245004892815 ], [ 432152.946158783335704, 437381.968306304595899 ], [ 432166.306654687912669, 437385.887471950554755 ], [ 432166.777839758782648, 437386.001204263593536 ], [ 432179.917661694111302, 437388.505832157039549 ], [ 432181.790084664826281, 437378.682694561604876 ], [ 432168.888614907220472, 437376.223499819054268 ] ] ] } },
{ "type": "Feature", "properties": { "bicycle": null, "foot": null, "highway": "residential", "horse": null, "motorcar": null, "name": "Tudor Lawns", "surface": null, "osm_type": "way", "osm_id": 193986898, "source": "bing", "lane_markings": null, "lanes": null, "lit": null, "maxspeed": null, "sidewalk:both": null, "source_ref": null, "fixme": null, "oneway": null, "source:name": "OS_OpenData_Locator", "postal_code": null, "sidewalk:left": null }, "geometry": { "type": "Polygon", "coordinates": [ [ [ 432981.844391956285108, 437122.588900277565699 ], [ 432925.482253398629837, 437201.146169636456762 ], [ 432933.607349973055534, 437206.975646942097228 ], [ 432989.9694815093535, 437128.418387369427364 ], [ 433014.425340738729574, 437094.332105349109042 ], [ 433006.300258207018487, 437088.502608471026178 ], [ 432981.844391956285108, 437122.588900277565699 ] ] ] } },
{ "type": "Feature", "properties": { "bicycle": null, "foot": null, "highway": "residential", "horse": null, "motorcar": null, "name": "Tudor Lawns", "surface": null, "osm_type": "way", "osm_id": 193986899, "source": "bing", "lane_markings": null, "lanes": null, "lit": null, "maxspeed": null, "sidewalk:both": null, "source_ref": null, "fixme": null, "oneway": null, "source:name": "OS_OpenData_Locator", "postal_code": null, "sidewalk:left": null }, "geometry": { "type": "Polygon", "coordinates": [ [ [ 432997.296585551288445, 437140.779809106898028 ], [ 433002.575172993645538, 437162.909619167621713 ], [ 433002.712257285311352, 437163.380616304581054 ], [ 433002.894834889331833, 437163.835913816757966 ], [ 433003.121148456877563, 437164.271129367058165 ], [ 433003.389019670838024, 437164.682073911710177 ], [ 433003.695870212861337, 437165.06479202065384 ], [ 433004.038746580190491, 437165.415599949308671 ], [ 433004.414348513644654, 437165.731121095421258 ], [ 433011.570332915347535, 437171.166732538316865 ], [ 433017.61909390432993, 437163.203536540677305 ], [ 433011.887320564303081, 437158.849741031066515 ], [ 433006.618526122067124, 437136.760986884415615 ], [ 433006.48492799536325, 437136.300126947520766 ], [ 433006.307768784055952, 437135.854195389198139 ], [ 433006.088680055981968, 437135.427299066795968 ], [ 433005.829679533606395, 437135.02336953044869 ], [ 433005.533152511809021, 437134.646126815234311 ], [ 433005.201829889789224, 437134.299045180669054 ], [ 433004.838763020932674, 437133.985321114654653 ], [ 432988.990726135496516, 437121.567886875825934 ], [ 432982.823140308784787, 437129.439410557388328 ], [ 432997.296585551288445, 437140.779809106898028 ] ] ] } },
{ "type": "Feature", "properties": { "bicycle": "yes", "foot": "yes", "highway": "residential", "horse": "no", "motorcar": null, "name": "Parkwood Gardens", "surface": "asphalt", "osm_type": "way", "osm_id": 279784604, "source": null, "lane_markings": null, "lanes": null, "lit": null, "maxspeed": "30 mph", "sidewalk:both": null, "source_ref": null, "fixme": null, "oneway": null, "source:name": null, "postal_code": "LS8 1JR", "sidewalk:left": null }, "geometry": { "type": "Polygon", "coordinates": [ [ [ 432296.639868064608891, 437430.356145707250107 ], [ 432286.648543203657027, 437430.772592009219807 ], [ 432288.546330654760823, 437476.304058736714069 ], [ 432298.537655515712686, 437475.887612434744369 ], [ 432296.639868064608891, 437430.356145707250107 ] ] ] } },
{ "type": "Feature", "properties": { "bicycle": null, "foot": null, "highway": "tertiary", "horse": null, "motorcar": null, "name": "Gledhow Lane", "surface": "asphalt", "osm_type": "way", "osm_id": 310464599, "source": null, "lane_markings": null, "lanes": "2", "lit": "yes", "maxspeed": "20 mph", "sidewalk:both": "yes", "source_ref": null, "fixme": null, "oneway": null, "source:name": null, "postal_code": null, "sidewalk:left": null }, "geometry": { "type": "Polygon", "coordinates": [ [ [ 431979.78812569740694, 437033.751218179531861 ], [ 431976.978821687109303, 437034.234970761404838 ], [ 431967.554015543893911, 437034.944294431363232 ], [ 431965.099480697943363, 437035.127679708122741 ], [ 431966.142553331854288, 437049.088768472254742 ], [ 431968.59899193077581, 437048.905240960710216 ], [ 431978.362736139562912, 437048.170409397280309 ], [ 431979.025285707844887, 437048.088622056238819 ], [ 431982.195082253834698, 437047.54279388760915 ], [ 431982.257372384076007, 437047.53177771740593 ], [ 432023.137901674723253, 437040.111307065351866 ], [ 432020.637534811510704, 437026.336396337836049 ], [ 431979.78812569740694, 437033.751218179531861 ] ] ] } },
{ "type": "Feature", "properties": { "bicycle": null, "foot": null, "highway": "tertiary_link", "horse": null, "motorcar": null, "name": "Gledhow Lane", "surface": "asphalt", "osm_type": "way", "osm_id": 310464600, "source": null, "lane_markings": "no", "lanes": null, "lit": null, "maxspeed": "20 mph", "sidewalk:both": null, "source_ref": null, "fixme": null, "oneway": null, "source:name": null, "postal_code": null, "sidewalk:left": null }, "geometry": { "type": "Polygon", "coordinates": [ [ [ 432373.233872245182283, 437001.299261116655543 ], [ 432371.358472746855114, 437007.88442561525153 ], [ 432380.976052813872229, 437010.623431576357689 ], [ 432382.851400214363821, 437004.038450005173218 ], [ 432384.881904973823112, 436996.909343329141848 ], [ 432375.264394244470168, 436994.170093911583535 ], [ 432373.233872245182283, 437001.299261116655543 ] ] ] } },
{ "type": "Feature", "properties": { "bicycle": null, "foot": null, "highway": "tertiary_link", "horse": null, "motorcar": null, "name": "Gledhow Lane", "surface": "asphalt", "osm_type": "way", "osm_id": 310464604, "source": null, "lane_markings": "no", "lanes": null, "lit": null, "maxspeed": "20 mph", "sidewalk:both": null, "source_ref": null, "fixme": null, "oneway": null, "source:name": null, "postal_code": null, "sidewalk:left": null }, "geometry": { "type": "Polygon", "coordinates": [ [ [ 432437.782009994494729, 437021.353841417178046 ], [ 432438.097963961830828, 437020.676412536762655 ], [ 432438.1037965483265, 437020.663861720939167 ], [ 432440.389095217804424, 437015.728394377045333 ], [ 432431.314678570604883, 437011.526613502996042 ], [ 432429.032287508249283, 437016.455801405129023 ], [ 432428.714504303818103, 437017.137152306269854 ], [ 432428.705041776469443, 437017.157560387859121 ], [ 432426.747038033150602, 437021.405452127801254 ], [ 432435.82871456205612, 437025.591518470318988 ], [ 432437.782009994494729, 437021.353841417178046 ] ] ] } },
{ "type": "Feature", "properties": { "bicycle": null, "foot": null, "highway": "tertiary", "horse": null, "motorcar": null, "name": "Gledhow Lane", "surface": "asphalt", "osm_type": "way", "osm_id": 391867528, "source": null, "lane_markings": null, "lanes": "1", "lit": "yes", "maxspeed": "20 mph", "sidewalk:both": null, "source_ref": null, "fixme": null, "oneway": "yes", "source:name": null, "postal_code": null, "sidewalk:left": "yes" }, "geometry": { "type": "Polygon", "coordinates": [ [ [ 432047.379795930115506, 437040.298004751035478 ], [ 432048.040827037068084, 437040.268653587321751 ], [ 432048.696133580117021, 437040.177018715068698 ], [ 432049.339860280102585, 437040.023918908031192 ], [ 432049.966255325765815, 437039.810722139838617 ], [ 432050.569721767213196, 437039.539333361084573 ], [ 432051.144867525727022, 437039.212177478300873 ], [ 432079.010846235440113, 437021.56799429183593 ], [ 432122.624818248092197, 436994.341387029213365 ], [ 432150.47424533526646, 436978.75853758957237 ], [ 432165.664724623668008, 436979.647594268375542 ], [ 432240.21830478310585, 436988.535523755126633 ], [ 432247.703455590875819, 436989.8863059306168 ], [ 432301.751871855347417, 436999.645477301150095 ], [ 432374.627111322421115, 437016.082393539429177 ], [ 432385.780123526114039, 437018.589762980351225 ], [ 432428.746036351891235, 437030.064973732165527 ], [ 432471.705502526194323, 437052.303325899934862 ], [ 432472.213935601175763, 437052.541178603074513 ], [ 432472.739791692001745, 437052.737528983561788 ], [ 432482.190189270942938, 437055.840527961787302 ], [ 432482.838963433285244, 437056.019498183566611 ], [ 432483.501926069904584, 437056.135337712534238 ], [ 432484.172948994266335, 437056.18697576993145 ], [ 432484.845829513506033, 437056.173935032333247 ], [ 432493.209234513342381, 437055.608810956124216 ], [ 432493.932142772071529, 437055.522010459681042 ], [ 432494.642124178411905, 437055.36058840615442 ], [ 432495.331497448205482, 437055.126291219668929 ], [ 432508.268548372085206, 437049.964280559390318 ], [ 432503.080180037184618, 437036.961171930248383 ], [ 432491.166292985726614, 437041.714930134243332 ], [ 432485.262276038294658, 437042.113870771892834 ], [ 432477.641825409431476, 437039.611727309937123 ], [ 432434.505884473386686, 437017.282021402206738 ], [ 432433.814812065334991, 437016.97049972723471 ], [ 432433.094106084201485, 437016.735532248974778 ], [ 432389.257823924534023, 437005.027865792624652 ], [ 432388.986978793051094, 437004.961280500981957 ], [ 432377.705030965909828, 437002.424926108156797 ], [ 432304.684663995285518, 436985.955276548687834 ], [ 432304.388343268830795, 436985.895136037550401 ], [ 432250.190777221811004, 436976.109033659857232 ], [ 432242.498280087835155, 436974.720833403116558 ], [ 432242.0837689160835, 436974.658780604077037 ], [ 432167.112740329001099, 436965.721084866265301 ], [ 432166.693091420514975, 436965.683824170613661 ], [ 432149.250218709523324, 436964.662941143382341 ], [ 432148.587143153359648, 436964.655595712421928 ], [ 432147.92634773964528, 436964.711026478325948 ], [ 432147.273762408061884, 436964.828736008668784 ], [ 432146.635243421362247, 436965.007667984988075 ], [ 432146.016520811710507, 436965.24621668207692 ], [ 432145.423146959859878, 436965.542241377814207 ], [ 432115.642226332623977, 436982.20583739556605 ], [ 432115.353460493148305, 436982.376625804346986 ], [ 432071.578179029515013, 437009.703932656324469 ], [ 432071.540308151801582, 437009.727742562012281 ], [ 432045.379682974598836, 437026.292129828187171 ], [ 432021.908072096470278, 437026.22388129302999 ], [ 432021.867364389763679, 437040.223822110157926 ], [ 432047.379795930115506, 437040.298004751035478 ] ] ] } },
{ "type": "Feature", "properties": { "bicycle": null, "foot": null, "highway": "residential", "horse": null, "motorcar": null, "name": "Gledhow Avenue", "surface": "asphalt", "osm_type": "way", "osm_id": 544653031, "source": "npe", "lane_markings": null, "lanes": null, "lit": null, "maxspeed": null, "sidewalk:both": null, "source_ref": null, "fixme": null, "oneway": null, "source:name": null, "postal_code": null, "sidewalk:left": null }, "geometry": { "type": "Polygon", "coordinates": [ [ [ 431926.259048028208781, 437592.741266979952343 ], [ 431926.680850196222309, 437593.037754641030915 ], [ 431927.130941796407569, 437593.289229398360476 ], [ 431927.60453705873806, 437593.493017351080198 ], [ 431928.09660030156374, 437593.646951646194793 ], [ 431928.601899475383107, 437593.749395518912934 ], [ 432012.483022033236921, 437606.293581290985458 ], [ 432013.962046615662985, 437596.403561761952005 ], [ 431931.38531107356539, 437584.054443396511488 ], [ 431927.363259401521645, 437580.905395833891816 ], [ 431921.198531924746931, 437588.779158285004087 ], [ 431926.259048028208781, 437592.741266979952343 ] ] ] } },
{ "type": "Feature", "properties": { "bicycle": null, "foot": null, "highway": "tertiary", "horse": null, "motorcar": null, "name": "Gledhow Lane", "surface": "asphalt", "osm_type": "way", "osm_id": 544653037, "source": null, "lane_markings": null, "lanes": "1", "lit": "yes", "maxspeed": "20 mph", "sidewalk:both": null, "source_ref": null, "fixme": null, "oneway": "yes", "source:name": null, "postal_code": null, "sidewalk:left": "yes" }, "geometry": { "type": "Polygon", "coordinates": [ [ [ 432492.809347037575208, 437033.960913492774125 ], [ 432480.18690449395217, 437029.038491788727697 ], [ 432466.142421179858502, 437022.032757527951617 ], [ 432439.178595234348904, 437007.468525808886625 ], [ 432438.637819586496335, 437007.20577683323063 ], [ 432438.076491980988067, 437006.990401243208908 ], [ 432393.741902081354056, 436992.13046028453391 ], [ 432393.417522468080278, 436992.030416467459872 ], [ 432381.973375082656275, 436988.802572106476873 ], [ 432381.445186033146456, 436988.675498631841037 ], [ 432307.64683190593496, 436973.924510163546074 ], [ 432307.521267802570947, 436973.900602194946259 ], [ 432252.233340972627047, 436963.895725559559651 ], [ 432245.278795807505958, 436962.635270665574353 ], [ 432244.931242334540002, 436962.581259848666377 ], [ 432168.156898380373605, 436952.618641010369174 ], [ 432167.360722319863271, 436952.561220682109706 ], [ 432154.980511483794544, 436952.376158359344117 ], [ 432143.096273004543036, 436952.205622928508092 ], [ 432142.456980559974909, 436952.225673544220626 ], [ 432141.822186974633951, 436952.303993151115719 ], [ 432141.197192086372524, 436952.439927865401842 ], [ 432140.587213924794924, 436952.632342779601458 ], [ 432139.997345145908184, 436952.879631438001525 ], [ 432139.432510514336172, 436953.179729248397052 ], [ 432108.838690895936452, 436971.273108106222935 ], [ 432108.520951556565706, 436971.472705253923777 ], [ 432066.068706495047081, 436999.754873363941442 ], [ 432055.067294871318154, 437007.08642335946206 ], [ 432018.527225042227656, 437027.083242167776916 ], [ 432025.248211444006301, 437039.364461235411 ], [ 432062.0558620642405, 437019.221206894202624 ], [ 432062.57727154152235, 437018.905615094059613 ], [ 432073.831255204684567, 437011.405746197560802 ], [ 432116.126887473743409, 436983.22791530971881 ], [ 432144.86428785714088, 436966.232434555422515 ], [ 432154.77335411083186, 436966.374625782947987 ], [ 432166.751742705353536, 436966.553681571735069 ], [ 432242.955182862468064, 436976.442217107862234 ], [ 432249.737571557867341, 436977.671470038301777 ], [ 432304.965431965945754, 436987.66547734872438 ], [ 432378.434551304613706, 437002.350657593691722 ], [ 432389.453668480331544, 437005.458621345052961 ], [ 432433.055640179547481, 437020.073005432030186 ], [ 432459.5892030056566, 437034.404834977001883 ], [ 432459.79130748892203, 437034.509789375646506 ], [ 432474.222505710960831, 437041.708426559169311 ], [ 432474.803841022890992, 437041.966133785492275 ], [ 432488.339946105028503, 437047.244859928556252 ], [ 432488.965648688899819, 437047.455451658752281 ], [ 432489.608407928084489, 437047.60616051958641 ], [ 432504.399557482742239, 437050.345666591951158 ], [ 432506.949170926527586, 437036.579785897687543 ], [ 432492.809347037575208, 437033.960913492774125 ] ] ] } },
{ "type": "Feature", "properties": { "bicycle": null, "foot": null, "highway": "residential", "horse": null, "motorcar": null, "name": null, "surface": null, "osm_type": "way", "osm_id": 701566399, "source": "DigitalGlobe", "lane_markings": null, "lanes": null, "lit": null, "maxspeed": null, "sidewalk:both": null, "source_ref": null, "fixme": null, "oneway": null, "source:name": null, "postal_code": null, "sidewalk:left": null }, "geometry": { "type": "Polygon", "coordinates": [ [ [ 432058.802277862560004, 437699.208608681045007 ], [ 432049.237895012949593, 437696.289262743026484 ], [ 432030.906409250863362, 437756.347012578335125 ], [ 432040.470792100473773, 437759.266358516353648 ], [ 432058.802277862560004, 437699.208608681045007 ] ] ] } }
]
}
