{
"type": "FeatureCollection",
"name": "se3339_rgb_250_03_osm_buildings",
"crs": { "type": "name", "properties": { "name": "urn:ogc:def:crs:EPSG::27700" } },
"features": [
{ "type": "Feature", "properties": { "addr:city": "Leeds", "addr:postcode": "LS8 2EH", "building": "house", "ref:GB:uprn": "72153641;72153642;72153643", "source:building": "bing", "osm_type": "way", "osm_id": 150177080, "source:addr:postcode": null, "addr:country": null }, "geometry": { "type": "Polygon", "coordinates": [ [ [ 433022.189901350298896, 439083.589268399518915 ], [ 433024.785114095662721, 439084.108255840605125 ], [ 433024.901115605840459, 439083.519368178327568 ], [ 433032.194182455423288, 439084.950474510085769 ], [ 433034.595539288711734, 439072.839503256138414 ], [ 433019.838699810090475, 439069.920459187938832 ], [ 433019.197443334676791, 439073.15375583153218 ], [ 433024.065974852303043, 439074.12270044896286 ], [ 433022.960710284649394, 439079.711547338403761 ], [ 433022.189901350298896, 439083.589268399518915 ] ] ] } },
{ "type": "Feature", "properties": { "addr:city": "Leeds", "addr:postcode": "LS8 2EH", "building": "house", "ref:GB:uprn": "72153640", "source:building": "bing", "osm_type": "way", "osm_id": 150177081, "source:addr:postcode": "ONSUD;OS Open UPRN", "addr:country": null }, "geometry": { "type": "Polygon", "coordinates": [ [ [ 433024.517321294755675, 439068.896419136319309 ], [ 433030.072918249643408, 439068.535031356848776 ], [ 433029.96023078187136, 439066.787373661180027 ], [ 433034.462622601888143, 439066.496451146667823 ], [ 433033.733177590649575, 439055.175639627035707 ], [ 433029.230774919502437, 439055.466562880086713 ], [ 433029.141500931407791, 439054.130751442746259 ], [ 433023.592544504848775, 439054.481060797697864 ], [ 433024.084574494219851, 439062.150699298013933 ], [ 433019.055614072480239, 439062.471300018485636 ], [ 433019.405200258188415, 439067.948010250693187 ], [ 433024.440733932540752, 439067.627456306945533 ], [ 433024.517321294755675, 439068.896419136319309 ] ] ] } },
{ "type": "Feature", "properties": { "addr:city": "Leeds", "addr:postcode": "LS8 2EH", "building": "house", "ref:GB:uprn": "72153639", "source:building": "bing", "osm_type": "way", "osm_id": 150177087, "source:addr:postcode": "ONSUD;OS Open UPRN", "addr:country": null }, "geometry": { "type": "Polygon", "coordinates": [ [ [ 433031.891700194566511, 439050.400505892816 ], [ 433029.833197710337117, 439037.212196225067601 ], [ 433016.001123703550547, 439039.362250674748793 ], [ 433018.059664135565981, 439052.550554144778289 ], [ 433031.891700194566511, 439050.400505892816 ] ] ] } },
{ "type": "Feature", "properties": { "addr:city": null, "addr:postcode": null, "building": "garage", "ref:GB:uprn": null, "source:building": "bing", "osm_type": "way", "osm_id": 150177100, "source:addr:postcode": null, "addr:country": null }, "geometry": { "type": "Polygon", "coordinates": [ [ [ 432994.862905347719789, 439043.79745163267944 ], [ 433005.261196851555724, 439039.676001553656533 ], [ 433003.638515997154173, 439035.592264909064397 ], [ 432993.240216934529599, 439039.713718602783047 ], [ 432994.862905347719789, 439043.79745163267944 ] ] ] } },
{ "type": "Feature", "properties": { "addr:city": "Leeds", "addr:postcode": "LS8 2EH", "building": "house", "ref:GB:uprn": "72153637", "source:building": "bing", "osm_type": "way", "osm_id": 150177102, "source:addr:postcode": "ONSUD;OS Open UPRN", "addr:country": null }, "geometry": { "type": "Polygon", "coordinates": [ [ [ 432992.806957952328958, 439002.203184027923271 ], [ 433003.036179237416945, 438994.074992140522227 ], [ 432994.290156379225664, 438983.120529972598888 ], [ 432984.06092686887132, 438991.24874092428945 ], [ 432992.806957952328958, 439002.203184027923271 ] ] ] } },
{ "type": "Feature", "properties": { "addr:city": null, "addr:postcode": null, "building": "garage", "ref:GB:uprn": null, "source:building": "bing", "osm_type": "way", "osm_id": 150177104, "source:addr:postcode": null, "addr:country": null }, "geometry": { "type": "Polygon", "coordinates": [ [ [ 432995.152963024855126, 439146.47499053098727 ], [ 433001.540574106154963, 439141.935859304503538 ], [ 432998.146294612088241, 439137.172052626963705 ], [ 432991.752023079316132, 439141.722268110141158 ], [ 432995.152963024855126, 439146.47499053098727 ] ] ] } },
{ "type": "Feature", "properties": { "addr:city": null, "addr:postcode": null, "building": "house", "ref:GB:uprn": null, "source:building": "bing", "osm_type": "way", "osm_id": 150177106, "source:addr:postcode": null, "addr:country": null }, "geometry": { "type": "Polygon", "coordinates": [ [ [ 433025.34027509362204, 439098.687907265382819 ], [ 433028.542138748511206, 439086.882992203580216 ], [ 433015.428003905108199, 439083.341331924777478 ], [ 433012.226171236834489, 439095.146255803992972 ], [ 433025.34027509362204, 439098.687907265382819 ] ] ] } },
{ "type": "Feature", "properties": { "addr:city": null, "addr:postcode": null, "building": "garage", "ref:GB:uprn": null, "source:building": "bing", "osm_type": "way", "osm_id": 150177115, "source:addr:postcode": null, "addr:country": null }, "geometry": { "type": "Polygon", "coordinates": [ [ [ 433004.749652136408258, 439071.193818226456642 ], [ 433009.298477569944225, 439071.782193453400396 ], [ 433010.439385774952825, 439063.000284456764348 ], [ 433005.883972773561254, 439062.411861804546788 ], [ 433004.749652136408258, 439071.193818226456642 ] ] ] } },
{ "type": "Feature", "properties": { "addr:city": "Leeds", "addr:postcode": "LS8 2EH", "building": "house", "ref:GB:uprn": "72153638", "source:building": "bing", "osm_type": "way", "osm_id": 150177141, "source:addr:postcode": "ONSUD;OS Open UPRN", "addr:country": null }, "geometry": { "type": "Polygon", "coordinates": [ [ [ 433025.591683314472903, 439028.492484254296869 ], [ 433019.500555337406695, 439018.012876602471806 ], [ 433006.796416457276791, 439025.355865207850002 ], [ 433009.591752527223434, 439030.159962393227033 ], [ 433011.818105400830973, 439028.873847649083473 ], [ 433015.11391401453875, 439034.549343153717928 ], [ 433025.591683314472903, 439028.492484254296869 ] ] ] } },
{ "type": "Feature", "properties": { "addr:city": null, "addr:postcode": null, "building": "house", "ref:GB:uprn": null, "source:building": "bing", "osm_type": "way", "osm_id": 150177167, "source:addr:postcode": null, "addr:country": null }, "geometry": { "type": "Polygon", "coordinates": [ [ [ 432986.941926452098414, 439087.613523622043431 ], [ 432998.68339666700922, 439089.877011786797084 ], [ 432999.571045451564714, 439085.288012991659343 ], [ 433012.284966417239048, 439087.736409754841588 ], [ 433013.507000617857557, 439081.447412744048052 ], [ 432996.5682653306867, 439078.179271130240522 ], [ 432995.912614028900862, 439081.590493699419312 ], [ 432988.395998735737521, 439080.135617032297887 ], [ 432986.941926452098414, 439087.613523622043431 ] ] ] } },
{ "type": "Feature", "properties": { "addr:city": "Leeds", "addr:postcode": "LS17 8TR", "building": "house", "ref:GB:uprn": "72182879", "source:building": null, "osm_type": "way", "osm_id": 674084291, "source:addr:postcode": "ONSUD;OS Open UPRN", "addr:country": null }, "geometry": { "type": "Polygon", "coordinates": [ [ [ 433139.286500731133856, 439957.292232967913151 ], [ 433134.94804787542671, 439954.057093900628388 ], [ 433126.500964460079558, 439965.313023428199813 ], [ 433130.832834635162726, 439968.548108185059391 ], [ 433131.642966887971852, 439967.474565436481498 ], [ 433135.88971313968068, 439970.653420079848729 ], [ 433141.999199955258518, 439962.518647350370884 ], [ 433144.492292216396891, 439964.383295555366203 ], [ 433148.277499622257892, 439959.3475120580988 ], [ 433141.531076502578799, 439954.303951739217155 ], [ 433139.286500731133856, 439957.292232967913151 ] ] ] } },
{ "type": "Feature", "properties": { "addr:city": "Leeds", "addr:postcode": "LS17 8TR", "building": "house", "ref:GB:uprn": "72182878", "source:building": null, "osm_type": "way", "osm_id": 674084292, "source:addr:postcode": "ONSUD;OS Open UPRN", "addr:country": null }, "geometry": { "type": "Polygon", "coordinates": [ [ [ 433155.235785789496731, 439972.559459339594468 ], [ 433148.620237660768908, 439967.616953733726405 ], [ 433147.345242326555308, 439969.310289335087873 ], [ 433142.902111834730022, 439965.99651600071229 ], [ 433137.284032696043141, 439973.478298976318911 ], [ 433148.342623293458018, 439981.745688914088532 ], [ 433155.235785789496731, 439972.559459339594468 ] ] ] } },
{ "type": "Feature", "properties": { "addr:city": "Leeds", "addr:postcode": "LS17 8TR", "building": "house", "ref:GB:uprn": "72182877", "source:building": null, "osm_type": "way", "osm_id": 674084293, "source:addr:postcode": null, "addr:country": null }, "geometry": { "type": "Polygon", "coordinates": [ [ [ 433168.589263308385853, 439980.019781110924669 ], [ 433168.487293504178524, 439976.770110373618081 ], [ 433161.927378868684173, 439976.979565790737979 ], [ 433162.029353231249843, 439980.229236369486898 ], [ 433157.423611019155942, 439980.374650136684068 ], [ 433157.826674636336975, 439993.12851408473216 ], [ 433172.426860853622202, 439992.664454195997678 ], [ 433172.023837053915486, 439979.910588845959865 ], [ 433168.589263308385853, 439980.019781110924669 ] ] ] } },
{ "type": "Feature", "properties": { "addr:city": null, "addr:postcode": null, "building": "garage", "ref:GB:uprn": null, "source:building": null, "osm_type": "way", "osm_id": 674084294, "source:addr:postcode": null, "addr:country": null }, "geometry": { "type": "Polygon", "coordinates": [ [ [ 433176.972208969818894, 439992.685525559005328 ], [ 433177.23032708815299, 440000.82085242960602 ], [ 433183.204548222769517, 440000.640648482716642 ], [ 433182.939941516669933, 439992.494148661266081 ], [ 433176.972208969818894, 439992.685525559005328 ] ] ] } },
{ "type": "Feature", "properties": { "addr:city": null, "addr:postcode": null, "building": "garage", "ref:GB:uprn": null, "source:building": null, "osm_type": "way", "osm_id": 674084295, "source:addr:postcode": null, "addr:country": null }, "geometry": { "type": "Polygon", "coordinates": [ [ [ 433182.757682752795517, 439986.651425516698509 ], [ 433176.78336492809467, 439986.842756075202487 ], [ 433176.972208969818894, 439992.685525559005328 ], [ 433182.939941516669933, 439992.494148661266081 ], [ 433182.757682752795517, 439986.651425516698509 ] ] ] } },
{ "type": "Feature", "properties": { "addr:city": null, "addr:postcode": null, "building": "house", "ref:GB:uprn": null, "source:building": null, "osm_type": "way", "osm_id": 674089216, "source:addr:postcode": null, "addr:country": null }, "geometry": { "type": "Polygon", "coordinates": [ [ [ 433193.198017993534449, 439921.568414423149079 ], [ 433193.218211833329406, 439923.359929815051146 ], [ 433201.494249911920633, 439923.273948688758537 ], [ 433201.480637161468621, 439921.482479884522036 ], [ 433205.145008689607494, 439921.441699848044664 ], [ 433205.247562879987527, 439931.100260381936096 ], [ 433202.951560017943848, 439931.128488189191557 ], [ 433203.063093337696046, 439941.376818855293095 ], [ 433210.424694745917805, 439941.295497489161789 ], [ 433210.176255236030556, 439916.960000710911117 ], [ 433205.097469410626218, 439917.013001437066123 ], [ 433205.013574140961282, 439908.433847391745076 ], [ 433195.217770638875663, 439908.542429966037162 ], [ 433195.273428326298017, 439913.683283946593292 ], [ 433182.254137722367886, 439913.813553018029779 ], [ 433182.336541719152592, 439921.680597430095077 ], [ 433193.198017993534449, 439921.568414423149079 ] ] ] } },
{ "type": "Feature", "properties": { "addr:city": "Leeds", "addr:postcode": "LS17 8TT", "building": "house", "ref:GB:uprn": "72182856", "source:building": null, "osm_type": "way", "osm_id": 674089217, "source:addr:postcode": "ONSUD;OS Open UPRN", "addr:country": null }, "geometry": { "type": "Polygon", "coordinates": [ [ [ 433158.401516909711063, 439911.007626100094058 ], [ 433154.919389141199645, 439910.393267524195835 ], [ 433152.90530088043306, 439921.705821969197132 ], [ 433162.35949523182353, 439923.386104129138403 ], [ 433163.640538429259323, 439916.196307091624476 ], [ 433166.518201203842182, 439916.706252698088065 ], [ 433167.580170129076578, 439910.727697609574534 ], [ 433164.702503765758593, 439910.217751364340074 ], [ 433165.421707948087715, 439906.195038751582615 ], [ 433159.449532964383252, 439905.140235870494507 ], [ 433158.401516909711063, 439911.007626100094058 ] ] ] } },
{ "type": "Feature", "properties": { "addr:city": null, "addr:postcode": null, "building": "garage", "ref:GB:uprn": null, "source:building": null, "osm_type": "way", "osm_id": 674089218, "source:addr:postcode": null, "addr:country": null }, "geometry": { "type": "Polygon", "coordinates": [ [ [ 433144.132394571090117, 439927.863460795255378 ], [ 433138.205702210660093, 439927.821521335979924 ], [ 433138.159884560736828, 439934.296840244787745 ], [ 433144.086568697937764, 439934.338779680547304 ], [ 433144.132394571090117, 439927.863460795255378 ] ] ] } },
{ "type": "Feature", "properties": { "addr:city": "Leeds", "addr:postcode": "LS17 8TL", "building": "house", "ref:GB:uprn": "72182827", "source:building": null, "osm_type": "way", "osm_id": 674089219, "source:addr:postcode": "ONSUD;OS Open UPRN", "addr:country": null }, "geometry": { "type": "Polygon", "coordinates": [ [ [ 433114.726678123464808, 439931.727760483743623 ], [ 433114.703355665667914, 439943.399329794337973 ], [ 433130.878841827448923, 439943.446971189579926 ], [ 433130.885868671350181, 439939.663999155396596 ], [ 433128.208589456568006, 439939.656186868320219 ], [ 433128.224920995300636, 439931.767589524504729 ], [ 433114.726678123464808, 439931.727760483743623 ] ] ] } },
{ "type": "Feature", "properties": { "addr:city": null, "addr:postcode": null, "building": "garage", "ref:GB:uprn": null, "source:building": null, "osm_type": "way", "osm_id": 674089220, "source:addr:postcode": null, "addr:country": null }, "geometry": { "type": "Polygon", "coordinates": [ [ [ 433111.286373281967826, 439963.347299413755536 ], [ 433116.084164284286089, 439964.883304660092108 ], [ 433117.510218108596746, 439960.431648265221156 ], [ 433112.71234429301694, 439958.906767557258718 ], [ 433111.286373281967826, 439963.347299413755536 ] ] ] } },
{ "type": "Feature", "properties": { "addr:city": "Leeds", "addr:postcode": "LS17 8TL", "building": "house", "ref:GB:uprn": "72182826", "source:building": null, "osm_type": "way", "osm_id": 674089221, "source:addr:postcode": "ONSUD;OS Open UPRN", "addr:country": null }, "geometry": { "type": "Polygon", "coordinates": [ [ [ 433116.085366660146974, 439954.480003441800363 ], [ 433116.129322388616856, 439958.496993175940588 ], [ 433124.0434341832879, 439958.419442748418078 ], [ 433123.999563954304904, 439954.391326936660334 ], [ 433127.032354333554395, 439954.357145422254689 ], [ 433126.965388568001799, 439948.014547025901265 ], [ 433123.932594069454353, 439948.04872859979514 ], [ 433123.925104063062463, 439947.24756514467299 ], [ 433113.866270645870827, 439947.354457226349041 ], [ 433113.947323792846873, 439954.498265310656279 ], [ 433116.085366660146974, 439954.480003441800363 ] ] ] } },
{ "type": "Feature", "properties": { "addr:city": null, "addr:postcode": null, "building": "garage", "ref:GB:uprn": null, "source:building": null, "osm_type": "way", "osm_id": 674089222, "source:addr:postcode": null, "addr:country": null }, "geometry": { "type": "Polygon", "coordinates": [ [ [ 433110.42551973531954, 439968.804341620998457 ], [ 433115.857706769951619, 439971.791281352867372 ], [ 433117.170457026921213, 439969.408359103603289 ], [ 433111.7382680150331, 439966.421417857869528 ], [ 433110.42551973531954, 439968.804341620998457 ] ] ] } },
{ "type": "Feature", "properties": { "addr:city": "Leeds", "addr:postcode": "LS17 8TL", "building": "house", "ref:GB:uprn": "72182824", "source:building": null, "osm_type": "way", "osm_id": 674089223, "source:addr:postcode": "ONSUD;OS Open UPRN", "addr:country": null }, "geometry": { "type": "Polygon", "coordinates": [ [ [ 433113.812034052505624, 439975.493079321226105 ], [ 433115.857706769951619, 439971.791281352867372 ], [ 433110.42551973531954, 439968.804341620998457 ], [ 433108.379850085359067, 439972.506141940131783 ], [ 433105.948751311807428, 439971.176024990039878 ], [ 433101.904019675625023, 439978.502074052928947 ], [ 433113.548225209640805, 439984.893135896068998 ], [ 433117.592969873570837, 439977.567096807528287 ], [ 433113.812034052505624, 439975.493079321226105 ] ] ] } },
{ "type": "Feature", "properties": { "addr:city": "Leeds", "addr:postcode": "LS17 8TL", "building": "house", "ref:GB:uprn": "72182822", "source:building": null, "osm_type": "way", "osm_id": 674089224, "source:addr:postcode": "ONSUD;OS Open UPRN", "addr:country": null }, "geometry": { "type": "Polygon", "coordinates": [ [ [ 433102.817883673822507, 439983.226184018072672 ], [ 433100.895946623524651, 439987.106886699446477 ], [ 433098.496720347437076, 439985.921643761568703 ], [ 433094.699611041811295, 439993.583245048648678 ], [ 433103.214933726179879, 439997.78249782056082 ], [ 433107.005475975107402, 439990.120856874855235 ], [ 433104.068759121932089, 439988.664774607867002 ], [ 433104.575987431686372, 439987.633592285797931 ], [ 433106.896513438492548, 439988.784902432234958 ], [ 433108.304647477983963, 439985.935337553615682 ], [ 433102.817883673822507, 439983.226184018072672 ] ] ] } },
{ "type": "Feature", "properties": { "addr:city": "Leeds", "addr:postcode": "LS17 8TL", "building": "house", "ref:GB:uprn": "72182820", "source:building": null, "osm_type": "way", "osm_id": 674089225, "source:addr:postcode": "ONSUD;OS Open UPRN", "addr:country": null }, "geometry": { "type": "Polygon", "coordinates": [ [ [ 433098.683909606479574, 440011.558502590400167 ], [ 433103.295063242258038, 440002.267057741759345 ], [ 433093.42278164770687, 439997.401750287157483 ], [ 433088.818220930930693, 440006.693251242511906 ], [ 433098.683909606479574, 440011.558502590400167 ] ] ] } },
{ "type": "Feature", "properties": { "addr:city": null, "addr:postcode": null, "building": "garage", "ref:GB:uprn": null, "source:building": null, "osm_type": "way", "osm_id": 674089342, "source:addr:postcode": null, "addr:country": null }, "geometry": { "type": "Polygon", "coordinates": [ [ [ 433078.945293623954058, 439964.665346634341404 ], [ 433084.410624654497951, 439964.826344006345607 ], [ 433084.528258738922887, 439961.211051555932499 ], [ 433079.05642420204822, 439961.038881623302586 ], [ 433078.945293623954058, 439964.665346634341404 ] ] ] } },
{ "type": "Feature", "properties": { "addr:city": "Leeds", "addr:postcode": "LS17 8TL", "building": "house", "ref:GB:uprn": "72182825", "source:building": null, "osm_type": "way", "osm_id": 674089343, "source:addr:postcode": "ONSUD;OS Open UPRN", "addr:country": null }, "geometry": { "type": "Polygon", "coordinates": [ [ [ 433081.133706527296454, 439966.828225172474049 ], [ 433072.961534478818066, 439962.464538965024985 ], [ 433071.195068685279693, 439965.756645224057138 ], [ 433072.092855873692315, 439966.241425939952023 ], [ 433068.639886110730004, 439972.681559435091913 ], [ 433075.907681611948647, 439976.560410095844418 ], [ 433081.133706527296454, 439966.828225172474049 ] ] ] } },
{ "type": "Feature", "properties": { "addr:city": "Leeds", "addr:postcode": "LS17 8TL", "building": "house", "ref:GB:uprn": "72182823", "source:building": null, "osm_type": "way", "osm_id": 674089344, "source:addr:postcode": "ONSUD;OS Open UPRN", "addr:country": null }, "geometry": { "type": "Polygon", "coordinates": [ [ [ 433065.914774503326043, 439972.929355202242732 ], [ 433062.601837659545708, 439979.103444968233816 ], [ 433070.125141901953612, 439983.128735465812497 ], [ 433073.438164564897306, 439976.943525000358932 ], [ 433065.914774503326043, 439972.929355202242732 ] ] ] } },
{ "type": "Feature", "properties": { "addr:city": null, "addr:postcode": null, "building": "garage", "ref:GB:uprn": null, "source:building": null, "osm_type": "way", "osm_id": 674089345, "source:addr:postcode": null, "addr:country": null }, "geometry": { "type": "Polygon", "coordinates": [ [ [ 433059.076414409733843, 439979.96868069737684 ], [ 433060.382948147132993, 439977.530066233011894 ], [ 433055.670997096225619, 439975.015589226852171 ], [ 433054.364465154649224, 439977.454204992624 ], [ 433059.076414409733843, 439979.96868069737684 ] ] ] } },
{ "type": "Feature", "properties": { "addr:city": "Leeds", "addr:postcode": "LS17 8TL", "building": "house", "ref:GB:uprn": "72182821", "source:building": null, "osm_type": "way", "osm_id": 674089346, "source:addr:postcode": "ONSUD;OS Open UPRN", "addr:country": null }, "geometry": { "type": "Polygon", "coordinates": [ [ [ 433058.619620716199279, 439985.0391554745147 ], [ 433055.467388190794736, 439983.359052051673643 ], [ 433054.094295130809769, 439985.908463433734141 ], [ 433051.853081433335319, 439984.702106770826504 ], [ 433050.513193912396673, 439987.207247397745959 ], [ 433058.285509730747435, 439991.36779459612444 ], [ 433059.072137376177125, 439989.893518317956477 ], [ 433064.275522286479827, 439992.67850532697048 ], [ 433067.881725564715452, 439985.961287238984369 ], [ 433060.292802833660971, 439981.913284030160867 ], [ 433058.619620716199279, 439985.0391554745147 ] ] ] } },
{ "type": "Feature", "properties": { "addr:city": null, "addr:postcode": null, "building": "garage", "ref:GB:uprn": null, "source:building": null, "osm_type": "way", "osm_id": 674089347, "source:addr:postcode": null, "addr:country": null }, "geometry": { "type": "Polygon", "coordinates": [ [ [ 433051.326545840362087, 439996.859691767836921 ], [ 433046.378750611387659, 439994.210041097714566 ], [ 433045.152182992664166, 439996.504578717635013 ], [ 433050.093477160437033, 439999.143055703490973 ], [ 433051.326545840362087, 439996.859691767836921 ] ] ] } },
{ "type": "Feature", "properties": { "addr:city": "Leeds", "addr:postcode": "LS17 8TL", "building": "house", "ref:GB:uprn": "72182819", "source:building": null, "osm_type": "way", "osm_id": 674089348, "source:addr:postcode": "ONSUD;OS Open UPRN", "addr:country": null }, "geometry": { "type": "Polygon", "coordinates": [ [ [ 433058.832434105454013, 440001.485674289287999 ], [ 433062.265322052524425, 439995.089897995232604 ], [ 433055.246637737669516, 439991.335218393011019 ], [ 433051.813756794785149, 439997.730999786406755 ], [ 433058.832434105454013, 440001.485674289287999 ] ] ] } },
{ "type": "Feature", "properties": { "addr:city": "Leeds", "addr:postcode": "LS17 8TL", "building": "house", "ref:GB:uprn": "72182817", "source:building": null, "osm_type": "way", "osm_id": 674089349, "source:addr:postcode": "ONSUD;OS Open UPRN", "addr:country": null }, "geometry": { "type": "Polygon", "coordinates": [ [ [ 433057.491055326827336, 440004.202206578222103 ], [ 433049.141955117695034, 439999.748300228500739 ], [ 433046.035718350904062, 440005.534431544248946 ], [ 433054.384811014868319, 440009.988332402310334 ], [ 433057.491055326827336, 440004.202206578222103 ] ] ] } },
{ "type": "Feature", "properties": { "addr:city": "Leeds", "addr:postcode": "LS17 8TN", "building": "house", "ref:GB:uprn": "72182830", "source:building": null, "osm_type": "way", "osm_id": 674089355, "source:addr:postcode": "ONSUD;OS Open UPRN", "addr:country": null }, "geometry": { "type": "Polygon", "coordinates": [ [ [ 433011.907560445717536, 439995.391128491726704 ], [ 433011.399324064259417, 440004.967490493203513 ], [ 433020.526323322614189, 440005.454641536227427 ], [ 433021.028079043899197, 439995.867108096485026 ], [ 433011.907560445717536, 439995.391128491726704 ] ] ] } },
{ "type": "Feature", "properties": { "addr:city": "Leeds", "addr:postcode": "LS17 8TN", "building": "house", "ref:GB:uprn": "72182832", "source:building": null, "osm_type": "way", "osm_id": 674089356, "source:addr:postcode": "ONSUD;OS Open UPRN", "addr:country": null }, "geometry": { "type": "Polygon", "coordinates": [ [ [ 433034.242383902426809, 439978.313616973813623 ], [ 433028.688979609345552, 439977.584603902301751 ], [ 433028.341648879169952, 439980.196889551822096 ], [ 433023.80686844047159, 439979.608584429137409 ], [ 433023.083705137833022, 439985.144498375593685 ], [ 433024.956815731129609, 439985.380237081670202 ], [ 433024.35903497855179, 439989.926773630548269 ], [ 433025.430277633829974, 439990.067845995188691 ], [ 433025.026796494377777, 439993.180429925443605 ], [ 433031.125748691614717, 439993.968919201404788 ], [ 433031.53581166069489, 439990.856382173253223 ], [ 433034.197472612257116, 439991.208951681153849 ], [ 433034.865043495665304, 439986.095455385860987 ], [ 433033.254889599920716, 439985.883820489048958 ], [ 433034.242383902426809, 439978.313616973813623 ] ] ] } },
{ "type": "Feature", "properties": { "addr:city": "Leeds", "addr:postcode": "LS17 8TN", "building": "house", "ref:GB:uprn": "72182834", "source:building": null, "osm_type": "way", "osm_id": 674089357, "source:addr:postcode": "ONSUD;OS Open UPRN", "addr:country": null }, "geometry": { "type": "Polygon", "coordinates": [ [ [ 433021.009939412702806, 439968.584722755826078 ], [ 433009.916170037991833, 439968.072582160471939 ], [ 433009.853509553766344, 439969.496336588985287 ], [ 433007.762381986132823, 439969.392585844849236 ], [ 433007.506811761588324, 439974.853911778889596 ], [ 433009.597936884791125, 439974.957662416738458 ], [ 433009.567626162373926, 439975.524901908705942 ], [ 433014.256290653778706, 439975.747102341381833 ], [ 433014.178669344750233, 439977.426661519450136 ], [ 433020.583675781905185, 439977.72772680548951 ], [ 433021.009939412702806, 439968.584722755826078 ] ] ] } },
{ "type": "Feature", "properties": { "addr:city": "Leeds", "addr:postcode": "LS17 8TN", "building": "house", "ref:GB:uprn": "72182836", "source:building": null, "osm_type": "way", "osm_id": 674089358, "source:addr:postcode": "ONSUD;OS Open UPRN", "addr:country": null }, "geometry": { "type": "Polygon", "coordinates": [ [ [ 432994.834981113323011, 439965.841141673503444 ], [ 432994.961220819270238, 439964.729377902927808 ], [ 432989.624001768417656, 439964.124326470075175 ], [ 432988.629289021599106, 439972.729255088255741 ], [ 432998.429402448760811, 439973.855315823224373 ], [ 432998.233385752828326, 439975.534041000646539 ], [ 433004.766816008021124, 439976.281050675781444 ], [ 433005.824835850391537, 439967.097991640213877 ], [ 432994.834981113323011, 439965.841141673503444 ] ] ] } },
{ "type": "Feature", "properties": { "addr:city": "Leeds", "addr:postcode": "LS17 8TT", "building": "house", "ref:GB:uprn": "72182853", "source:building": null, "osm_type": "way", "osm_id": 674089512, "source:addr:postcode": null, "addr:country": null }, "geometry": { "type": "Polygon", "coordinates": [ [ [ 433089.842304975958541, 439935.301518316264264 ], [ 433078.533097467850894, 439935.477538332808763 ], [ 433078.556478455779143, 439936.824013974401169 ], [ 433071.905129737802781, 439936.93281187012326 ], [ 433072.087713902350515, 439948.338797567761503 ], [ 433090.041566524712835, 439948.06506009073928 ], [ 433089.842304975958541, 439935.301518316264264 ] ] ] } },
{ "type": "Feature", "properties": { "addr:city": "Leeds", "addr:postcode": "LS17 8TT", "building": "house", "ref:GB:uprn": "72182850", "source:building": null, "osm_type": "way", "osm_id": 674089514, "source:addr:postcode": "ONSUD;OS Open UPRN", "addr:country": null }, "geometry": { "type": "Polygon", "coordinates": [ [ [ 433056.856883979926351, 439944.003185735666193 ], [ 433070.087203814880922, 439943.785045682569034 ], [ 433069.937225591391325, 439934.281927543692291 ], [ 433056.706957370042801, 439934.48894214280881 ], [ 433056.856883979926351, 439944.003185735666193 ] ] ] } },
{ "type": "Feature", "properties": { "addr:city": "Leeds", "addr:postcode": "LS17 8TT", "building": "house", "ref:GB:uprn": "72182848", "source:building": null, "osm_type": "way", "osm_id": 674089515, "source:addr:postcode": "ONSUD;OS Open UPRN", "addr:country": null }, "geometry": { "type": "Polygon", "coordinates": [ [ [ 433042.003603347460739, 439936.499225915758871 ], [ 433042.09801697335206, 439942.697370462003164 ], [ 433047.63088057236746, 439942.614017213927582 ], [ 433047.644097978190985, 439943.537612670916133 ], [ 433055.24280848383205, 439943.413213621126488 ], [ 433055.052288221602794, 439931.26169543270953 ], [ 433047.446980048785917, 439931.386048446991481 ], [ 433047.529896396270487, 439936.415826111799106 ], [ 433042.003603347460739, 439936.499225915758871 ] ] ] } },
{ "type": "Feature", "properties": { "addr:city": "Leeds", "addr:postcode": "LS17 8TT", "building": "house", "ref:GB:uprn": "72182846", "source:building": null, "osm_type": "way", "osm_id": 674089517, "source:addr:postcode": "ONSUD;OS Open UPRN", "addr:country": null }, "geometry": { "type": "Polygon", "coordinates": [ [ [ 433040.446525179257151, 439931.559187055449001 ], [ 433032.499167391855735, 439931.681151340948418 ], [ 433032.549002598854713, 439934.874817476491444 ], [ 433026.371339732490014, 439934.975894729606807 ], [ 433026.544645570742432, 439945.847738448530436 ], [ 433033.978825926431455, 439945.733271118602715 ], [ 433033.948240611935034, 439943.541128564975224 ], [ 433040.638967247388791, 439943.443681030184962 ], [ 433040.446525179257151, 439931.559187055449001 ] ] ] } },
{ "type": "Feature", "properties": { "addr:city": "Leeds", "addr:postcode": "LS17 8TT", "building": "house", "ref:GB:uprn": "72182844", "source:building": null, "osm_type": "way", "osm_id": 674089518, "source:addr:postcode": "ONSUD;OS Open UPRN", "addr:country": null }, "geometry": { "type": "Polygon", "coordinates": [ [ [ 433024.698997747793328, 439934.25200399919413 ], [ 433012.416106557066087, 439934.443571512121707 ], [ 433012.530518657993525, 439941.543105036951602 ], [ 433017.668631173670292, 439941.468060273793526 ], [ 433017.754784282005858, 439946.97630082454998 ], [ 433024.892879530030768, 439946.870858197915368 ], [ 433024.698997747793328, 439934.25200399919413 ] ] ] } },
{ "type": "Feature", "properties": { "addr:city": null, "addr:postcode": null, "building": "garage", "ref:GB:uprn": null, "source:building": null, "osm_type": "way", "osm_id": 674089519, "source:addr:postcode": null, "addr:country": null }, "geometry": { "type": "Polygon", "coordinates": [ [ [ 433000.56404285581084, 439937.909407184342854 ], [ 432996.656149084155913, 439937.970885010086931 ], [ 432996.737787319347262, 439943.189803259097971 ], [ 433000.645676724612713, 439943.128325517638586 ], [ 433000.56404285581084, 439937.909407184342854 ] ] ] } },
{ "type": "Feature", "properties": { "addr:city": "Leeds", "addr:postcode": "LS17 8TT", "building": "house", "ref:GB:uprn": "72182842", "source:building": null, "osm_type": "way", "osm_id": 674089521, "source:addr:postcode": "ONSUD;OS Open UPRN", "addr:country": null }, "geometry": { "type": "Polygon", "coordinates": [ [ [ 433000.645676724612713, 439943.128325517638586 ], [ 433002.678556071652565, 439943.098144104122184 ], [ 433002.692174376919866, 439943.966109507367946 ], [ 433010.211869194463361, 439943.85220689966809 ], [ 433010.015359631448518, 439931.600510807707906 ], [ 433002.495566688652616, 439931.725539782666601 ], [ 433002.581894888135139, 439937.211527949431911 ], [ 433000.555590869975276, 439937.241755765746348 ], [ 433000.56404285581084, 439937.909407184342854 ], [ 433000.645676724612713, 439943.128325517638586 ] ] ] } },
{ "type": "Feature", "properties": { "addr:city": "Leeds", "addr:postcode": "LS17 8TT", "building": "house", "ref:GB:uprn": "72182840", "source:building": null, "osm_type": "way", "osm_id": 674089522, "source:addr:postcode": "ONSUD;OS Open UPRN", "addr:country": null }, "geometry": { "type": "Polygon", "coordinates": [ [ [ 432993.761648442712612, 439937.049243904883042 ], [ 432987.110381695849355, 439937.147036656737328 ], [ 432987.138799631095026, 439938.716077654389665 ], [ 432980.119095388217829, 439938.82241183728911 ], [ 432980.247492232127115, 439946.745405842666514 ], [ 432993.911938301287591, 439946.530107095022686 ], [ 432993.761648442712612, 439937.049243904883042 ] ] ] } },
{ "type": "Feature", "properties": { "addr:city": "Leeds", "addr:postcode": "LS17 8AR", "building": "house", "ref:GB:uprn": "72174393", "source:building": null, "osm_type": "way", "osm_id": 674097824, "source:addr:postcode": "ONSUD;OS Open UPRN", "addr:country": null }, "geometry": { "type": "Polygon", "coordinates": [ [ [ 433026.269731939828489, 439740.416673192987218 ], [ 433022.658384731621481, 439741.314711693208665 ], [ 433022.089008617971558, 439739.029759011114947 ], [ 433017.146518082474358, 439740.252212696475908 ], [ 433017.715896449168213, 439742.537164770415984 ], [ 433011.376330742554273, 439744.105824955855496 ], [ 433013.474602413654793, 439752.543396204244345 ], [ 433018.430235295265447, 439751.321031409781426 ], [ 433017.803380540688522, 439748.790890396572649 ], [ 433027.741050346405245, 439746.335234800702892 ], [ 433026.269731939828489, 439740.416673192987218 ] ] ] } },
{ "type": "Feature", "properties": { "addr:city": "Leeds", "addr:postcode": "LS17 8AR", "building": "house", "ref:GB:uprn": "72539831", "source:building": null, "osm_type": "way", "osm_id": 674097826, "source:addr:postcode": "ONSUD;OS Open UPRN", "addr:country": null }, "geometry": { "type": "Polygon", "coordinates": [ [ [ 432989.868401298532262, 439743.575981822214089 ], [ 432990.655650774366222, 439746.685828099958599 ], [ 432994.846962859621271, 439745.636079136631452 ], [ 432995.294893471174873, 439747.419479085481726 ], [ 432998.93927805830026, 439746.499399224529043 ], [ 432999.156821202486753, 439747.36880109552294 ], [ 433005.147265273553785, 439745.864423360675573 ], [ 433004.923145005013794, 439744.994974852539599 ], [ 433008.42915679642465, 439744.107306869351305 ], [ 433006.745829956256784, 439737.464033271186054 ], [ 432992.847071085765492, 439740.971102590439841 ], [ 432990.73705326259369, 439723.921526344725862 ], [ 432978.161191690945998, 439725.468562591471709 ], [ 432978.752590491611045, 439730.234880208154209 ], [ 432980.569814101676457, 439730.014018770190887 ], [ 432981.055256653751712, 439733.945101115154102 ], [ 432982.984464660985395, 439733.702776126330718 ], [ 432984.291603572957683, 439744.259929125313647 ], [ 432989.868401298532262, 439743.575981822214089 ] ] ] } },
{ "type": "Feature", "properties": { "addr:city": "Leeds", "addr:postcode": "LS17 8TS", "building": "house", "ref:GB:uprn": "72245084", "source:building": null, "osm_type": "way", "osm_id": 674097831, "source:addr:postcode": "ONSUD;OS Open UPRN", "addr:country": null }, "geometry": { "type": "Polygon", "coordinates": [ [ [ 432991.760768800682854, 439792.457022184622474 ], [ 433000.713320846261922, 439792.553472515661269 ], [ 433000.843326683447231, 439780.637876444146968 ], [ 432991.890751780476421, 439780.541425948962569 ], [ 432991.760768800682854, 439792.457022184622474 ] ] ] } },
{ "type": "Feature", "properties": { "addr:city": "Leeds", "addr:postcode": "LS17 8TS", "building": "house", "ref:GB:uprn": "72245083", "source:building": null, "osm_type": "way", "osm_id": 674097833, "source:addr:postcode": "ONSUD;OS Open UPRN", "addr:country": null }, "geometry": { "type": "Polygon", "coordinates": [ [ [ 433003.011831641837489, 439800.580769029213116 ], [ 433003.083301752340049, 439794.17239204980433 ], [ 432994.203111831855495, 439794.076446896069683 ], [ 432994.131653915042989, 439800.484823964070529 ], [ 432992.56607000133954, 439800.473795361001976 ], [ 432992.489519964205101, 439807.605360985849984 ], [ 433005.342762147134636, 439807.740426050266251 ], [ 433005.419331825280096, 439800.60886055987794 ], [ 433003.011831641837489, 439800.580769029213116 ] ] ] } },
{ "type": "Feature", "properties": { "addr:city": "Leeds", "addr:postcode": "LS17 8TS", "building": "house", "ref:GB:uprn": "72245081", "source:building": null, "osm_type": "way", "osm_id": 674097835, "source:addr:postcode": "ONSUD;OS Open UPRN", "addr:country": null }, "geometry": { "type": "Polygon", "coordinates": [ [ [ 432989.561181917611975, 439822.683433530037291 ], [ 433001.769733452703804, 439822.813948277733289 ], [ 433001.922235087316949, 439808.639824792393483 ], [ 432989.713646473188419, 439808.509309786139056 ], [ 432989.561181917611975, 439822.683433530037291 ] ] ] } },
{ "type": "Feature", "properties": { "addr:city": "Leeds", "addr:postcode": "LS17 8TS", "building": "house", "ref:GB:uprn": "72245079", "source:building": null, "osm_type": "way", "osm_id": 674097837, "source:addr:postcode": "ONSUD;OS Open UPRN", "addr:country": null }, "geometry": { "type": "Polygon", "coordinates": [ [ [ 432990.887212507368531, 439836.155873932992108 ], [ 432990.866057487204671, 439838.225259344675578 ], [ 433001.160439931263682, 439838.331163475872017 ], [ 433001.230418336461298, 439832.13417968142312 ], [ 432997.277095218829345, 439832.09519906505011 ], [ 432997.350752556696534, 439825.375294373719953 ], [ 432989.720451259345282, 439825.288163132732734 ], [ 432989.597917965205852, 439836.146792376763187 ], [ 432990.887212507368531, 439836.155873932992108 ] ] ] } },
{ "type": "Feature", "properties": { "addr:city": "Leeds", "addr:postcode": "LS17 8TS", "building": "house", "ref:GB:uprn": "72245077", "source:building": null, "osm_type": "way", "osm_id": 674097839, "source:addr:postcode": "ONSUD;OS Open UPRN", "addr:country": null }, "geometry": { "type": "Polygon", "coordinates": [ [ [ 432997.57417921180604, 439846.884449665551074 ], [ 432997.629265869036317, 439841.866772987064905 ], [ 432989.295142812654376, 439841.774683487485163 ], [ 432989.168378422909882, 439853.234115783590823 ], [ 433001.2781799006043, 439853.363934552646242 ], [ 433001.343305290734861, 439846.922132770647295 ], [ 432997.57417921180604, 439846.884449665551074 ] ] ] } },
{ "type": "Feature", "properties": { "addr:city": "Leeds", "addr:postcode": "LS17 8TS", "building": "house", "ref:GB:uprn": "72245075", "source:building": null, "osm_type": "way", "osm_id": 674097841, "source:addr:postcode": "ONSUD;OS Open UPRN", "addr:country": null }, "geometry": { "type": "Polygon", "coordinates": [ [ [ 432993.354756976943463, 439862.209334735060111 ], [ 432993.282672573230229, 439868.706720283254981 ], [ 433005.971296793490183, 439868.840629242826253 ], [ 433006.042850008700043, 439862.421125668799505 ], [ 433001.701529148267582, 439862.368280190043151 ], [ 433001.774879569886252, 439855.69287915120367 ], [ 432993.427625193959102, 439855.600689478567801 ], [ 432993.424725227814633, 439856.012350641656667 ], [ 432990.392343104118481, 439855.979863340849988 ], [ 432990.322378879820462, 439862.176847463939339 ], [ 432993.354756976943463, 439862.209334735060111 ] ] ] } },
{ "type": "Feature", "properties": { "addr:city": "Leeds", "addr:postcode": "LS17 8TS", "building": "house", "ref:GB:uprn": "72245073", "source:building": null, "osm_type": "way", "osm_id": 674097843, "source:addr:postcode": "ONSUD;OS Open UPRN", "addr:country": null }, "geometry": { "type": "Polygon", "coordinates": [ [ [ 433001.31813384196721, 439881.302932766382582 ], [ 433004.988562579790596, 439881.339923670166172 ], [ 433005.028768486226909, 439877.50155407038983 ], [ 433001.358336729579605, 439877.464563147397712 ], [ 433001.431294825044461, 439870.844791845185682 ], [ 432993.682585772476159, 439870.767945517087355 ], [ 432993.57477188896155, 439880.469520070240833 ], [ 432992.752525522024371, 439880.46372771600727 ], [ 432992.712408070103265, 439884.290971423615701 ], [ 433001.283261955657508, 439884.384735916624777 ], [ 433001.31813384196721, 439881.302932766382582 ] ] ] } },
{ "type": "Feature", "properties": { "addr:city": "Leeds", "addr:postcode": "LS17 8TT", "building": "house", "ref:GB:uprn": "72182841", "source:building": null, "osm_type": "way", "osm_id": 674097845, "source:addr:postcode": "ONSUD;OS Open UPRN", "addr:country": null }, "geometry": { "type": "Polygon", "coordinates": [ [ [ 432984.519283437286504, 439909.957799881929532 ], [ 432995.602780768589582, 439910.080377615755424 ], [ 432995.61038402171107, 439909.001157722901553 ], [ 433002.622222961508669, 439909.083941953023896 ], [ 433002.731082984479144, 439898.303100903169252 ], [ 432984.642201936279889, 439898.108910970273428 ], [ 432984.519283437286504, 439909.957799881929532 ] ] ] } },
{ "type": "Feature", "properties": { "addr:city": "Leeds", "addr:postcode": "LS17 8TS", "building": "house", "ref:GB:uprn": "72245072", "source:building": null, "osm_type": "way", "osm_id": 674098186, "source:addr:postcode": "ONSUD;OS Open UPRN", "addr:country": null }, "geometry": { "type": "Polygon", "coordinates": [ [ [ 433041.588207643129863, 439863.906803517718799 ], [ 433033.971125377342105, 439863.819692507851869 ], [ 433033.925259454757906, 439867.524503743508831 ], [ 433027.196133206714876, 439867.454793320503086 ], [ 433027.086288249876816, 439877.434516746783629 ], [ 433033.815321633941494, 439877.51535304565914 ], [ 433033.831787372764666, 439876.113526283064857 ], [ 433041.448849572916515, 439876.200637141359039 ], [ 433041.588207643129863, 439863.906803517718799 ] ] ] } },
{ "type": "Feature", "properties": { "addr:city": "Leeds", "addr:postcode": "LS17 8TS", "building": "house", "ref:GB:uprn": "72245074", "source:building": null, "osm_type": "way", "osm_id": 674098187, "source:addr:postcode": "ONSUD;OS Open UPRN", "addr:country": null }, "geometry": { "type": "Polygon", "coordinates": [ [ [ 433057.559578277636319, 439864.019507017801516 ], [ 433049.501770577393472, 439863.92925990500953 ], [ 433049.451495691202581, 439868.257125756936148 ], [ 433043.663022844993975, 439868.194029467180371 ], [ 433043.547428164980374, 439878.051320488797501 ], [ 433049.342466759320814, 439878.114463097183034 ], [ 433049.364982535596937, 439875.855936120031402 ], [ 433057.422769643191714, 439875.946183075662702 ], [ 433057.559578277636319, 439864.019507017801516 ] ] ] } },
{ "type": "Feature", "properties": { "addr:city": "Leeds", "addr:postcode": "LS17 8TS", "building": "house", "ref:GB:uprn": "72245076", "source:building": null, "osm_type": "way", "osm_id": 674098188, "source:addr:postcode": "ONSUD;OS Open UPRN", "addr:country": null }, "geometry": { "type": "Polygon", "coordinates": [ [ [ 433064.904836498841178, 439875.587318108067848 ], [ 433064.89338852284709, 439876.277082253363915 ], [ 433072.207942042616196, 439876.350981113384478 ], [ 433072.339860353968106, 439864.190613373182714 ], [ 433065.031944317568559, 439864.105634845327586 ], [ 433064.99640204833122, 439867.276445411611348 ], [ 433058.911918438563589, 439867.211240423261188 ], [ 433058.81378574622795, 439875.522066769190133 ], [ 433064.904836498841178, 439875.587318108067848 ] ] ] } },
{ "type": "Feature", "properties": { "addr:city": "Leeds", "addr:postcode": "LS17 8TS", "building": "house", "ref:GB:uprn": "72245078", "source:building": null, "osm_type": "way", "osm_id": 674098189, "source:addr:postcode": null, "addr:country": null }, "geometry": { "type": "Polygon", "coordinates": [ [ [ 433096.424021914310288, 439850.096530886599794 ], [ 433086.557236245193053, 439849.993437083554454 ], [ 433086.41013583203312, 439863.366489301552065 ], [ 433096.276814604934771, 439863.480708877090365 ], [ 433096.424021914310288, 439850.096530886599794 ] ] ] } },
{ "type": "Feature", "properties": { "addr:city": null, "addr:postcode": null, "building": "garage", "ref:GB:uprn": null, "source:building": null, "osm_type": "way", "osm_id": 674098190, "source:addr:postcode": null, "addr:country": null }, "geometry": { "type": "Polygon", "coordinates": [ [ [ 433093.681354533473495, 439845.370627327240072 ], [ 433088.491453214082867, 439845.311705295112915 ], [ 433088.451100261008833, 439849.161200220696628 ], [ 433093.640997299400624, 439849.220122229424305 ], [ 433093.681354533473495, 439845.370627327240072 ] ] ] } },
{ "type": "Feature", "properties": { "addr:city": "Leeds", "addr:postcode": "LS17 8TS", "building": "house", "ref:GB:uprn": "72245080", "source:building": null, "osm_type": "way", "osm_id": 674098191, "source:addr:postcode": "ONSUD;OS Open UPRN", "addr:country": null }, "geometry": { "type": "Polygon", "coordinates": [ [ [ 433086.201915355981328, 439836.038256168481894 ], [ 433086.114949719631113, 439843.692695591947995 ], [ 433096.646050425828435, 439843.811609271797352 ], [ 433096.733033334894571, 439836.157169979298487 ], [ 433086.201915355981328, 439836.038256168481894 ] ] ] } },
{ "type": "Feature", "properties": { "addr:city": "Leeds", "addr:postcode": "LS17 8TS", "building": "house", "ref:GB:uprn": "72245082", "source:building": null, "osm_type": "way", "osm_id": 674098192, "source:addr:postcode": "ONSUD;OS Open UPRN", "addr:country": null }, "geometry": { "type": "Polygon", "coordinates": [ [ [ 433058.33046252920758, 439828.431175386882387 ], [ 433058.279080223874189, 439832.914804618572816 ], [ 433070.152125069464091, 439833.04313040652778 ], [ 433070.257426427851897, 439823.719840911682695 ], [ 433062.317954079306219, 439823.630407984834164 ], [ 433062.3681620938587, 439819.313668491784483 ], [ 433059.763329859008081, 439819.284154568566009 ], [ 433059.792899719672278, 439816.958918394637294 ], [ 433052.340192366798874, 439816.872938508866355 ], [ 433052.213116569095291, 439828.354621195234358 ], [ 433058.33046252920758, 439828.431175386882387 ] ] ] } },
{ "type": "Feature", "properties": { "addr:city": "Leeds", "addr:postcode": "LS17 8TS", "building": "house", "ref:GB:uprn": "72245085", "source:building": null, "osm_type": "way", "osm_id": 674098193, "source:addr:postcode": "ONSUD;OS Open UPRN", "addr:country": null }, "geometry": { "type": "Polygon", "coordinates": [ [ [ 433033.648113338567782, 439841.530973589862697 ], [ 433033.617065453203395, 439844.067603526520543 ], [ 433037.484864167170599, 439844.106011749594472 ], [ 433037.657458765315823, 439828.96402141416911 ], [ 433029.349624859285541, 439828.872046080883592 ], [ 433029.309399248973932, 439832.710415268549696 ], [ 433027.026819910039194, 439832.694318663910963 ], [ 433026.925606094184332, 439841.45018411509227 ], [ 433033.648113338567782, 439841.530973589862697 ] ] ] } },
{ "type": "Feature", "properties": { "addr:city": "Leeds", "addr:postcode": "LS17 8TS", "building": "house", "ref:GB:uprn": "72245087", "source:building": null, "osm_type": "way", "osm_id": 674098194, "source:addr:postcode": "ONSUD;OS Open UPRN", "addr:country": null }, "geometry": { "type": "Polygon", "coordinates": [ [ [ 433037.772104768548161, 439823.902258889749646 ], [ 433037.89388664776925, 439813.16601643152535 ], [ 433029.704429808887653, 439813.074875804129988 ], [ 433029.629156755108852, 439820.017299564089626 ], [ 433028.116203799087089, 439820.006630132324062 ], [ 433028.069793502567336, 439823.789323004311882 ], [ 433037.772104768548161, 439823.902258889749646 ] ] ] } },
{ "type": "Feature", "properties": { "addr:city": "Leeds", "addr:postcode": "LS17 8TS", "building": "house", "ref:GB:uprn": "72245089", "source:building": null, "osm_type": "way", "osm_id": 674098195, "source:addr:postcode": "ONSUD;OS Open UPRN", "addr:country": null }, "geometry": { "type": "Polygon", "coordinates": [ [ [ 433040.145524427411146, 439804.514333139639348 ], [ 433040.219086235389113, 439797.816681126365438 ], [ 433029.812865349522326, 439797.698776574572548 ], [ 433029.763079884753097, 439801.959886285942048 ], [ 433027.776499186409637, 439801.94587693142239 ], [ 433027.680842447443865, 439810.846426050644368 ], [ 433042.000828162883408, 439811.014188610366546 ], [ 433042.072822856192943, 439804.539056075038388 ], [ 433040.145524427411146, 439804.514333139639348 ] ] ] } },
{ "type": "Feature", "properties": { "addr:city": "Leeds", "addr:postcode": "LS17 8TS", "building": "house", "ref:GB:uprn": "72245091", "source:building": null, "osm_type": "way", "osm_id": 674098196, "source:addr:postcode": "ONSUD;OS Open UPRN", "addr:country": null }, "geometry": { "type": "Polygon", "coordinates": [ [ [ 433096.336199196055532, 439787.119741649716161 ], [ 433096.354177344066557, 439785.506521693780087 ], [ 433084.09956003568368, 439785.364308661199175 ], [ 433084.013069945969619, 439792.951991679845378 ], [ 433088.065097712329589, 439792.991742720943876 ], [ 433087.992882118618581, 439799.489126625121571 ], [ 433093.511738672037609, 439799.550371891236864 ], [ 433093.52712159184739, 439798.304309094673954 ], [ 433098.085578811354935, 439798.358773802872747 ], [ 433098.134954879467841, 439794.164420464541763 ], [ 433100.1610075616627, 439794.178738690214232 ], [ 433100.243513770867139, 439787.158480605226941 ], [ 433096.336199196055532, 439787.119741649716161 ] ] ] } },
{ "type": "Feature", "properties": { "addr:city": "Leeds", "addr:postcode": "LS17 8TS", "building": "house", "ref:GB:uprn": "72245093", "source:building": null, "osm_type": "way", "osm_id": 674098197, "source:addr:postcode": "ONSUD;OS Open UPRN", "addr:country": null }, "geometry": { "type": "Polygon", "coordinates": [ [ [ 433091.608366249827668, 439777.517518608830869 ], [ 433091.553100429533515, 439782.546320047345944 ], [ 433106.1034066338907, 439782.715905654826201 ], [ 433106.165344893175643, 439777.676024853019044 ], [ 433097.29170169698773, 439777.579930173698813 ], [ 433097.433878327370621, 439764.907816317747347 ], [ 433089.507462214678526, 439764.818430490442552 ], [ 433089.358728989958763, 439777.490498032071628 ], [ 433091.608366249827668, 439777.517518608830869 ] ] ] } },
{ "type": "Feature", "properties": { "addr:city": "Leeds", "addr:postcode": "LS17 8TS", "building": "house", "ref:GB:uprn": "72245092", "source:building": null, "osm_type": "way", "osm_id": 674098198, "source:addr:postcode": "ONSUD;OS Open UPRN", "addr:country": null }, "geometry": { "type": "Polygon", "coordinates": [ [ [ 433067.284111032728106, 439760.344383593881503 ], [ 433071.717620687559247, 439760.397939999820665 ], [ 433071.676103668112773, 439764.41432416473981 ], [ 433083.864994664909318, 439764.556039709597826 ], [ 433083.962879859725945, 439755.355090627912432 ], [ 433076.963887783291284, 439755.283403957379051 ], [ 433077.001480593869928, 439751.823318628477864 ], [ 433066.562266430119053, 439751.705100247752853 ], [ 433066.529394304961897, 439754.497627120930701 ], [ 433064.569184485706501, 439754.472661972977221 ], [ 433064.482333753549028, 439762.115974762942642 ], [ 433067.258229485945776, 439762.146698699798435 ], [ 433067.284111032728106, 439760.344383593881503 ] ] ] } },
{ "type": "Feature", "properties": { "addr:city": "Leeds", "addr:postcode": "LS17 8TS", "building": "house", "ref:GB:uprn": "72245090", "source:building": null, "osm_type": "way", "osm_id": 674098199, "source:addr:postcode": "ONSUD;OS Open UPRN", "addr:country": null }, "geometry": { "type": "Polygon", "coordinates": [ [ [ 433049.756373321753927, 439767.252634663949721 ], [ 433055.998862389242277, 439767.318941462202929 ], [ 433055.991559626534581, 439768.353657177183777 ], [ 433063.608797687280457, 439768.440803533652797 ], [ 433063.750411444460042, 439755.835445018368773 ], [ 433056.13315280986717, 439755.748298510327004 ], [ 433056.098009703680873, 439758.863478734740056 ], [ 433049.8555093263858, 439758.797171847196296 ], [ 433049.756373321753927, 439767.252634663949721 ] ] ] } },
{ "type": "Feature", "properties": { "addr:city": "Leeds", "addr:postcode": "LS17 8TS", "building": "house", "ref:GB:uprn": "72245088", "source:building": null, "osm_type": "way", "osm_id": 674098200, "source:addr:postcode": "ONSUD;OS Open UPRN", "addr:country": null }, "geometry": { "type": "Polygon", "coordinates": [ [ [ 433048.223783251421992, 439760.699421048164368 ], [ 433034.521909870614763, 439760.547127185855061 ], [ 433034.417465464910492, 439769.759156589396298 ], [ 433040.640138306305744, 439769.83642964262981 ], [ 433040.614958575926721, 439772.473239463870414 ], [ 433048.087471215229016, 439772.559339603059925 ], [ 433048.223783251421992, 439760.699421048164368 ] ] ] } },
{ "type": "Feature", "properties": { "addr:city": "Leeds", "addr:postcode": "LS17 8TS", "building": "house", "ref:GB:uprn": "72245086", "source:building": null, "osm_type": "way", "osm_id": 674098201, "source:addr:postcode": "ONSUD;OS Open UPRN", "addr:country": null }, "geometry": { "type": "Polygon", "coordinates": [ [ [ 433017.911222545080818, 439762.42164801445324 ], [ 433017.8023401958053, 439772.267858316074125 ], [ 433025.274853189359419, 439772.353921928326599 ], [ 433025.251015798421577, 439774.801590220886283 ], [ 433032.493368996947538, 439774.874916015658528 ], [ 433032.632623248966411, 439762.592210036586039 ], [ 433017.911222545080818, 439762.42164801445324 ] ] ] } },
{ "type": "Feature", "properties": { "addr:city": null, "addr:postcode": null, "building": "garage", "ref:GB:uprn": null, "source:building": null, "osm_type": "way", "osm_id": 674098298, "source:addr:postcode": null, "addr:country": null }, "geometry": { "type": "Polygon", "coordinates": [ [ [ 433054.216531577287242, 439901.481196807464585 ], [ 433050.927639268455096, 439901.446859493269585 ], [ 433050.872573381755501, 439906.453410222195089 ], [ 433054.154884227667935, 439906.487701084464788 ], [ 433054.216531577287242, 439901.481196807464585 ] ] ] } },
{ "type": "Feature", "properties": { "addr:city": null, "addr:postcode": null, "building": "garage", "ref:GB:uprn": null, "source:building": null, "osm_type": "way", "osm_id": 674098299, "source:addr:postcode": null, "addr:country": null }, "geometry": { "type": "Polygon", "coordinates": [ [ [ 433057.505423862778116, 439901.515536438324489 ], [ 433054.216531577287242, 439901.481196807464585 ], [ 433054.154884227667935, 439906.487701084464788 ], [ 433057.443694453511853, 439906.533166664885357 ], [ 433057.505423862778116, 439901.515536438324489 ] ] ] } },
{ "type": "Feature", "properties": { "addr:city": "Leeds", "addr:postcode": "LS17 8TT", "building": "house", "ref:GB:uprn": "72182849", "source:building": null, "osm_type": "way", "osm_id": 674098300, "source:addr:postcode": null, "addr:country": null }, "geometry": { "type": "Polygon", "coordinates": [ [ [ 433071.931020669813734, 439904.387886662269011 ], [ 433071.875068005989306, 439909.516823004931211 ], [ 433071.861183451605029, 439910.551492478465661 ], [ 433087.79903358843876, 439910.730823681573384 ], [ 433087.903585193213075, 439901.51879314717371 ], [ 433071.965703595778905, 439901.339461707626469 ], [ 433071.931020669813734, 439904.387886662269011 ] ] ] } },
{ "type": "Feature", "properties": { "addr:city": null, "addr:postcode": null, "building": "garage", "ref:GB:uprn": null, "source:building": null, "osm_type": "way", "osm_id": 674098301, "source:addr:postcode": null, "addr:country": null }, "geometry": { "type": "Polygon", "coordinates": [ [ [ 433065.974821519805118, 439909.452909201500006 ], [ 433071.875068005989306, 439909.516823004931211 ], [ 433071.931020669813734, 439904.387886662269011 ], [ 433066.03076769906329, 439904.32397281343583 ], [ 433065.974821519805118, 439909.452909201500006 ] ] ] } },
{ "type": "Feature", "properties": { "addr:city": "Leeds", "addr:postcode": "LS17 8TT", "building": "house", "ref:GB:uprn": "72182847", "source:building": null, "osm_type": "way", "osm_id": 674098302, "source:addr:postcode": null, "addr:country": null }, "geometry": { "type": "Polygon", "coordinates": [ [ [ 433057.443694453511853, 439906.533166664885357 ], [ 433057.403131136903539, 439910.416040051029995 ], [ 433065.026715254585724, 439910.503236031974666 ], [ 433065.129022520151921, 439901.602732532541268 ], [ 433057.505423862778116, 439901.515536438324489 ], [ 433057.443694453511853, 439906.533166664885357 ] ] ] } },
{ "type": "Feature", "properties": { "addr:city": "Leeds", "addr:postcode": "LS17 8TT", "building": "house", "ref:GB:uprn": "72182845", "source:building": null, "osm_type": "way", "osm_id": 674098303, "source:addr:postcode": "ONSUD;OS Open UPRN", "addr:country": null }, "geometry": { "type": "Polygon", "coordinates": [ [ [ 433050.927639268455096, 439901.446859493269585 ], [ 433050.943874644464813, 439900.078410655260086 ], [ 433042.682291441597044, 439899.975610076333396 ], [ 433042.581047451472841, 439908.731476174667478 ], [ 433050.842693669488654, 439908.823150657466613 ], [ 433050.872573381755501, 439906.453410222195089 ], [ 433050.927639268455096, 439901.446859493269585 ] ] ] } },
{ "type": "Feature", "properties": { "addr:city": "Leeds", "addr:postcode": "LS17 8TT", "building": "house", "ref:GB:uprn": "72182843", "source:building": null, "osm_type": "way", "osm_id": 674098304, "source:addr:postcode": "ONSUD;OS Open UPRN", "addr:country": null }, "geometry": { "type": "Polygon", "coordinates": [ [ [ 433025.617928545922041, 439900.022146708215587 ], [ 433025.517501122492831, 439908.666753276134841 ], [ 433040.712051536596846, 439908.840682255104184 ], [ 433040.805929162655957, 439900.196029497426935 ], [ 433025.617928545922041, 439900.022146708215587 ] ] ] } },
{ "type": "Feature", "properties": { "addr:city": "Leeds", "addr:postcode": "LS17 8TU", "building": "house", "ref:GB:uprn": "72246421", "source:building": null, "osm_type": "way", "osm_id": 674100909, "source:addr:postcode": "ONSUD;OS Open UPRN", "addr:country": null }, "geometry": { "type": "Polygon", "coordinates": [ [ [ 433247.547624541737605, 439877.069484258070588 ], [ 433247.457708397007082, 439885.102205306407996 ], [ 433261.711765032843687, 439885.259049914544448 ], [ 433261.834853164677043, 439874.411550653167069 ], [ 433252.178693146444857, 439874.29847550240811 ], [ 433252.152050500328187, 439877.124426621478051 ], [ 433247.547624541737605, 439877.069484258070588 ] ] ] } },
{ "type": "Feature", "properties": { "addr:city": "Leeds", "addr:postcode": "LS17 8TU", "building": "house", "ref:GB:uprn": "72246419", "source:building": null, "osm_type": "way", "osm_id": 674100910, "source:addr:postcode": "ONSUD;OS Open UPRN", "addr:country": null }, "geometry": { "type": "Polygon", "coordinates": [ [ [ 433225.487850683624856, 439873.74187039071694 ], [ 433225.404681688756682, 439880.828883722890168 ], [ 433234.304440462961793, 439880.925409445073456 ], [ 433234.272099112567957, 439883.628928239457309 ], [ 433238.659445678466, 439883.682316923397593 ], [ 433238.613338221679442, 439887.398252838407643 ], [ 433245.934373495751061, 439887.483596696867608 ], [ 433246.043027974141296, 439877.737522026640363 ], [ 433241.195138526847586, 439877.691984187345952 ], [ 433241.235064857522957, 439873.920371775515378 ], [ 433225.487850683624856, 439873.74187039071694 ] ] ] } },
{ "type": "Feature", "properties": { "addr:city": "Leeds", "addr:postcode": "LS17 8TU", "building": "house", "ref:GB:uprn": "72246417", "source:building": null, "osm_type": "way", "osm_id": 674100911, "source:addr:postcode": "ONSUD;OS Open UPRN", "addr:country": null }, "geometry": { "type": "Polygon", "coordinates": [ [ [ 433219.213528123102151, 439869.836454762495123 ], [ 433210.340060151997022, 439869.740144479903392 ], [ 433210.217880726209842, 439880.476384812733158 ], [ 433222.597229500825051, 439880.619816528400406 ], [ 433222.685682166018523, 439872.787362779141404 ], [ 433219.179775064520072, 439872.740241151303053 ], [ 433219.213528123102151, 439869.836454762495123 ] ] ] } },
{ "type": "Feature", "properties": { "addr:city": "Leeds", "addr:postcode": "LS17 8TU", "building": "house", "ref:GB:uprn": "72246415", "source:building": null, "osm_type": "way", "osm_id": 674100912, "source:addr:postcode": "ONSUD;OS Open UPRN", "addr:country": null }, "geometry": { "type": "Polygon", "coordinates": [ [ [ 433194.742074265959673, 439880.989756680326536 ], [ 433208.233098829165101, 439881.141029706224799 ], [ 433208.371476289001293, 439869.047466907650232 ], [ 433199.129639475606382, 439868.948566002422012 ], [ 433199.111467870301567, 439870.584037844091654 ], [ 433194.862167791055981, 439870.542791443644091 ], [ 433194.742074265959673, 439880.989756680326536 ] ] ] } },
{ "type": "Feature", "properties": { "addr:city": "Leeds", "addr:postcode": "LS17 8TU", "building": "house", "ref:GB:uprn": "72246413", "source:building": null, "osm_type": "way", "osm_id": 674100913, "source:addr:postcode": "ONSUD;OS Open UPRN", "addr:country": null }, "geometry": { "type": "Polygon", "coordinates": [ [ [ 433193.209450023656245, 439868.906603603740223 ], [ 433184.835907403146848, 439868.813885018578731 ], [ 433184.795159504807089, 439872.707883450086229 ], [ 433179.434261080925353, 439872.647648343001492 ], [ 433179.324090521549806, 439882.627369472291321 ], [ 433184.678399512602482, 439882.68755788973067 ], [ 433184.697117928066291, 439880.974204141879454 ], [ 433193.070559875748586, 439881.078048538533039 ], [ 433193.209450023656245, 439868.906603603740223 ] ] ] } },
{ "type": "Feature", "properties": { "addr:city": "Leeds", "addr:postcode": "LS17 8TU", "building": "house", "ref:GB:uprn": "72246411", "source:building": null, "osm_type": "way", "osm_id": 674100914, "source:addr:postcode": "ONSUD;OS Open UPRN", "addr:country": null }, "geometry": { "type": "Polygon", "coordinates": [ [ [ 433164.698667062388267, 439881.032823864952661 ], [ 433158.081385711266194, 439880.963716526515782 ], [ 433158.024944702105131, 439886.148281891946681 ], [ 433169.167700155521743, 439886.27169073978439 ], [ 433169.230731514515355, 439881.087172051891685 ], [ 433177.334555311535951, 439881.177952178171836 ], [ 433177.437549291586038, 439872.210694875335321 ], [ 433164.801636762684211, 439872.065566375851631 ], [ 433164.698667062388267, 439881.032823864952661 ] ] ] } },
{ "type": "Feature", "properties": { "addr:city": "Leeds", "addr:postcode": "LS17 8TT", "building": "house", "ref:GB:uprn": "72182861", "source:building": null, "osm_type": "way", "osm_id": 674100915, "source:addr:postcode": "ONSUD;OS Open UPRN", "addr:country": null }, "geometry": { "type": "Polygon", "coordinates": [ [ [ 433127.287385042291135, 439822.509526899317279 ], [ 433127.391305175202433, 439813.397631950327195 ], [ 433124.016835909860674, 439813.362638508668169 ], [ 433124.065448488632683, 439809.279545018682256 ], [ 433116.178576188860461, 439809.190392745891586 ], [ 433116.032650417939294, 439822.385427921195515 ], [ 433127.287385042291135, 439822.509526899317279 ] ] ] } },
{ "type": "Feature", "properties": { "addr:city": "Leeds", "addr:postcode": "LS17 8TT", "building": "house", "ref:GB:uprn": "72182859", "source:building": null, "osm_type": "way", "osm_id": 674100916, "source:addr:postcode": "ONSUD;OS Open UPRN", "addr:country": null }, "geometry": { "type": "Polygon", "coordinates": [ [ [ 433119.24345539289061, 439831.609773991629481 ], [ 433129.524617798277177, 439831.726994144031778 ], [ 433129.60106268315576, 439824.639933637925424 ], [ 433117.682028773764614, 439824.500005116686225 ], [ 433117.612997236079536, 439830.541224006330594 ], [ 433115.093685828906018, 439830.512283863616176 ], [ 433115.037922305054963, 439835.607841370627284 ], [ 433119.195161621028092, 439835.648363746353425 ], [ 433119.214799996057991, 439833.801498237531632 ], [ 433119.24345539289061, 439831.609773991629481 ] ] ] } },
{ "type": "Feature", "properties": { "addr:city": null, "addr:postcode": null, "building": "garage", "ref:GB:uprn": null, "source:building": null, "osm_type": "way", "osm_id": 674100917, "source:addr:postcode": null, "addr:country": null }, "geometry": { "type": "Polygon", "coordinates": [ [ [ 433124.652867496828549, 439838.769010344170965 ], [ 433124.707303815055639, 439833.862594479229301 ], [ 433119.214799996057991, 439833.801498237531632 ], [ 433119.195161621028092, 439835.648363746353425 ], [ 433119.160369452263694, 439838.707914143567905 ], [ 433124.652867496828549, 439838.769010344170965 ] ] ] } },
{ "type": "Feature", "properties": { "addr:city": "Leeds", "addr:postcode": "LS17 8TT", "building": "house", "ref:GB:uprn": "72182857", "source:building": null, "osm_type": "way", "osm_id": 674100918, "source:addr:postcode": "ONSUD;OS Open UPRN", "addr:country": null }, "geometry": { "type": "Polygon", "coordinates": [ [ [ 433127.929779021360446, 439853.523717335425317 ], [ 433127.999689786229283, 439847.36011260538362 ], [ 433132.531865688157268, 439847.403299050754867 ], [ 433132.609338525566272, 439840.171600721543655 ], [ 433120.946887405996677, 439840.033478590426967 ], [ 433120.875491079874337, 439846.408476875862107 ], [ 433119.040302282257471, 439846.384372556000017 ], [ 433118.957688569498714, 439853.415757008362561 ], [ 433127.929779021360446, 439853.523717335425317 ] ] ] } },
{ "type": "Feature", "properties": { "addr:city": "Leeds", "addr:postcode": "LS17 8TT", "building": "house", "ref:GB:uprn": "72182855", "source:building": null, "osm_type": "way", "osm_id": 674100919, "source:addr:postcode": "ONSUD;OS Open UPRN", "addr:country": null }, "geometry": { "type": "Polygon", "coordinates": [ [ [ 433131.09357182122767, 439866.597520445007831 ], [ 433131.14455205143895, 439862.180647390079685 ], [ 433127.145208297413774, 439862.141230939538218 ], [ 433127.22500135662267, 439855.510381641914137 ], [ 433119.154022994160186, 439855.419921276043169 ], [ 433119.029929264448583, 439866.456564350170083 ], [ 433131.09357182122767, 439866.597520445007831 ] ] ] } },
{ "type": "Feature", "properties": { "addr:city": "Leeds", "addr:postcode": "LS17 8TT", "building": "house", "ref:GB:uprn": "72182854", "source:building": null, "osm_type": "way", "osm_id": 674100920, "source:addr:postcode": "ONSUD;OS Open UPRN", "addr:country": null }, "geometry": { "type": "Polygon", "coordinates": [ [ [ 433121.269532521546353, 439881.849271007697098 ], [ 433121.240010545938276, 439884.163381154183298 ], [ 433130.698811385198496, 439884.274789487360977 ], [ 433130.770929828577209, 439877.799657155177556 ], [ 433127.212323815329, 439877.76335831254255 ], [ 433127.290936647448689, 439871.299398511298932 ], [ 433119.213407606293913, 439871.208891407703049 ], [ 433119.092303237412125, 439881.822747619822621 ], [ 433121.269532521546353, 439881.849271007697098 ] ] ] } },
{ "type": "Feature", "properties": { "addr:city": "Leeds", "addr:postcode": "LS17 8TT", "building": "house", "ref:GB:uprn": "72182852", "source:building": null, "osm_type": "way", "osm_id": 674100921, "source:addr:postcode": "ONSUD;OS Open UPRN", "addr:country": null }, "geometry": { "type": "Polygon", "coordinates": [ [ [ 433115.429021275660489, 439907.755046333419159 ], [ 433118.040382047998719, 439907.784638026845641 ], [ 433118.019249081262387, 439909.842897312599234 ], [ 433122.005396089050919, 439909.882213057600893 ], [ 433122.042236250650603, 439906.533386943396181 ], [ 433129.034344906918705, 439906.616221520933323 ], [ 433129.152953790151514, 439896.358396355062723 ], [ 433119.963794683513697, 439896.260024254675955 ], [ 433119.93230631458573, 439898.852283881162293 ], [ 433119.235044070577715, 439898.847353069577366 ], [ 433119.253423789399676, 439897.178503020084463 ], [ 433115.550196370575577, 439897.130063670454547 ], [ 433115.429021275660489, 439907.755046333419159 ] ] ] } },
{ "type": "Feature", "properties": { "addr:city": "Leeds", "addr:postcode": "LS17 8TT", "building": "house", "ref:GB:uprn": "72182851", "source:building": null, "osm_type": "way", "osm_id": 674100922, "source:addr:postcode": "ONSUD;OS Open UPRN", "addr:country": null }, "geometry": { "type": "Polygon", "coordinates": [ [ [ 433100.19689022260718, 439904.520811919122934 ], [ 433100.1316550350748, 439910.027984781074338 ], [ 433110.16276203392772, 439910.132270361180417 ], [ 433110.200852213660255, 439906.605428546783514 ], [ 433113.542364381020889, 439906.640179710811935 ], [ 433113.656406558700837, 439896.093032365548424 ], [ 433100.290406171989162, 439895.942915867897682 ], [ 433100.284194145409856, 439896.821868071565405 ], [ 433099.350204095710069, 439896.804140620399266 ], [ 433099.262823082797695, 439904.514210458612069 ], [ 433100.19689022260718, 439904.520811919122934 ] ] ] } },
{ "type": "Feature", "properties": { "addr:city": "Leeds", "addr:postcode": "LS17 8TU", "building": "house", "ref:GB:uprn": "72246423", "source:building": null, "osm_type": "way", "osm_id": 674101296, "source:addr:postcode": "ONSUD;OS Open UPRN", "addr:country": null }, "geometry": { "type": "Polygon", "coordinates": [ [ [ 433245.824503386276774, 439838.092122722999193 ], [ 433236.213919637957588, 439838.035037627094425 ], [ 433236.139725873246789, 439849.416957021690905 ], [ 433245.750207205186598, 439849.48516802827362 ], [ 433245.803258124215063, 439841.085010033100843 ], [ 433248.98702356958529, 439841.107611348619685 ], [ 433249.006454189599026, 439838.370621472829953 ], [ 433252.124441178806592, 439838.392757930560037 ], [ 433252.17657698597759, 439831.049614427494816 ], [ 433248.36789068300277, 439831.022574586677365 ], [ 433248.329842438106425, 439837.308797173667699 ], [ 433245.830189849250019, 439837.291052514803596 ], [ 433245.824503386276774, 439838.092122722999193 ] ] ] } },
{ "type": "Feature", "properties": { "addr:city": "Leeds", "addr:postcode": "LS17 8TU", "building": "house", "ref:GB:uprn": "72246424", "source:building": null, "osm_type": "way", "osm_id": 674101297, "source:addr:postcode": "ONSUD;OS Open UPRN", "addr:country": null }, "geometry": { "type": "Polygon", "coordinates": [ [ [ 433240.021354860742576, 439820.626777688506991 ], [ 433237.903220637119375, 439820.611745135392994 ], [ 433237.892166331643239, 439822.1693816218758 ], [ 433233.77430426835781, 439822.140159604372457 ], [ 433233.72695976938121, 439829.73924721009098 ], [ 433246.448975233652163, 439829.818413073313423 ], [ 433246.507318643794861, 439820.672815015073866 ], [ 433245.454829593771137, 439820.665343843167648 ], [ 433240.021354860742576, 439820.626777688506991 ] ] ] } },
{ "type": "Feature", "properties": { "addr:city": null, "addr:postcode": null, "building": "garage", "ref:GB:uprn": null, "source:building": null, "osm_type": "way", "osm_id": 674101298, "source:addr:postcode": null, "addr:country": null }, "geometry": { "type": "Polygon", "coordinates": [ [ [ 433245.479605518979952, 439816.248285159119405 ], [ 433240.052703706431203, 439816.209765679086559 ], [ 433240.021354860742576, 439820.626777688506991 ], [ 433245.454829593771137, 439820.665343843167648 ], [ 433245.479605518979952, 439816.248285159119405 ] ] ] } },
{ "type": "Feature", "properties": { "addr:city": null, "addr:postcode": null, "building": "garage", "ref:GB:uprn": null, "source:building": null, "osm_type": "way", "osm_id": 674101299, "source:addr:postcode": null, "addr:country": null }, "geometry": { "type": "Polygon", "coordinates": [ [ [ 433240.084230922686402, 439803.425600585411303 ], [ 433240.054461461724713, 439807.620093015488237 ], [ 433245.856323531130329, 439807.661274035228416 ], [ 433245.886177184176631, 439803.455655649071559 ], [ 433240.084230922686402, 439803.425600585411303 ] ] ] } },
{ "type": "Feature", "properties": { "addr:city": "Leeds", "addr:postcode": "LS17 8TU", "building": "house", "ref:GB:uprn": "72246425", "source:building": null, "osm_type": "way", "osm_id": 674101300, "source:addr:postcode": "ONSUD;OS Open UPRN", "addr:country": null }, "geometry": { "type": "Polygon", "coordinates": [ [ [ 433245.856323531130329, 439807.661274035228416 ], [ 433240.054461461724713, 439807.620093015488237 ], [ 433234.627549640659709, 439807.58157988183666 ], [ 433234.577178773761261, 439814.679951774887741 ], [ 433245.806014564121142, 439814.748519897228107 ], [ 433245.856323531130329, 439807.661274035228416 ] ] ] } },
{ "type": "Feature", "properties": { "addr:city": null, "addr:postcode": null, "building": "garage", "ref:GB:uprn": null, "source:building": null, "osm_type": "way", "osm_id": 674101301, "source:addr:postcode": null, "addr:country": null }, "geometry": { "type": "Polygon", "coordinates": [ [ [ 433240.114079333143309, 439799.219982207752764 ], [ 433240.084230922686402, 439803.425600585411303 ], [ 433245.886177184176631, 439803.455655649071559 ], [ 433245.909373758127913, 439799.261116569628939 ], [ 433240.114079333143309, 439799.219982207752764 ] ] ] } },
{ "type": "Feature", "properties": { "addr:city": null, "addr:postcode": null, "building": "house", "ref:GB:uprn": null, "source:building": null, "osm_type": "way", "osm_id": 674101302, "source:addr:postcode": null, "addr:country": null }, "geometry": { "type": "Polygon", "coordinates": [ [ [ 433247.857412677782122, 439798.217924311640672 ], [ 433251.600344867329113, 439798.244496608851478 ], [ 433251.635732997092418, 439793.260060094296932 ], [ 433247.892717827809975, 439793.244613757240586 ], [ 433247.857412677782122, 439798.217924311640672 ] ] ] } },
{ "type": "Feature", "properties": { "addr:city": "Leeds", "addr:postcode": "LS17 8TU", "building": "house", "ref:GB:uprn": "72246426", "source:building": null, "osm_type": "way", "osm_id": 674101303, "source:addr:postcode": null, "addr:country": null }, "geometry": { "type": "Polygon", "coordinates": [ [ [ 433247.901563857682049, 439791.998504633549601 ], [ 433237.731825888156891, 439791.926321553532034 ], [ 433237.68018722924171, 439799.202708857133985 ], [ 433240.114079333143309, 439799.219982207752764 ], [ 433245.909373758127913, 439799.261116569628939 ], [ 433247.849909343582112, 439799.274891883251257 ], [ 433247.857412677782122, 439798.217924311640672 ], [ 433247.892717827809975, 439793.244613757240586 ], [ 433247.901563857682049, 439791.998504633549601 ] ] ] } },
{ "type": "Feature", "properties": { "addr:city": null, "addr:postcode": null, "building": "garage", "ref:GB:uprn": null, "source:building": null, "osm_type": "way", "osm_id": 674101304, "source:addr:postcode": null, "addr:country": null }, "geometry": { "type": "Polygon", "coordinates": [ [ [ 433242.839083514874801, 439784.17399485828355 ], [ 433242.801493720151484, 439789.46995861956384 ], [ 433247.728490999375936, 439789.504932167707011 ], [ 433247.766086384828668, 439784.20896842633374 ], [ 433242.839083514874801, 439784.17399485828355 ] ] ] } },
{ "type": "Feature", "properties": { "addr:city": null, "addr:postcode": null, "building": "garage", "ref:GB:uprn": null, "source:building": null, "osm_type": "way", "osm_id": 674101305, "source:addr:postcode": null, "addr:country": null }, "geometry": { "type": "Polygon", "coordinates": [ [ [ 433248.334026974858716, 439774.633053721045144 ], [ 433241.847999202029314, 439774.587014094693586 ], [ 433241.806067434488796, 439780.494906364008784 ], [ 433248.29866511025466, 439780.540992659516633 ], [ 433248.334026974858716, 439774.633053721045144 ] ] ] } },
{ "type": "Feature", "properties": { "addr:city": "Leeds", "addr:postcode": "LS17 8TU", "building": "house", "ref:GB:uprn": "72246422", "source:building": null, "osm_type": "way", "osm_id": 674101306, "source:addr:postcode": "ONSUD;OS Open UPRN", "addr:country": null }, "geometry": { "type": "Polygon", "coordinates": [ [ [ 433233.618356679216959, 439765.315840405062772 ], [ 433221.639573683321942, 439765.230856754467823 ], [ 433221.573360517737456, 439774.565549085382372 ], [ 433233.552119555359241, 439774.650532657280564 ], [ 433233.618356679216959, 439765.315840405062772 ] ] ] } },
{ "type": "Feature", "properties": { "addr:city": "Leeds", "addr:postcode": "LS17 8TU", "building": "house", "ref:GB:uprn": "72246420", "source:building": null, "osm_type": "way", "osm_id": 674101307, "source:addr:postcode": "ONSUD;OS Open UPRN", "addr:country": null }, "geometry": { "type": "Polygon", "coordinates": [ [ [ 433219.785791248606984, 439772.461081382236443 ], [ 433219.873516308784019, 439759.16549565223977 ], [ 433212.907183844072279, 439759.127216313732788 ], [ 433212.883514400105923, 439762.465008539962582 ], [ 433200.135082087828778, 439762.37462237291038 ], [ 433200.087635768170003, 439769.995961385662667 ], [ 433212.836047262942884, 439770.08634750242345 ], [ 433212.819557526963763, 439772.411676124553196 ], [ 433219.785791248606984, 439772.461081382236443 ] ] ] } },
{ "type": "Feature", "properties": { "addr:city": "Leeds", "addr:postcode": "LS17 8TU", "building": "house", "ref:GB:uprn": "72246418", "source:building": null, "osm_type": "way", "osm_id": 674101308, "source:addr:postcode": "ONSUD;OS Open UPRN", "addr:country": null }, "geometry": { "type": "Polygon", "coordinates": [ [ [ 433194.553910720802378, 439785.022064381977543 ], [ 433194.627606994356029, 439773.695775674073957 ], [ 433186.57598504103953, 439773.638717040186748 ], [ 433186.502308306982741, 439784.965005801874213 ], [ 433178.325721821980551, 439784.907075725495815 ], [ 433178.278074229892809, 439792.56179300614167 ], [ 433191.506703700171784, 439792.644396895426326 ], [ 433191.507537313736975, 439791.598508648108691 ], [ 433197.618589639663696, 439791.641820682096295 ], [ 433197.665433967777062, 439785.03299172653351 ], [ 433194.553910720802378, 439785.022064381977543 ] ] ] } },
{ "type": "Feature", "properties": { "addr:city": "Leeds", "addr:postcode": "LS17 8TU", "building": "house", "ref:GB:uprn": "72246416", "source:building": null, "osm_type": "way", "osm_id": 674101309, "source:addr:postcode": "ONSUD;OS Open UPRN", "addr:country": null }, "geometry": { "type": "Polygon", "coordinates": [ [ [ 433202.878257657052018, 439806.922456491505727 ], [ 433202.906495069211815, 439802.939357477123849 ], [ 433194.729939964250661, 439802.881398541969247 ], [ 433194.644808497163467, 439815.820954136201181 ], [ 433206.373494993138593, 439815.904096707003191 ], [ 433206.436996609787457, 439806.947686847881414 ], [ 433202.878257657052018, 439806.922456491505727 ] ] ] } },
{ "type": "Feature", "properties": { "addr:city": "Leeds", "addr:postcode": "LS17 8TU", "building": "house", "ref:GB:uprn": "72246414", "source:building": null, "osm_type": "way", "osm_id": 674101310, "source:addr:postcode": "ONSUD;OS Open UPRN", "addr:country": null }, "geometry": { "type": "Polygon", "coordinates": [ [ [ 433194.241249615733977, 439829.136555281234905 ], [ 433191.557407517684624, 439829.117534293793142 ], [ 433191.537064455915242, 439831.988035952555947 ], [ 433206.508684141153935, 439832.09416289778892 ], [ 433206.566081612021662, 439823.070950333029032 ], [ 433203.257320966105908, 439823.0474919405533 ], [ 433203.283823563426267, 439819.309164282749407 ], [ 433194.30477402266115, 439819.245516626629978 ], [ 433194.241249615733977, 439829.136555281234905 ] ] ] } },
{ "type": "Feature", "properties": { "addr:city": "Leeds", "addr:postcode": "LS17 8TU", "building": "house", "ref:GB:uprn": "72246412", "source:building": null, "osm_type": "way", "osm_id": 674101311, "source:addr:postcode": "ONSUD;OS Open UPRN", "addr:country": null }, "geometry": { "type": "Polygon", "coordinates": [ [ [ 433206.133546930039302, 439847.891182487714104 ], [ 433206.187709779653233, 439839.324134696624242 ], [ 433203.549919724289794, 439839.305433265748434 ], [ 433203.578789034800138, 439835.233326255343854 ], [ 433195.487804966978729, 439835.175972036086023 ], [ 433195.398142683668993, 439847.826206257450394 ], [ 433206.133546930039302, 439847.891182487714104 ] ] ] } },
{ "type": "Feature", "properties": { "addr:city": null, "addr:postcode": null, "building": "garage", "ref:GB:uprn": null, "source:building": null, "osm_type": "way", "osm_id": 674101312, "source:addr:postcode": null, "addr:country": null }, "geometry": { "type": "Polygon", "coordinates": [ [ [ 433181.909008427639492, 439843.680558988358825 ], [ 433176.158554622088559, 439843.817845677025616 ], [ 433176.259614434035029, 439848.124530241708271 ], [ 433182.010062940593343, 439847.987243699608371 ], [ 433181.909008427639492, 439843.680558988358825 ] ] ] } },
{ "type": "Feature", "properties": { "addr:city": "Leeds", "addr:postcode": "LS17 8TT", "building": "house", "ref:GB:uprn": "72182858", "source:building": null, "osm_type": "way", "osm_id": 674101313, "source:addr:postcode": "ONSUD;OS Open UPRN", "addr:country": null }, "geometry": { "type": "Polygon", "coordinates": [ [ [ 433166.334133599535562, 439848.87759515712969 ], [ 433168.768551224609837, 439848.816949571250007 ], [ 433168.463616892579012, 439836.141667981632054 ], [ 433155.258587688091211, 439836.459850335726514 ], [ 433155.563557832152583, 439849.13513093336951 ], [ 433162.491784225800075, 439848.961652184603736 ], [ 433162.505767309223302, 439849.773988162749447 ], [ 433166.35477281967178, 439849.678851754986681 ], [ 433166.334133599535562, 439848.87759515712969 ] ] ] } },
{ "type": "Feature", "properties": { "addr:city": "Leeds", "addr:postcode": "LS17 8TT", "building": "house", "ref:GB:uprn": "72182862", "source:building": null, "osm_type": "way", "osm_id": 674101314, "source:addr:postcode": "ONSUD;OS Open UPRN", "addr:country": null }, "geometry": { "type": "Polygon", "coordinates": [ [ [ 433168.107440524210688, 439818.625981732155196 ], [ 433167.767091293120757, 439804.448368029436097 ], [ 433156.292401000624523, 439804.723169951001182 ], [ 433156.42006981105078, 439809.920164634357207 ], [ 433155.255514916207176, 439809.945300072198734 ], [ 433155.474810441024601, 439818.92596463568043 ], [ 433168.107440524210688, 439818.625981732155196 ] ] ] } },
{ "type": "Feature", "properties": { "addr:city": "Leeds", "addr:postcode": "LS17 8TT", "building": "house", "ref:GB:uprn": "72182860", "source:building": null, "osm_type": "way", "osm_id": 674101315, "source:addr:postcode": "ONSUD;OS Open UPRN", "addr:country": null }, "geometry": { "type": "Polygon", "coordinates": [ [ [ 433155.706836632278282, 439834.47137411555741 ], [ 433167.753900588490069, 439834.178371892310679 ], [ 433167.396890954696573, 439819.566705093136989 ], [ 433161.679298363742419, 439819.704242643900216 ], [ 433161.795537484111264, 439824.656373000587337 ], [ 433155.479270026844461, 439824.800805701874197 ], [ 433155.706836632278282, 439834.47137411555741 ] ] ] } },
{ "type": "Feature", "properties": { "addr:city": "Leeds", "addr:postcode": "LS17 8TT", "building": "house", "ref:GB:uprn": "72182864", "source:building": null, "osm_type": "way", "osm_id": 674101316, "source:addr:postcode": "ONSUD;OS Open UPRN", "addr:country": null }, "geometry": { "type": "Polygon", "coordinates": [ [ [ 433162.719143372552935, 439774.115073560737073 ], [ 433162.758611769997515, 439770.399091172032058 ], [ 433152.793064398516435, 439770.284033347503282 ], [ 433152.664954723266419, 439781.876973174628802 ], [ 433157.8286141079152, 439781.935780017403886 ], [ 433157.82317915459862, 439782.703472284832969 ], [ 433169.946241114172153, 439782.84494711458683 ], [ 433170.04693457268877, 439774.200344276730902 ], [ 433162.719143372552935, 439774.115073560737073 ] ] ] } },
{ "type": "Feature", "properties": { "addr:city": "Leeds", "addr:postcode": "LS17 8TT", "building": "house", "ref:GB:uprn": "72182865", "source:building": null, "osm_type": "way", "osm_id": 674101317, "source:addr:postcode": "ONSUD;OS Open UPRN", "addr:country": null }, "geometry": { "type": "Polygon", "coordinates": [ [ [ 433146.396969540626742, 439773.331938932649791 ], [ 433146.435952498635743, 439769.682712305919267 ], [ 433132.135574627027381, 439769.514769403380342 ], [ 433132.006335686834063, 439781.274599214782938 ], [ 433137.933056674606632, 439781.338782050297596 ], [ 433137.92746755463304, 439782.128726279246621 ], [ 433149.300705236266367, 439782.253715733648278 ], [ 433149.403014138690196, 439773.37546713266056 ], [ 433146.396969540626742, 439773.331938932649791 ] ] ] } },
{ "type": "Feature", "properties": { "addr:city": "Leeds", "addr:postcode": "LS17 8TT", "building": "house", "ref:GB:uprn": "72182863", "source:building": null, "osm_type": "way", "osm_id": 674101318, "source:addr:postcode": "ONSUD;OS Open UPRN", "addr:country": null }, "geometry": { "type": "Polygon", "coordinates": [ [ [ 433129.438764765218366, 439767.604182409239002 ], [ 433120.315133446711116, 439767.506275882013142 ], [ 433120.253022615157533, 439772.56840843136888 ], [ 433117.135070655669551, 439772.535234261536971 ], [ 433117.030541708751116, 439781.736136613064446 ], [ 433129.278669067309238, 439781.867263572174124 ], [ 433129.438764765218366, 439767.604182409239002 ] ] ] } },
{ "type": "Feature", "properties": { "addr:city": null, "addr:postcode": null, "building": "garage", "ref:GB:uprn": null, "source:building": null, "osm_type": "way", "osm_id": 674102144, "source:addr:postcode": null, "addr:country": null }, "geometry": { "type": "Polygon", "coordinates": [ [ [ 433365.40694363694638, 439716.995666067465208 ], [ 433359.267578024242539, 439717.218970633228309 ], [ 433359.38915857905522, 439720.468785311095417 ], [ 433365.522020990145393, 439720.234308086335659 ], [ 433365.40694363694638, 439716.995666067465208 ] ] ] } },
{ "type": "Feature", "properties": { "addr:city": null, "addr:postcode": null, "building": "house", "ref:GB:uprn": null, "source:building": null, "osm_type": "way", "osm_id": 674102146, "source:addr:postcode": null, "addr:country": null }, "geometry": { "type": "Polygon", "coordinates": [ [ [ 433349.445886216650251, 439704.275622465764172 ], [ 433349.269527664233465, 439699.478829650906846 ], [ 433344.08429986750707, 439699.66444223956205 ], [ 433343.957476176437922, 439696.225439749076031 ], [ 433320.057816181273665, 439697.112373508745804 ], [ 433320.489311260404065, 439708.586901235743426 ], [ 433347.600112040177919, 439707.57818782213144 ], [ 433348.201793857442681, 439723.782708769431338 ], [ 433356.881125444080681, 439723.466213602921925 ], [ 433356.478333958832081, 439712.592718660482205 ], [ 433358.978846009064, 439712.499262604047544 ], [ 433359.062145556963515, 439714.658404001616873 ], [ 433363.78022554225754, 439714.480606975499541 ], [ 433363.525260787806474, 439707.791742203407921 ], [ 433366.723304321756586, 439707.669879571418278 ], [ 433366.512884237687103, 439702.116238735266961 ], [ 433357.649242623825558, 439702.442530256928876 ], [ 433357.704168731172103, 439703.967256934498437 ], [ 433349.445886216650251, 439704.275622465764172 ] ] ] } },
{ "type": "Feature", "properties": { "addr:city": null, "addr:postcode": null, "building": "garage", "ref:GB:uprn": null, "source:building": null, "osm_type": "way", "osm_id": 674102148, "source:addr:postcode": null, "addr:country": null }, "geometry": { "type": "Polygon", "coordinates": [ [ [ 433175.742846762994304, 439710.263126542791724 ], [ 433168.212054885108955, 439710.03176548157353 ], [ 433167.782293598109391, 439724.270682631642558 ], [ 433175.313062505796552, 439724.50204308971297 ], [ 433175.742846762994304, 439710.263126542791724 ] ] ] } },
{ "type": "Feature", "properties": { "addr:city": null, "addr:postcode": null, "building": "garage", "ref:GB:uprn": null, "source:building": null, "osm_type": "way", "osm_id": 674102150, "source:addr:postcode": null, "addr:country": null }, "geometry": { "type": "Polygon", "coordinates": [ [ [ 433218.192297701200005, 439705.890856713755056 ], [ 433224.887818840390537, 439706.094119985238649 ], [ 433225.103654896782245, 439698.852278161561117 ], [ 433218.408123370725662, 439698.649014620226808 ], [ 433218.192297701200005, 439705.890856713755056 ] ] ] } },
{ "type": "Feature", "properties": { "addr:city": null, "addr:postcode": null, "building": "house", "ref:GB:uprn": null, "source:building": null, "osm_type": "way", "osm_id": 674102152, "source:addr:postcode": null, "addr:country": null }, "geometry": { "type": "Polygon", "coordinates": [ [ [ 433189.517183541727718, 439711.350975574459881 ], [ 433189.060290563560557, 439726.624466743553057 ], [ 433205.33862586657051, 439727.118148153880611 ], [ 433205.449778132315259, 439723.502813029102981 ], [ 433215.197082503815182, 439723.794458993361332 ], [ 433215.516143811168149, 439713.12637662421912 ], [ 433205.76881716423668, 439712.834730083588511 ], [ 433205.854319260921329, 439710.053703125333413 ], [ 433196.830431480018888, 439709.789457425707951 ], [ 433196.77834485436324, 439711.569333419320174 ], [ 433189.517183541727718, 439711.350975574459881 ] ] ] } },
{ "type": "Feature", "properties": { "addr:city": null, "addr:postcode": null, "building": "farm_auxiliary", "ref:GB:uprn": "72732085", "source:building": null, "osm_type": "way", "osm_id": 674105415, "source:addr:postcode": null, "addr:country": null }, "geometry": { "type": "Polygon", "coordinates": [ [ [ 433124.627397526055574, 439457.262390298070386 ], [ 433124.147017335053533, 439454.488488197908737 ], [ 433118.027814855915494, 439455.535619074595161 ], [ 433118.508119891921524, 439458.320646504871547 ], [ 433124.627397526055574, 439457.262390298070386 ] ] ] } },
{ "type": "Feature", "properties": { "addr:city": null, "addr:postcode": null, "building": "farm_auxiliary", "ref:GB:uprn": null, "source:building": null, "osm_type": "way", "osm_id": 674105416, "source:addr:postcode": null, "addr:country": null }, "geometry": { "type": "Polygon", "coordinates": [ [ [ 433124.995766724052373, 439458.199623518972658 ], [ 433126.424139034526888, 439466.465607425197959 ], [ 433137.167457942152396, 439464.605582374846563 ], [ 433135.739025283721276, 439456.350721105118282 ], [ 433124.995766724052373, 439458.199623518972658 ] ] ] } },
{ "type": "Feature", "properties": { "addr:city": null, "addr:postcode": null, "building": "farm_auxiliary", "ref:GB:uprn": null, "source:building": null, "osm_type": "way", "osm_id": 674105417, "source:addr:postcode": null, "addr:country": null }, "geometry": { "type": "Polygon", "coordinates": [ [ [ 433087.896388267923612, 439471.378253768431023 ], [ 433093.053129505191464, 439470.602446921751834 ], [ 433091.959474775241688, 439463.373605343629606 ], [ 433086.80272576934658, 439464.149413417209871 ], [ 433087.896388267923612, 439471.378253768431023 ] ] ] } },
{ "type": "Feature", "properties": { "addr:city": null, "addr:postcode": null, "building": "farm_auxiliary", "ref:GB:uprn": null, "source:building": null, "osm_type": "way", "osm_id": 674105418, "source:addr:postcode": null, "addr:country": null }, "geometry": { "type": "Polygon", "coordinates": [ [ [ 433092.575320076779462, 439476.77429293980822 ], [ 433092.307528445438948, 439471.843350174836814 ], [ 433086.96346884756349, 439472.128267545020208 ], [ 433087.783214710070752, 439487.399651166982949 ], [ 433098.741176629904658, 439486.809478496084921 ], [ 433098.182673642062582, 439476.468989449902438 ], [ 433092.575320076779462, 439476.77429293980822 ] ] ] } },
{ "type": "Feature", "properties": { "addr:city": null, "addr:postcode": null, "building": "house", "ref:GB:uprn": null, "source:building": null, "osm_type": "way", "osm_id": 682205581, "source:addr:postcode": null, "addr:country": null }, "geometry": { "type": "Polygon", "coordinates": [ [ [ 433398.560495273035485, 439977.448354826658033 ], [ 433398.124524105049204, 439969.400755802169442 ], [ 433389.04304867767496, 439969.903453524573706 ], [ 433389.485692591872066, 439977.939972567604855 ], [ 433398.560495273035485, 439977.448354826658033 ] ] ] } },
{ "type": "Feature", "properties": { "addr:city": "Leeds", "addr:postcode": "LS17 8ES", "building": "house", "ref:GB:uprn": "72182690", "source:building": null, "osm_type": "way", "osm_id": 682205582, "source:addr:postcode": null, "addr:country": null }, "geometry": { "type": "Polygon", "coordinates": [ [ [ 433416.313804194738623, 439967.472098155762069 ], [ 433416.203432452108245, 439965.424026818829589 ], [ 433410.682152767956723, 439965.729556430713274 ], [ 433410.856390097585972, 439968.968623262946494 ], [ 433407.48710308293812, 439969.144864906789735 ], [ 433408.360122642072383, 439985.084301295923069 ], [ 433421.231987103063148, 439984.386159196612425 ], [ 433420.295150538207963, 439967.255724477232434 ], [ 433416.313804194738623, 439967.472098155762069 ] ] ] } },
{ "type": "Feature", "properties": { "addr:city": null, "addr:postcode": null, "building": "house", "ref:GB:uprn": "72102055", "source:building": null, "osm_type": "way", "osm_id": 682206689, "source:addr:postcode": null, "addr:country": null }, "geometry": { "type": "Polygon", "coordinates": [ [ [ 433962.72539872280322, 440012.738119414076209 ], [ 433963.488375811895821, 440008.21514416881837 ], [ 433953.39665873919148, 440006.51748503127601 ], [ 433952.633691200404428, 440011.040461876080371 ], [ 433962.72539872280322, 440012.738119414076209 ] ] ] } },
{ "type": "Feature", "properties": { "addr:city": null, "addr:postcode": null, "building": "house", "ref:GB:uprn": null, "source:building": null, "osm_type": "way", "osm_id": 682206705, "source:addr:postcode": null, "addr:country": null }, "geometry": { "type": "Polygon", "coordinates": [ [ [ 433964.993793788657058, 439999.280310722417198 ], [ 433959.533928106247913, 439998.372841766336933 ], [ 433954.276613352471031, 440001.283256916678511 ], [ 433953.39665873919148, 440006.51748503127601 ], [ 433963.488375811895821, 440008.21514416881837 ], [ 433964.993793788657058, 439999.280310722417198 ] ] ] } },
{ "type": "Feature", "properties": { "addr:city": null, "addr:postcode": null, "building": "house", "ref:GB:uprn": null, "source:building": null, "osm_type": "way", "osm_id": 682206884, "source:addr:postcode": null, "addr:country": null }, "geometry": { "type": "Polygon", "coordinates": [ [ [ 433994.391766580636613, 440012.845498165115714 ], [ 434005.087966101709753, 440014.636648261686787 ], [ 434004.957164812367409, 440010.90830130665563 ], [ 434003.160942715592682, 440010.962017480866052 ], [ 434002.959008611564059, 440005.252626715111546 ], [ 433994.135432033683173, 440005.566868266789243 ], [ 433994.391766580636613, 440012.845498165115714 ] ] ] } },
{ "type": "Feature", "properties": { "addr:city": "Leeds", "addr:postcode": "LS17 8HQ", "building": "house", "ref:GB:uprn": "72126349", "source:building": null, "osm_type": "way", "osm_id": 682206885, "source:addr:postcode": "ONSUD;OS Open UPRN", "addr:country": "GB" }, "geometry": { "type": "Polygon", "coordinates": [ [ [ 433977.459562747448217, 439990.191332286107354 ], [ 433981.058260084246285, 439997.382947848411277 ], [ 433984.715851915301755, 439995.551355414208956 ], [ 433985.785687857714947, 439997.695418721297756 ], [ 433986.197909764654469, 439997.998827500035986 ], [ 433986.676878707308788, 439998.169202054152265 ], [ 433987.189947918290272, 439998.172925782739185 ], [ 433987.684414216259029, 439998.020742739667185 ], [ 433988.100996596913319, 439997.723349214764312 ], [ 433988.39998595463112, 439997.31383664754685 ], [ 433988.561406581895426, 439996.825439703767188 ], [ 433988.551965610939078, 439996.31354952021502 ], [ 433987.482049853017088, 439994.180611553136259 ], [ 433990.888720533519518, 439992.480721463449299 ], [ 433987.290034339646809, 439985.289098329958506 ], [ 433977.459562747448217, 439990.191332286107354 ] ] ] } },
{ "type": "Feature", "properties": { "addr:city": null, "addr:postcode": null, "building": "yes", "ref:GB:uprn": null, "source:building": null, "osm_type": "way", "osm_id": 682206886, "source:addr:postcode": null, "addr:country": null }, "geometry": { "type": "Polygon", "coordinates": [ [ [ 433979.266013188636862, 440005.047267574234866 ], [ 433975.480348174925894, 440004.585864105378278 ], [ 433974.837009432492778, 440009.844058306189254 ], [ 433978.622670229757205, 440010.305461273761466 ], [ 433979.266013188636862, 440005.047267574234866 ] ] ] } },
{ "type": "Feature", "properties": { "addr:city": null, "addr:postcode": null, "building": "yes", "ref:GB:uprn": null, "source:building": null, "osm_type": "way", "osm_id": 682207161, "source:addr:postcode": null, "addr:country": null }, "geometry": { "type": "Polygon", "coordinates": [ [ [ 433936.25565987022128, 439953.642231336096302 ], [ 433938.942933368787635, 439952.270886731217615 ], [ 433936.426194163737819, 439947.356963197817095 ], [ 433933.738918618299067, 439948.72830924927257 ], [ 433936.25565987022128, 439953.642231336096302 ] ] ] } },
{ "type": "Feature", "properties": { "addr:city": null, "addr:postcode": null, "building": "yes", "ref:GB:uprn": "72687328", "source:building": null, "osm_type": "way", "osm_id": 682207163, "source:addr:postcode": null, "addr:country": null }, "geometry": { "type": "Polygon", "coordinates": [ [ [ 433944.785396851191763, 439955.762465167790651 ], [ 433953.087778969085775, 439972.000666309031658 ], [ 433960.396808068093378, 439968.281762975268066 ], [ 433952.094444379443303, 439952.043548849760555 ], [ 433944.785396851191763, 439955.762465167790651 ] ] ] } },
{ "type": "Feature", "properties": { "addr:city": null, "addr:postcode": null, "building": "farm_auxiliary", "ref:GB:uprn": null, "source:building": null, "osm_type": "way", "osm_id": 682492539, "source:addr:postcode": null, "addr:country": null }, "geometry": { "type": "Polygon", "coordinates": [ [ [ 433597.295414239051752, 439218.760254813591018 ], [ 433593.612803605676163, 439232.274835371645167 ], [ 433599.351897898362949, 439233.829206498921849 ], [ 433603.027945145848207, 439220.314583184430376 ], [ 433597.295414239051752, 439218.760254813591018 ] ] ] } },
{ "type": "Feature", "properties": { "addr:city": null, "addr:postcode": null, "building": "farm_auxiliary", "ref:GB:uprn": "72686292", "source:building": null, "osm_type": "way", "osm_id": 682492541, "source:addr:postcode": null, "addr:country": null }, "geometry": { "type": "Polygon", "coordinates": [ [ [ 433598.241068910167087, 439209.832430485053919 ], [ 433576.512496002193075, 439203.946465710992925 ], [ 433574.674701648182236, 439210.675972230033949 ], [ 433596.409744417178445, 439216.573101766989566 ], [ 433598.241068910167087, 439209.832430485053919 ] ] ] } },
{ "type": "Feature", "properties": { "addr:city": null, "addr:postcode": null, "building": "yes", "ref:GB:uprn": null, "source:building": null, "osm_type": "way", "osm_id": 682492543, "source:addr:postcode": null, "addr:country": null }, "geometry": { "type": "Polygon", "coordinates": [ [ [ 433590.415839248395059, 439193.665088645997457 ], [ 433588.915743409190327, 439199.173092613345943 ], [ 433594.865006953128614, 439200.784597398131154 ], [ 433596.365029551438056, 439195.287721265922301 ], [ 433590.415839248395059, 439193.665088645997457 ] ] ] } },
{ "type": "Feature", "properties": { "addr:city": null, "addr:postcode": null, "building": "farm", "ref:GB:uprn": "72170928", "source:building": null, "osm_type": "way", "osm_id": 682492544, "source:addr:postcode": null, "addr:country": null }, "geometry": { "type": "Polygon", "coordinates": [ [ [ 433572.903929237218108, 439186.941511237062514 ], [ 433571.606483136478346, 439191.716621734434739 ], [ 433581.850254550750833, 439194.493796294904314 ], [ 433583.674588255002163, 439187.808702214271761 ], [ 433581.881964611471631, 439187.317409518640488 ], [ 433583.92930944939144, 439179.810550889465958 ], [ 433573.101015560154337, 439176.884537846432067 ], [ 433571.607673612306826, 439182.370342408306897 ], [ 433576.046595800493378, 439183.581570074427873 ], [ 433574.978970339579973, 439187.501583910430782 ], [ 433572.903929237218108, 439186.941511237062514 ] ] ] } },
{ "type": "Feature", "properties": { "addr:city": null, "addr:postcode": null, "building": "farm_auxiliary", "ref:GB:uprn": "72675802;72675801", "source:building": null, "osm_type": "way", "osm_id": 682492545, "source:addr:postcode": null, "addr:country": null }, "geometry": { "type": "Polygon", "coordinates": [ [ [ 433644.134435590705834, 439213.989359405706637 ], [ 433619.456579555408098, 439212.944307494326495 ], [ 433618.482081473863218, 439235.96924097079318 ], [ 433643.153236992133316, 439237.014240973512642 ], [ 433644.134435590705834, 439213.989359405706637 ] ] ] } }
]
}
