{
"type": "FeatureCollection",
"name": "se3338_rgb_250_03_osm_road_buffers",
"crs": { "type": "name", "properties": { "name": "urn:ogc:def:crs:EPSG::27700" } },
"features": [
{ "type": "Feature", "properties": { "highway": "unclassified", "lit": "yes", "name": "Mansion Lane", "source": "npe", "surface": "asphalt", "osm_type": "way", "osm_id": 6009221, "lanes": null, "cycleway:left": null, "maxspeed": null, "not:name": null, "ref": null, "sidewalk:left": null }, "geometry": { "type": "Polygon", "coordinates": [ [ [ 432732.392365173902363, 438299.949911878036801 ], [ 432787.966313648619689, 438292.333442725881469 ], [ 432791.491348605137318, 438292.024799601756968 ], [ 432796.690814793808386, 438291.571839555806946 ], [ 432808.455495548492763, 438290.552844124671537 ], [ 432811.677434044075198, 438290.274606202438008 ], [ 432812.705219949886668, 438290.331473524158355 ], [ 432812.724235611793119, 438290.332489341206383 ], [ 432873.423284170858096, 438293.459127626556437 ], [ 432883.85344375972636, 438295.294796488364227 ], [ 432940.048929359705653, 438305.169496282527689 ], [ 432940.464983330050018, 438305.224720548721962 ], [ 432940.884203010762576, 438305.244857210258488 ], [ 432984.511226010858081, 438305.50723983097123 ], [ 432984.541814887081273, 438305.507330228807405 ], [ 433005.582149707479402, 438305.505149154691026 ], [ 433012.603637811727822, 438307.692245955928229 ], [ 433013.030747623241041, 438307.80484996153973 ], [ 433013.466128651285544, 438307.879320180800278 ], [ 433023.952756381302606, 438309.19938263221411 ], [ 433024.402075294405222, 438309.235463856137358 ], [ 433024.85281779745128, 438309.230932154634502 ], [ 433025.301320447586477, 438309.185824359417893 ], [ 433025.743938006518874, 438309.100507087423466 ], [ 433026.177073067461606, 438308.975673761044163 ], [ 433036.084601675916929, 438305.629672000126448 ], [ 433036.456797156715766, 438305.487209152372088 ], [ 433041.698504388157744, 438303.237466363701969 ], [ 433042.258664199849591, 438303.000586127687711 ], [ 433047.557623926259112, 438301.804113699181471 ], [ 433045.355132326192688, 438292.049677234084811 ], [ 433039.620941826957278, 438293.344422087131534 ], [ 433039.191792493045796, 438293.461609780497383 ], [ 433038.774757895909715, 438293.616478276671842 ], [ 433037.791326937440317, 438294.032351305475459 ], [ 433037.766719006642234, 438294.042835181287955 ], [ 433032.695978539413773, 438296.219198968086857 ], [ 433024.063892282429151, 438299.134454321640078 ], [ 433015.154610498342663, 438298.012949043186381 ], [ 433007.829553257033695, 438295.731294638360851 ], [ 433007.342170860792976, 438295.606005702225957 ], [ 433006.844663132389542, 438295.53034211875638 ], [ 433006.342069604550488, 438295.505070326500572 ], [ 432984.556072851934005, 438295.507328697131015 ], [ 432941.36515227961354, 438295.247568893420976 ], [ 432885.586107865558006, 438285.446046540047973 ], [ 432874.854003812361043, 438283.557236588094383 ], [ 432874.24455402197782, 438283.488173777412158 ], [ 432813.248167383484542, 438280.346219459199347 ], [ 432811.876295895606745, 438280.270313906425145 ], [ 432811.169883318187203, 438280.281218256393913 ], [ 432807.594488046015613, 438280.589979752956424 ], [ 432795.826657115540002, 438281.609247872023843 ], [ 432790.622379659500439, 438282.062626436876599 ], [ 432786.972347942297347, 438282.382213480188511 ], [ 432786.729557703598402, 438282.409463379939552 ], [ 432730.958767314848956, 438290.052909927151632 ], [ 432730.807560910470784, 438290.075994424230885 ], [ 432721.162333394808229, 438291.699861136672553 ], [ 432722.82256429066183, 438301.561079792270903 ], [ 432732.392365173902363, 438299.949911878036801 ] ] ] } },
{ "type": "Feature", "properties": { "highway": "tertiary", "lit": null, "name": "Park Lane", "source": "OS_OpenData_StreetView", "surface": "asphalt", "osm_type": "way", "osm_id": 23005301, "lanes": "2", "cycleway:left": null, "maxspeed": null, "not:name": null, "ref": null, "sidewalk:left": null }, "geometry": { "type": "Polygon", "coordinates": [ [ [ 432712.735960765217897, 438572.869273438467644 ], [ 432721.364737737283576, 438579.413489562866744 ], [ 432768.948728646850213, 438637.923109656490851 ], [ 432769.05516360985348, 438638.050853030290455 ], [ 432842.912100269459188, 438724.583251722797286 ], [ 432910.447556749917567, 438805.306384423281997 ], [ 432917.719571556663141, 438815.565258374321274 ], [ 432927.603721248626243, 438831.147866528190207 ], [ 432939.493494025955442, 438850.235282809881028 ], [ 432942.305778550216928, 438854.979625010921154 ], [ 432963.301089543791022, 438890.836010723549407 ], [ 432983.42191642022226, 438929.060125570511445 ], [ 432995.341193868487608, 438956.786366579064634 ], [ 432995.555235097301193, 438957.23893392510945 ], [ 433002.08540688327048, 438969.857900283590425 ], [ 433002.373967971943785, 438970.362936720368452 ], [ 433002.703462314850185, 438970.842272492358461 ], [ 433012.096430732344743, 438983.359032233711332 ], [ 433012.692820123629645, 438984.053963309677783 ], [ 433025.547137520683464, 438997.186487801198382 ], [ 433042.747946347517427, 439017.091002886008937 ], [ 433048.505168969044462, 439030.822820852743462 ], [ 433052.452906889491715, 439046.246970055333804 ], [ 433053.369821049156599, 439062.851185433100909 ], [ 433051.01721524936147, 439076.891836776281707 ], [ 433042.756741794699337, 439097.785912361985538 ], [ 433032.451306766248308, 439118.512360367283691 ], [ 433025.367347517923918, 439130.480505772924516 ], [ 433015.893142474582419, 439143.177258797804825 ], [ 433004.759911940898746, 439153.536709099891596 ], [ 432993.958717546192929, 439162.037655930325855 ], [ 432971.929946011805441, 439176.174057042691857 ], [ 432971.406556916539557, 439176.544846384495031 ], [ 432970.91930543014314, 439176.961987691465765 ], [ 432970.472282683942467, 439177.421978501603007 ], [ 432964.689234335848596, 439183.94591946923174 ], [ 432964.284839425119571, 439184.446741577179637 ], [ 432963.928160280338489, 439184.982594183122274 ], [ 432963.622213082388043, 439185.548945964023005 ], [ 432959.783103216206655, 439193.510767647356261 ], [ 432972.393632754450664, 439199.591437410272192 ], [ 432975.810536715143826, 439192.505216647521593 ], [ 432980.306274585716892, 439187.433509356109425 ], [ 433001.803619016776793, 439173.638138004927896 ], [ 433002.352289140457287, 439173.247545284684747 ], [ 433013.645788420049939, 439164.359135966515169 ], [ 433014.084995290264487, 439163.983074238756672 ], [ 433025.893363963754382, 439152.995409153401852 ], [ 433026.335420108167455, 439152.545238047896419 ], [ 433026.735146929335315, 439152.057092447183095 ], [ 433036.81120293965796, 439138.553775383392349 ], [ 433037.224829439946916, 439137.932997408963274 ], [ 433044.629290944256354, 439125.423372659890447 ], [ 433044.873389498563483, 439124.974345367401838 ], [ 433055.425083657202777, 439103.752617245889269 ], [ 433055.666840836929623, 439103.20972978475038 ], [ 433064.308507872687187, 439081.351461584796198 ], [ 433064.542837025423069, 439080.653414251981303 ], [ 433064.702543904422782, 439079.934613901714329 ], [ 433067.305789480742533, 439064.398112418304663 ], [ 433067.391282288881484, 439063.629113456525374 ], [ 433067.391382362169679, 439062.855376800114755 ], [ 433066.393780207261443, 439044.789998631982598 ], [ 433066.322799970919732, 439044.1100634081522 ], [ 433066.185833991214167, 439043.440294475643896 ], [ 433061.940671347547323, 439026.854081478551961 ], [ 433061.614841810951475, 439025.883175687282346 ], [ 433055.228334774379618, 439010.650422355509363 ], [ 433054.908370504388586, 439009.987386241205968 ], [ 433054.520539609191474, 439009.361621733114589 ], [ 433054.069131926051341, 439008.780050476547331 ], [ 433035.997879053698853, 438987.8682707445696 ], [ 433035.703957632416859, 438987.548740506230388 ], [ 433023.018694267608225, 438974.588928897923324 ], [ 433014.251175514946226, 438962.905622739810497 ], [ 433008.104144831071608, 438951.027041908120736 ], [ 432996.175182713544928, 438923.278272732452024 ], [ 432995.938481138611678, 438922.78228907706216 ], [ 432975.61588891869178, 438884.174874790711328 ], [ 432975.462298500642646, 438883.898431010951754 ], [ 432954.377581371751148, 438847.889354972692672 ], [ 432954.358518893423025, 438847.856998894421849 ], [ 432951.497372094425373, 438843.030225719499867 ], [ 432951.417347483162303, 438842.898549538920633 ], [ 432939.471723362570629, 438823.72147150686942 ], [ 432939.441296950331889, 438823.673067621537484 ], [ 432929.445493864943273, 438807.914435112266801 ], [ 432929.245138198486529, 438807.615814107412007 ], [ 432921.707019027031492, 438796.981537849234883 ], [ 432921.365075095556676, 438796.537897984613664 ], [ 432853.627639195648953, 438715.573345260811038 ], [ 432853.583128663303796, 438715.520672512124293 ], [ 432779.757783124863636, 438629.02528666658327 ], [ 432731.6955956054735, 438569.92767255572835 ], [ 432731.129950363363605, 438569.311371713934932 ], [ 432730.494825247034896, 438568.766947840340436 ], [ 432720.159527495445218, 438560.92847636109218 ], [ 432719.630053078290075, 438560.563957639213186 ], [ 432719.069372240046505, 438560.249546992650721 ], [ 432718.482213202922139, 438559.987895846657921 ], [ 432717.873527479765471, 438559.781210705754347 ], [ 432711.405140995688271, 438557.91130600089673 ], [ 432707.517168419726659, 438571.360605954774655 ], [ 432712.735960765217897, 438572.869273438467644 ] ] ] } },
{ "type": "Feature", "properties": { "highway": "trunk", "lit": "yes", "name": "Ring Road Shadwell", "source": null, "surface": null, "osm_type": "way", "osm_id": 723018803, "lanes": "2", "cycleway:left": "separate", "maxspeed": "40 mph", "not:name": "Ring Road (Shadwell)", "ref": "A6120", "sidewalk:left": "separate" }, "geometry": { "type": "Polygon", "coordinates": [ [ [ 433127.315561876865104, 439224.544926861883141 ], [ 433128.073199717444368, 439224.417549921141472 ], [ 433148.049905906780623, 439220.397536370612215 ], [ 433149.022195381985512, 439220.1592860124656 ], [ 433166.077695380197838, 439215.217428214557003 ], [ 433166.513140248600394, 439215.08223908249056 ], [ 433174.895044659206178, 439212.304321285744663 ], [ 433175.532540886313654, 439212.072852315206546 ], [ 433183.687344863719773, 439208.848280023492407 ], [ 433184.486246991262306, 439208.498292764474172 ], [ 433205.796932570461649, 439198.223728783836123 ], [ 433207.193491365527734, 439197.431126017472707 ], [ 433224.313914338767063, 439186.136682734708302 ], [ 433225.63629835966276, 439185.12602198892273 ], [ 433244.776626308448613, 439168.27158320217859 ], [ 433245.290886915056035, 439167.791247662855312 ], [ 433261.173185994790401, 439152.05979021533858 ], [ 433261.424738691246603, 439151.803049846144859 ], [ 433285.689705455617514, 439126.284121115051676 ], [ 433326.303065182524733, 439084.854148672078736 ], [ 433346.18275377782993, 439067.722492246015463 ], [ 433365.871933551505208, 439053.69102954340633 ], [ 433378.123580088547897, 439046.615064756653737 ], [ 433395.718390554713551, 439037.794984072213992 ], [ 433416.877281981986016, 439031.258120280632284 ], [ 433441.424888280918822, 439025.772695108666085 ], [ 433462.161967714317143, 439021.774384680669755 ], [ 433537.620555171160959, 439016.099602267611772 ], [ 433629.327613918867428, 439009.962374526890926 ], [ 433629.445402978861239, 439009.953909457486589 ], [ 433655.541169505624566, 439007.949386506399605 ], [ 433656.119078158866614, 439007.890895238146186 ], [ 433676.711977207451127, 439005.301756722270511 ], [ 433677.744495847669896, 439005.125868982460815 ], [ 433696.769207250035834, 439001.023459400457796 ], [ 433697.87645131588215, 439000.728738481237087 ], [ 433714.435650629922748, 438995.462630204448942 ], [ 433715.519994173315354, 438995.059267208853271 ], [ 433730.990189586183988, 438988.439066321763676 ], [ 433731.85691722977208, 438988.026401120121591 ], [ 433747.126798120618332, 438979.991738450014964 ], [ 433747.844862092344556, 438979.581717631488573 ], [ 433986.946385992341675, 438831.902860060508829 ], [ 433986.983477684145328, 438831.87985742778983 ], [ 434077.787506361142732, 438775.338300996983889 ], [ 434094.549966809281614, 438764.903932384448126 ], [ 434112.534457899513654, 438753.899196842452511 ], [ 434112.667604719055817, 438753.816524263878819 ], [ 434118.063734436116647, 438750.416974559135269 ], [ 434196.922722164541483, 438702.9557177562383 ], [ 434197.330168674932793, 438702.69922344898805 ], [ 434233.761089621984866, 438678.731640654033981 ], [ 434234.323817750846501, 438678.337900931015611 ], [ 434271.327107194869313, 438650.836544853053056 ], [ 434257.010904203576501, 438631.573981889872812 ], [ 434220.283342758833896, 438658.87041310837958 ], [ 434184.340571944077965, 438682.516846220358275 ], [ 434105.582971192838158, 438729.917083303153049 ], [ 434105.374462359177414, 438730.045490401156712 ], [ 434099.941036807664204, 438733.468536398548167 ], [ 434081.984167303191498, 438744.456370253115892 ], [ 434081.90590884553967, 438744.504669835267123 ], [ 434065.10370550287189, 438754.963777776050847 ], [ 433974.316082541714422, 438811.495118613354862 ], [ 433735.585089883650653, 438958.945120969961863 ], [ 433721.10641279281117, 438966.563470265944488 ], [ 433706.610278968699276, 438972.76683844847139 ], [ 433691.149563727725763, 438977.683610023697838 ], [ 433673.197935272706673, 438981.554624465294182 ], [ 433653.41338349529542, 438984.042129741050303 ], [ 433627.666153020400088, 438986.019880207255483 ], [ 433535.96867857844336, 438992.156466546235606 ], [ 433535.870045354415197, 438992.163475600304082 ], [ 433459.67087977915071, 438997.893952399143018 ], [ 433458.298912922502495, 438998.077182889624964 ], [ 433436.708059006312396, 439002.240109334525187 ], [ 433436.362946750654373, 439002.311923178320285 ], [ 433411.175840733223595, 439007.940251402033027 ], [ 433410.250712212466169, 439008.186102283885702 ], [ 433387.685902428172994, 439015.157312876312062 ], [ 433386.752921266714111, 439015.488287162035704 ], [ 433385.850395543850027, 439015.895036648900714 ], [ 433367.051396310678683, 439025.318763624702115 ], [ 433366.427443529770244, 439025.654957764782012 ], [ 433353.372666546958499, 439033.194772266433574 ], [ 433352.409980420139618, 439033.813804991077632 ], [ 433331.803794961306266, 439048.498770339181647 ], [ 433330.93435456068255, 439049.18085634423187 ], [ 433310.253351060091518, 439067.003059384238441 ], [ 433309.517736308684107, 439067.692929403914604 ], [ 433268.487107332330197, 439109.548561128030997 ], [ 433268.360170563682914, 439109.680038162332494 ], [ 433244.156089609547053, 439135.134934633795638 ], [ 433228.651575038384181, 439150.492195569153409 ], [ 433210.401485650567338, 439166.562715116248 ], [ 433194.649087305704597, 439176.954664541292004 ], [ 433174.456343839585315, 439186.690232827793807 ], [ 433167.022830958885606, 439189.629592220298946 ], [ 433159.179384571209084, 439192.229055091796909 ], [ 433142.824063014995772, 439196.968035091122147 ], [ 433123.715253799804486, 439200.813397347112186 ], [ 433069.179339973197784, 439208.195770611520857 ], [ 433072.398789335216861, 439231.978855899302289 ], [ 433127.315561876865104, 439224.544926861883141 ] ] ] } }
]
}
