{
"type": "FeatureCollection",
"name": "se3337_rgb_250_03_osm_road_buffers",
"crs": { "type": "name", "properties": { "name": "urn:ogc:def:crs:EPSG::27700" } },
"features": [
{ "type": "Feature", "properties": { "bicycle": "yes", "foot": "yes", "highway": "residential", "horse": "yes", "motorcar": "yes", "name": "Park Avenue", "surface": "asphalt", "osm_type": "way", "osm_id": 2447290, "source": null, "source:name": null, "lanes": null, "sidewalk": null, "cycleway:both": null, "lane_markings": null, "lit": null, "maxspeed": null, "not:name": null }, "geometry": { "type": "Polygon", "coordinates": [ [ [ 433203.313739486504346, 437798.464496145199519 ], [ 433203.266407738556154, 437797.950287797721103 ], [ 433203.166293660004158, 437797.443703460972756 ], [ 433202.098782571440097, 437793.205985157284886 ], [ 433200.725775818806142, 437787.441875190997962 ], [ 433200.680568011244759, 437787.266274765017442 ], [ 433197.80750169995008, 437776.889525308040902 ], [ 433196.924000140104908, 437772.308059046743438 ], [ 433196.009894348273519, 437759.543219610874075 ], [ 433195.968113504059147, 437755.600629839638714 ], [ 433195.882622022589203, 437747.533387457602657 ], [ 433196.236373635882046, 437738.322340431564953 ], [ 433197.003658480709419, 437729.527037024789024 ], [ 433199.650886246410664, 437716.4085453042062 ], [ 433202.859551316942088, 437705.739512441854458 ], [ 433203.015929286251776, 437705.042240221286193 ], [ 433203.520145852933638, 437701.685609318898059 ], [ 433203.564826144312974, 437701.271232820348814 ], [ 433204.822753126209136, 437682.158228960062843 ], [ 433207.206934280344285, 437654.29842457693303 ], [ 433211.204168565105647, 437629.129897610691842 ], [ 433218.205207261256874, 437591.977136763744056 ], [ 433238.9493005144177, 437551.094612154061906 ], [ 433243.857039625756443, 437545.241449266555719 ], [ 433256.467547682521399, 437530.222427464148495 ], [ 433256.744310108129866, 437529.860525306954514 ], [ 433256.986981356167234, 437529.474933194753248 ], [ 433276.178573437791783, 437495.654305649222806 ], [ 433289.494093333429191, 437474.773261899885256 ], [ 433289.754506021679845, 437474.31285150203621 ], [ 433289.964822467823979, 437473.827506784233265 ], [ 433290.122688873321749, 437473.322659579047468 ], [ 433290.226338444685098, 437472.803959984856192 ], [ 433290.274611167027615, 437472.277213132125326 ], [ 433290.266966786526609, 437471.748314213531557 ], [ 433287.944516267685685, 437437.328695389849599 ], [ 433287.852113261353225, 437436.652040935819969 ], [ 433285.68218892661389, 437426.166600366937928 ], [ 433285.546036844258197, 437425.649688322097063 ], [ 433285.355479571036994, 437425.150265277770814 ], [ 433285.112695065676235, 437424.674039348668884 ], [ 433284.820458213740494, 437424.226453520008363 ], [ 433275.32292746542953, 437411.252291848650202 ], [ 433274.988047536578961, 437410.842273775604554 ], [ 433259.869221019849647, 437394.212134378030896 ], [ 433259.540471667249221, 437393.882720263500232 ], [ 433259.182518267945852, 437393.585299417551141 ], [ 433234.697653527779039, 437375.097432118898723 ], [ 433234.265333145973273, 437374.805124694947153 ], [ 433233.804900054587051, 437374.559470647713169 ], [ 433233.321370111196302, 437374.363146078656428 ], [ 433200.139715040219016, 437362.868505293386988 ], [ 433192.124473692150787, 437360.086256917566061 ], [ 433191.591284144378733, 437359.933732013392728 ], [ 433191.04448299203068, 437359.841193156549707 ], [ 433152.676555276673753, 437355.51962594629731 ], [ 433152.200185162655544, 437355.488901391567197 ], [ 433112.740484007750638, 437354.83168336522067 ], [ 433057.286454876186326, 437353.898334328550845 ], [ 433043.480100617685821, 437351.812312276801094 ], [ 433025.397068116639275, 437349.083260434272233 ], [ 433010.183757218939718, 437343.65355869778432 ], [ 432988.791178840445355, 437333.548302123846952 ], [ 432988.385820541414432, 437333.356934848998208 ], [ 432980.897819792036898, 437329.812187503557652 ], [ 432955.453208416467533, 437317.750956403499003 ], [ 432949.883515607449226, 437315.109122479159851 ], [ 432902.819863643264398, 437287.00551798514789 ], [ 432881.388141651870683, 437270.330385366338305 ], [ 432871.114655180135742, 437262.344068545324262 ], [ 432851.285482002596837, 437242.868533170898445 ], [ 432838.027364543173462, 437229.843058226630092 ], [ 432820.208505136950407, 437207.873934586357791 ], [ 432818.297705352131743, 437205.514362215995789 ], [ 432818.294258306152187, 437205.510110353585333 ], [ 432804.117847063520458, 437188.043342605757061 ], [ 432798.346924905607011, 437180.119386697886512 ], [ 432790.6406887814519, 437169.539565353305079 ], [ 432780.90550336393062, 437156.182219592155889 ], [ 432758.799379415635485, 437124.123682625824586 ], [ 432717.886286597407889, 437056.648204698925838 ], [ 432700.916450414049905, 437018.59848390344996 ], [ 432690.13728532451205, 436990.789393433369696 ], [ 432680.813225705060177, 436994.403520189924166 ], [ 432691.637335016101133, 437022.328561933711171 ], [ 432691.732932067825459, 437022.558086846373044 ], [ 432708.881439426972065, 437061.00842366903089 ], [ 432709.172412919753697, 437061.564218079671264 ], [ 432750.324456411763094, 437129.433782833162695 ], [ 432750.483659015211742, 437129.679785428568721 ], [ 432772.710076023300644, 437161.912772674462758 ], [ 432772.78564051882131, 437162.019350334361661 ], [ 432782.558045490761288, 437175.427763544779737 ], [ 432790.263567513378803, 437186.006604487134609 ], [ 432796.111423398833722, 437194.036196799017489 ], [ 432796.27091312041739, 437194.243564293137752 ], [ 432810.528057912073564, 437211.809803911950439 ], [ 432812.438349727657624, 437214.16874901088886 ], [ 432830.438659494393505, 437236.361587729945313 ], [ 432830.817811706918292, 437236.778620143595617 ], [ 432844.277536868874449, 437250.00216514460044 ], [ 432864.313925629947335, 437269.681220649334136 ], [ 432864.748803492577281, 437270.061558791843709 ], [ 432875.248199861263856, 437278.223490962584037 ], [ 432896.921886183379684, 437295.086885976023041 ], [ 432897.428832896461245, 437295.433532828988973 ], [ 432944.96158736263169, 437323.817257344198879 ], [ 432945.382245099113788, 437324.041958215064369 ], [ 432951.168191722244956, 437326.786366317537613 ], [ 432976.615645192854572, 437338.848944795317948 ], [ 432984.109521037025843, 437342.396474083303474 ], [ 432984.114311418728903, 437342.39873869746225 ], [ 432984.520522257138509, 437342.590508307737764 ], [ 433006.135400647530332, 437352.800773198890965 ], [ 433006.590298901428469, 437352.988856302981731 ], [ 433022.491594288963825, 437358.664102918177377 ], [ 433022.953194684814662, 437358.804144029680174 ], [ 433023.426141679286957, 437358.899052294553258 ], [ 433041.986562329926528, 437361.700150441029109 ], [ 433056.12206788524054, 437363.835904438747093 ], [ 433056.784903695981484, 437363.891309019527398 ], [ 433112.572636329277884, 437364.830274633481167 ], [ 433151.794734798953868, 437365.483535363629926 ], [ 433189.371562550368253, 437369.715997118677478 ], [ 433196.861946896882728, 437372.316057276213542 ], [ 433229.301933780661784, 437383.55377372528892 ], [ 433252.784018798032776, 437401.284468842612114 ], [ 433267.41045322699938, 437417.372995499987155 ], [ 433276.109805517306086, 437429.256800463830587 ], [ 433277.99024484626716, 437438.343400633079 ], [ 433280.179030696919654, 437470.782057152769994 ], [ 433267.677732800715603, 437490.386259642837103 ], [ 433267.544871222111396, 437490.60695126169594 ], [ 433248.515246387338266, 437524.14214996388182 ], [ 433236.197523686510976, 437538.812466573377606 ], [ 433230.918339467723854, 437545.108627719106153 ], [ 433230.577483200177085, 437545.565752076799981 ], [ 433230.290890545642469, 437546.058712849917356 ], [ 433208.964876139012631, 437588.088089509808924 ], [ 433208.771408698172309, 437588.518609278020449 ], [ 433208.619398385460954, 437588.965453530836385 ], [ 433208.510199776443187, 437589.42464040487539 ], [ 433201.363811015500687, 437627.348737682332285 ], [ 433201.339224109891802, 437627.49037381116068 ], [ 433197.302416382241063, 437652.908074379374739 ], [ 433197.258735214127228, 437653.26600808830699 ], [ 433194.854982329998165, 437681.354513452446554 ], [ 433194.847567440359853, 437681.452478441409767 ], [ 433193.600111744191963, 437700.406381075677928 ], [ 433193.180089842702728, 437703.202517869707663 ], [ 433190.007566658663563, 437713.751376464555506 ], [ 433189.894508790632244, 437714.202359034912661 ], [ 433187.145753095101099, 437727.823978338390589 ], [ 433187.065876906854101, 437728.378470582829323 ], [ 433186.263641939032823, 437737.57440347870579 ], [ 433186.248406987870112, 437737.81705890543526 ], [ 433185.885288153775036, 437747.27201128291199 ], [ 433185.881885576120112, 437747.516879389702808 ], [ 433185.968674974399619, 437755.706597243261058 ], [ 433186.012069459655322, 437759.801455952401739 ], [ 433186.024560045625549, 437760.10561393602984 ], [ 433186.970820469257887, 437773.319470012618694 ], [ 433187.048504525213502, 437773.909097478841431 ], [ 433188.026116083085071, 437778.978578476235271 ], [ 433188.116951472125947, 437779.365991340368055 ], [ 433191.018953325867187, 437789.847248261561617 ], [ 433192.378439454652835, 437795.554596407397185 ], [ 433192.393827416060958, 437795.617393572349101 ], [ 433193.342588754312601, 437799.38370881928131 ], [ 433193.612689413246699, 437806.111080165894236 ], [ 433203.604639229015447, 437805.709908283140976 ], [ 433203.313739486504346, 437798.464496145199519 ] ] ] } },
{ "type": "Feature", "properties": { "bicycle": null, "foot": null, "highway": "residential", "horse": null, "motorcar": null, "name": "Springwood Road", "surface": "asphalt", "osm_type": "way", "osm_id": 22819447, "source": "OS7", "source:name": null, "lanes": null, "sidewalk": null, "cycleway:both": null, "lane_markings": null, "lit": null, "maxspeed": null, "not:name": null }, "geometry": { "type": "Polygon", "coordinates": [ [ [ 432924.037118140433449, 436823.543659319751896 ], [ 432924.340551559755113, 436823.798983305343427 ], [ 432924.66326508455677, 436824.029457075055689 ], [ 432946.286106441402808, 436838.211800465185661 ], [ 432966.552473510615528, 436851.505714389146306 ], [ 432966.744028001732659, 436851.625268674222752 ], [ 432981.963745559623931, 436860.653287281398661 ], [ 433042.704149624914862, 436899.814362394565251 ], [ 433066.710415134089999, 436943.008258558518719 ], [ 433069.11452022055164, 436947.340818338678218 ], [ 433069.219045728794299, 436947.520298170333263 ], [ 433071.849582350987475, 436951.828830551239662 ], [ 433080.451590071606915, 436995.728791949513834 ], [ 433080.640217817330267, 436996.422602942679077 ], [ 433084.756941891042516, 437008.156719684833661 ], [ 433084.97252962354105, 437008.67579294834286 ], [ 433085.245013369305525, 437009.167390071612317 ], [ 433117.420853398158215, 437060.220397584198508 ], [ 433125.880838351673447, 437054.888544755696785 ], [ 433094.006110961257946, 437004.313308943237644 ], [ 433090.19566666072933, 436993.452197666047141 ], [ 433081.49067264853511, 436949.026650338026229 ], [ 433081.386270357877947, 436948.595968789828476 ], [ 433081.244143887539394, 436948.176223032700364 ], [ 433081.065409705857746, 436947.770710361481179 ], [ 433080.851471851638053, 436947.382616263639648 ], [ 433077.808154575177468, 436942.397994144936092 ], [ 433075.45362599985674, 436938.154778711497784 ], [ 433050.836479126301128, 436893.861736037710216 ], [ 433050.577358971931972, 436893.445066917454824 ], [ 433050.278646412596572, 436893.055801947135478 ], [ 433049.943218126951251, 436892.697689848253503 ], [ 433049.574304375273641, 436892.374179332109634 ], [ 433049.17545789165888, 436892.088385888026096 ], [ 432987.304123850481119, 436852.198167885304429 ], [ 432987.145651991362683, 436852.100128214457072 ], [ 432971.942912244121544, 436843.082180489960592 ], [ 432951.770880195137579, 436829.850146509008482 ], [ 432930.48014651943231, 436815.88563133921707 ], [ 432884.118446944921743, 436773.623254327103496 ], [ 432877.381655615346972, 436781.013494010781869 ], [ 432924.037118140433449, 436823.543659319751896 ] ] ] } },
{ "type": "Feature", "properties": { "bicycle": null, "foot": null, "highway": "residential", "horse": null, "motorcar": null, "name": "Tree Tops Court", "surface": null, "osm_type": "way", "osm_id": 63994368, "source": "OS_OpenData_StreetView", "source:name": null, "lanes": null, "sidewalk": null, "cycleway:both": null, "lane_markings": null, "lit": null, "maxspeed": null, "not:name": null }, "geometry": { "type": "Polygon", "coordinates": [ [ [ 433253.350377218332142, 437172.038226125645451 ], [ 433259.733590214804281, 437174.853483982325997 ], [ 433260.14149121416267, 437175.012438823119737 ], [ 433260.561732784262858, 437175.135104586079251 ], [ 433274.642738857364748, 437178.584115238219965 ], [ 433275.155031248403247, 437178.681597926421091 ], [ 433275.674690631858539, 437178.725192577810958 ], [ 433276.196064228424802, 437178.714424976089504 ], [ 433290.65130369272083, 437177.65990691940533 ], [ 433291.239037624502089, 437177.581784546724521 ], [ 433291.813391878909897, 437177.434640161402058 ], [ 433301.629934978554957, 437174.288810244353954 ], [ 433344.136197863786947, 437160.660371972189751 ], [ 433344.694379711349029, 437160.443760365829803 ], [ 433380.975198954751249, 437143.800824591424316 ], [ 433376.805706596525852, 437134.711526847677305 ], [ 433340.797481938847341, 437151.229416543268599 ], [ 433298.577841305814218, 437164.765957502415404 ], [ 433289.329260210564826, 437167.729777128610294 ], [ 433276.255436474166345, 437168.683520111138932 ], [ 433263.36724677903112, 437165.526678667112719 ], [ 433257.384524555702228, 437162.888053612143267 ], [ 433235.761492543155327, 437153.365141819987912 ], [ 433231.730994393583387, 437162.516922229609918 ], [ 433253.350377218332142, 437172.038226125645451 ] ] ] } },
{ "type": "Feature", "properties": { "bicycle": null, "foot": null, "highway": "residential", "horse": null, "motorcar": null, "name": "Elmete Grove", "surface": null, "osm_type": "way", "osm_id": 63994372, "source": "OS_OpenData_StreetView", "source:name": null, "lanes": null, "sidewalk": null, "cycleway:both": null, "lane_markings": null, "lit": null, "maxspeed": null, "not:name": null }, "geometry": { "type": "Polygon", "coordinates": [ [ [ 433456.781527924467809, 437075.506695870368276 ], [ 433456.827787339803763, 437075.618630227865651 ], [ 433462.857137025217526, 437089.721535549964756 ], [ 433462.213161800638773, 437097.905260353523772 ], [ 433457.717646778095514, 437109.805906724417582 ], [ 433449.298686295282096, 437117.442670513526537 ], [ 433382.716965492116287, 437145.995572298881598 ], [ 433386.658243289915845, 437155.186128828325309 ], [ 433454.008921257860493, 437126.303467491292395 ], [ 433454.503793620155193, 437126.058046031219419 ], [ 433454.968573890102562, 437125.759533638309222 ], [ 433455.397589325089939, 437125.411573720164597 ], [ 433465.328607630450279, 437116.403235797886737 ], [ 433465.663334102428053, 437116.06943836476421 ], [ 433465.965041450981516, 437115.705521872732788 ], [ 433466.231032864539884, 437115.314739189809188 ], [ 433466.458930778433569, 437114.900583327573258 ], [ 433466.646698126860429, 437114.466756218869705 ], [ 433471.819344811141491, 437100.773588988406118 ], [ 433471.964827910298482, 437100.325707609474193 ], [ 433472.067529539053794, 437099.86612580268411 ], [ 433472.126538680284284, 437099.398920298670419 ], [ 433472.922833672200795, 437089.279495159280486 ], [ 433472.937434233375825, 437088.797367788560223 ], [ 433472.905510319571476, 437088.316076980787329 ], [ 433472.827359027403872, 437087.840101820183918 ], [ 433472.703707664040849, 437087.373871921619866 ], [ 433472.535706978349481, 437086.92172620666679 ], [ 433466.046524228644557, 437071.743251792096999 ], [ 433441.398492262582295, 437009.993813111272175 ], [ 433432.111044156248681, 437013.701009851822164 ], [ 433456.781527924467809, 437075.506695870368276 ] ] ] } },
{ "type": "Feature", "properties": { "bicycle": null, "foot": null, "highway": "residential", "horse": null, "motorcar": null, "name": "Elmete Drive", "surface": null, "osm_type": "way", "osm_id": 63994386, "source": "OS_OpenData_StreetView", "source:name": null, "lanes": null, "sidewalk": null, "cycleway:both": null, "lane_markings": null, "lit": null, "maxspeed": null, "not:name": null }, "geometry": { "type": "Polygon", "coordinates": [ [ [ 433579.964087639236823, 437114.248818459105678 ], [ 433580.41351181641221, 437098.907086641236674 ], [ 433582.551646991516463, 437082.915978417440783 ], [ 433585.183425111696124, 437069.085723611235153 ], [ 433590.338588559534401, 437052.244499224703759 ], [ 433628.980393189529423, 436931.193332605995238 ], [ 433629.008572661492508, 436931.102055389608722 ], [ 433633.387364977097604, 436916.422458819753956 ], [ 433637.701279785600491, 436905.074111386202276 ], [ 433645.818317266646773, 436885.639893019048031 ], [ 433663.190039737150073, 436847.386382942029741 ], [ 433677.938987913134042, 436824.595254470652435 ], [ 433678.068689634557813, 436824.383478756702971 ], [ 433684.854026562534273, 436812.660391161509324 ], [ 433685.091331551258918, 436812.196128736424726 ], [ 433685.278999281174038, 436811.709678245417308 ], [ 433685.414989028824493, 436811.206329414562788 ], [ 433685.497822024102788, 436810.691555724537466 ], [ 433685.526597530173603, 436810.170954891596921 ], [ 433685.501002638426144, 436809.650187996972818 ], [ 433684.252960091107525, 436797.368696936930064 ], [ 433684.187311220506672, 436796.923224036348984 ], [ 433684.081851371563971, 436796.48546371422708 ], [ 433683.937435848405585, 436796.058966309705283 ], [ 433683.755235894932412, 436795.647190817107912 ], [ 433677.889212679117918, 436783.855472509923857 ], [ 433668.935897497343831, 436788.309476018708665 ], [ 433674.396272509242408, 436799.285771478665993 ], [ 433675.38865281175822, 436809.051391921530012 ], [ 433669.476098669925705, 436819.266564852732699 ], [ 433654.593130631779786, 436842.264790390327107 ], [ 433654.403682568576187, 436842.582753910741303 ], [ 433654.238274583942257, 436842.913860491127707 ], [ 433636.681529965484515, 436881.574799745809287 ], [ 433636.620346114330459, 436881.715202943596523 ], [ 433628.442593277839478, 436901.294789060775656 ], [ 433628.382630275795236, 436901.445155007124413 ], [ 433623.974739012541249, 436913.040720456570853 ], [ 433623.857066732016392, 436913.388138918147888 ], [ 433619.439468058291823, 436928.197831103345379 ], [ 433580.803106386738364, 437049.231946849962696 ], [ 433580.785281406540889, 437049.288959592231549 ], [ 433575.541533512296155, 437066.419577429420315 ], [ 433575.41069857426919, 437066.948382950155064 ], [ 433572.702159572509117, 437081.182023795437999 ], [ 433572.658123112807516, 437081.454066549427807 ], [ 433570.467352942738216, 437097.838831783505157 ], [ 433570.425393019570038, 437098.35506519122282 ], [ 433569.963629870500881, 437114.118005319673102 ], [ 433569.96463983313879, 437114.441979620256461 ], [ 433571.805239026085474, 437166.237887963652611 ], [ 433581.798931101686321, 437165.882756020640954 ], [ 433579.964087639236823, 437114.248818459105678 ] ] ] } },
{ "type": "Feature", "properties": { "bicycle": null, "foot": null, "highway": "residential", "horse": null, "motorcar": null, "name": "Elmete Avenue", "surface": null, "osm_type": "way", "osm_id": 63994388, "source": "OS_OpenData_StreetView", "source:name": null, "lanes": null, "sidewalk": null, "cycleway:both": null, "lane_markings": null, "lit": null, "maxspeed": null, "not:name": null }, "geometry": { "type": "Polygon", "coordinates": [ [ [ 433404.883010492601898, 437185.214238842192572 ], [ 433389.287100058980286, 437148.630075308668893 ], [ 433389.139161170867737, 437148.314089215593413 ], [ 433383.430484687094577, 437137.152402230945881 ], [ 433324.002990159322508, 436994.645101750851609 ], [ 433307.013497922453098, 436953.91236716293497 ], [ 433297.784138646791689, 436957.761903155886102 ], [ 433314.773426587460563, 436998.494147906021681 ], [ 433374.275636915641371, 437141.180617087404244 ], [ 433374.438895995786879, 437141.532937067560852 ], [ 433380.156562388059683, 437152.712201251648366 ], [ 433395.683753535849974, 437189.135166219144594 ], [ 433417.882309587788768, 437241.220543143979739 ], [ 433427.081654898938723, 437237.299823076522443 ], [ 433404.883010492601898, 437185.214238842192572 ] ] ] } },
{ "type": "Feature", "properties": { "bicycle": null, "foot": null, "highway": "residential", "horse": null, "motorcar": null, "name": "Elmete Walk", "surface": null, "osm_type": "way", "osm_id": 63994394, "source": "OS_OpenData_StreetView", "source:name": null, "lanes": null, "sidewalk": null, "cycleway:both": null, "lane_markings": null, "lit": null, "maxspeed": null, "not:name": null }, "geometry": { "type": "Polygon", "coordinates": [ [ [ 433444.292309130367357, 436896.74991209898144 ], [ 433444.663272088568192, 436897.383934678568039 ], [ 433449.158609703066759, 436903.91388267109869 ], [ 433449.454490872565657, 436904.301715859852266 ], [ 433449.786756749439519, 436904.658870778395794 ], [ 433450.152244690922089, 436904.981947879714426 ], [ 433457.332227601844352, 436910.729954392125364 ], [ 433457.674220722692553, 436910.980704010406043 ], [ 433458.03623170463834, 436911.201572103949729 ], [ 433463.875842042209115, 436914.432860673929099 ], [ 433469.765785933588631, 436917.934987661719788 ], [ 433475.503799038706347, 436922.187028646294493 ], [ 433479.585948009567801, 436927.422153121617157 ], [ 433482.756476050708443, 436933.762321285204962 ], [ 433486.363175992330071, 436941.094644563389011 ], [ 433486.403767205483746, 436941.175317618355621 ], [ 433501.516765131964348, 436970.547955355665181 ], [ 433506.731936399301048, 436981.456818165548611 ], [ 433506.804033814405557, 436981.601565489021596 ], [ 433540.790234204556327, 437047.156190561596304 ], [ 433555.402993437310215, 437077.200455818150658 ], [ 433555.652224810270127, 437077.652053762867581 ], [ 433555.946655459119938, 437078.075571854482405 ], [ 433556.28315197059419, 437078.466502895287704 ], [ 433558.230068343807943, 437080.505464460060466 ], [ 433558.634240828279871, 437080.884308322798461 ], [ 433559.077841532474849, 437081.21611622616183 ], [ 433559.555425203288905, 437081.496815187449101 ], [ 433562.795105195313226, 437083.166733322374057 ], [ 433563.276672981271986, 437083.383580620633438 ], [ 433563.778427405282855, 437083.548422306135762 ], [ 433576.306482975836843, 437086.942715854442213 ], [ 433578.921555404318497, 437077.290700718003791 ], [ 433566.905404199264012, 437074.035100175591651 ], [ 433564.883006870630197, 437072.99263981427066 ], [ 433564.054451178817544, 437072.124912143393885 ], [ 433549.754983889346477, 437042.724784390011337 ], [ 433549.697523474518675, 437042.610390804533381 ], [ 433515.719079826434609, 436977.070727402053308 ], [ 433510.507241447281558, 436966.168836179131176 ], [ 433510.442234317713883, 436966.037816892785486 ], [ 433495.316434478852898, 436936.640298192971386 ], [ 433491.7224220080534, 436929.333768199197948 ], [ 433491.707837797235698, 436929.304362982627936 ], [ 433488.307199063827284, 436922.504037878010422 ], [ 433488.06350153835956, 436922.071767268294934 ], [ 433487.77815574320266, 436921.665781873103697 ], [ 433482.970900818763766, 436915.500750147446524 ], [ 433482.677712897246238, 436915.157853357552085 ], [ 433482.354810315999202, 436914.842779891740065 ], [ 433482.004821984563023, 436914.558094919018913 ], [ 433475.515915245283395, 436909.74961907643592 ], [ 433475.094402697402984, 436909.469168778625317 ], [ 433468.919906887458637, 436905.797848845715635 ], [ 433468.785334478598088, 436905.720633435470518 ], [ 433463.249894902925007, 436902.657654641254339 ], [ 433456.977424189797603, 436897.636166017211508 ], [ 433453.108988796302583, 436892.01685906003695 ], [ 433447.944378982298076, 436881.483452545246109 ], [ 433438.965567727689631, 436885.885832407744601 ], [ 433444.292309130367357, 436896.74991209898144 ] ] ] } },
{ "type": "Feature", "properties": { "bicycle": null, "foot": null, "highway": "residential", "horse": null, "motorcar": null, "name": "Elmete Court", "surface": null, "osm_type": "way", "osm_id": 63994411, "source": "OS_OpenData_StreetView", "source:name": null, "lanes": null, "sidewalk": null, "cycleway:both": null, "lane_markings": null, "lit": null, "maxspeed": null, "not:name": null }, "geometry": { "type": "Polygon", "coordinates": [ [ [ 433226.30503684678115, 436983.980612169078086 ], [ 433226.071442904591095, 436983.655511423770804 ], [ 433225.81258961831918, 436983.350140173279215 ], [ 433222.611904432240408, 436979.867121115385089 ], [ 433222.264989001268987, 436979.524717714113649 ], [ 433221.886382016295101, 436979.217720716784243 ], [ 433217.764015578839462, 436976.195817752799485 ], [ 433213.97994611505419, 436972.951398037082981 ], [ 433210.409923638857435, 436967.028059118892998 ], [ 433208.808965160395019, 436959.899816582910717 ], [ 433207.496089620573912, 436936.082968867151067 ], [ 433197.511248258815613, 436936.633371428819373 ], [ 433198.846998651744798, 436960.865191376418807 ], [ 433198.886952374246903, 436961.277791684726253 ], [ 433198.960946445411537, 436961.68566444888711 ], [ 433200.830628069117665, 436970.010392577853054 ], [ 433200.975798459956422, 436970.525881617155392 ], [ 433201.175269939238206, 436971.022887171420734 ], [ 433201.426754143147264, 436971.495707525522448 ], [ 433205.831271298986394, 436978.803630111156963 ], [ 433206.130013485846575, 436979.244377757888287 ], [ 433206.473930606734939, 436979.650858257024083 ], [ 433206.859122567577288, 436980.018462032312527 ], [ 433211.399721493711695, 436983.91152182361111 ], [ 433211.698140335734934, 436984.148269327299204 ], [ 433215.579700193717144, 436986.993648896925151 ], [ 433218.177867813094053, 436989.821002044132911 ], [ 433225.43967060156865, 437000.832424210675526 ], [ 433233.787763295520563, 436995.327031547843944 ], [ 433226.30503684678115, 436983.980612169078086 ] ] ] } },
{ "type": "Feature", "properties": { "bicycle": null, "foot": null, "highway": "residential", "horse": null, "motorcar": null, "name": "Westways Drive", "surface": null, "osm_type": "way", "osm_id": 63994414, "source": "OS_OpenData_StreetView", "source:name": "OS_OpenData_Locator", "lanes": null, "sidewalk": null, "cycleway:both": null, "lane_markings": null, "lit": null, "maxspeed": null, "not:name": null }, "geometry": { "type": "Polygon", "coordinates": [ [ [ 433224.264375555736478, 437067.229851239128038 ], [ 433193.83082866796758, 437084.024117771594319 ], [ 433198.662339631002396, 437092.779487656138372 ], [ 433233.579474360507447, 437073.511024819395971 ], [ 433234.003081142378505, 437073.248922695813235 ], [ 433234.398505524150096, 437072.945970905711874 ], [ 433234.761822678032331, 437072.60517643019557 ], [ 433235.089426459919196, 437072.229921862017363 ], [ 433235.378065202676225, 437071.823931831342634 ], [ 433235.624873991007917, 437071.391236036550254 ], [ 433235.827403097297065, 437070.936129246954806 ], [ 433235.983642296807375, 437070.463128674717154 ], [ 433236.092040820396505, 437069.976929138589185 ], [ 433236.151522746542469, 437069.482356465130579 ], [ 433236.161497680994216, 437068.984319589508232 ], [ 433236.121866616420448, 437068.487761830969248 ], [ 433236.033022915304173, 437067.997611827799119 ], [ 433235.895848405431025, 437067.518734617333394 ], [ 433235.71170462743612, 437067.055883347638883 ], [ 433235.482419320498593, 437066.613652099505998 ], [ 433204.85828275885433, 437014.124421781627461 ], [ 433196.220881875837222, 437019.163797336863354 ], [ 433224.264375555736478, 437067.229851239128038 ] ] ] } },
{ "type": "Feature", "properties": { "bicycle": null, "foot": null, "highway": "residential", "horse": null, "motorcar": null, "name": "Park Edge Close", "surface": null, "osm_type": "way", "osm_id": 63994431, "source": "OS_OpenData_StreetView", "source:name": null, "lanes": null, "sidewalk": null, "cycleway:both": null, "lane_markings": null, "lit": null, "maxspeed": null, "not:name": null }, "geometry": { "type": "Polygon", "coordinates": [ [ [ 433309.765964418649673, 437271.837984487938229 ], [ 433309.73221439862391, 437272.015091117471457 ], [ 433307.706813037453685, 437283.794780056341551 ], [ 433307.650964127795305, 437284.236669824051205 ], [ 433307.634661732707173, 437284.681776439887471 ], [ 433307.72847072116565, 437296.487653547897935 ], [ 433307.757562471029814, 437296.987962370039895 ], [ 433310.074233947496396, 437318.311664634617046 ], [ 433310.186030677752569, 437318.950851230474655 ], [ 433311.644006961374544, 437324.958394790592138 ], [ 433311.782193738094065, 437325.426702277851291 ], [ 433311.965399161970709, 437325.879298411891796 ], [ 433312.191876131226309, 437326.311867100361269 ], [ 433312.459464893618133, 437326.720283238799311 ], [ 433315.607758441357873, 437331.048615470295772 ], [ 433315.898476072063204, 437331.41153945325641 ], [ 433316.221652315056417, 437331.74588609096827 ], [ 433316.574491947190836, 437332.048763545113616 ], [ 433319.997827641258482, 437334.721205544308759 ], [ 433320.43374731374206, 437335.025642956898082 ], [ 433320.899530489521567, 437335.282068642438389 ], [ 433321.389909941644873, 437335.487582856090739 ], [ 433321.899340300296899, 437335.63986157666659 ], [ 433340.671533244720194, 437340.179448203009088 ], [ 433343.022032414039131, 437330.459615197440144 ], [ 433325.299834575911518, 437326.173943697358482 ], [ 433323.281626159907319, 437324.598420460417401 ], [ 433321.1285334933782, 437321.638308817520738 ], [ 433319.980618288565893, 437316.908361785055604 ], [ 433317.726161529193632, 437296.157312188821379 ], [ 433317.637895685795229, 437285.049040828365833 ], [ 433319.572317923128139, 437273.798484435188584 ], [ 433326.258206338039599, 437241.856706436199602 ], [ 433316.470324663794599, 437239.807957468845416 ], [ 433309.765964418649673, 437271.837984487938229 ] ] ] } },
{ "type": "Feature", "properties": { "bicycle": null, "foot": null, "highway": "residential", "horse": null, "motorcar": null, "name": "Asket Hill", "surface": "asphalt", "osm_type": "way", "osm_id": 63994456, "source": "OS_OpenData_StreetView", "source:name": null, "lanes": "2", "sidewalk": "both", "cycleway:both": null, "lane_markings": null, "lit": null, "maxspeed": null, "not:name": null }, "geometry": { "type": "Polygon", "coordinates": [ [ [ 433956.7811792306602, 437097.511247437272687 ], [ 433954.055782198091038, 437072.941566868452355 ], [ 433954.047218810708728, 437072.868462258717045 ], [ 433943.626891456078738, 436988.398455644142814 ], [ 433943.583418508816976, 436988.105681111861486 ], [ 433938.528066296188626, 436959.017778161389288 ], [ 433938.43276458280161, 436958.570992765831761 ], [ 433927.138201192079578, 436914.009892775095068 ], [ 433922.750973532092758, 436893.648269003606401 ], [ 433917.669884230359457, 436859.157615112490021 ], [ 433934.121237849583849, 436784.516052753839176 ], [ 433934.152272271516267, 436784.366176452313084 ], [ 433937.072131334163714, 436769.299773641454522 ], [ 433937.153644277364947, 436768.738060620788019 ], [ 433938.035652235848829, 436759.654093056276906 ], [ 433938.056678746303078, 436758.783321954600979 ], [ 433936.9836984287831, 436736.680556591949426 ], [ 433938.256845951022115, 436723.575793933530804 ], [ 433942.606518405955285, 436711.371756916807499 ], [ 433949.447799507819582, 436700.446239839016926 ], [ 433956.499807886953931, 436689.355257822026033 ], [ 433965.88862915604841, 436675.147726024559233 ], [ 433966.067055359948426, 436674.860437318217009 ], [ 433970.373114959045779, 436667.470257437438704 ], [ 433970.703752694185823, 436666.813264578580856 ], [ 433970.951521225273609, 436666.120753435359802 ], [ 433973.4630936611793, 436657.46028028690489 ], [ 433973.635874002764467, 436656.667538616049569 ], [ 433975.567043793969788, 436643.619019978621509 ], [ 433975.625567155773751, 436643.011693405802362 ], [ 433976.299696493952069, 436628.107067790464498 ], [ 433976.302379224798642, 436627.632674421824049 ], [ 433975.434589839482214, 436602.035436458827462 ], [ 433975.42804533499293, 436601.89264552120585 ], [ 433975.305350166629069, 436599.769042991450988 ], [ 433974.69812886195723, 436589.107904671749566 ], [ 433962.717545901308767, 436589.790276947373059 ], [ 433963.324906698951963, 436600.453864380076993 ], [ 433963.443901592458133, 436602.513457492168527 ], [ 433964.30122606450459, 436627.802011251798831 ], [ 433963.651624552963767, 436642.164340229821391 ], [ 433961.824705200036988, 436654.508460013486911 ], [ 433959.632404358650092, 436662.068012068979442 ], [ 433955.783894033869728, 436668.672933092166204 ], [ 433946.459220588672906, 436682.783393891935702 ], [ 433946.401770370197482, 436682.872015799803194 ], [ 433939.310307776671834, 436694.025049073563423 ], [ 433939.288190621882677, 436694.060100416012574 ], [ 433932.088945531111676, 436705.557285521354061 ], [ 433931.773943070904352, 436706.126865686965175 ], [ 433931.522491428127978, 436706.727215740131214 ], [ 433926.704789814364631, 436720.244419492664747 ], [ 433926.559030919044744, 436720.713201805832796 ], [ 433926.452083580254111, 436721.192330994468648 ], [ 433926.384663758508395, 436721.678599521401338 ], [ 433924.997691053489689, 436735.95498760335613 ], [ 433924.976632079225965, 436736.826092959090602 ], [ 433926.04962058167439, 436758.929026926576626 ], [ 433925.237269252771512, 436767.295587627042551 ], [ 433922.386027303698938, 436782.007927775499411 ], [ 433905.714008648355957, 436857.650671157811303 ], [ 433905.621044834493659, 436858.187294270552229 ], [ 433905.577122724265791, 436858.73013631394133 ], [ 433905.582604195107706, 436859.274724772607442 ], [ 433905.637444084801245, 436859.816572742362041 ], [ 433910.907955330330878, 436895.593030979100149 ], [ 433910.978495613497216, 436895.982351891230792 ], [ 433915.430174498702399, 436916.643101147026755 ], [ 433915.479481622111052, 436916.853470340487547 ], [ 433926.744431299623102, 436961.297733620624058 ], [ 433931.735295051126741, 436990.014577539055608 ], [ 433942.132991828373633, 437074.301134540350176 ], [ 433944.853523153578863, 437098.826932242780458 ], [ 433945.347330065560527, 437103.312058546871413 ], [ 433957.275254229432903, 437101.998808707750868 ], [ 433956.7811792306602, 437097.511247437272687 ] ] ] } },
{ "type": "Feature", "properties": { "bicycle": null, "foot": null, "highway": "residential", "horse": null, "motorcar": null, "name": "West Avenue", "surface": "asphalt", "osm_type": "way", "osm_id": 146975019, "source": null, "source:name": null, "lanes": null, "sidewalk": null, "cycleway:both": null, "lane_markings": null, "lit": null, "maxspeed": null, "not:name": null }, "geometry": { "type": "Polygon", "coordinates": [ [ [ 433019.069740627310239, 437382.509187333227601 ], [ 433018.689532130782027, 437491.591131951950956 ], [ 433018.511296082404442, 437543.972987504443154 ], [ 433018.227298257988878, 437578.683929076127242 ], [ 433017.587526045681443, 437607.907830207492225 ], [ 433015.283665847731754, 437713.515781004854944 ], [ 433025.281287178630009, 437713.733881266613025 ], [ 433027.585134792607278, 437608.126506636210252 ], [ 433028.225652819441166, 437578.868537739384919 ], [ 433028.226683201675769, 437578.800011128769256 ], [ 433028.511059139156714, 437544.042855605832301 ], [ 433028.511197540734429, 437544.018961045250762 ], [ 433028.689472110243514, 437491.625779446330853 ], [ 433029.06967712455662, 437382.544826076133177 ], [ 433029.172249268973246, 437353.972987950488459 ], [ 433019.172313707880676, 437353.937088445818517 ], [ 433019.069740627310239, 437382.509187333227601 ] ] ] } },
{ "type": "Feature", "properties": { "bicycle": null, "foot": null, "highway": "unclassified", "horse": null, "motorcar": null, "name": "Elmete Lane", "surface": "asphalt", "osm_type": "way", "osm_id": 150621091, "source": "OS_OpenData_StreetView", "source:name": "OS_OpenData_StreetView", "lanes": null, "sidewalk": null, "cycleway:both": "no", "lane_markings": "no", "lit": null, "maxspeed": null, "not:name": null }, "geometry": { "type": "Polygon", "coordinates": [ [ [ 433946.720939468941651, 437106.788586398877669 ], [ 433957.663222055183724, 437210.550922011199873 ], [ 433954.342566262639593, 437234.612608222931158 ], [ 433948.79973300040001, 437274.705179510288872 ], [ 433948.755804729356896, 437275.211602780327667 ], [ 433948.763522427121643, 437275.719869106716942 ], [ 433950.299941884179134, 437298.951867162017152 ], [ 433952.571491089300252, 437333.333340242970735 ], [ 433952.334377299062908, 437366.060713271202985 ], [ 433952.334261971525848, 437366.084329718374647 ], [ 433952.109387862670701, 437455.261703289463185 ], [ 433952.127535629726481, 437455.700112765654922 ], [ 433952.184049955219962, 437456.135243023512885 ], [ 433959.913073748524766, 437500.352384462021291 ], [ 433959.926690603082534, 437500.426948772917967 ], [ 433982.624804870516527, 437619.600589752313681 ], [ 433986.925886263197754, 437642.189339225646108 ], [ 433987.021838332235347, 437664.044718441960867 ], [ 433983.335587508801837, 437696.537995745718945 ], [ 433983.313307035772596, 437696.792123958002776 ], [ 433980.714822084759362, 437738.691831169417128 ], [ 433979.437368491024245, 437748.713353329803795 ], [ 433976.248348372697365, 437773.724822082556784 ], [ 433976.210248454997782, 437774.213936486630701 ], [ 433976.220265670504887, 437774.7044302780414 ], [ 433977.4957884104806, 437793.027931691380218 ], [ 433977.552240224787965, 437793.505656442139298 ], [ 433977.65433932445012, 437793.975745283358265 ], [ 433977.801140648603905, 437794.433846927131526 ], [ 433977.991285358613823, 437794.875721042742953 ], [ 433978.223013416223694, 437795.297277506499086 ], [ 433978.494179874775, 437795.69461426109774 ], [ 434015.969743371999357, 437845.301517271844205 ], [ 434068.468426711857319, 437914.79045121796662 ], [ 434068.651537458412349, 437919.532373017631471 ], [ 434068.812534490192775, 437923.652647898008581 ], [ 434078.804909149825107, 437923.262201153032947 ], [ 434078.644045850494877, 437919.145362232928164 ], [ 434078.400407766981516, 437912.835996119072661 ], [ 434078.355212534952443, 437912.331221051572356 ], [ 434078.259151781734545, 437911.833613968105055 ], [ 434078.113212398893666, 437911.348287094384432 ], [ 434077.918893712107092, 437910.880226493871305 ], [ 434077.678192077553831, 437910.434240842878353 ], [ 434077.393580372096039, 437910.014912028098479 ], [ 434023.948775439464953, 437839.273661328654271 ], [ 433987.368509726133198, 437790.851875930267852 ], [ 433986.230316858564038, 437774.501184590684716 ], [ 433989.357071735430509, 437749.978061813511886 ], [ 433990.655062141537201, 437739.795430006925017 ], [ 433990.685608296247665, 437739.472680134465918 ], [ 433993.286234187311493, 437697.538450975436717 ], [ 433996.991211637214292, 437664.880103659874294 ], [ 433997.02303147938801, 437664.294534754299093 ], [ 433996.923767241474707, 437641.684729841945227 ], [ 433996.90066206647316, 437641.226059190230444 ], [ 433996.835569701797795, 437640.771443308505695 ], [ 433992.448288873187266, 437617.729985019483138 ], [ 433969.757191940036137, 437498.593187648744788 ], [ 433962.110465734847821, 437454.846864284132607 ], [ 433962.334200401441194, 437366.121354504255578 ], [ 433962.572555383783765, 437333.222667286812793 ], [ 433962.561809426581021, 437332.856816324405372 ], [ 433960.278176885272842, 437298.292453567497432 ], [ 433958.77540035295533, 437275.569165627821349 ], [ 433964.248430515581276, 437235.981496006250381 ], [ 433967.652520244068, 437211.3152431655908 ], [ 433967.698821934114676, 437210.711870551400352 ], [ 433967.671892569866031, 437210.107323475123849 ], [ 433956.66568642918719, 437105.738820250204299 ], [ 433956.28350243344903, 437102.129007115727291 ], [ 433946.3390818615444, 437103.18186013889499 ], [ 433946.720939468941651, 437106.788586398877669 ] ] ] } },
{ "type": "Feature", "properties": { "bicycle": null, "foot": null, "highway": "tertiary", "horse": null, "motorcar": null, "name": "Wetherby Road", "surface": "asphalt", "osm_type": "way", "osm_id": 184041418, "source": null, "source:name": null, "lanes": "2", "sidewalk": null, "cycleway:both": null, "lane_markings": null, "lit": "yes", "maxspeed": "30 mph", "not:name": null }, "geometry": { "type": "Polygon", "coordinates": [ [ [ 434167.749268501298502, 437036.780303396459203 ], [ 434139.494623516860884, 437039.387870122154709 ], [ 434138.803581350541208, 437039.486599174153525 ], [ 434138.125808548356872, 437039.653664221346844 ], [ 434045.857776696211658, 437067.344013814756181 ], [ 434045.840609484934248, 437067.349189803993795 ], [ 433998.133608844713308, 437081.799740039976314 ], [ 433949.444355548010208, 437095.908455449680332 ], [ 433910.09150837699417, 437106.287008046521805 ], [ 433847.849043565976899, 437120.598361523356289 ], [ 433800.247696466569323, 437131.536890182236675 ], [ 433793.040657901437953, 437133.191766015428584 ], [ 433786.085008644440677, 437134.234689995006192 ], [ 433769.887346950359643, 437136.666113429469988 ], [ 433769.831763461697847, 437136.674685501493514 ], [ 433739.933310400461778, 437141.408659066946711 ], [ 433728.67738750949502, 437143.15043144999072 ], [ 433717.495336281310301, 437144.880801010411233 ], [ 433694.444205216306727, 437147.86309385986533 ], [ 433672.28116649761796, 437150.72644461231539 ], [ 433652.274408910481725, 437152.202860422548838 ], [ 433652.008793005603366, 437152.227558583777864 ], [ 433619.32412356173154, 437155.896127242420334 ], [ 433604.844937687914353, 437156.271912673371844 ], [ 433604.337767066026572, 437156.303526122064795 ], [ 433576.113301155390218, 437159.094291793589946 ], [ 433575.179206688248087, 437159.251044073142111 ], [ 433564.392421314085368, 437161.821895334403962 ], [ 433563.919241928262636, 437161.952360345341731 ], [ 433553.832499073294457, 437165.117952186323237 ], [ 433553.779174434370361, 437165.134921858669259 ], [ 433541.026476989907678, 437169.249462305568159 ], [ 433540.431942591676489, 437169.471513572440017 ], [ 433539.859963072813116, 437169.746499655302614 ], [ 433452.070676076575182, 437216.966181644878816 ], [ 433419.502822775451932, 437232.924785734969191 ], [ 433401.056302358279936, 437241.239855384104885 ], [ 433389.240459121356253, 437244.757520825194661 ], [ 433377.555151274253149, 437245.615372658823617 ], [ 433367.305150883330498, 437243.953435931238346 ], [ 433323.062312862137333, 437234.039242290542461 ], [ 433214.101416722929571, 437203.947842919966206 ], [ 433192.119957364338916, 437197.871799308806658 ], [ 433164.66081390256295, 437185.77432789671002 ], [ 433150.67260616045678, 437179.606813393183984 ], [ 433133.625254803686403, 437169.944124107540119 ], [ 433103.488879672018811, 437152.865667103906162 ], [ 433081.457030177058186, 437136.872456672717817 ], [ 433034.494895001873374, 437102.797773968777619 ], [ 433014.905046362255234, 437086.091195703716949 ], [ 433014.385981951025315, 437085.689006122294813 ], [ 432916.562779781699646, 437016.985009544063359 ], [ 432916.373920041951351, 437016.856913530442398 ], [ 432887.806452093238477, 436998.153270238079131 ], [ 432864.500277199607808, 436982.891382172296289 ], [ 432825.624698985891882, 436957.439455878862645 ], [ 432771.252518399443943, 436921.854865907051135 ], [ 432758.751265927567147, 436913.667992736329325 ], [ 432758.373459883325268, 436913.437304591469001 ], [ 432724.974795860529412, 436894.467097764660139 ], [ 432718.060401979077142, 436906.640476804634091 ], [ 432751.266514079004992, 436925.501315490284469 ], [ 432763.583375381422229, 436933.567433790885843 ], [ 432817.956675158522557, 436969.15275647805538 ], [ 432856.830897154228296, 436994.603794811933767 ], [ 432880.137038635730278, 437009.86566099798074 ], [ 432908.60980055964319, 437028.507298557204194 ], [ 433006.070642386970576, 437096.95679923723219 ], [ 433025.61940324032912, 437113.628337092930451 ], [ 433026.050731664872728, 437113.967892908782233 ], [ 433073.233326404704712, 437148.202535968797747 ], [ 433095.583046825428028, 437164.426493101753294 ], [ 433096.243941758933943, 437164.851732571201865 ], [ 433126.721965197939426, 437182.123803606664296 ], [ 433144.075009382679127, 437191.959764079831075 ], [ 433144.702737062470987, 437192.275054662663024 ], [ 433159.013655179471243, 437198.584854793793056 ], [ 433186.941770768200513, 437210.888938101765234 ], [ 433187.898979578749277, 437211.230050141690299 ], [ 433210.372238554060459, 437217.442035405780189 ], [ 433319.500850848504342, 437247.5797526325332 ], [ 433319.833624079881702, 437247.662934915686492 ], [ 433364.447831894329283, 437257.660347269440535 ], [ 433364.858123324112967, 437257.739506668120157 ], [ 433376.126682235393673, 437259.566592639603186 ], [ 433376.941020103578921, 437259.650138263299596 ], [ 433377.759543006250169, 437259.638043116545305 ], [ 433391.022647187463008, 437258.664360746275634 ], [ 433391.772411279438529, 437258.568397514347453 ], [ 433392.507456856546924, 437258.392150145198684 ], [ 433405.50158763199579, 437254.52369963779347 ], [ 433406.380886034225114, 437254.196316629298963 ], [ 433425.358601094281767, 437245.641802339465357 ], [ 433425.562144381343387, 437245.54608807322802 ], [ 433458.350013850955293, 437229.479673655761871 ], [ 433458.585748030454852, 437229.358574578771368 ], [ 433545.931100169837009, 437182.37767414766131 ], [ 433558.051310831389856, 437178.4671997394762 ], [ 433567.877056197554339, 437175.383518534363247 ], [ 433577.96323084004689, 437172.979646212654188 ], [ 433605.462323683663271, 437170.260603643371724 ], [ 433619.987823737901635, 437169.883616197737865 ], [ 433620.58699649159098, 437169.842291487904731 ], [ 433653.437792480515782, 437166.155076575640123 ], [ 433673.502907295536716, 437164.674354243790731 ], [ 433673.884646878228523, 437164.635638849751558 ], [ 433696.23864747287007, 437161.747616803913843 ], [ 433719.377959383476991, 437158.753915469278581 ], [ 433719.550279911141843, 437158.729439254384488 ], [ 433730.818322158127557, 437156.985762990312651 ], [ 433742.086356017680373, 437155.242116522742435 ], [ 433742.110605482885148, 437155.238320549950004 ], [ 433771.993405425513629, 437150.506825422111433 ], [ 433788.161527639837004, 437148.079836047021672 ], [ 433795.382824237574823, 437146.997081136971246 ], [ 433795.91142074263189, 437146.8969179468113 ], [ 433803.38139898981899, 437145.18166606297018 ], [ 433850.984884261211846, 437134.242646163271274 ], [ 433913.337334851967171, 437119.906003814539872 ], [ 433913.553839018626604, 437119.852578501275275 ], [ 433953.096370737242978, 437109.424000272352714 ], [ 433953.259540714672767, 437109.378849985136185 ], [ 434002.070686668972485, 437095.234813663701061 ], [ 434002.151703149138484, 437095.210806486371439 ], [ 434049.890559287799988, 437080.750607153342571 ], [ 434141.478899254871067, 437053.264238348638173 ], [ 434169.05152723757783, 437050.71961365750758 ], [ 434169.082906575116795, 437050.716646455402952 ], [ 434207.979022147483192, 437046.950292628549505 ], [ 434206.629697737284005, 437033.015468494908419 ], [ 434167.749268501298502, 437036.780303396459203 ] ] ] } },
{ "type": "Feature", "properties": { "bicycle": null, "foot": null, "highway": "residential", "horse": null, "motorcar": null, "name": "Belgravia Gardens", "surface": null, "osm_type": "way", "osm_id": 193986852, "source": "bing", "source:name": "OS_OpenData_Locator", "lanes": null, "sidewalk": null, "cycleway:both": null, "lane_markings": null, "lit": null, "maxspeed": null, "not:name": null }, "geometry": { "type": "Polygon", "coordinates": [ [ [ 433102.052233457390685, 437085.977287130255718 ], [ 433085.67707105219597, 437094.356013861892279 ], [ 433085.243174708914012, 437094.606206290074624 ], [ 433084.836486227752175, 437094.89855328790145 ], [ 433084.461086520750541, 437095.230121301836334 ], [ 433084.120742533239536, 437095.597583215450868 ], [ 433083.818869443901349, 437095.997251735359896 ], [ 433083.558496395824477, 437096.425116391154006 ], [ 433083.342236100055743, 437096.876883778546471 ], [ 433083.172258618695196, 437097.348020641540643 ], [ 433083.050269589410163, 437097.833799361309502 ], [ 433082.977493110054638, 437098.329345395381097 ], [ 433082.954659455572255, 437098.829686191340443 ], [ 433082.981997750117444, 437099.329801083600614 ], [ 433083.059233667736407, 437099.824671673646662 ], [ 433083.185592185356654, 437100.309332186647225 ], [ 433083.359805359388702, 437100.778919300879352 ], [ 433083.580125049338676, 437101.228720948332921 ], [ 433108.894833809346892, 437146.959305547061376 ], [ 433117.643801256897859, 437142.116210606764071 ], [ 433094.830976562749129, 437100.905236405902542 ], [ 433110.995096694910899, 437092.63449428480817 ], [ 433111.41664878372103, 437092.392243576876353 ], [ 433111.812679189548362, 437092.110194845707156 ], [ 433112.179443182365503, 437091.791015049035195 ], [ 433112.513472765567712, 437091.43772224325221 ], [ 433112.811609468131792, 437091.053657046111766 ], [ 433113.071034209860954, 437090.642451048537623 ], [ 433113.289293957932387, 437090.20799247577088 ], [ 433113.464324921777006, 437089.754389421606902 ], [ 433113.594472067547031, 437089.285931003454607 ], [ 433113.67850476782769, 437088.807046806206927 ], [ 433113.71562843763968, 437088.322264997346792 ], [ 433113.705492048233282, 437087.836169510148466 ], [ 433113.648191445681732, 437087.353356699633878 ], [ 433113.544268445344642, 437086.878391880833078 ], [ 433113.394705707964022, 437086.415766160993371 ], [ 433113.200917448382825, 437085.969853972899728 ], [ 433104.083274352480657, 437067.502260141540319 ], [ 433095.116557403700426, 437071.929221532773226 ], [ 433102.052233457390685, 437085.977287130255718 ] ] ] } },
{ "type": "Feature", "properties": { "bicycle": null, "foot": null, "highway": "residential", "horse": null, "motorcar": null, "name": "Foxwood", "surface": null, "osm_type": "way", "osm_id": 193986866, "source": "bing", "source:name": "OS_OpenData_Locator", "lanes": null, "sidewalk": null, "cycleway:both": null, "lane_markings": null, "lit": null, "maxspeed": null, "not:name": null }, "geometry": { "type": "Polygon", "coordinates": [ [ [ 433043.889722707564943, 437548.182998311123811 ], [ 433076.678786975855473, 437556.131717325537466 ], [ 433079.034746626217384, 437546.413206424913369 ], [ 433045.565374448662624, 437538.299567290465347 ], [ 433045.110348984482698, 437538.211365111637861 ], [ 433044.649111092556268, 437538.16567698988365 ], [ 433044.185624241712503, 437538.162895528250374 ], [ 433023.309456103423145, 437539.006020785192959 ], [ 433023.712996866961475, 437548.997875210247003 ], [ 433043.889722707564943, 437548.182998311123811 ] ] ] } },
{ "type": "Feature", "properties": { "bicycle": null, "foot": null, "highway": "residential", "horse": null, "motorcar": null, "name": "Harlow Court", "surface": null, "osm_type": "way", "osm_id": 193986869, "source": "bing", "source:name": "OS_OpenData_Locator", "lanes": null, "sidewalk": null, "cycleway:both": null, "lane_markings": null, "lit": null, "maxspeed": null, "not:name": null }, "geometry": { "type": "Polygon", "coordinates": [ [ [ 433122.363115376967471, 437323.822828263859265 ], [ 433122.394514465762768, 437323.497074142331257 ], [ 433123.661068436631467, 437303.533973897690885 ], [ 433123.664231357863173, 437302.955371912103146 ], [ 433122.475045250554103, 437280.293437823653221 ], [ 433112.488785035267938, 437280.817467320244759 ], [ 433113.66278524894733, 437303.190008757228497 ], [ 433112.424946402548812, 437322.700508542708121 ], [ 433107.698211519164033, 437359.188641334068961 ], [ 433117.615347714396194, 437360.473324051708914 ], [ 433122.363115376967471, 437323.822828263859265 ] ] ] } },
{ "type": "Feature", "properties": { "bicycle": null, "foot": null, "highway": "residential", "horse": null, "motorcar": null, "name": "Oakhampton Court", "surface": null, "osm_type": "way", "osm_id": 193986877, "source": "bing", "source:name": "OS_OpenData_Locator", "lanes": null, "sidewalk": null, "cycleway:both": null, "lane_markings": null, "lit": null, "maxspeed": null, "not:name": null }, "geometry": { "type": "Polygon", "coordinates": [ [ [ 433190.513127913640346, 437506.924452683248091 ], [ 433185.421250192972366, 437515.53100723651005 ], [ 433237.480795937473886, 437546.330886500829365 ], [ 433242.572673658141866, 437537.724331947567407 ], [ 433190.513127913640346, 437506.924452683248091 ] ] ] } },
{ "type": "Feature", "properties": { "bicycle": null, "foot": null, "highway": "residential", "horse": null, "motorcar": null, "name": "Springwood Mews", "surface": null, "osm_type": "way", "osm_id": 193986897, "source": "bing", "source:name": "OS_OpenData_Locator", "lanes": null, "sidewalk": null, "cycleway:both": null, "lane_markings": null, "lit": null, "maxspeed": null, "not:name": null }, "geometry": { "type": "Polygon", "coordinates": [ [ [ 433120.540732716908678, 436978.01871683774516 ], [ 433143.631773480272386, 436969.36179841629928 ], [ 433144.286679970799014, 436969.060789693554398 ], [ 433157.02488953107968, 436962.052748171030544 ], [ 433162.164250789792277, 436966.191823429428041 ], [ 433168.436658565886319, 436958.40356940869242 ], [ 433160.687224474269897, 436952.162425947375596 ], [ 433160.289429950178601, 436951.873119660129305 ], [ 433159.865134347754065, 436951.624298734590411 ], [ 433159.418443806585856, 436951.418371146311983 ], [ 433158.953681194165256, 436951.257329768617637 ], [ 433158.475344271399081, 436951.142733086715452 ], [ 433157.988062165037263, 436951.075690114987083 ], [ 433157.4965505694272, 436951.056849664833862 ], [ 433157.005566109786741, 436951.086394065525383 ], [ 433156.519860310072545, 436951.164037399808876 ], [ 433156.044133609801065, 436951.289028270868585 ], [ 433155.582989875169005, 436951.460157073976006 ], [ 433155.140891845279839, 436951.675767702574376 ], [ 433139.782999549875967, 436960.12505144183524 ], [ 433116.526724496565294, 436968.84391682286514 ], [ 433116.036114094895311, 436969.05847052304307 ], [ 433115.571261763863731, 436969.32426022720756 ], [ 433082.647596789232921, 436990.56589634163538 ], [ 433088.068966755468864, 436998.968797488778364 ], [ 433120.540732716908678, 436978.01871683774516 ] ] ] } },
{ "type": "Feature", "properties": { "bicycle": null, "foot": null, "highway": "residential", "horse": null, "motorcar": null, "name": "Tudor Lawns", "surface": null, "osm_type": "way", "osm_id": 193986898, "source": "bing", "source:name": "OS_OpenData_Locator", "lanes": null, "sidewalk": null, "cycleway:both": null, "lane_markings": null, "lit": null, "maxspeed": null, "not:name": null }, "geometry": { "type": "Polygon", "coordinates": [ [ [ 432981.844391956285108, 437122.588900277565699 ], [ 432925.482253398629837, 437201.146169636456762 ], [ 432933.607349973055534, 437206.975646942097228 ], [ 432989.9694815093535, 437128.418387369427364 ], [ 433014.425340738729574, 437094.332105349109042 ], [ 433006.300258207018487, 437088.502608471026178 ], [ 432981.844391956285108, 437122.588900277565699 ] ] ] } },
{ "type": "Feature", "properties": { "bicycle": null, "foot": null, "highway": "residential", "horse": null, "motorcar": null, "name": "Tudor Lawns", "surface": null, "osm_type": "way", "osm_id": 193986899, "source": "bing", "source:name": "OS_OpenData_Locator", "lanes": null, "sidewalk": null, "cycleway:both": null, "lane_markings": null, "lit": null, "maxspeed": null, "not:name": null }, "geometry": { "type": "Polygon", "coordinates": [ [ [ 432997.296585551288445, 437140.779809106898028 ], [ 433002.575172993645538, 437162.909619167621713 ], [ 433002.712257285311352, 437163.380616304581054 ], [ 433002.894834889331833, 437163.835913816757966 ], [ 433003.121148456877563, 437164.271129367058165 ], [ 433003.389019670838024, 437164.682073911710177 ], [ 433003.695870212861337, 437165.06479202065384 ], [ 433004.038746580190491, 437165.415599949308671 ], [ 433004.414348513644654, 437165.731121095421258 ], [ 433011.570332915347535, 437171.166732538316865 ], [ 433017.61909390432993, 437163.203536540677305 ], [ 433011.887320564303081, 437158.849741031066515 ], [ 433006.618526122067124, 437136.760986884415615 ], [ 433006.48492799536325, 437136.300126947520766 ], [ 433006.307768784055952, 437135.854195389198139 ], [ 433006.088680055981968, 437135.427299066795968 ], [ 433005.829679533606395, 437135.02336953044869 ], [ 433005.533152511809021, 437134.646126815234311 ], [ 433005.201829889789224, 437134.299045180669054 ], [ 433004.838763020932674, 437133.985321114654653 ], [ 432988.990726135496516, 437121.567886875825934 ], [ 432982.823140308784787, 437129.439410557388328 ], [ 432997.296585551288445, 437140.779809106898028 ] ] ] } },
{ "type": "Feature", "properties": { "bicycle": null, "foot": null, "highway": "residential", "horse": null, "motorcar": null, "name": "West Court", "surface": null, "osm_type": "way", "osm_id": 193986901, "source": "bing", "source:name": "OS_OpenData_Locator", "lanes": null, "sidewalk": null, "cycleway:both": null, "lane_markings": null, "lit": null, "maxspeed": null, "not:name": null }, "geometry": { "type": "Polygon", "coordinates": [ [ [ 433045.870160094229504, 437587.994487556046806 ], [ 433065.926472538732924, 437597.284031647257507 ], [ 433067.420964701334015, 437600.430062120372895 ], [ 433076.453597658546641, 437596.139194858435076 ], [ 433074.183780269988347, 437591.361040210642386 ], [ 433073.949408328451682, 437590.924817206512671 ], [ 433073.673035526589956, 437590.513917229895014 ], [ 433073.35737275792053, 437590.132370728359092 ], [ 433073.005516304459888, 437589.783920226152986 ], [ 433072.620917465828825, 437589.471983614494093 ], [ 433072.207348706200719, 437589.199620626168326 ], [ 433071.768866650643758, 437588.969502823078074 ], [ 433049.497334503219463, 437578.653928590007126 ], [ 433049.108636879187543, 437578.493385289562866 ], [ 433048.707822893629782, 437578.366074083314743 ], [ 433048.297728064877447, 437578.2728956216597 ], [ 433024.128646968631074, 437573.841099533776287 ], [ 433022.325054126791656, 437583.677107507537585 ], [ 433045.870160094229504, 437587.994487556046806 ] ] ] } },
{ "type": "Feature", "properties": { "bicycle": null, "foot": null, "highway": "residential", "horse": null, "motorcar": null, "name": "West Court", "surface": null, "osm_type": "way", "osm_id": 193986902, "source": "bing", "source:name": "OS_OpenData_Locator", "lanes": null, "sidewalk": null, "cycleway:both": null, "lane_markings": null, "lit": null, "maxspeed": null, "not:name": null }, "geometry": { "type": "Polygon", "coordinates": [ [ [ 433050.484527436085045, 437612.881861151778139 ], [ 433058.955008962948341, 437611.659648439439479 ], [ 433059.455479635624215, 437611.561148357461207 ], [ 433059.943310786504298, 437611.412172088748775 ], [ 433060.4134255926474, 437611.214270018448588 ], [ 433060.860931603820063, 437610.969501698797103 ], [ 433074.425000357674435, 437602.624601745686959 ], [ 433087.323255430557765, 437595.754087503475603 ], [ 433092.9372570864507, 437594.641754881246015 ], [ 433100.550976944912691, 437605.554016204783693 ], [ 433096.851802934426814, 437607.803088846965693 ], [ 433096.434679433878046, 437608.086457197612617 ], [ 433096.048219887830783, 437608.410399563028477 ], [ 433095.69635520252632, 437608.771620935702231 ], [ 433095.382664399745408, 437609.166447121591773 ], [ 433095.110338212223724, 437609.590862112410832 ], [ 433094.882146629155613, 437610.04054893477587 ], [ 433094.700410720601212, 437610.510933560843114 ], [ 433094.566979028983042, 437610.997231432993431 ], [ 433094.483208766148891, 437611.494496131024789 ], [ 433094.44995200849371, 437611.997669684526045 ], [ 433094.467547029955313, 437612.501634020591155 ], [ 433094.535814861243125, 437613.001263023004867 ], [ 433094.654061110282782, 437613.491474672628101 ], [ 433094.821083025250118, 437613.967282739758957 ], [ 433095.03518172854092, 437614.423847501981072 ], [ 433095.294179496762808, 437614.856524971779436 ], [ 433095.595441912068054, 437615.260914133337792 ], [ 433100.646359165664762, 437621.371652635221835 ], [ 433108.354170450707898, 437615.00065230607288 ], [ 433106.985666098073125, 437613.344998131273314 ], [ 433110.296027773350943, 437611.332320744753815 ], [ 433110.693984968413133, 437611.063365312991664 ], [ 433111.06429883959936, 437610.757465672213584 ], [ 433111.403552027419209, 437610.417444749444257 ], [ 433111.708613809198141, 437610.046440352336504 ], [ 433111.976668989926111, 437609.647876212606207 ], [ 433112.205243881850038, 437609.225430391030386 ], [ 433112.392229132237844, 437608.783001335104927 ], [ 433112.535899189242627, 437608.324671903217677 ], [ 433112.63492822565604, 437607.854671686887741 ], [ 433112.688402373867575, 437607.37733797886176 ], [ 433112.695828159688972, 437606.897075747256167 ], [ 433112.657137055823114, 437606.418316985596903 ], [ 433112.572686114581302, 437605.945479812857229 ], [ 433112.443254672747571, 437605.48292770201806 ], [ 433112.270037159614731, 437605.034929212590214 ], [ 433112.054632074607071, 437604.605618599220179 ], [ 433111.799027235712856, 437604.198957659711596 ], [ 433099.269596402475145, 437586.24131986516295 ], [ 433098.975072017055936, 437585.859794943069573 ], [ 433098.645181201398373, 437585.508400677936152 ], [ 433098.282989378669299, 437585.190402307896875 ], [ 433097.891862120421138, 437584.908754748641513 ], [ 433097.47543387307087, 437584.666075135522988 ], [ 433097.037574185931589, 437584.464618504513055 ], [ 433096.582351754128467, 437584.306256838084664 ], [ 433096.11399661161704, 437584.192461670085322 ], [ 433095.636860824481118, 437584.124290411942638 ], [ 433095.155378050694708, 437584.102376526978333 ], [ 433094.674022341438103, 437584.126923644274939 ], [ 433094.1972665671492, 437584.197703666228335 ], [ 433084.653865382773802, 437586.088589546794537 ], [ 433084.178898341138847, 437586.20712771039689 ], [ 433083.717799581645522, 437586.371544622234069 ], [ 433083.274989104596898, 437586.580264214775525 ], [ 433069.5866191489622, 437593.87164899520576 ], [ 433069.317299452377483, 437594.026025931409094 ], [ 433056.502499251335394, 437601.909960135642905 ], [ 433047.822463722201064, 437603.162409566517454 ], [ 433047.342927385063376, 437603.255715531704482 ], [ 433046.874785639927723, 437603.395373715145979 ], [ 433046.422507575713098, 437603.580050877702888 ], [ 433045.990410839673132, 437603.807984009268694 ], [ 433045.582620419154409, 437604.0769971589325 ], [ 433037.154284197546076, 437610.248411276610568 ], [ 433043.062088977021631, 437618.316734689055011 ], [ 433050.484527436085045, 437612.881861151778139 ] ] ] } },
{ "type": "Feature", "properties": { "bicycle": null, "foot": null, "highway": "residential", "horse": null, "motorcar": null, "name": "Woodbourne", "surface": null, "osm_type": "way", "osm_id": 196021236, "source": "bing", "source:name": null, "lanes": null, "sidewalk": null, "cycleway:both": null, "lane_markings": null, "lit": null, "maxspeed": null, "not:name": "OS_Opendata_Locator" }, "geometry": { "type": "Polygon", "coordinates": [ [ [ 433295.870918563567102, 437429.229204701492563 ], [ 433307.546197857649531, 437430.604059956385754 ], [ 433308.715695167018566, 437420.67268160067033 ], [ 433296.247100295033306, 437419.204407245153561 ], [ 433295.720371323288418, 437419.170433062710799 ], [ 433295.19299578567734, 437419.192174659692682 ], [ 433294.670850705646444, 437419.269389749853872 ], [ 433279.79443433880806, 437422.279155833879486 ], [ 433281.777436208212748, 437432.080569180194288 ], [ 433295.870918563567102, 437429.229204701492563 ] ] ] } },
{ "type": "Feature", "properties": { "bicycle": null, "foot": null, "highway": "residential", "horse": null, "motorcar": null, "name": null, "surface": null, "osm_type": "way", "osm_id": 675509987, "source": null, "source:name": null, "lanes": null, "sidewalk": null, "cycleway:both": null, "lane_markings": null, "lit": null, "maxspeed": null, "not:name": null }, "geometry": { "type": "Polygon", "coordinates": [ [ [ 433125.277012874197681, 437414.159188922378235 ], [ 433123.121023492654786, 437413.257991116319317 ], [ 433122.539936500950716, 437412.556403989146929 ], [ 433122.434776830952615, 437411.805929179186933 ], [ 433123.260074677062221, 437407.682463465200271 ], [ 433124.797764607705176, 437400.793195534497499 ], [ 433124.885765788436402, 437400.269448548322544 ], [ 433124.917717844306026, 437399.739321978995577 ], [ 433124.967559848504607, 437392.685478816158138 ], [ 433124.9539447928546, 437392.279731455491856 ], [ 433124.907457061344758, 437391.876426135422662 ], [ 433123.471577459538821, 437382.709178511984646 ], [ 433123.395440256746951, 437382.323138332809322 ], [ 433123.289182776352391, 437381.944280521187466 ], [ 433119.920478698040824, 437371.528337534226011 ], [ 433119.879279410466552, 437371.40633873041952 ], [ 433118.117756264749914, 437366.403596337768249 ], [ 433117.645137499494012, 437359.489975898584817 ], [ 433107.668421734066214, 437360.171989487193059 ], [ 433108.187410288199317, 437367.763922223413829 ], [ 433108.238327603670768, 437368.211382704903372 ], [ 433108.329300094454084, 437368.652446715452243 ], [ 433108.459589742764365, 437369.083536106452812 ], [ 433110.425537371193059, 437374.666845963161904 ], [ 433113.653062947560102, 437384.646268794953357 ], [ 433114.964933835319243, 437393.021793638996314 ], [ 433114.921735979267396, 437399.135329926328268 ], [ 433113.488213834527414, 437405.5578979246784 ], [ 433113.465370721009094, 437405.665828278579284 ], [ 433112.462443597149104, 437410.676789628283586 ], [ 433112.383381525054574, 437411.232152721786406 ], [ 433112.367026503605302, 437411.792876798368525 ], [ 433112.413584396010265, 437412.351903935021255 ], [ 433112.833395373949315, 437415.34789625677513 ], [ 433112.918176933773793, 437415.800283460470382 ], [ 433113.044198579736985, 437416.242957877693698 ], [ 433113.210392444278114, 437416.672168425458949 ], [ 433113.415350253111683, 437417.084278109308798 ], [ 433113.657335258671083, 437417.475794842059258 ], [ 433113.934296956460457, 437417.843401034770068 ], [ 433116.205379415245261, 437420.585438355396036 ], [ 433116.531045696348883, 437420.942071723286062 ], [ 433116.889600173570216, 437421.265621677099261 ], [ 433117.277697592566255, 437421.553069549088832 ], [ 433117.691717068373691, 437421.80173349782126 ], [ 433118.127795867389068, 437422.00929352955427 ], [ 433121.566486520692706, 437423.446657043066807 ], [ 433121.86222955834819, 437423.559418963151984 ], [ 433129.984046596393455, 437426.365064339130186 ], [ 433133.249172980024014, 437416.913135980372317 ], [ 433125.277012874197681, 437414.159188922378235 ] ] ] } },
{ "type": "Feature", "properties": { "bicycle": null, "foot": null, "highway": "residential", "horse": null, "motorcar": null, "name": null, "surface": null, "osm_type": "way", "osm_id": 675509988, "source": null, "source:name": null, "lanes": null, "sidewalk": null, "cycleway:both": null, "lane_markings": null, "lit": null, "maxspeed": null, "not:name": null }, "geometry": { "type": "Polygon", "coordinates": [ [ [ 433105.42660655657528, 437453.561686637229286 ], [ 433103.404775683942717, 437452.060619288182352 ], [ 433102.039915429544635, 437449.404746666492429 ], [ 433101.584444222331513, 437447.48144021560438 ], [ 433101.756214534339961, 437445.146348665817641 ], [ 433102.701899250154383, 437442.988619311538059 ], [ 433104.372538354073185, 437441.151733957696706 ], [ 433104.672642946243286, 437440.788803678646218 ], [ 433104.937270894239191, 437440.399248544126749 ], [ 433105.164074618485756, 437439.986524393665604 ], [ 433106.326055248209741, 437437.613661200157367 ], [ 433106.503309725900181, 437437.206933818175457 ], [ 433106.643811060115695, 437436.786094551731367 ], [ 433106.74645296408562, 437436.354457027104218 ], [ 433106.810427250573412, 437435.915419894561637 ], [ 433107.093563069880474, 437433.102417162444908 ], [ 433107.100235961319413, 437433.030980678158812 ], [ 433107.461878095346037, 437428.834498198353685 ], [ 433107.687832631636411, 437427.7456815718906 ], [ 433108.209538902388886, 437426.868620051187463 ], [ 433113.303838972293306, 437421.636293114628643 ], [ 433115.447662184131332, 437420.617366539780051 ], [ 433119.270064637355972, 437419.428427348320838 ], [ 433116.299974638794083, 437409.879680550948251 ], [ 433112.137728441273794, 437411.174326441658195 ], [ 433111.476440082828049, 437411.432810878322925 ], [ 433108.200883364712354, 437412.989633180259261 ], [ 433107.808982288581319, 437413.197696013143286 ], [ 433107.437069970648736, 437413.439683251839597 ], [ 433107.08807524421718, 437413.713689231313765 ], [ 433106.764746464905329, 437414.017556136997882 ], [ 433100.632122550508939, 437420.316339651646558 ], [ 433100.247291122272145, 437420.761195843922906 ], [ 433099.917365921020973, 437421.248167733894661 ], [ 433098.665127083833795, 437423.353357110288925 ], [ 433098.409116571070626, 437423.843574129394256 ], [ 433098.208811112912372, 437424.35906596435234 ], [ 433098.066661279299296, 437424.893526003346778 ], [ 433097.610147695639171, 437427.093347207759507 ], [ 433097.524303989601322, 437427.680020163650624 ], [ 433097.140243335976265, 437432.136646348342765 ], [ 433096.950539944518823, 437434.021381949074566 ], [ 433096.495965661830269, 437434.949661265010945 ], [ 433094.752491372346412, 437436.866629675263539 ], [ 433094.41046105226269, 437437.28625274420483 ], [ 433094.115802116401028, 437437.740394100372214 ], [ 433093.871968772029504, 437438.223729967081454 ], [ 433092.253106550895609, 437441.917420344718266 ], [ 433092.055682444304693, 437442.447612220305018 ], [ 433091.919417911965866, 437442.996713012573309 ], [ 433091.846057574264705, 437443.557692480680998 ], [ 433091.554833748319652, 437447.516667039075401 ], [ 433091.54339944885578, 437448.026252984593157 ], [ 433091.583905676438008, 437448.534355163865257 ], [ 433091.675931476405822, 437449.035693204728886 ], [ 433092.449261958827265, 437452.301215771120042 ], [ 433092.624065383977722, 437452.880482886510435 ], [ 433092.867559575010091, 437453.434393716277555 ], [ 433095.042549623118248, 437457.666692592785694 ], [ 433095.269947849214077, 437458.063435074058361 ], [ 433095.532642380101606, 437458.437742612266447 ], [ 433095.828435885719955, 437458.786484281299636 ], [ 433096.154854177031666, 437459.10674300295068 ], [ 433096.509166901581921, 437459.395839946751948 ], [ 433100.110229605517816, 437462.069375958119053 ], [ 433100.552334759267978, 437462.362558737513609 ], [ 433101.02301357628312, 437462.607251525274478 ], [ 433101.516967848932836, 437462.800699930987321 ], [ 433108.030769472883549, 437464.960741473478265 ], [ 433111.178321373241488, 437455.469012598623522 ], [ 433105.42660655657528, 437453.561686637229286 ] ] ] } },
{ "type": "Feature", "properties": { "bicycle": null, "foot": null, "highway": "residential", "horse": null, "motorcar": null, "name": "Elmete Green", "surface": null, "osm_type": "way", "osm_id": 686312303, "source": null, "source:name": null, "lanes": null, "sidewalk": null, "cycleway:both": null, "lane_markings": null, "lit": null, "maxspeed": null, "not:name": null }, "geometry": { "type": "Polygon", "coordinates": [ [ [ 433886.22240790509386, 437743.529608578130137 ], [ 433886.733411468041595, 437739.897296754759736 ], [ 433889.835889052948914, 437717.741404973028693 ], [ 433889.836716562102083, 437717.735469537088647 ], [ 433890.031121450883802, 437716.334934110054746 ], [ 433880.12608896807069, 437714.960040836362168 ], [ 433879.932096056290902, 437716.357608290913049 ], [ 433876.830701388185844, 437738.505773977725767 ], [ 433876.227329254325014, 437742.794659407925792 ], [ 433876.187812675896566, 437743.187381404801272 ], [ 433876.179396942374296, 437743.581996789958794 ], [ 433876.259420364338439, 437747.988676001492422 ], [ 433876.294171922374517, 437748.493285535601899 ], [ 433876.379727104853373, 437748.991802098520566 ], [ 433876.515210379555356, 437749.479124101926573 ], [ 433876.699235273234081, 437749.950264517508913 ], [ 433876.929918560141232, 437750.400401911931112 ], [ 433877.204899534001015, 437750.824929787020665 ], [ 433877.521364166634157, 437751.21950372052379 ], [ 433877.876073905150406, 437751.580085825175047 ], [ 433878.265398813819047, 437751.902986070082989 ], [ 433878.685354721441399, 437752.184900043474045 ], [ 433879.13164399319794, 437752.422942767792847 ], [ 433879.599699510901701, 437752.614678223850206 ], [ 433880.084731410432141, 437752.758144279534463 ], [ 433880.581776099454146, 437752.851872769533657 ], [ 433902.337878261692822, 437755.824223681585863 ], [ 433902.62466220598435, 437755.855007976177149 ], [ 433907.011919826385565, 437756.198291802196763 ], [ 433907.529474012088031, 437756.211901480972301 ], [ 433908.045660961361136, 437756.171919085609261 ], [ 433908.554946168093011, 437756.078773303481285 ], [ 433909.051869126036763, 437755.933462834509555 ], [ 433909.531101875763852, 437755.737545683397911 ], [ 433909.987506130535621, 437755.493122454674449 ], [ 433910.416188368515577, 437755.202813830343075 ], [ 433913.916846959560644, 437752.557779430411756 ], [ 433914.348129960999358, 437752.191810050804634 ], [ 433915.613872932386585, 437750.988178843457717 ], [ 433915.942243186698761, 437750.644768737140112 ], [ 433916.236534117197152, 437750.271740087773651 ], [ 433916.494088188221212, 437749.872461456281599 ], [ 433916.712579608953092, 437749.450538448989391 ], [ 433916.890035336138681, 437749.009781157597899 ], [ 433917.024852891103365, 437748.554169753100723 ], [ 433917.115814830816817, 437748.087818543659523 ], [ 433920.377138867217582, 437725.769372569746338 ], [ 433920.393858592608012, 437725.643865858379286 ], [ 433921.438447920954786, 437716.964428594510537 ], [ 433923.803559668303933, 437706.987374996650033 ], [ 433914.073221844912041, 437704.680748489568941 ], [ 433911.642888575093821, 437714.932934383512475 ], [ 433911.543880418408662, 437715.488798029196914 ], [ 433910.473069700121414, 437724.386107429512776 ], [ 433907.476881669368595, 437744.890129705541767 ], [ 433905.901042538578622, 437746.080805288802367 ], [ 433903.548570519255009, 437745.896734585578088 ], [ 433886.22240790509386, 437743.529608578130137 ] ] ] } },
{ "type": "Feature", "properties": { "bicycle": null, "foot": null, "highway": "residential", "horse": null, "motorcar": null, "name": "North Lane", "surface": "asphalt", "osm_type": "way", "osm_id": 694501921, "source": "OS7", "source:name": null, "lanes": null, "sidewalk": null, "cycleway:both": null, "lane_markings": null, "lit": null, "maxspeed": null, "not:name": null }, "geometry": { "type": "Polygon", "coordinates": [ [ [ 433882.257983031391632, 436558.149911802087445 ], [ 433877.066892830480356, 436561.469030778389424 ], [ 433846.490335201437119, 436577.90268478600774 ], [ 433846.386782997811679, 436577.959929268516134 ], [ 433832.565105614368804, 436585.815601079084445 ], [ 433826.733560522261541, 436589.13454607874155 ], [ 433820.41563310532365, 436592.726004981144797 ], [ 433791.646688873530366, 436608.389399555628188 ], [ 433783.669186798331793, 436612.675724656844977 ], [ 433783.240613866597414, 436612.934447248873767 ], [ 433782.840060481510591, 436613.234728988434654 ], [ 433782.471541984647047, 436613.57355970563367 ], [ 433782.138752584345639, 436613.947542796784546 ], [ 433781.845028323063161, 436614.352929273853078 ], [ 433781.593313635501545, 436614.785655345942359 ], [ 433781.386131831794046, 436615.241383156855591 ], [ 433781.225559803016949, 436615.71554426982766 ], [ 433781.113207201065961, 436616.203385463508312 ], [ 433781.050200303026941, 436616.700016380986199 ], [ 433781.037170720635913, 436617.200458552921191 ], [ 433781.074249068682548, 436617.699695303919725 ], [ 433781.161063655861653, 436618.192722042382229 ], [ 433781.296744210645556, 436618.674596429045778 ], [ 433781.479930605157278, 436619.140487921016756 ], [ 433800.459996198827866, 436661.110216748376843 ], [ 433800.694880968774669, 436662.07911114039598 ], [ 433800.650633138138801, 436662.773467583640013 ], [ 433800.400818641937803, 436663.424723541422281 ], [ 433799.960930693603586, 436663.98656458692858 ], [ 433799.333238349296153, 436664.421887392702047 ], [ 433787.163076475670096, 436668.554205026011914 ], [ 433786.767750022467226, 436668.707419888291042 ], [ 433786.386825109831989, 436668.893575762689579 ], [ 433697.24048693862278, 436717.244623409758788 ], [ 433681.8397301947698, 436724.744880352518521 ], [ 433646.599593069287948, 436735.928080935147591 ], [ 433646.337593826581724, 436736.019299167208374 ], [ 433626.832494044036139, 436743.423105190624483 ], [ 433626.432222177216318, 436743.595352242060471 ], [ 433626.048467845015693, 436743.801796487765387 ], [ 433625.68414583982667, 436744.040869887918234 ], [ 433625.342023356584832, 436744.31075656885514 ], [ 433622.199057558842469, 436747.020438856503461 ], [ 433594.177489785593934, 436765.122259315568954 ], [ 433593.803375768940896, 436765.389073171478231 ], [ 433567.760664151457604, 436785.831025689549278 ], [ 433567.223419016227126, 436786.319793496630155 ], [ 433549.151687992562074, 436805.33681988553144 ], [ 433546.985035831632558, 436807.611084061558358 ], [ 433546.822144024365116, 436807.790584205300547 ], [ 433513.198548827844206, 436846.697193915199023 ], [ 433503.381862565875053, 436852.83175598148955 ], [ 433482.87411767442245, 436861.530006367247552 ], [ 433441.502222725073807, 436879.081734159204643 ], [ 433441.315656327176839, 436879.165425436513033 ], [ 433419.480115864484105, 436889.501982213871088 ], [ 433383.344762358581647, 436906.613215967372525 ], [ 433382.911352742870804, 436906.845187004772015 ], [ 433368.627727894228883, 436915.418984890158754 ], [ 433359.575413585116621, 436920.615038790623657 ], [ 433323.349585828545969, 436941.418103834614158 ], [ 433300.429172156669665, 436951.241431281785481 ], [ 433300.40723473962862, 436951.250895416073035 ], [ 433278.928385903011076, 436960.57812737574568 ], [ 433278.566545656125527, 436960.752859841973986 ], [ 433278.219904742552899, 436960.956083551340271 ], [ 433248.067155512981117, 436980.302302183525171 ], [ 433234.015960546967108, 436989.315074248879682 ], [ 433226.918547218141612, 436993.868304012110457 ], [ 433215.874114733946044, 437000.919084238470532 ], [ 433198.038097435084637, 437012.309001159039326 ], [ 433119.349034312937874, 437053.115815570170525 ], [ 433119.319627542223316, 437053.131189460051246 ], [ 433103.674562140135095, 437061.376665482996032 ], [ 433103.397997747000773, 437061.533863596094307 ], [ 433096.993105885630939, 437065.44906262535369 ], [ 433080.440761118312366, 437075.556857162388042 ], [ 433040.134138699329924, 437100.190011078724638 ], [ 433028.763521999353543, 437103.501630320621189 ], [ 433031.559778260067105, 437113.10272145253839 ], [ 433043.570629411959089, 437109.604638029646594 ], [ 433043.988938091380987, 437109.46247816219693 ], [ 433044.393064643954858, 437109.283947188290767 ], [ 433044.779853785817977, 437109.070439017668832 ], [ 433085.653192923171446, 437084.090939155663364 ], [ 433102.205752877052873, 437073.983013213612139 ], [ 433108.477782646601554, 437070.149031080247369 ], [ 433123.967386323318351, 437061.985488618898671 ], [ 433202.841393879323732, 437021.082765159022529 ], [ 433203.230636665830389, 437020.858160637901165 ], [ 433221.255372527521104, 437009.347729721106589 ], [ 433232.304203957610298, 437002.294141201884486 ], [ 433232.313562745752279, 437002.288151892018504 ], [ 433239.415160789620131, 436997.732237475167494 ], [ 433253.466465510602575, 436988.719395010324661 ], [ 433283.281017526926007, 436969.590166168636642 ], [ 433304.379444424645044, 436960.428133177221753 ], [ 433327.556594722555019, 436950.49477246531751 ], [ 433328.076894415717106, 436950.234984847018495 ], [ 433364.554044360178523, 436929.287595267232973 ], [ 433373.648265964002348, 436924.06748646160122 ], [ 433373.732439058658201, 436924.018072392325848 ], [ 433387.846913039393257, 436915.54580793203786 ], [ 433423.759025687293615, 436898.54028575058328 ], [ 433445.501863013894763, 436888.247612990264315 ], [ 433486.779044935072307, 436870.736066498036962 ], [ 433507.649586216721218, 436861.883937962469645 ], [ 433508.005408523720689, 436861.71620922232978 ], [ 433508.346943831362296, 436861.521027055918239 ], [ 433519.137910761579406, 436854.777625604299828 ], [ 433519.547419616719708, 436854.492347035382409 ], [ 433519.926448541751597, 436854.167664978012908 ], [ 433520.271221174916718, 436853.806814322248101 ], [ 433554.3089459562907, 436814.421006060496438 ], [ 433556.394139698764775, 436812.232246132101864 ], [ 433556.398464008816518, 436812.227701339288615 ], [ 433574.221530029841233, 436793.472347111790441 ], [ 433599.796901904745027, 436773.397228008310776 ], [ 433627.915414132643491, 436755.232781820115633 ], [ 433628.46716132335132, 436754.819809640583117 ], [ 433631.204679735004902, 436752.459680504805874 ], [ 433649.756631431984715, 436745.417673375806771 ], [ 433685.212803343136329, 436734.16591572901234 ], [ 433685.889632745180279, 436733.895389593031723 ], [ 433701.717323429358657, 436726.187213370518293 ], [ 433701.911941474594641, 436726.087105679383967 ], [ 433790.780794789432548, 436677.88655982282944 ], [ 433803.213281386706512, 436673.665171140804887 ], [ 433803.646069897746202, 436673.495395073201507 ], [ 433804.061219008464832, 436673.286155917507131 ], [ 433804.455139675003011, 436673.039262586506084 ], [ 433806.281135642784648, 436671.772881539771333 ], [ 433806.677298689377494, 436671.467697027488612 ], [ 433807.040994954586495, 436671.12446565850405 ], [ 433807.368586272117682, 436670.746620882535353 ], [ 433808.737257681845222, 436668.998503484181128 ], [ 433809.023503118543886, 436668.592926011537202 ], [ 433809.268120328430086, 436668.160963099915534 ], [ 433809.468698075332213, 436667.706872686219867 ], [ 433810.260356241604313, 436665.643052911327686 ], [ 433810.416963820462115, 436665.163805267831776 ], [ 433810.52451059728628, 436664.671222352655604 ], [ 433810.581903018115554, 436664.170312832342461 ], [ 433810.722936264355667, 436661.957157026976347 ], [ 433810.729662624537013, 436661.454953337961342 ], [ 433810.685972482955549, 436660.954608496220317 ], [ 433810.592306679696776, 436660.461171056958847 ], [ 433810.068104960955679, 436658.298850759514607 ], [ 433809.937001331942156, 436657.850621791847516 ], [ 433809.764649859862402, 436657.416579928540159 ], [ 433792.515610540111084, 436619.274588310625404 ], [ 433796.391952221747488, 436617.191823493514676 ], [ 433796.416291432105936, 436617.178659072786104 ], [ 433825.237625381036196, 436601.486740656604525 ], [ 433825.31769382400671, 436601.44219106179662 ], [ 433831.676570271083619, 436597.827454468933865 ], [ 433837.507640148221981, 436594.508779700321611 ], [ 433851.276602698897477, 436586.683068828249816 ], [ 433881.967856259085238, 436570.187770430464298 ], [ 433882.294218158640433, 436569.996101410477422 ], [ 433887.955420447338838, 436566.376398570020683 ], [ 433888.544064677145798, 436565.935864228988066 ], [ 433893.578809787461068, 436561.555037761339918 ], [ 433887.014644821116235, 436554.0110508648213 ], [ 433882.257983031391632, 436558.149911802087445 ] ] ] } }
]
}
