{
"type": "FeatureCollection",
"name": "se3339_rgb_250_03_osm_road_buffers",
"crs": { "type": "name", "properties": { "name": "urn:ogc:def:crs:EPSG::27700" } },
"features": [
{ "type": "Feature", "properties": { "highway": "tertiary", "lanes": "2", "name": "Park Lane", "source": "OS_OpenData_StreetView", "surface": "asphalt", "osm_type": "way", "osm_id": 23005301, "maxspeed": null, "source_ref": null, "bicycle": null, "foot": null, "oneway": null, "postal_code": null, "sidewalk": null, "cycleway:left": null, "lit": null, "not:name": null, "ref": null, "sidewalk:left": null, "turn:lanes": null }, "geometry": { "type": "Polygon", "coordinates": [ [ [ 432712.735960765217897, 438572.869273438467644 ], [ 432721.364737737283576, 438579.413489562866744 ], [ 432768.948728646850213, 438637.923109656490851 ], [ 432769.05516360985348, 438638.050853030290455 ], [ 432842.912100269459188, 438724.583251722797286 ], [ 432910.447556749917567, 438805.306384423281997 ], [ 432917.719571556663141, 438815.565258374321274 ], [ 432927.603721248626243, 438831.147866528190207 ], [ 432939.493494025955442, 438850.235282809881028 ], [ 432942.305778550216928, 438854.979625010921154 ], [ 432963.301089543791022, 438890.836010723549407 ], [ 432983.42191642022226, 438929.060125570511445 ], [ 432995.341193868487608, 438956.786366579064634 ], [ 432995.555235097301193, 438957.23893392510945 ], [ 433002.08540688327048, 438969.857900283590425 ], [ 433002.373967971943785, 438970.362936720368452 ], [ 433002.703462314850185, 438970.842272492358461 ], [ 433012.096430732344743, 438983.359032233711332 ], [ 433012.692820123629645, 438984.053963309677783 ], [ 433025.547137520683464, 438997.186487801198382 ], [ 433042.747946347517427, 439017.091002886008937 ], [ 433048.505168969044462, 439030.822820852743462 ], [ 433052.452906889491715, 439046.246970055333804 ], [ 433053.369821049156599, 439062.851185433100909 ], [ 433051.01721524936147, 439076.891836776281707 ], [ 433042.756741794699337, 439097.785912361985538 ], [ 433032.451306766248308, 439118.512360367283691 ], [ 433025.367347517923918, 439130.480505772924516 ], [ 433015.893142474582419, 439143.177258797804825 ], [ 433004.759911940898746, 439153.536709099891596 ], [ 432993.958717546192929, 439162.037655930325855 ], [ 432971.929946011805441, 439176.174057042691857 ], [ 432971.406556916539557, 439176.544846384495031 ], [ 432970.91930543014314, 439176.961987691465765 ], [ 432970.472282683942467, 439177.421978501603007 ], [ 432964.689234335848596, 439183.94591946923174 ], [ 432964.284839425119571, 439184.446741577179637 ], [ 432963.928160280338489, 439184.982594183122274 ], [ 432963.622213082388043, 439185.548945964023005 ], [ 432959.783103216206655, 439193.510767647356261 ], [ 432972.393632754450664, 439199.591437410272192 ], [ 432975.810536715143826, 439192.505216647521593 ], [ 432980.306274585716892, 439187.433509356109425 ], [ 433001.803619016776793, 439173.638138004927896 ], [ 433002.352289140457287, 439173.247545284684747 ], [ 433013.645788420049939, 439164.359135966515169 ], [ 433014.084995290264487, 439163.983074238756672 ], [ 433025.893363963754382, 439152.995409153401852 ], [ 433026.335420108167455, 439152.545238047896419 ], [ 433026.735146929335315, 439152.057092447183095 ], [ 433036.81120293965796, 439138.553775383392349 ], [ 433037.224829439946916, 439137.932997408963274 ], [ 433044.629290944256354, 439125.423372659890447 ], [ 433044.873389498563483, 439124.974345367401838 ], [ 433055.425083657202777, 439103.752617245889269 ], [ 433055.666840836929623, 439103.20972978475038 ], [ 433064.308507872687187, 439081.351461584796198 ], [ 433064.542837025423069, 439080.653414251981303 ], [ 433064.702543904422782, 439079.934613901714329 ], [ 433067.305789480742533, 439064.398112418304663 ], [ 433067.391282288881484, 439063.629113456525374 ], [ 433067.391382362169679, 439062.855376800114755 ], [ 433066.393780207261443, 439044.789998631982598 ], [ 433066.322799970919732, 439044.1100634081522 ], [ 433066.185833991214167, 439043.440294475643896 ], [ 433061.940671347547323, 439026.854081478551961 ], [ 433061.614841810951475, 439025.883175687282346 ], [ 433055.228334774379618, 439010.650422355509363 ], [ 433054.908370504388586, 439009.987386241205968 ], [ 433054.520539609191474, 439009.361621733114589 ], [ 433054.069131926051341, 439008.780050476547331 ], [ 433035.997879053698853, 438987.8682707445696 ], [ 433035.703957632416859, 438987.548740506230388 ], [ 433023.018694267608225, 438974.588928897923324 ], [ 433014.251175514946226, 438962.905622739810497 ], [ 433008.104144831071608, 438951.027041908120736 ], [ 432996.175182713544928, 438923.278272732452024 ], [ 432995.938481138611678, 438922.78228907706216 ], [ 432975.61588891869178, 438884.174874790711328 ], [ 432975.462298500642646, 438883.898431010951754 ], [ 432954.377581371751148, 438847.889354972692672 ], [ 432954.358518893423025, 438847.856998894421849 ], [ 432951.497372094425373, 438843.030225719499867 ], [ 432951.417347483162303, 438842.898549538920633 ], [ 432939.471723362570629, 438823.72147150686942 ], [ 432939.441296950331889, 438823.673067621537484 ], [ 432929.445493864943273, 438807.914435112266801 ], [ 432929.245138198486529, 438807.615814107412007 ], [ 432921.707019027031492, 438796.981537849234883 ], [ 432921.365075095556676, 438796.537897984613664 ], [ 432853.627639195648953, 438715.573345260811038 ], [ 432853.583128663303796, 438715.520672512124293 ], [ 432779.757783124863636, 438629.02528666658327 ], [ 432731.6955956054735, 438569.92767255572835 ], [ 432731.129950363363605, 438569.311371713934932 ], [ 432730.494825247034896, 438568.766947840340436 ], [ 432720.159527495445218, 438560.92847636109218 ], [ 432719.630053078290075, 438560.563957639213186 ], [ 432719.069372240046505, 438560.249546992650721 ], [ 432718.482213202922139, 438559.987895846657921 ], [ 432717.873527479765471, 438559.781210705754347 ], [ 432711.405140995688271, 438557.91130600089673 ], [ 432707.517168419726659, 438571.360605954774655 ], [ 432712.735960765217897, 438572.869273438467644 ] ] ] } },
{ "type": "Feature", "properties": { "highway": "residential", "lanes": null, "name": "Holywell Lane", "source": null, "surface": "asphalt", "osm_type": "way", "osm_id": 32501358, "maxspeed": "20 mph", "source_ref": null, "bicycle": null, "foot": null, "oneway": null, "postal_code": null, "sidewalk": null, "cycleway:left": null, "lit": null, "not:name": null, "ref": null, "sidewalk:left": null, "turn:lanes": null }, "geometry": { "type": "Polygon", "coordinates": [ [ [ 433967.443162008479703, 439994.247884272248484 ], [ 433952.904557890084106, 440082.675925991381519 ], [ 433952.755382597446442, 440083.576996076328214 ], [ 433951.793360803392716, 440088.714319946302567 ], [ 433944.428909198904876, 440128.162948274693917 ], [ 433938.187300718622282, 440161.608963406295516 ], [ 433935.661352059687488, 440175.145850699627772 ], [ 433935.183612137159798, 440176.064569182344712 ], [ 433934.480214876763057, 440176.754628551076166 ], [ 433933.60460823844187, 440177.191006325825583 ], [ 433932.63303321407875, 440177.327830115391407 ], [ 433930.864740523276851, 440177.020949474186637 ], [ 433930.69495409517549, 440176.994480609078892 ], [ 433888.713254572649021, 440171.186809739738237 ], [ 433870.333034764509648, 440166.445977892028168 ], [ 433853.190936068072915, 440157.472189617808908 ], [ 433812.715105925279204, 440133.762193853210192 ], [ 433812.341306027024984, 440133.563975715835113 ], [ 433811.952086110308301, 440133.398070169379935 ], [ 433811.550233251182362, 440133.265665208979044 ], [ 433794.777835264743771, 440128.515948162821587 ], [ 433794.215255101793446, 440128.391146086680237 ], [ 433778.045791994722094, 440125.771010653057601 ], [ 433777.680456285423134, 440125.725541405088734 ], [ 433757.9326675622724, 440124.003169024770614 ], [ 433757.457251505984459, 440123.984427059476729 ], [ 433745.899081878305878, 440124.07914453354897 ], [ 433745.701161584525835, 440124.084686908463482 ], [ 433734.784554136916995, 440124.606863855908159 ], [ 433734.247655386978295, 440124.661705565056764 ], [ 433731.402755790855736, 440125.108526770141907 ], [ 433725.724274029023945, 440126.00255839136662 ], [ 433725.451477388909552, 440126.053302196436562 ], [ 433664.469031267100945, 440139.157278282509651 ], [ 433649.801112449844368, 440141.425960864697117 ], [ 433637.635138292447664, 440141.423239563009702 ], [ 433622.622287560661789, 440139.996043042920064 ], [ 433608.615237168094609, 440136.79250873165438 ], [ 433606.700048502185382, 440135.460985510901082 ], [ 433605.39713552716421, 440132.561783303623088 ], [ 433596.275887124997098, 440136.66090852569323 ], [ 433598.147038839582819, 440140.824538242304698 ], [ 433598.350080985750537, 440141.226807320956141 ], [ 433598.588514807575848, 440141.609162963402923 ], [ 433598.86040377872996, 440141.968499730399344 ], [ 433599.163539654866327, 440142.301899138547014 ], [ 433599.495460408448707, 440142.606653364258818 ], [ 433599.853470225236379, 440142.880287236068398 ], [ 433603.702101503149606, 440145.556024622172117 ], [ 433604.107315353874583, 440145.809898954059463 ], [ 433604.534927609434817, 440146.02390409441432 ], [ 433604.981027320609428, 440146.196082748530898 ], [ 433605.441534451558255, 440146.324860167282168 ], [ 433620.710184768016916, 440149.816933359310497 ], [ 433621.351753070193809, 440149.920344822108746 ], [ 433636.924260854488239, 440151.400745134917088 ], [ 433637.396334012562875, 440151.423186397121754 ], [ 433650.183827066561207, 440151.426046720996965 ], [ 433650.567645943316165, 440151.411379367636982 ], [ 433650.949206396471709, 440151.367292158887722 ], [ 433666.141405699134339, 440149.017519272048958 ], [ 433666.427572839951608, 440148.964688925538212 ], [ 433727.416639477654826, 440135.859290215594228 ], [ 433732.955259440932423, 440134.987278375658207 ], [ 433735.532271896954626, 440134.582531644788105 ], [ 433746.080042660818435, 440134.077997359214351 ], [ 433757.301042869919911, 440133.986042938136961 ], [ 433776.628064520598855, 440135.671716648328584 ], [ 433792.33080535614863, 440138.216223376628477 ], [ 433808.211386442824733, 440142.713389896904118 ], [ 433848.239244181546383, 440166.160971678502392 ], [ 433848.447537266241852, 440166.276413265790325 ], [ 433866.206467358046211, 440175.573109163029585 ], [ 433866.729700061725453, 440175.809793593885843 ], [ 433867.276621142169461, 440175.984920158749446 ], [ 433886.494292356015649, 440180.941756838583387 ], [ 433887.057911525596865, 440181.053046388900839 ], [ 433929.239502057258505, 440186.888369811757002 ], [ 433931.697284810128622, 440187.314908897154965 ], [ 433932.212893187941518, 440187.377016734797508 ], [ 433932.732162533327937, 440187.385307071905117 ], [ 433933.249490773712751, 440187.339690469263587 ], [ 433935.804321797506418, 440186.97990182338981 ], [ 433936.331419517635368, 440186.87653600377962 ], [ 433936.844387412595097, 440186.71722361270804 ], [ 433937.337305494351313, 440186.503803220402915 ], [ 433939.647915151843335, 440185.352260214101989 ], [ 433940.102515716687776, 440185.095228053629398 ], [ 433940.527827145706397, 440184.792181203491054 ], [ 433940.919209679123014, 440184.446425628499128 ], [ 433942.754336184123531, 440182.646096982411109 ], [ 433943.109602714714129, 440182.258882085676305 ], [ 433943.422267096641008, 440181.836518890922889 ], [ 433943.688875643128995, 440181.383672816678882 ], [ 433944.876293014734983, 440179.100208038813435 ], [ 433945.081362105789594, 440178.653477817017119 ], [ 433945.241575273801573, 440178.188770420965739 ], [ 433945.355384082824457, 440177.710577177407686 ], [ 433948.017599186627194, 440163.443420282914303 ], [ 433954.259109705628362, 440129.997930025157984 ], [ 433961.622763843741268, 440090.553569198178593 ], [ 433962.594216734636575, 440085.365882021316793 ], [ 433962.612500601448119, 440085.262224475620314 ], [ 433962.77072613069322, 440084.306487848167308 ], [ 433962.771630820760038, 440084.301004297798499 ], [ 433977.408988271432463, 439995.272315933718346 ], [ 433977.470742080709897, 439994.67286233411869 ], [ 433977.459929400414694, 439994.070333299983758 ], [ 433976.809656678582542, 439985.776330653636251 ], [ 433966.840250670909882, 439986.557959627767559 ], [ 433967.443162008479703, 439994.247884272248484 ] ] ] } },
{ "type": "Feature", "properties": { "highway": "residential", "lanes": null, "name": "West Park Crescent", "source": "local_knowledge", "surface": "asphalt", "osm_type": "way", "osm_id": 56034550, "maxspeed": null, "source_ref": "npe", "bicycle": null, "foot": null, "oneway": null, "postal_code": null, "sidewalk": null, "cycleway:left": null, "lit": null, "not:name": null, "ref": null, "sidewalk:left": null, "turn:lanes": null }, "geometry": { "type": "Polygon", "coordinates": [ [ [ 432998.038563384267036, 439102.78778790688375 ], [ 432983.31867804331705, 439097.724600424175151 ], [ 432961.479590480797924, 439090.219144382223021 ], [ 432915.553889315167908, 439066.617100217146799 ], [ 432847.77560586942127, 439002.073696125124115 ], [ 432813.095500567171257, 438929.575715530954767 ], [ 432804.129352399904747, 438903.703197789611295 ], [ 432797.944131781696342, 438857.731811023608316 ], [ 432799.898821317707188, 438837.660150846990291 ], [ 432805.089447908045258, 438811.3832588790101 ], [ 432819.051252833043691, 438771.567168046662118 ], [ 432827.868163648585323, 438754.044459741038736 ], [ 432852.187226781912614, 438723.158215924806427 ], [ 432844.330387146503199, 438716.971935059467796 ], [ 432819.699702322948724, 438748.253951667167712 ], [ 432819.409435923153069, 438748.663309955503792 ], [ 432819.161664989369456, 438749.099702388281003 ], [ 432809.9732702235342, 438767.360697043593973 ], [ 432809.721403491101228, 438767.953571802529041 ], [ 432795.534936146461405, 438808.410351955157239 ], [ 432795.348045911930967, 438809.09591156616807 ], [ 432790.040902657841798, 438835.962654437986203 ], [ 432789.969659310998395, 438836.446974764461629 ], [ 432787.93503515527118, 438857.339440748794004 ], [ 432787.912332680716645, 438857.915726720588282 ], [ 432787.956143214076292, 438858.490793291362934 ], [ 432794.285500357742421, 438905.533468596171588 ], [ 432794.376734422985464, 438906.024499724211637 ], [ 432794.516499756136909, 438906.503979520464782 ], [ 432803.739063302695286, 438933.116403777559754 ], [ 432803.952915557892993, 438933.636815245554317 ], [ 432839.151309515233152, 439007.218266623152886 ], [ 432839.365825705288444, 439007.618857031862717 ], [ 432839.615824962500483, 439007.99831749452278 ], [ 432839.899242394312751, 439008.353513821435627 ], [ 432840.2137370876153, 439008.681512234848924 ], [ 432909.179530308640096, 439074.355749381240457 ], [ 432909.540165125916246, 439074.667768994753715 ], [ 432909.928884948545601, 439074.944012746214867 ], [ 432910.342153767705895, 439075.181967770855408 ], [ 432957.228760578786023, 439099.277838636597153 ], [ 432957.889143549196888, 439099.559282886562869 ], [ 432980.066657375893556, 439107.181045952194836 ], [ 432994.794502714998089, 439112.246971429209225 ], [ 432994.811695148353465, 439112.252850184740964 ], [ 433036.996290954295546, 439126.591831970552448 ], [ 433040.214557639090344, 439117.123845936206635 ], [ 432998.038563384267036, 439102.78778790688375 ] ] ] } },
{ "type": "Feature", "properties": { "highway": "tertiary", "lanes": "2", "name": "Main Street", "source": "local_knowledge", "surface": "asphalt", "osm_type": "way", "osm_id": 128918540, "maxspeed": "20 mph", "source_ref": "npe", "bicycle": "yes", "foot": "yes", "oneway": "no", "postal_code": "LS17", "sidewalk": "both", "cycleway:left": null, "lit": null, "not:name": null, "ref": null, "sidewalk:left": null, "turn:lanes": null }, "geometry": { "type": "Polygon", "coordinates": [ [ [ 433612.468407447508071, 440138.016264645557385 ], [ 433612.792559887981042, 440137.895853025140241 ], [ 433676.650205655430909, 440112.362828628916759 ], [ 433768.204911080945749, 440088.546560290094931 ], [ 433768.703782500640955, 440088.396763727301732 ], [ 433769.190134030301124, 440088.210286132874899 ], [ 433847.0312845853623, 440054.992003312916495 ], [ 433862.658636314619798, 440048.316822006192524 ], [ 433862.960707973805256, 440048.179235204530414 ], [ 433891.812055160000455, 440034.202889415551908 ], [ 433914.701710637891665, 440024.525722632941324 ], [ 433915.273651429044548, 440024.25277526548598 ], [ 433918.559413305658381, 440022.497873611922842 ], [ 433945.994657936156727, 440007.877627464360557 ], [ 433975.066426556964871, 439992.371694732340984 ], [ 433987.386580784339458, 439986.068709615268745 ], [ 433987.549524550675415, 439985.982622801151592 ], [ 433995.342625780554954, 439981.733206984063145 ], [ 433995.643808709923178, 439981.559132905502338 ], [ 434010.656131367490161, 439972.37745235330658 ], [ 434023.60945402312791, 439964.447771748818923 ], [ 434024.193025971122552, 439964.048662473564036 ], [ 434042.562305192754138, 439950.07367044116836 ], [ 434043.088344794581644, 439949.631051275879145 ], [ 434043.568429592822213, 439949.138965943129733 ], [ 434043.997928930737544, 439948.602160851005465 ], [ 434053.706425459880847, 439935.165096518700011 ], [ 434053.945787144068163, 439934.811576877953485 ], [ 434065.991484264784958, 439915.796649221796542 ], [ 434075.393207768443972, 439905.745477386401035 ], [ 434088.293196777696721, 439897.020253820170183 ], [ 434099.402193384652492, 439892.214454686210956 ], [ 434114.405378391209524, 439889.357605523371603 ], [ 434172.016764855012298, 439885.025814855878707 ], [ 434172.126447681977879, 439885.016700136882719 ], [ 434227.914923471864313, 439879.938727347820532 ], [ 434228.32685139059322, 439879.888884268002585 ], [ 434250.158188447763678, 439876.588138451101258 ], [ 434250.341199885180686, 439876.557983147737104 ], [ 434304.07756991655333, 439866.970771886350121 ], [ 434304.101237611961551, 439866.966507323610131 ], [ 434353.299836130463518, 439858.014376753359102 ], [ 434379.608110714470968, 439853.234023655415513 ], [ 434379.868912095960695, 439853.181496418314055 ], [ 434393.665811465936713, 439850.128791559312958 ], [ 434451.025892746751197, 439840.433611433254555 ], [ 434451.213778439036105, 439840.399211414973252 ], [ 434469.106690729619004, 439836.870234852889553 ], [ 434469.722451076726429, 439836.719531773414928 ], [ 434470.322052380768582, 439836.513739403686486 ], [ 434478.707573051971849, 439833.20411734492518 ], [ 434479.309090533759445, 439832.933291659399401 ], [ 434479.882442939095199, 439832.607045046868734 ], [ 434480.422538315469865, 439832.22827490902273 ], [ 434487.256993965362199, 439826.937843548657838 ], [ 434487.823090256075375, 439826.449116025003605 ], [ 434488.333814776910003, 439825.902782732446212 ], [ 434488.783337767934427, 439825.305079893849324 ], [ 434489.166528065514285, 439824.66283009928884 ], [ 434491.581706818891689, 439820.074215967964847 ], [ 434491.902515229710843, 439819.373662487778347 ], [ 434492.14438461640384, 439818.642094025562983 ], [ 434492.30438444390893, 439817.888374402420595 ], [ 434493.133081357460469, 439812.553724449826404 ], [ 434493.196955829276703, 439811.995785983279347 ], [ 434493.215899533999618, 439811.434522750321776 ], [ 434493.121197369298898, 439796.602110411971807 ], [ 434493.111625557823572, 439796.278145548363682 ], [ 434492.315029635792598, 439781.173527126491535 ], [ 434492.227709761646111, 439780.380692018894479 ], [ 434489.549080257478636, 439764.461102755041793 ], [ 434489.459379905660171, 439764.01653941872064 ], [ 434481.454937368573155, 439730.059823256160598 ], [ 434480.912002516677603, 439724.78899586154148 ], [ 434481.182899399893358, 439723.870162513863761 ], [ 434481.185101834591478, 439723.862676874035969 ], [ 434482.018898383306805, 439721.022923250624444 ], [ 434484.928515956737101, 439714.47907213907456 ], [ 434491.659942382888403, 439703.114582515321672 ], [ 434500.155503855145071, 439695.325220827013254 ], [ 434504.071330522943754, 439692.520411515317392 ], [ 434504.078814335342031, 439692.515043593943119 ], [ 434512.561895702267066, 439686.421919905871619 ], [ 434524.692816653579939, 439682.128380065085366 ], [ 434539.050604184274562, 439679.015540283638984 ], [ 434568.294697866425849, 439676.995028935023583 ], [ 434606.14911408466287, 439678.387505322054494 ], [ 434606.288030803669244, 439678.391235034971032 ], [ 434622.195957633201033, 439678.660355110419914 ], [ 434631.410361174028367, 439679.99428391980473 ], [ 434640.025538018031511, 439682.035741248750128 ], [ 434640.183037212118506, 439682.071149394498207 ], [ 434669.227992438245565, 439688.249934323364869 ], [ 434669.870796393312048, 439688.355687926930841 ], [ 434686.007323059195187, 439690.244307147630025 ], [ 434686.346091794548556, 439690.275632671196945 ], [ 434700.851215924427379, 439691.262093028635718 ], [ 434701.48969545471482, 439691.276314530405216 ], [ 434702.126813881681301, 439691.232286452024709 ], [ 434711.206476471736096, 439690.186918904597405 ], [ 434712.032403074728791, 439690.041254807380028 ], [ 434712.834981036896352, 439689.797859249752946 ], [ 434718.996312620816752, 439687.518077551852912 ], [ 434719.528007451968733, 439687.296057781553827 ], [ 434720.039641551615205, 439687.03106208355166 ], [ 434720.527748419437557, 439686.724885896604974 ], [ 434725.949805512500461, 439683.004303091729525 ], [ 434726.594803508080076, 439682.503985718765762 ], [ 434727.177171274030115, 439681.931982507929206 ], [ 434732.503412484948058, 439676.052140406216495 ], [ 434732.882148719916586, 439675.596709523408208 ], [ 434733.221025408653077, 439675.110889582894742 ], [ 434733.517616066616029, 439674.598159238288645 ], [ 434746.564416058419738, 439649.665789757040329 ], [ 434750.6077461115201, 439643.498930747678969 ], [ 434755.2557614511461, 439637.510062491171993 ], [ 434758.919369437848218, 439634.99148703366518 ], [ 434762.56666220043553, 439633.534244801150635 ], [ 434769.128930459439289, 439632.961002030060627 ], [ 434776.722805341763888, 439632.64098534459481 ], [ 434795.026654714543838, 439633.596242353029083 ], [ 434831.263786176685244, 439635.589778109278996 ], [ 434831.55892180185765, 439635.599776240880601 ], [ 434856.614809457852971, 439635.919724073144607 ], [ 434856.979169874626677, 439635.914891532855108 ], [ 434870.30493878031848, 439635.391008822130971 ], [ 434870.548468715220224, 439635.377181664807722 ], [ 434883.890878526784945, 439634.386144742486067 ], [ 434884.152491124987137, 439634.361768208036665 ], [ 434895.595839535933919, 439633.078453971480485 ], [ 434894.035590205108747, 439619.16566769318888 ], [ 434882.722819308342878, 439620.434338315215427 ], [ 434869.633089075738098, 439621.406606904405635 ], [ 434856.611322906450368, 439621.918538201367483 ], [ 434831.885351652512327, 439621.602803192858119 ], [ 434795.785839070915245, 439619.61683834932046 ], [ 434795.766150676528923, 439619.615783029061276 ], [ 434777.122757395263761, 439618.642805611540098 ], [ 434776.463203514402267, 439618.639499552897178 ], [ 434768.38202847802313, 439618.980051759746857 ], [ 434768.067596065113321, 439619.000400240242016 ], [ 434760.319440109888092, 439619.677235476963688 ], [ 434759.642404484504368, 439619.769858529500198 ], [ 434758.977625950414222, 439619.928053878596984 ], [ 434758.331439660745673, 439620.150313967023976 ], [ 434753.000040795945097, 439622.280425282428041 ], [ 434752.295507088827435, 439622.608367536158767 ], [ 434751.631666021537967, 439623.012383505760226 ], [ 434746.42768431303557, 439626.589900712890085 ], [ 434745.856431007967331, 439627.027497431554366 ], [ 434745.333121494797524, 439627.521428985754028 ], [ 434744.863285993458703, 439628.066475615371019 ], [ 434739.376837956195232, 439635.135646452894434 ], [ 434739.05283888138365, 439635.589320068771485 ], [ 434734.667873910279013, 439642.277238290349487 ], [ 434734.319656569568906, 439642.869888571847696 ], [ 434721.527613790123723, 439667.315418295329437 ], [ 434717.352115233021323, 439671.924911414331291 ], [ 434713.323071927938145, 439674.689616577641573 ], [ 434708.767509092343971, 439676.375240640365519 ], [ 434701.161966852552723, 439677.250888491689693 ], [ 434687.465770749258809, 439676.319441481493413 ], [ 434671.822112816385925, 439674.488507621572353 ], [ 434643.175050197110977, 439668.394367093860637 ], [ 434634.335445617267396, 439666.299729237798601 ], [ 434633.724321630958002, 439666.183326894941274 ], [ 434623.761778613727074, 439664.741093213029671 ], [ 434622.877278344356455, 439664.669878020591568 ], [ 434606.594316786853597, 439664.394413348753005 ], [ 434568.439120131719392, 439662.990872739988845 ], [ 434567.699310253781732, 439663.002789581893012 ], [ 434537.580132970353588, 439665.083761561196297 ], [ 434536.57944440015126, 439665.226047425530851 ], [ 434521.29258924984606, 439668.54031368996948 ], [ 434520.440203371632379, 439668.782505253562704 ], [ 434506.951734726899303, 439673.556526760221459 ], [ 434506.341169084946159, 439673.805572508368641 ], [ 434505.756746678845957, 439674.110965106578078 ], [ 434505.203653532080352, 439674.469994574435987 ], [ 434495.915265972202178, 439681.141543722362258 ], [ 434491.659914059680887, 439684.189546527748462 ], [ 434491.005420082714409, 439684.720775767054874 ], [ 434481.434716586314607, 439693.495907509408426 ], [ 434480.952616278431378, 439693.983495274558663 ], [ 434480.52053315367084, 439694.515911191760097 ], [ 434480.142613116186112, 439695.088046648481395 ], [ 434472.675193207687698, 439707.695094649039675 ], [ 434472.301719899522141, 439708.418520158564206 ], [ 434469.037327702273615, 439715.760274175845552 ], [ 434468.717088673089165, 439716.632193121942692 ], [ 434467.753260535595473, 439719.914809786656406 ], [ 434467.093155636684969, 439722.153766495466698 ], [ 434466.932558017899282, 439722.815654777397867 ], [ 434466.837045408261474, 439723.490017464908306 ], [ 434466.807522034912836, 439724.170470301876776 ], [ 434466.844267398293596, 439724.850571376096923 ], [ 434467.574899855535477, 439731.943572603573557 ], [ 434467.724790590989869, 439732.832371259573847 ], [ 434475.780794678837992, 439767.007823572261259 ], [ 434478.355496502772439, 439782.309751461085398 ], [ 434479.122517656243872, 439796.85358921502484 ], [ 434479.212590677489061, 439810.960977313749027 ], [ 434478.649440806882922, 439814.586195872456301 ], [ 434477.485621365718544, 439816.79734414734412 ], [ 434472.640905009699054, 439820.547553477052134 ], [ 434465.773816577217076, 439823.257876216317527 ], [ 434448.598485580412671, 439826.645325925434008 ], [ 434391.158917819033377, 439836.353941104724072 ], [ 434390.813285713782534, 439836.421344034839422 ], [ 434376.974319774308242, 439839.483356551907491 ], [ 434350.796099084021989, 439844.240078167174943 ], [ 434301.606793383602053, 439853.19051761040464 ], [ 434247.973566815489903, 439862.759326844010502 ], [ 434226.439160260837525, 439866.015178841014858 ], [ 434170.912192965042777, 439871.069348631368484 ], [ 434112.96047424263088, 439875.426728825375903 ], [ 434112.175935030856635, 439875.530579238664359 ], [ 434096.023492294712923, 439878.606265667127445 ], [ 434095.276085808814969, 439878.791702394664753 ], [ 434094.553570851800032, 439879.058114428888075 ], [ 434082.134070300555322, 439884.430843137437478 ], [ 434081.548228034982458, 439884.717381542781368 ], [ 434080.991594958875794, 439885.05719772313023 ], [ 434066.897279540542513, 439894.590233212511521 ], [ 434066.27359698707005, 439895.06506135239033 ], [ 434065.706912877096329, 439895.606643118604552 ], [ 434055.317940290027764, 439906.713260817516129 ], [ 434054.893078107153997, 439907.212396056216676 ], [ 434054.516765787207987, 439907.749083021655679 ], [ 434042.233426200400572, 439927.13914498972008 ], [ 434033.258590289216954, 439939.560784854169469 ], [ 434015.998043478990439, 439952.692274731234647 ], [ 434003.350271883886307, 439960.434905754344072 ], [ 433988.487602480396163, 439969.525056940736249 ], [ 433980.928161300427746, 439973.647062798321713 ], [ 433968.636763196438551, 439979.935336296213791 ], [ 433968.530672279594, 439979.990761887573171 ], [ 433939.409466096607503, 439995.523063527944032 ], [ 433911.972477626928594, 440010.144238967681304 ], [ 433908.957902211812325, 440011.754298473708332 ], [ 433886.195546079252381, 440021.377646316250321 ], [ 433885.869613126909826, 440021.525373196171131 ], [ 433857.006592404330149, 440035.507373950968031 ], [ 433841.535198404453695, 440042.115938769944478 ], [ 433764.175218791759107, 440075.12888453702908 ], [ 433672.698709862248506, 440098.924811499367934 ], [ 433671.862127348489594, 440099.199662995059043 ], [ 433607.755440022738185, 440124.832264882861637 ], [ 433598.561809480015654, 440127.991245348064695 ], [ 433603.111213172145654, 440141.231446481251623 ], [ 433612.468407447508071, 440138.016264645557385 ] ] ] } },
{ "type": "Feature", "properties": { "highway": "residential", "lanes": null, "name": "Shadwell Park Avenue", "source": null, "surface": null, "osm_type": "way", "osm_id": 151939144, "maxspeed": null, "source_ref": null, "bicycle": null, "foot": null, "oneway": "no", "postal_code": null, "sidewalk": null, "cycleway:left": null, "lit": null, "not:name": null, "ref": null, "sidewalk:left": null, "turn:lanes": null }, "geometry": { "type": "Polygon", "coordinates": [ [ [ 433047.262876609398518, 440095.555598481267225 ], [ 433047.26287927798694, 440095.533034866617527 ], [ 433047.22848798870109, 440079.448036990477704 ], [ 433048.149635138513986, 440073.190138711943291 ], [ 433049.932411767425947, 440066.894816525338683 ], [ 433056.772305363148917, 440053.079387780919205 ], [ 433071.248535629885737, 440026.462456228735391 ], [ 433071.276436072250362, 440026.410427164577413 ], [ 433104.205881064408459, 439964.123049332236405 ], [ 433104.442944020498544, 439963.605242856196128 ], [ 433107.584973672986962, 439955.560713247512467 ], [ 433107.747690385498572, 439955.070882997999433 ], [ 433107.85904237307841, 439954.566887822642457 ], [ 433109.157152955129277, 439946.809742627607193 ], [ 433109.209411787218414, 439946.388076932518743 ], [ 433109.22568184020929, 439945.963496870244853 ], [ 433109.125150258711074, 439922.029612238169648 ], [ 433099.125238473818172, 439922.071615739143454 ], [ 433099.223980511771515, 439945.57945784489857 ], [ 433098.08172040944919, 439952.405284231703263 ], [ 433095.231990555359516, 439959.701439495547675 ], [ 433062.449642004037742, 440021.710578457161319 ], [ 433047.941625780425966, 440048.385953721764963 ], [ 433047.853120553132612, 440048.556405635783449 ], [ 433040.766218285134528, 440062.870750140049495 ], [ 433040.581584988743998, 440063.291204924811609 ], [ 433040.436304847302381, 440063.726825586229097 ], [ 433038.439453740778845, 440070.778085329278838 ], [ 433038.303570448071696, 440071.412321396288462 ], [ 433037.281008471560199, 440078.359190671355464 ], [ 433037.24066152604064, 440078.72761841933243 ], [ 433037.227716766821686, 440079.098022677761037 ], [ 433037.26287801360013, 440095.543133980187122 ], [ 433037.162795472831931, 440137.689587801869493 ], [ 433047.162767278437968, 440137.713334107829724 ], [ 433047.262876609398518, 440095.555598481267225 ] ] ] } },
{ "type": "Feature", "properties": { "highway": "residential", "lanes": null, "name": "Shadwell Park Close", "source": null, "surface": null, "osm_type": "way", "osm_id": 151940045, "maxspeed": null, "source_ref": null, "bicycle": null, "foot": null, "oneway": "no", "postal_code": null, "sidewalk": null, "cycleway:left": null, "lit": null, "not:name": null, "ref": null, "sidewalk:left": null, "turn:lanes": null }, "geometry": { "type": "Polygon", "coordinates": [ [ [ 432994.9217713989201, 440013.962435452500358 ], [ 432994.972775378846563, 440014.379822923394386 ], [ 432995.05866958561819, 440014.791448836156633 ], [ 432996.364238092908636, 440019.952232978714164 ], [ 432996.507478726678528, 440020.420627133687958 ], [ 432996.695861539919861, 440020.872758618148509 ], [ 432996.927578728529625, 440021.304288580082357 ], [ 432999.671410237671807, 440025.863249354297295 ], [ 432999.94783295848174, 440026.274860984703992 ], [ 433000.263663136342075, 440026.657071598805487 ], [ 433000.615795103891287, 440027.006122787424829 ], [ 433004.577065531455446, 440030.561151191301178 ], [ 433005.040721850004047, 440030.930083755229134 ], [ 433005.544766176783014, 440031.24157650815323 ], [ 433049.962150708131958, 440055.176475759362802 ], [ 433054.705890670360532, 440046.373241628054529 ], [ 433010.812887270352803, 440022.720912133750971 ], [ 433007.852795164159033, 440020.064387741324026 ], [ 433005.877258814638481, 440016.781973097648006 ], [ 433004.856663071957882, 440012.747658318141475 ], [ 433003.095145857834723, 439990.646314384764992 ], [ 432993.126757227873895, 439991.440813046065159 ], [ 432994.9217713989201, 440013.962435452500358 ] ] ] } },
{ "type": "Feature", "properties": { "highway": "residential", "lanes": null, "name": "Shadwell Park Gardens", "source": null, "surface": null, "osm_type": "way", "osm_id": 151940208, "maxspeed": null, "source_ref": null, "bicycle": null, "foot": null, "oneway": "no", "postal_code": null, "sidewalk": null, "cycleway:left": null, "lit": null, "not:name": null, "ref": null, "sidewalk:left": null, "turn:lanes": null }, "geometry": { "type": "Polygon", "coordinates": [ [ [ 433132.795530043134931, 439992.965371265425347 ], [ 433143.224429298075847, 440003.999237770971376 ], [ 433144.773568196222186, 440006.209030444151722 ], [ 433145.642283036373556, 440008.493459711375181 ], [ 433145.969542192004155, 440011.295066292048432 ], [ 433146.22237096936442, 440025.684907708549872 ], [ 433145.943422038166318, 440026.984155310376082 ], [ 433145.374137264618184, 440028.031607412442099 ], [ 433144.53780490916688, 440028.876444256049581 ], [ 433143.494810604839586, 440029.448126447736286 ], [ 433142.160977027378976, 440029.744804911955725 ], [ 433093.383509436622262, 440029.639934867911506 ], [ 433087.323004289122764, 440028.641053998901043 ], [ 433081.844971051148605, 440026.663007614843082 ], [ 433069.279598350054584, 440019.700125469069462 ], [ 433064.432683092076331, 440028.446977044513915 ], [ 433077.347562320996076, 440035.603532137407456 ], [ 433077.703660002269316, 440035.782690544030629 ], [ 433078.07289809564827, 440035.932912125776056 ], [ 433084.358670537767466, 440038.202622605778743 ], [ 433084.795887040905654, 440038.338217153679579 ], [ 433085.24367215775419, 440038.433257361873984 ], [ 433092.15576647897251, 440039.572495530010201 ], [ 433092.555610022856854, 440039.621945963648614 ], [ 433092.958136893052142, 440039.639043441973627 ], [ 433142.694267542799935, 440039.745974581921473 ], [ 433143.24573926726589, 440039.716662130260374 ], [ 433143.790614611003548, 440039.626711351855192 ], [ 433146.36011221591616, 440039.055189824604895 ], [ 433146.814278064877726, 440038.931473082804587 ], [ 433147.254797150555532, 440038.76559546001954 ], [ 433147.677765197178815, 440038.559027112729382 ], [ 433149.982457923819311, 440037.295787434733938 ], [ 433150.393125827424228, 440037.044246193254367 ], [ 433150.77768944890704, 440036.754363554471638 ], [ 433151.132581251149531, 440036.428828714648262 ], [ 433152.981084833445493, 440034.5615280874772 ], [ 433153.296098326565698, 440034.21182292024605 ], [ 433153.576833700877614, 440033.834046724019572 ], [ 433153.820803335460369, 440033.431547006999608 ], [ 433155.073803548759315, 440031.126096785475966 ], [ 433155.281356322870124, 440030.696551488770638 ], [ 433155.447027160611469, 440030.249180848884862 ], [ 433155.569307878788095, 440029.788057501020376 ], [ 433156.120299780857749, 440027.22172787116142 ], [ 433156.208218307874631, 440026.656189178233035 ], [ 433156.230931813188363, 440026.084308266406879 ], [ 433155.963660085806623, 440010.872441121493466 ], [ 433155.930664666288067, 440010.380165443988517 ], [ 433155.502708006359171, 440006.716505698743276 ], [ 433155.438142093888018, 440006.309875576524064 ], [ 433155.340339582005981, 440005.909936228592414 ], [ 433155.209963637520559, 440005.519399512675591 ], [ 433153.899006244610064, 440002.072020352003165 ], [ 433153.736275063653011, 440001.692141462117434 ], [ 433153.542728298867587, 440001.326998944627121 ], [ 433153.319688179704826, 440000.979087298561353 ], [ 433151.20316572097363, 439997.959941741253715 ], [ 433150.742741325462703, 439997.395578505122103 ], [ 433139.72135993570555, 439985.734860725817271 ], [ 433139.363528010668233, 439985.392023369146045 ], [ 433138.97351597546367, 439985.086291865853127 ], [ 433133.455726573767606, 439981.186346688016783 ], [ 433127.68392214999767, 439989.352513089368585 ], [ 433132.795530043134931, 439992.965371265425347 ] ] ] } },
{ "type": "Feature", "properties": { "highway": "residential", "lanes": null, "name": "Shadwell Park Drive", "source": null, "surface": null, "osm_type": "way", "osm_id": 151940428, "maxspeed": null, "source_ref": null, "bicycle": null, "foot": null, "oneway": "no", "postal_code": null, "sidewalk": null, "cycleway:left": null, "lit": null, "not:name": null, "ref": null, "sidewalk:left": null, "turn:lanes": null }, "geometry": { "type": "Polygon", "coordinates": [ [ [ 433144.664882425917313, 439790.450781674589962 ], [ 433139.551018881204072, 439790.469967181561515 ], [ 433139.588535275135655, 439800.469896807335317 ], [ 433144.726418417412788, 439800.450621186872013 ], [ 433144.774455644073896, 439800.450210191193037 ], [ 433149.129782228090335, 439800.392021821811795 ], [ 433148.996191380836535, 439790.392914187395945 ], [ 433144.664882425917313, 439790.450781674589962 ] ] ] } },
{ "type": "Feature", "properties": { "highway": "residential", "lanes": null, "name": "Shadwell Park Court", "source": null, "surface": null, "osm_type": "way", "osm_id": 151940651, "maxspeed": null, "source_ref": null, "bicycle": null, "foot": null, "oneway": "no", "postal_code": null, "sidewalk": null, "cycleway:left": null, "lit": null, "not:name": null, "ref": null, "sidewalk:left": null, "turn:lanes": null }, "geometry": { "type": "Polygon", "coordinates": [ [ [ 433073.061918637074996, 439786.035982922301628 ], [ 433073.005256780481432, 439781.987368587288074 ], [ 433063.00623598851962, 439782.127308585331775 ], [ 433063.063079372630455, 439786.188893460668623 ], [ 433063.063509725325275, 439786.214833425125107 ], [ 433063.164493910153396, 439791.478395258076489 ], [ 433073.162653996725567, 439791.28657533111982 ], [ 433073.061918637074996, 439786.035982922301628 ] ] ] } },
{ "type": "Feature", "properties": { "highway": "residential", "lanes": null, "name": "Shadwell Park Court", "source": null, "surface": null, "osm_type": "way", "osm_id": 151940713, "maxspeed": null, "source_ref": null, "bicycle": null, "foot": null, "oneway": "no", "postal_code": null, "sidewalk": null, "cycleway:left": null, "lit": null, "not:name": null, "ref": null, "sidewalk:left": null, "turn:lanes": null }, "geometry": { "type": "Polygon", "coordinates": [ [ [ 433069.267192233877722, 439851.056314604938962 ], [ 433071.569111102609895, 439848.77673281711759 ], [ 433071.569735222787131, 439848.715007577266078 ], [ 433016.953701479709707, 439848.162770452501718 ], [ 433016.852594010066241, 439858.162259303440806 ], [ 433071.468627753143664, 439858.714496428205166 ], [ 433071.962191224389244, 439858.695087571104523 ], [ 433072.451431246590801, 439858.627074303571135 ], [ 433072.931573197129183, 439858.511120385141112 ], [ 433073.397931243933272, 439858.348357440670952 ], [ 433073.845954075513873, 439858.14037391677266 ], [ 433074.271269318822306, 439857.889199579483829 ], [ 433074.669726210006047, 439857.597285705676768 ], [ 433075.037436103040818, 439857.267481159826275 ], [ 433075.370810419903137, 439856.903004591644276 ], [ 433075.666595672606491, 439856.507413024257403 ], [ 433075.921905214665458, 439856.084567140322179 ], [ 433076.134247412905097, 439855.638593604380731 ], [ 433076.301549963711295, 439855.17384479008615 ], [ 433076.422180117282551, 439854.694856303860433 ], [ 433076.494960612035356, 439854.206302720878739 ], [ 433076.519181163923349, 439853.712951964582317 ], [ 433076.518223814375233, 439851.053704178077169 ], [ 433069.267192233877722, 439851.056314604938962 ] ] ] } },
{ "type": "Feature", "properties": { "highway": "residential", "lanes": null, "name": "Shadwell Park Grove", "source": null, "surface": null, "osm_type": "way", "osm_id": 151940755, "maxspeed": null, "source_ref": null, "bicycle": null, "foot": null, "oneway": "no", "postal_code": null, "sidewalk": null, "cycleway:left": null, "lit": null, "not:name": null, "ref": null, "sidewalk:left": null, "turn:lanes": null }, "geometry": { "type": "Polygon", "coordinates": [ [ [ 433221.746198162203655, 439853.894772683852352 ], [ 433144.835141829913482, 439853.928445019235369 ], [ 433144.839520079432987, 439863.928444060788024 ], [ 433221.745278507529292, 439863.894772797473706 ], [ 433254.332516797177959, 439863.903524580178782 ], [ 433254.335202444286551, 439853.903524940833449 ], [ 433221.746198162203655, 439853.894772683852352 ] ] ] } },
{ "type": "Feature", "properties": { "highway": "residential", "lanes": null, "name": "Shadwell Park Grove", "source": null, "surface": null, "osm_type": "way", "osm_id": 151940765, "maxspeed": null, "source_ref": null, "bicycle": null, "foot": null, "oneway": "no", "postal_code": null, "sidewalk": null, "cycleway:left": null, "lit": null, "not:name": null, "ref": null, "sidewalk:left": null, "turn:lanes": null }, "geometry": { "type": "Polygon", "coordinates": [ [ [ 433222.354407825740054, 439792.544819479808211 ], [ 433227.531198912241962, 439792.614754836249631 ], [ 433227.666280615201686, 439782.615667231206317 ], [ 433222.463237857213244, 439782.545377230329905 ], [ 433222.410732237040065, 439782.544943638728 ], [ 433214.240491430391558, 439782.52037523558829 ], [ 433214.210420967778191, 439792.520330023835413 ], [ 433222.354407825740054, 439792.544819479808211 ] ] ] } },
{ "type": "Feature", "properties": { "highway": "residential", "lanes": null, "name": "Shadwell Park Court", "source": null, "surface": null, "osm_type": "way", "osm_id": 703439328, "maxspeed": null, "source_ref": null, "bicycle": null, "foot": null, "oneway": "no", "postal_code": null, "sidewalk": null, "cycleway:left": null, "lit": null, "not:name": null, "ref": null, "sidewalk:left": null, "turn:lanes": null }, "geometry": { "type": "Polygon", "coordinates": [ [ [ 433027.518749175826088, 439780.621384307858534 ], [ 433026.936849954945501, 439780.648183892015368 ], [ 433026.362016727915034, 439780.74247960804496 ], [ 433022.902863412338775, 439781.519198165391572 ], [ 433022.388049798959401, 439781.664109897508752 ], [ 433021.891659409331623, 439781.863180356565863 ], [ 433021.419371594092809, 439782.114131918002386 ], [ 433018.387000737013295, 439783.939755678351503 ], [ 433017.940155441581737, 439784.242802784370724 ], [ 433017.528591535752639, 439784.592264395847451 ], [ 433017.157107990817167, 439784.984065675002057 ], [ 433014.861946640303358, 439787.682757780246902 ], [ 433014.537687525269575, 439788.108194737520535 ], [ 433014.260733959556092, 439788.565837939910125 ], [ 433014.034255849255715, 439789.050449375878088 ], [ 433012.708576458680909, 439792.334556393092498 ], [ 433012.535342693619896, 439792.839967122185044 ], [ 433012.41702646453632, 439793.360976922791451 ], [ 433012.354978705814574, 439793.891636906249914 ], [ 433012.132772846263833, 439797.417180202610325 ], [ 433012.122910482343286, 439797.711873718420975 ], [ 433011.903187026095111, 439853.142695423448458 ], [ 433011.681334850843996, 439921.940166830958333 ], [ 433021.681282858015038, 439921.972413605602924 ], [ 433021.903115789056756, 439853.180486314813606 ], [ 433022.122247272287495, 439797.899004847975448 ], [ 433022.284303657070268, 439795.327799920167308 ], [ 433023.004158344934694, 439793.544503107550554 ], [ 433024.245146768691484, 439792.08532653975999 ], [ 433025.883624375681393, 439791.098889263055753 ], [ 433027.981591131421737, 439790.627811642829329 ], [ 433068.001282567216549, 439791.118547590216622 ], [ 433068.123896970006172, 439781.119299333076924 ], [ 433027.518749175826088, 439780.621384307858534 ] ] ] } },
{ "type": "Feature", "properties": { "highway": "residential", "lanes": null, "name": "Shadwell Park Drive", "source": null, "surface": null, "osm_type": "way", "osm_id": 703439331, "maxspeed": null, "source_ref": null, "bicycle": null, "foot": null, "oneway": "no", "postal_code": null, "sidewalk": null, "cycleway:left": null, "lit": null, "not:name": null, "ref": null, "sidewalk:left": null, "turn:lanes": null }, "geometry": { "type": "Polygon", "coordinates": [ [ [ 433139.72550814418355, 439804.095235620450694 ], [ 433139.837315237033181, 439858.925834369380027 ], [ 433139.707901346613653, 439900.899622437427752 ], [ 433137.680623620806728, 439906.715748014568817 ], [ 433133.916513589152601, 439911.658922488801181 ], [ 433128.799482626316603, 439915.193629356392194 ], [ 433122.762556714587845, 439916.989693730080035 ], [ 433104.119857623125426, 439917.050604737538379 ], [ 433094.756938216392882, 439917.040000493696425 ], [ 433016.686669880175032, 439916.956293092342094 ], [ 432966.700616951216944, 439916.949127289350145 ], [ 432966.699183822260238, 439926.949127186671831 ], [ 433016.678270067553967, 439926.956289834110066 ], [ 433094.74576336942846, 439927.039994250983 ], [ 433104.119531475997064, 439927.050610781821888 ], [ 433104.141530703112949, 439927.050587300967891 ], [ 433123.51490051537985, 439926.987288984179031 ], [ 433123.990613483241759, 439926.963045515993144 ], [ 433124.461860797135159, 439926.893644199881237 ], [ 433124.924365594168194, 439926.779714895994402 ], [ 433132.413009810843505, 439924.551745349657722 ], [ 433132.907947245636024, 439924.375704242964275 ], [ 433133.381683293380775, 439924.148707122541964 ], [ 433133.828988788591232, 439923.873259614629205 ], [ 433140.254448477528058, 439919.434725500817876 ], [ 433140.670577524462715, 439919.113703531213105 ], [ 433141.050710778508801, 439918.750774891115725 ], [ 433141.390648246393539, 439918.349949484516401 ], [ 433146.118298538785893, 439912.141416776401456 ], [ 433146.414222471008543, 439911.707225120218936 ], [ 433146.662946540280245, 439911.244375570793636 ], [ 433146.861723903857637, 439910.757979715825059 ], [ 433149.426697837770917, 439903.399239316349849 ], [ 433149.579683150863275, 439902.867232728749514 ], [ 433149.672921005170792, 439902.321575127542019 ], [ 433149.705268545192666, 439901.768954867438879 ], [ 433149.837307189416606, 439858.943860503321048 ], [ 433149.837320559483487, 439858.918248877103906 ], [ 433149.725487214862369, 439804.074776153604034 ], [ 433149.707649550924543, 439795.440327036543749 ], [ 433139.707670889969449, 439795.460985711426474 ], [ 433139.72550814418355, 439804.095235620450694 ] ] ] } },
{ "type": "Feature", "properties": { "highway": "residential", "lanes": null, "name": "Shadwell Park Grove", "source": null, "surface": null, "osm_type": "way", "osm_id": 703439335, "maxspeed": null, "source_ref": null, "bicycle": null, "foot": null, "oneway": "no", "postal_code": null, "sidewalk": null, "cycleway:left": null, "lit": null, "not:name": null, "ref": null, "sidewalk:left": null, "turn:lanes": null }, "geometry": { "type": "Polygon", "coordinates": [ [ [ 433217.306166804162785, 439797.367972246662248 ], [ 433216.745063554670196, 439858.849142281862441 ], [ 433226.744647122628521, 439858.940402725187596 ], [ 433227.305751120497007, 439797.459150687733199 ], [ 433227.395490300434176, 439787.590385417104699 ], [ 433217.395903711032588, 439787.499456648598425 ], [ 433217.306166804162785, 439797.367972246662248 ] ] ] } },
{ "type": "Feature", "properties": { "highway": "trunk", "lanes": "2", "name": "Ring Road Shadwell", "source": null, "surface": null, "osm_type": "way", "osm_id": 723018803, "maxspeed": "40 mph", "source_ref": null, "bicycle": null, "foot": null, "oneway": null, "postal_code": null, "sidewalk": null, "cycleway:left": "separate", "lit": "yes", "not:name": "Ring Road (Shadwell)", "ref": "A6120", "sidewalk:left": "separate", "turn:lanes": null }, "geometry": { "type": "Polygon", "coordinates": [ [ [ 433127.315561876865104, 439224.544926861883141 ], [ 433128.073199717444368, 439224.417549921141472 ], [ 433148.049905906780623, 439220.397536370612215 ], [ 433149.022195381985512, 439220.1592860124656 ], [ 433166.077695380197838, 439215.217428214557003 ], [ 433166.513140248600394, 439215.08223908249056 ], [ 433174.895044659206178, 439212.304321285744663 ], [ 433175.532540886313654, 439212.072852315206546 ], [ 433183.687344863719773, 439208.848280023492407 ], [ 433184.486246991262306, 439208.498292764474172 ], [ 433205.796932570461649, 439198.223728783836123 ], [ 433207.193491365527734, 439197.431126017472707 ], [ 433224.313914338767063, 439186.136682734708302 ], [ 433225.63629835966276, 439185.12602198892273 ], [ 433244.776626308448613, 439168.27158320217859 ], [ 433245.290886915056035, 439167.791247662855312 ], [ 433261.173185994790401, 439152.05979021533858 ], [ 433261.424738691246603, 439151.803049846144859 ], [ 433285.689705455617514, 439126.284121115051676 ], [ 433326.303065182524733, 439084.854148672078736 ], [ 433346.18275377782993, 439067.722492246015463 ], [ 433365.871933551505208, 439053.69102954340633 ], [ 433378.123580088547897, 439046.615064756653737 ], [ 433395.718390554713551, 439037.794984072213992 ], [ 433416.877281981986016, 439031.258120280632284 ], [ 433441.424888280918822, 439025.772695108666085 ], [ 433462.161967714317143, 439021.774384680669755 ], [ 433537.620555171160959, 439016.099602267611772 ], [ 433629.327613918867428, 439009.962374526890926 ], [ 433629.445402978861239, 439009.953909457486589 ], [ 433655.541169505624566, 439007.949386506399605 ], [ 433656.119078158866614, 439007.890895238146186 ], [ 433676.711977207451127, 439005.301756722270511 ], [ 433677.744495847669896, 439005.125868982460815 ], [ 433696.769207250035834, 439001.023459400457796 ], [ 433697.87645131588215, 439000.728738481237087 ], [ 433714.435650629922748, 438995.462630204448942 ], [ 433715.519994173315354, 438995.059267208853271 ], [ 433730.990189586183988, 438988.439066321763676 ], [ 433731.85691722977208, 438988.026401120121591 ], [ 433747.126798120618332, 438979.991738450014964 ], [ 433747.844862092344556, 438979.581717631488573 ], [ 433986.946385992341675, 438831.902860060508829 ], [ 433986.983477684145328, 438831.87985742778983 ], [ 434077.787506361142732, 438775.338300996983889 ], [ 434094.549966809281614, 438764.903932384448126 ], [ 434112.534457899513654, 438753.899196842452511 ], [ 434112.667604719055817, 438753.816524263878819 ], [ 434118.063734436116647, 438750.416974559135269 ], [ 434196.922722164541483, 438702.9557177562383 ], [ 434197.330168674932793, 438702.69922344898805 ], [ 434233.761089621984866, 438678.731640654033981 ], [ 434234.323817750846501, 438678.337900931015611 ], [ 434271.327107194869313, 438650.836544853053056 ], [ 434257.010904203576501, 438631.573981889872812 ], [ 434220.283342758833896, 438658.87041310837958 ], [ 434184.340571944077965, 438682.516846220358275 ], [ 434105.582971192838158, 438729.917083303153049 ], [ 434105.374462359177414, 438730.045490401156712 ], [ 434099.941036807664204, 438733.468536398548167 ], [ 434081.984167303191498, 438744.456370253115892 ], [ 434081.90590884553967, 438744.504669835267123 ], [ 434065.10370550287189, 438754.963777776050847 ], [ 433974.316082541714422, 438811.495118613354862 ], [ 433735.585089883650653, 438958.945120969961863 ], [ 433721.10641279281117, 438966.563470265944488 ], [ 433706.610278968699276, 438972.76683844847139 ], [ 433691.149563727725763, 438977.683610023697838 ], [ 433673.197935272706673, 438981.554624465294182 ], [ 433653.41338349529542, 438984.042129741050303 ], [ 433627.666153020400088, 438986.019880207255483 ], [ 433535.96867857844336, 438992.156466546235606 ], [ 433535.870045354415197, 438992.163475600304082 ], [ 433459.67087977915071, 438997.893952399143018 ], [ 433458.298912922502495, 438998.077182889624964 ], [ 433436.708059006312396, 439002.240109334525187 ], [ 433436.362946750654373, 439002.311923178320285 ], [ 433411.175840733223595, 439007.940251402033027 ], [ 433410.250712212466169, 439008.186102283885702 ], [ 433387.685902428172994, 439015.157312876312062 ], [ 433386.752921266714111, 439015.488287162035704 ], [ 433385.850395543850027, 439015.895036648900714 ], [ 433367.051396310678683, 439025.318763624702115 ], [ 433366.427443529770244, 439025.654957764782012 ], [ 433353.372666546958499, 439033.194772266433574 ], [ 433352.409980420139618, 439033.813804991077632 ], [ 433331.803794961306266, 439048.498770339181647 ], [ 433330.93435456068255, 439049.18085634423187 ], [ 433310.253351060091518, 439067.003059384238441 ], [ 433309.517736308684107, 439067.692929403914604 ], [ 433268.487107332330197, 439109.548561128030997 ], [ 433268.360170563682914, 439109.680038162332494 ], [ 433244.156089609547053, 439135.134934633795638 ], [ 433228.651575038384181, 439150.492195569153409 ], [ 433210.401485650567338, 439166.562715116248 ], [ 433194.649087305704597, 439176.954664541292004 ], [ 433174.456343839585315, 439186.690232827793807 ], [ 433167.022830958885606, 439189.629592220298946 ], [ 433159.179384571209084, 439192.229055091796909 ], [ 433142.824063014995772, 439196.968035091122147 ], [ 433123.715253799804486, 439200.813397347112186 ], [ 433069.179339973197784, 439208.195770611520857 ], [ 433072.398789335216861, 439231.978855899302289 ], [ 433127.315561876865104, 439224.544926861883141 ] ] ] } },
{ "type": "Feature", "properties": { "highway": "trunk", "lanes": "2", "name": "Ring Road Shadwell", "source": null, "surface": null, "osm_type": "way", "osm_id": 723018804, "maxspeed": "40 mph", "source_ref": null, "bicycle": null, "foot": null, "oneway": "yes", "postal_code": null, "sidewalk": null, "cycleway:left": null, "lit": null, "not:name": "Ring Road (Shadwell)", "ref": "A6120", "sidewalk:left": null, "turn:lanes": null }, "geometry": { "type": "Polygon", "coordinates": [ [ [ 432978.211889780359343, 439250.406639934692066 ], [ 432984.131269046687521, 439249.477094377332833 ], [ 433043.576720695651602, 439240.18321337614907 ], [ 433039.869522634253372, 439216.47126106225187 ], [ 432980.420071280037519, 439225.765767389384564 ], [ 432973.766310202307068, 439226.81063331279438 ], [ 432972.340662139933556, 439227.124385055096354 ], [ 432962.695958511147182, 439229.871512170357164 ], [ 432969.270450740761589, 439252.953454288013745 ], [ 432978.211889780359343, 439250.406639934692066 ] ] ] } },
{ "type": "Feature", "properties": { "highway": "trunk", "lanes": "2", "name": "Ring Road Shadwell", "source": null, "surface": null, "osm_type": "way", "osm_id": 723018807, "maxspeed": "40 mph", "source_ref": null, "bicycle": null, "foot": null, "oneway": "yes", "postal_code": null, "sidewalk": null, "cycleway:left": null, "lit": null, "not:name": "Ring Road (Shadwell)", "ref": "A6120", "sidewalk:left": null, "turn:lanes": "left;through|through;right" }, "geometry": { "type": "Polygon", "coordinates": [ [ [ 433040.87422244908521, 439207.664815048919991 ], [ 433040.53624995861901, 439231.662435234989971 ], [ 433070.620078408974223, 439232.086123348446563 ], [ 433070.958050899440423, 439208.088503162376583 ], [ 433040.87422244908521, 439207.664815048919991 ] ] ] } },
{ "type": "Feature", "properties": { "highway": "trunk", "lanes": "3", "name": "Ring Road Shadwell", "source": null, "surface": null, "osm_type": "way", "osm_id": 723018809, "maxspeed": "40 mph", "source_ref": null, "bicycle": null, "foot": null, "oneway": "yes", "postal_code": null, "sidewalk": null, "cycleway:left": null, "lit": null, "not:name": "Ring Road (Shadwell)", "ref": "A6120", "sidewalk:left": null, "turn:lanes": "left;through|through|right" }, "geometry": { "type": "Polygon", "coordinates": [ [ [ 433008.639132318494376, 439210.844912741275039 ], [ 433008.259222858236171, 439210.889456237608101 ], [ 432984.890648473752663, 439214.007690243481193 ], [ 432981.041717112122569, 439214.471635771973524 ], [ 432975.463231201050803, 439215.144606522051618 ], [ 432978.337674223585054, 439238.971850955858827 ], [ 432983.914433277153876, 439238.299088471976575 ], [ 432987.838403339846991, 439237.826097869256046 ], [ 432987.989509940671269, 439237.806909940496553 ], [ 433011.243977016594727, 439234.703902079083491 ], [ 433041.912503681902308, 439231.602741743961815 ], [ 433039.497968725801911, 439207.724508539948147 ], [ 433008.639132318494376, 439210.844912741275039 ] ] ] } },
{ "type": "Feature", "properties": { "highway": "trunk", "lanes": "1", "name": "Ring Road Shadwell", "source": null, "surface": null, "osm_type": "way", "osm_id": 723018818, "maxspeed": "40 mph", "source_ref": null, "bicycle": null, "foot": null, "oneway": "yes", "postal_code": null, "sidewalk": null, "cycleway:left": null, "lit": null, "not:name": "Ring Road (Shadwell)", "ref": "A6120", "sidewalk:left": null, "turn:lanes": null }, "geometry": { "type": "Polygon", "coordinates": [ [ [ 433074.061977077333722, 439231.632357398688328 ], [ 433067.516152231080923, 439208.542269112134818 ], [ 433038.450209241826087, 439216.782193075923715 ], [ 433044.996034088078886, 439239.872281362477224 ], [ 433074.061977077333722, 439231.632357398688328 ] ] ] } }
]
}
