{
"type": "FeatureCollection",
"name": "se3338_rgb_250_03_osm_buildings",
"crs": { "type": "name", "properties": { "name": "urn:ogc:def:crs:EPSG::27700" } },
"features": [
{ "type": "Feature", "properties": { "addr:city": "Leeds", "addr:postcode": "LS8 2HH", "building": "yes", "leisure": "bandstand", "name": "Upper Lakeside Bandstand", "ref:GB:uprn": "10025055249", "source": "OS_OpenData_StreetView;Photo", "osm_type": "way", "osm_id": 85208218, "addr:housename": null, "addr:street": null, "addr:suburb": null, "amenity": null, "fhrs:id": null, "phone": null, "source:addr:postcode": null, "source:building": null, "building:levels": null }, "geometry": { "type": "Polygon", "coordinates": [ [ [ 433208.233374657866079, 438257.759257028345019 ], [ 433210.678463041840587, 438260.024140257737599 ], [ 433214.529411052877549, 438259.840031298343092 ], [ 433216.541920269606635, 438257.217314354027621 ], [ 433216.461873678141274, 438253.656264329561964 ], [ 433213.931241193087772, 438251.390771757229231 ], [ 433210.271587127703242, 438251.509477982879616 ], [ 433208.035902013245504, 438254.052730432595126 ], [ 433208.094450687640347, 438255.076784083736129 ], [ 433208.233374657866079, 438257.759257028345019 ] ] ] } },
{ "type": "Feature", "properties": { "addr:city": "Leeds", "addr:postcode": "LS8 2HH", "building": "yes", "leisure": null, "name": null, "ref:GB:uprn": null, "source": null, "osm_type": "way", "osm_id": 85287022, "addr:housename": "The Mansion", "addr:street": "Mansion Lane", "addr:suburb": "Roundhay", "amenity": "restaurant", "fhrs:id": "322559", "phone": "+44 113 2691000", "source:addr:postcode": null, "source:building": null, "building:levels": null }, "geometry": { "type": "Polygon", "coordinates": [ [ [ 432997.578092936368193, 438285.444817719282582 ], [ 433006.149602383957244, 438288.665111358044669 ], [ 433022.695277252001688, 438294.890133046894334 ], [ 433037.75610361492727, 438255.041018569725566 ], [ 433029.237116915581282, 438251.832164225983433 ], [ 433030.390489310899284, 438248.780505514005199 ], [ 433021.753276457020547, 438245.537452176795341 ], [ 433020.834687311202288, 438247.956556724151596 ], [ 433012.34184065280715, 438244.770170701900497 ], [ 433004.596963866963051, 438265.2551394602051 ], [ 432997.193717824353371, 438262.465882728341967 ], [ 432992.607128033763729, 438274.605981610831805 ], [ 432994.759804340312257, 438275.42224667663686 ], [ 432988.315893689868972, 438292.467186674359255 ], [ 432994.098016663105227, 438294.644184013362974 ], [ 432997.578092936368193, 438285.444817719282582 ] ] ] } },
{ "type": "Feature", "properties": { "addr:city": "Leeds", "addr:postcode": "LS8 2EH", "building": "house", "leisure": null, "name": null, "ref:GB:uprn": "72153637", "source": null, "osm_type": "way", "osm_id": 150177102, "addr:housename": null, "addr:street": null, "addr:suburb": null, "amenity": null, "fhrs:id": null, "phone": null, "source:addr:postcode": "ONSUD;OS Open UPRN", "source:building": "bing", "building:levels": null }, "geometry": { "type": "Polygon", "coordinates": [ [ [ 432992.806957952328958, 439002.203184027923271 ], [ 433003.036179237416945, 438994.074992140522227 ], [ 432994.290156379225664, 438983.120529972598888 ], [ 432984.06092686887132, 438991.24874092428945 ], [ 432992.806957952328958, 439002.203184027923271 ] ] ] } },
{ "type": "Feature", "properties": { "addr:city": "Leeds", "addr:postcode": "LS8 2HH", "building": "yes", "leisure": null, "name": "Pavillon", "ref:GB:uprn": "72153062", "source": null, "osm_type": "way", "osm_id": 187310066, "addr:housename": null, "addr:street": null, "addr:suburb": null, "amenity": null, "fhrs:id": null, "phone": null, "source:addr:postcode": null, "source:building": null, "building:levels": "1" }, "geometry": { "type": "Polygon", "coordinates": [ [ [ 433094.532425714540295, 438028.750281944288872 ], [ 433100.338343113660812, 438030.393502929015085 ], [ 433102.497883802745491, 438022.798229815554805 ], [ 433103.496247187547851, 438023.072318049380556 ], [ 433106.148441324243322, 438013.744792484794743 ], [ 433105.163315886515193, 438013.459670721902512 ], [ 433108.362068124930374, 438002.222249289625324 ], [ 433102.549537622777279, 438000.578972038114443 ], [ 433094.532425714540295, 438028.750281944288872 ] ] ] } },
{ "type": "Feature", "properties": { "addr:city": null, "addr:postcode": null, "building": "sport", "leisure": null, "name": null, "ref:GB:uprn": "72721053", "source": null, "osm_type": "way", "osm_id": 238830604, "addr:housename": null, "addr:street": null, "addr:suburb": null, "amenity": null, "fhrs:id": null, "phone": null, "source:addr:postcode": null, "source:building": null, "building:levels": null }, "geometry": { "type": "Polygon", "coordinates": [ [ [ 433027.182775487366598, 438874.657376976916566 ], [ 433025.89460967015475, 438876.317273289663717 ], [ 433020.522640382812824, 438883.266858719289303 ], [ 433026.798536680114921, 438888.095497066155076 ], [ 433033.452175791200716, 438879.474851848208345 ], [ 433027.182775487366598, 438874.657376976916566 ] ] ] } }
]
}
