{
"type": "FeatureCollection",
"name": "se3439_rgb_250_03_osm_road_buffers",
"crs": { "type": "name", "properties": { "name": "urn:ogc:def:crs:EPSG::27700" } },
"features": [
{ "type": "Feature", "properties": { "highway": "unclassified", "name": "Gateland Lane", "osm_type": "way", "osm_id": 32501359, "maxspeed": null, "maxspeed:type": null, "source": null, "surface": null, "source:name": null, "bicycle": null, "cycleway": null, "foot": null, "lanes": null, "oneway": null, "sidewalk": null, "postal_code": null, "source_ref": null }, "geometry": { "type": "Polygon", "coordinates": [ [ [ 434122.980491476657335, 439231.314444455201738 ], [ 434122.781557525566313, 439231.845659419428557 ], [ 434122.644072276772931, 439232.395988286123611 ], [ 434122.569805242819712, 439232.958348013344221 ], [ 434122.372963102767244, 439235.593905834830366 ], [ 434122.362867266579997, 439236.160984755784739 ], [ 434122.41705873014871, 439236.725558678095695 ], [ 434122.534840200096369, 439237.280363106518053 ], [ 434123.233293622848578, 439239.84455829160288 ], [ 434123.364996215794235, 439240.256805788783822 ], [ 434123.531854059256148, 439240.656120241270401 ], [ 434123.732617097150069, 439241.039510087925009 ], [ 434123.965781264472753, 439241.40410307055572 ], [ 434125.489512161875609, 439243.573755935824011 ], [ 434125.784879482758697, 439243.953995122748893 ], [ 434126.115450442710426, 439244.304061593604274 ], [ 434126.478159674385097, 439244.62070920021506 ], [ 434139.829334753274452, 439255.188094434503 ], [ 434140.103839043702465, 439255.390527042851318 ], [ 434180.547766065690666, 439283.137270082021132 ], [ 434205.217605968995485, 439305.413754727924243 ], [ 434224.232399909116793, 439326.738515603472479 ], [ 434229.715095656807534, 439335.014920712739695 ], [ 434239.946061915019527, 439350.465215053758584 ], [ 434252.578534919710364, 439374.577802248997614 ], [ 434257.208037449978292, 439395.049911361362319 ], [ 434262.473867739143316, 439421.003454719029833 ], [ 434262.517652726441156, 439421.199051918112673 ], [ 434267.583478863816708, 439441.875879491213709 ], [ 434267.685830804810394, 439442.235033249075059 ], [ 434273.296641759749036, 439459.455497050832491 ], [ 434273.437551368842833, 439459.835057583753951 ], [ 434281.164069053076673, 439478.317191017442383 ], [ 434281.345336869067978, 439478.703567007905804 ], [ 434291.032594972348306, 439497.249664747680072 ], [ 434296.459114868252072, 439508.530070127046201 ], [ 434300.567778389027808, 439523.0978961980436 ], [ 434302.704062857781537, 439532.259476157138124 ], [ 434305.019767564546783, 439542.180194929940626 ], [ 434305.221687792334706, 439542.837332213064656 ], [ 434312.32298540516058, 439561.314942350145429 ], [ 434312.369667043327354, 439561.431982259324286 ], [ 434324.406275384419132, 439590.538790724880528 ], [ 434330.884082154079806, 439612.168462115922011 ], [ 434349.003565570688806, 439681.456936547358055 ], [ 434358.678228173288517, 439678.926935850584414 ], [ 434340.536474538093898, 439609.553300631872844 ], [ 434340.48895033437293, 439609.3838157178252 ], [ 434333.913291951233987, 439587.427413641649764 ], [ 434333.743994480872061, 439586.951168471889105 ], [ 434321.634764562477358, 439557.668747218966018 ], [ 434314.679671780264471, 439539.571562746015843 ], [ 434312.442677736456972, 439529.988049166218843 ], [ 434310.280511447228491, 439520.715473517542705 ], [ 434310.223405278578866, 439520.493670659023337 ], [ 434305.965623509604484, 439505.397125530638732 ], [ 434305.829950310173444, 439504.985329818213359 ], [ 434305.659112322784495, 439504.586836019181646 ], [ 434300.00836433772929, 439492.840315377688967 ], [ 434299.93445147172315, 439492.692939121625386 ], [ 434290.307908235234208, 439474.263079004769679 ], [ 434282.741916778963059, 439456.164930606202688 ], [ 434277.251757652207743, 439439.314766295312438 ], [ 434272.25424958934309, 439418.916787819820456 ], [ 434266.997305311146192, 439393.007040683820378 ], [ 434266.974006823205855, 439392.898416982032359 ], [ 434262.187966185738333, 439371.734081180067733 ], [ 434262.074109216220677, 439371.315795734990388 ], [ 434261.924448551260866, 439370.9089446462458 ], [ 434261.740109196864069, 439370.516586231708061 ], [ 434248.685260384227149, 439345.597777365299407 ], [ 434248.425111865741201, 439345.15755535592325 ], [ 434238.052548853564076, 439329.493428667890839 ], [ 434232.37115711561637, 439320.917081811930984 ], [ 434231.934685085900128, 439320.350772393983789 ], [ 434212.501262192614377, 439298.556526424363256 ], [ 434212.12032449740218, 439298.173195018258411 ], [ 434187.002207934448961, 439275.491923468012828 ], [ 434186.47986582404701, 439275.079892273934092 ], [ 434145.901737679843791, 439247.241079934639856 ], [ 434133.254857598221861, 439237.23114050651202 ], [ 434132.651915316993836, 439236.372606069548056 ], [ 434132.409205915930215, 439235.481559856270906 ], [ 434132.478004614647944, 439234.56040065549314 ], [ 434133.201720227312762, 439232.918132839840837 ], [ 434124.05086735606892, 439228.885529247927479 ], [ 434122.980491476657335, 439231.314444455201738 ] ] ] } },
{ "type": "Feature", "properties": { "highway": "unclassified", "name": "Winn Moor Lane", "osm_type": "way", "osm_id": 32501361, "maxspeed": "60 mph", "maxspeed:type": "GB:nsl_single", "source": "OS 1:25k", "surface": "asphalt", "source:name": null, "bicycle": null, "cycleway": null, "foot": null, "lanes": null, "oneway": null, "sidewalk": null, "postal_code": null, "source_ref": null }, "geometry": { "type": "Polygon", "coordinates": [ [ [ 435155.657305368862581, 438761.819024336989969 ], [ 435145.386275963392109, 438764.257934240973555 ], [ 435087.565884869138245, 438774.680923959764186 ], [ 435084.621999083028641, 438775.212406280450523 ], [ 435019.082688480906654, 438781.783389874210116 ], [ 434805.556510440714192, 438799.091771476960275 ], [ 434805.266393205907661, 438799.123835869075265 ], [ 434763.052152436517645, 438805.041234040108975 ], [ 434762.357815233408473, 438805.189463472401258 ], [ 434744.230939196131658, 438810.429101290937979 ], [ 434743.822271481796633, 438810.566580196085852 ], [ 434743.426967673818581, 438810.738756412523799 ], [ 434735.766633686493151, 438814.476098974933848 ], [ 434735.358018085826188, 438814.699590823205654 ], [ 434734.97197048785165, 438814.960133655520622 ], [ 434734.611840478028171, 438815.255466842616443 ], [ 434734.28075276495656, 438815.583027892862447 ], [ 434733.981580068473704, 438815.939974685839843 ], [ 434733.716918194142636, 438816.323210132599343 ], [ 434733.489063510554843, 438816.729409047518857 ], [ 434733.299993024440482, 438817.155047000094783 ], [ 434723.265567487862427, 438842.916511859104503 ], [ 434723.151274188479874, 438843.24288527504541 ], [ 434721.179092492209747, 438849.56778874725569 ], [ 434717.470696571690496, 438855.392887912283186 ], [ 434706.901153868006077, 438865.06810478575062 ], [ 434706.890727790712845, 438865.07767583214445 ], [ 434687.035799353790935, 438883.356172718747985 ], [ 434686.771949045243673, 438883.617843395390082 ], [ 434686.528261501924135, 438883.898387348395772 ], [ 434672.675598703557625, 438901.097615132573992 ], [ 434672.264627215277869, 438901.690913015452679 ], [ 434643.873583298001904, 438949.752806386270095 ], [ 434626.503086534095928, 438971.909935558622237 ], [ 434601.703124095220119, 438996.645001275639515 ], [ 434585.336727636458818, 439010.691502540896181 ], [ 434540.423362277215347, 439037.772334529610816 ], [ 434514.414525087398943, 439049.843819842441007 ], [ 434476.19085666036699, 439059.744524351728614 ], [ 434439.211334754014388, 439067.737455635215156 ], [ 434415.78160860540811, 439072.705535889719613 ], [ 434381.03229441284202, 439078.708848194975872 ], [ 434364.029529411287513, 439081.643816181924194 ], [ 434363.35352118650917, 439081.809672835515812 ], [ 434340.587742591043934, 439089.108622790896334 ], [ 434339.906634281622246, 439089.383653616241645 ], [ 434293.14255401835544, 439112.395659187517595 ], [ 434286.651361403928604, 439115.592213464376982 ], [ 434224.16070549126016, 439142.972786833473947 ], [ 434223.901349659601692, 439143.095410354842898 ], [ 434200.233054461830761, 439155.128351421735715 ], [ 434199.86771012673853, 439155.333800891356077 ], [ 434182.188109507435001, 439166.275655452685896 ], [ 434181.796294715371914, 439166.54471639188705 ], [ 434181.431798410252668, 439166.849765672930516 ], [ 434171.509276016440708, 439175.990142471040599 ], [ 434171.077263837680221, 439176.441129540500697 ], [ 434154.564097498951014, 439195.989854666113388 ], [ 434130.008600636036135, 439221.495379691128619 ], [ 434129.780733523948584, 439221.748809642216656 ], [ 434124.79644607717637, 439227.687446735275444 ], [ 434132.456141506205313, 439234.116215352492873 ], [ 434137.330816455883905, 439228.308178440085612 ], [ 434161.880808027111925, 439202.808371701161377 ], [ 434162.098461282206699, 439202.567072154663038 ], [ 434178.514635504048783, 439183.133168874424882 ], [ 434187.856266702117864, 439174.527894361468498 ], [ 434204.951968607492745, 439163.947413054236677 ], [ 434228.30536389228655, 439152.074566834198777 ], [ 434290.766784439736512, 439124.70680307719158 ], [ 434290.969089424586855, 439124.612727602303494 ], [ 434297.558447612042073, 439121.367831961542834 ], [ 434343.991456363582984, 439098.518742445274256 ], [ 434366.074334579403512, 439091.438737590971868 ], [ 434382.733652302646078, 439088.563054477213882 ], [ 434417.577312736422755, 439082.54344290815061 ], [ 434417.763267945381813, 439082.507678211142775 ], [ 434441.295227732916828, 439077.517920156416949 ], [ 434441.31440912024118, 439077.513813566882163 ], [ 434478.402691472729202, 439069.497374278726056 ], [ 434478.600087754952256, 439069.450496764096897 ], [ 434517.361447232018691, 439059.410519379598554 ], [ 434517.793979616777506, 439059.277326317445841 ], [ 434518.212696503323968, 439059.105568276427221 ], [ 434544.878570631844923, 439046.729132315551396 ], [ 434545.355377466417849, 439046.475686426216271 ], [ 434590.857961248664651, 439019.039581012970302 ], [ 434591.205427557579242, 439018.809810712584294 ], [ 434591.532561686763074, 439018.55191443831427 ], [ 434608.357902735879179, 439004.111522814549971 ], [ 434608.632418303226586, 439003.85748381819576 ], [ 434633.780781348585151, 438978.774929191917181 ], [ 434634.184808621532284, 438978.319625501928385 ], [ 434651.946282559132669, 438955.663781073584687 ], [ 434652.316348553809803, 438955.121959946176503 ], [ 434680.69059196987655, 438907.088507371605374 ], [ 434694.08272463909816, 438890.461065871990286 ], [ 434713.658487201377284, 438872.4395697893342 ], [ 434724.709920461813454, 438862.323236797936261 ], [ 434725.019451133382972, 438862.01393828477012 ], [ 434725.300753919233102, 438861.678761391842272 ], [ 434725.551674323622137, 438861.320273236487992 ], [ 434729.97212418273557, 438854.376689181546681 ], [ 434730.192296262946911, 438853.994639835844282 ], [ 434730.377951941976789, 438853.594678067311179 ], [ 434730.527647283277474, 438853.179914577747695 ], [ 434732.646441473218147, 438846.38481615728233 ], [ 434741.90849470399553, 438822.606269198469818 ], [ 434747.423170278256293, 438819.915755733207334 ], [ 434764.792778441915289, 438814.895008879713714 ], [ 434806.509984813048504, 438809.047282705258112 ], [ 435019.9380902138073, 438791.746850847557653 ], [ 435020.032916624972131, 438791.738254673196934 ], [ 435085.815437987213954, 438785.14288672292605 ], [ 435086.204965552897193, 438785.088283729623072 ], [ 435089.34059039351996, 438784.522185095294844 ], [ 435147.295162482652813, 438774.075007246632595 ], [ 435147.563291165279225, 438774.019049697380979 ], [ 435157.963603769545443, 438771.549440031056292 ], [ 435168.752789466932882, 438768.993759660283104 ], [ 435166.447829365322832, 438759.263026957632974 ], [ 435155.657305368862581, 438761.819024336989969 ] ] ] } },
{ "type": "Feature", "properties": { "highway": "unclassified", "name": "Hobberley Lane", "osm_type": "way", "osm_id": 32501362, "maxspeed": null, "maxspeed:type": null, "source": null, "surface": "asphalt", "source:name": "OS_OpenData_Locator", "bicycle": null, "cycleway": null, "foot": null, "lanes": null, "oneway": null, "sidewalk": null, "postal_code": null, "source_ref": null }, "geometry": { "type": "Polygon", "coordinates": [ [ [ 434866.209365067421459, 439493.532466617005412 ], [ 434869.340611621912103, 439480.117278129677288 ], [ 434869.43788820161717, 439479.559458934701979 ], [ 434870.428827826632187, 439471.055008151452057 ], [ 434870.462180056842044, 439470.526157339743804 ], [ 434870.439375966088846, 439469.996746794204228 ], [ 434868.595026532071643, 439450.856438939343207 ], [ 434868.585320987855084, 439450.764607090910431 ], [ 434862.523775223060511, 439398.071648786601145 ], [ 434862.414287351537496, 439379.1268787906738 ], [ 434863.418491019168869, 439364.732319120434113 ], [ 434866.083709461672697, 439353.496889845002443 ], [ 434896.985911665309686, 439271.088694909587502 ], [ 434903.723708838864695, 439253.451851706544403 ], [ 434916.511747625714634, 439220.016709101910237 ], [ 434946.112720971810631, 439146.189104328863323 ], [ 434982.348030011809897, 439056.50775274989428 ], [ 435003.284587392408866, 439004.709578418463934 ], [ 435011.203512761043385, 438987.215615653432906 ], [ 435011.405823968874756, 438986.692365859576967 ], [ 435015.864571599289775, 438972.90649409458274 ], [ 435015.992338449985255, 438972.433428434131201 ], [ 435028.514956983795855, 438915.024945609562565 ], [ 435028.596090601989999, 438914.539196026627906 ], [ 435028.629044449946377, 438914.047821052488871 ], [ 435028.87969258450903, 438899.885575240361504 ], [ 435028.87713879981311, 438899.614462145487778 ], [ 435028.161571744596586, 438880.037480683880858 ], [ 435027.330503583536483, 438857.421111701289192 ], [ 435027.329975604603533, 438857.407266273454297 ], [ 435024.530216119543184, 438786.565743959683459 ], [ 435014.538016706646886, 438786.960650141409133 ], [ 435017.337502609938383, 438857.795250093447976 ], [ 435018.168262875580695, 438880.403237550635822 ], [ 435018.878858633746859, 438899.844210807641502 ], [ 435018.639356777246576, 438913.376664060226176 ], [ 435006.274358171795029, 438970.062556723249145 ], [ 435001.97755370545201, 438983.34772114205407 ], [ 434994.132259023434017, 439000.679023895761929 ], [ 434994.051662946760189, 439000.867236617661547 ], [ 434973.076613988552708, 439052.760641192144249 ], [ 434936.83844633330591, 439142.449067651235964 ], [ 434936.833469180972315, 439142.461433390795719 ], [ 434907.215113884652965, 439216.332390378520358 ], [ 434907.185907810693607, 439216.406956324237399 ], [ 434894.38321911811363, 439249.880402041249909 ], [ 434887.638892213988584, 439267.534336404816713 ], [ 434887.627992755151354, 439267.563132447365206 ], [ 434856.609768850554246, 439350.280727304692846 ], [ 434856.426437303191051, 439350.882249019632582 ], [ 434853.594088169222232, 439362.822230324789416 ], [ 434853.516187081695534, 439363.222763292433228 ], [ 434853.471204731846228, 439363.62831455405103 ], [ 434852.425403390894644, 439378.619147879246157 ], [ 434852.41336402867455, 439378.996011879527941 ], [ 434852.525515034678392, 439398.40158606658224 ], [ 434852.558189525734633, 439398.944097703963052 ], [ 434858.645560175413266, 439451.86155148135731 ], [ 434860.434440031996928, 439470.426206605159678 ], [ 434859.537909374164883, 439478.120419918326661 ], [ 434856.46278214128688, 439491.295176595449448 ], [ 434856.446632560924627, 439491.366733627335634 ], [ 434826.763027671200689, 439627.535399251326453 ], [ 434836.533572501444723, 439629.665294488018844 ], [ 434866.209365067421459, 439493.532466617005412 ] ] ] } },
{ "type": "Feature", "properties": { "highway": "residential", "name": null, "osm_type": "way", "osm_id": 98639312, "maxspeed": "20 mph", "maxspeed:type": null, "source": "bing", "surface": "asphalt", "source:name": null, "bicycle": "yes", "cycleway": "no", "foot": "yes", "lanes": "2", "oneway": "no", "sidewalk": "both", "postal_code": null, "source_ref": null }, "geometry": { "type": "Polygon", "coordinates": [ [ [ 434880.643693093443289, 439868.273970858252142 ], [ 434892.116865711286664, 439864.75739438663004 ], [ 434880.344763694098219, 439826.349767079751473 ], [ 434868.871591076254845, 439829.866343551373575 ], [ 434880.643693093443289, 439868.273970858252142 ] ] ] } },
{ "type": "Feature", "properties": { "highway": "residential", "name": "Ash Hill Gardens", "osm_type": "way", "osm_id": 98639315, "maxspeed": "20 mph", "maxspeed:type": null, "source": "bing", "surface": "asphalt", "source:name": null, "bicycle": "yes", "cycleway": "no", "foot": "yes", "lanes": "2", "oneway": "no", "sidewalk": "both", "postal_code": null, "source_ref": null }, "geometry": { "type": "Polygon", "coordinates": [ [ [ 434776.85814050474437, 439811.203422708029393 ], [ 434774.988818538142368, 439804.673653172445484 ], [ 434774.778938975941855, 439799.103730713424738 ], [ 434776.34921366040362, 439791.201435976079665 ], [ 434779.21880701254122, 439783.02700972679304 ], [ 434788.860688142420258, 439762.151397520734463 ], [ 434789.100140964786988, 439761.549584034539293 ], [ 434791.057689534616657, 439755.733799426292535 ], [ 434791.183747680741362, 439755.307708754029591 ], [ 434791.277926456474233, 439754.87345735746203 ], [ 434792.38995418115519, 439748.639709302282427 ], [ 434792.459296466200612, 439748.12107498588739 ], [ 434792.483188905462157, 439747.598371381580364 ], [ 434792.461449790454935, 439747.075573794078082 ], [ 434791.071209581044968, 439730.793147485295776 ], [ 434790.753053656837437, 439720.536079212499317 ], [ 434792.155742846312933, 439710.983341014769394 ], [ 434795.252837884123437, 439705.293478895328008 ], [ 434800.060015808907337, 439700.162999692605808 ], [ 434808.557535808649845, 439695.547287008957937 ], [ 434819.321254801994655, 439692.260289189172909 ], [ 434830.184391833434347, 439690.792720105149783 ], [ 434841.358579510240816, 439690.948420443746727 ], [ 434869.906172754999716, 439694.906720012251753 ], [ 434871.554279201722238, 439683.020436104328837 ], [ 434842.63820166583173, 439679.011043920123484 ], [ 434841.89774390211096, 439678.954768252442591 ], [ 434829.906161345890723, 439678.787678391556256 ], [ 434829.461733061645646, 439678.797955868532881 ], [ 434829.019285570480861, 439678.841110751323868 ], [ 434817.231714875146281, 439680.433567357424181 ], [ 434816.75295803823974, 439680.518120990484022 ], [ 434816.28261839580955, 439680.641157759411726 ], [ 434804.473510175768752, 439684.247393949364778 ], [ 434803.906028129102197, 439684.452412357728463 ], [ 434803.362006842042319, 439684.713389866868965 ], [ 434793.480519867734984, 439690.080850580357946 ], [ 434792.934938664140645, 439690.416087035788223 ], [ 434792.428191445884295, 439690.807558091590181 ], [ 434791.966050096554682, 439691.250804867071565 ], [ 434785.971461423614528, 439697.648552775906865 ], [ 434785.639716208446771, 439698.034143384662457 ], [ 434785.341822840098757, 439698.446447333786637 ], [ 434785.079922303033527, 439698.88250136032002 ], [ 434781.104831052594818, 439706.185383852163795 ], [ 434780.872716385230888, 439706.660565189027693 ], [ 434780.683345335943159, 439707.154339557921048 ], [ 434780.538189078506548, 439707.662870955769904 ], [ 434780.438375293684658, 439708.182208736077882 ], [ 434778.803105806407984, 439719.318889200803824 ], [ 434778.74932977987919, 439719.846390765742399 ], [ 434778.74233489332255, 439720.376580197596923 ], [ 434779.082017589651514, 439731.327652744716033 ], [ 434779.100885123189073, 439731.652072891476564 ], [ 434780.437776592851151, 439747.309681332437322 ], [ 434779.542616616236046, 439752.327723274589516 ], [ 434777.830570933059789, 439757.414130368852057 ], [ 434768.204990389000159, 439778.254450218111742 ], [ 434767.99075056950096, 439778.782928036584053 ], [ 434764.885816976951901, 439787.627752911357675 ], [ 434764.662181538937148, 439788.445722935779486 ], [ 434762.87172214849852, 439797.456081415468361 ], [ 434762.775490374944638, 439798.150503220967948 ], [ 434762.760915226419456, 439798.851409607916139 ], [ 434763.024703012546524, 439805.851984123350121 ], [ 434763.095412378082983, 439806.571550023567397 ], [ 434763.252162296383176, 439807.27738595509436 ], [ 434765.445111888868269, 439814.937626244267449 ], [ 434765.584385970199946, 439815.363371505693067 ], [ 434765.755034957895987, 439815.777539612085093 ], [ 434788.430154408037197, 439865.459231594519224 ], [ 434799.346879672550131, 439860.476751338748727 ], [ 434776.85814050474437, 439811.203422708029393 ] ] ] } },
{ "type": "Feature", "properties": { "highway": "residential", "name": "Ludolf Drive", "osm_type": "way", "osm_id": 98639323, "maxspeed": "20 mph", "maxspeed:type": null, "source": "bing", "surface": "asphalt", "source:name": null, "bicycle": "yes", "cycleway": "no", "foot": "yes", "lanes": "2", "oneway": "no", "sidewalk": "both", "postal_code": null, "source_ref": null }, "geometry": { "type": "Polygon", "coordinates": [ [ [ 434466.285833471862134, 439931.23226977919694 ], [ 434470.312199852138292, 439929.764026878459845 ], [ 434473.982113547681365, 439929.605446753208525 ], [ 434493.094004630169366, 439931.745147960726172 ], [ 434493.594990175566636, 439931.780087984516285 ], [ 434494.097142761223949, 439931.773009658500087 ], [ 434494.596944427117705, 439931.72396257170476 ], [ 434499.259190339304041, 439931.068460449110717 ], [ 434499.808691486425232, 439930.96488889772445 ], [ 434500.346164302027319, 439930.810611389810219 ], [ 434500.866940557316411, 439930.606967905012425 ], [ 434505.163509962207172, 439928.691473625658546 ], [ 434505.64173449127702, 439928.452180937689263 ], [ 434506.096753820311278, 439928.171259060676675 ], [ 434530.076521637907717, 439911.847301107540261 ], [ 434523.323790952272248, 439901.927592024730984 ], [ 434499.787393598177005, 439917.949730508262292 ], [ 434496.752092013717629, 439919.30292704096064 ], [ 434493.67633444594685, 439919.735372186929453 ], [ 434474.855181298975367, 439917.628220992861316 ], [ 434474.392497731780168, 439917.594467206741683 ], [ 434473.92858932010131, 439917.59656173537951 ], [ 434468.868286585900933, 439917.815221766126342 ], [ 434468.258296971616801, 439917.872893582214601 ], [ 434467.657369555090554, 439917.992474550730549 ], [ 434467.071770897076931, 439918.172717663401272 ], [ 434461.419019284308888, 439920.234033410961274 ], [ 434460.926948705338873, 439920.438662086322438 ], [ 434460.454976385692134, 439920.686146386724431 ], [ 434460.006825745804235, 439920.974533892353065 ], [ 434420.714170037361328, 439948.802356398431584 ], [ 434427.649635389272589, 439958.595176235074177 ], [ 434466.285833471862134, 439931.23226977919694 ] ] ] } },
{ "type": "Feature", "properties": { "highway": "residential", "name": "Manor Court", "osm_type": "way", "osm_id": 98639332, "maxspeed": "20 mph", "maxspeed:type": null, "source": "bing", "surface": "asphalt", "source:name": "OS_OpenData_Locator", "bicycle": "yes", "cycleway": "no", "foot": "yes", "lanes": "2", "oneway": "no", "sidewalk": "both", "postal_code": null, "source_ref": null }, "geometry": { "type": "Polygon", "coordinates": [ [ [ 434575.931962016038597, 439648.255929832695983 ], [ 434575.950867001258302, 439647.802618824876845 ], [ 434575.965305998513941, 439644.064198764157481 ], [ 434575.938010268087965, 439643.468890127725899 ], [ 434575.851794677902944, 439642.879225560813211 ], [ 434575.198620526993182, 439639.569813498295844 ], [ 434575.065356295031961, 439639.028403185133357 ], [ 434574.882409443787765, 439638.501701246306766 ], [ 434568.193950169777963, 439621.794189466862008 ], [ 434567.703075997356791, 439620.043094577733427 ], [ 434567.636890091001987, 439618.816358801966999 ], [ 434567.885234057437629, 439616.430284804606345 ], [ 434555.949707313207909, 439615.188028254138771 ], [ 434555.652314448263496, 439618.045361139054876 ], [ 434555.621938245370984, 439618.517085134226363 ], [ 434555.62879153538961, 439618.989736457879189 ], [ 434555.756107975146733, 439621.349508200481068 ], [ 434555.827515025623143, 439622.003517442906741 ], [ 434555.970096628880128, 439622.64577715867199 ], [ 434556.726470386434812, 439625.343988422420807 ], [ 434556.93353517370997, 439625.954384092416149 ], [ 434563.534047869034111, 439642.442208730266429 ], [ 434563.963085273222532, 439644.615995856700465 ], [ 434563.951833304483443, 439647.529258111084346 ], [ 434562.200748594244942, 439669.509656761307269 ], [ 434574.162849119398743, 439670.462626344058663 ], [ 434575.931962016038597, 439648.255929832695983 ] ] ] } },
{ "type": "Feature", "properties": { "highway": "residential", "name": "Gateland Drive", "osm_type": "way", "osm_id": 98639336, "maxspeed": "20 mph", "maxspeed:type": null, "source": "bing", "surface": "asphalt", "source:name": "OS_OpenData_Locator", "bicycle": "yes", "cycleway": "no", "foot": "yes", "lanes": "2", "oneway": "no", "sidewalk": "both", "postal_code": null, "source_ref": null }, "geometry": { "type": "Polygon", "coordinates": [ [ [ 434105.668426859250758, 439803.297422242816538 ], [ 434106.235853535705246, 439803.431922322197352 ], [ 434106.813657028891612, 439803.510703206935432 ], [ 434107.396379289741162, 439803.533020716859028 ], [ 434107.978515805560164, 439803.498664036160335 ], [ 434108.5545675966423, 439803.407957705087028 ], [ 434116.421131202601828, 439801.774020265438594 ], [ 434117.020555546507239, 439801.616831345541868 ], [ 434117.600569693138823, 439801.398653687909245 ], [ 434118.154986536537763, 439801.121814629354049 ], [ 434134.744477407424711, 439791.737983663508203 ], [ 434153.388353277696297, 439788.251193741511088 ], [ 434193.069126212969422, 439794.90378698031418 ], [ 434193.923287596669979, 439794.984787312860135 ], [ 434225.843178284820169, 439795.718658888305072 ], [ 434226.429005452024285, 439795.703501501760911 ], [ 434227.010559696471319, 439795.631266628333833 ], [ 434227.582293261832092, 439795.502643355110195 ], [ 434257.647536023519933, 439787.177271964785177 ], [ 434257.778675575333182, 439787.13934665551642 ], [ 434292.702792932803277, 439776.607379774330184 ], [ 434317.331806759524625, 439770.98719649243867 ], [ 434353.915020014392212, 439776.501952983788215 ], [ 434354.439262621803209, 439776.557558362837881 ], [ 434354.966362624138128, 439776.566931580600794 ], [ 434355.49225077603478, 439776.53000027523376 ], [ 434372.288093989016488, 439774.605957406456582 ], [ 434370.922369370935485, 439762.683927534497343 ], [ 434354.917001178779174, 439764.517417770228349 ], [ 434317.998051803791896, 439758.952050553867593 ], [ 434317.440264011151157, 439758.894466182158794 ], [ 434316.879536343680229, 439758.889206483610906 ], [ 434316.320766495598946, 439758.936317399318796 ], [ 434315.768835060473066, 439759.035387437324971 ], [ 434289.832545523357112, 439764.95388266723603 ], [ 434289.435049098567106, 439765.059039406536613 ], [ 434254.379340183862951, 439775.630689979880117 ], [ 434225.233496030617971, 439783.701470548112411 ], [ 434194.629091084992979, 439782.997843361808918 ], [ 434154.323216095042881, 439776.240450004581362 ], [ 434153.800822708348278, 439776.176275888225064 ], [ 434153.274815240001772, 439776.158128961280454 ], [ 434152.74924121767981, 439776.186148860957474 ], [ 434152.22814483375987, 439776.260119979386218 ], [ 434131.556743485794868, 439780.126099049113691 ], [ 434130.91616913699545, 439780.282768073840998 ], [ 434130.296657200029586, 439780.508789399347734 ], [ 434129.705691390787251, 439780.801432683772873 ], [ 434113.062857941957191, 439790.215436832047999 ], [ 434107.570949495013338, 439791.356142644188367 ], [ 434096.599729846348055, 439788.185223242267966 ], [ 434093.267842022236437, 439799.713385434355587 ], [ 434105.668426859250758, 439803.297422242816538 ] ] ] } },
{ "type": "Feature", "properties": { "highway": "residential", "name": "Strickland Avenue", "osm_type": "way", "osm_id": 98639343, "maxspeed": "20 mph", "maxspeed:type": null, "source": "bing", "surface": "asphalt", "source:name": "OS_OpenData_Locator", "bicycle": "yes", "cycleway": "no", "foot": "yes", "lanes": "2", "oneway": "no", "sidewalk": "both", "postal_code": null, "source_ref": null }, "geometry": { "type": "Polygon", "coordinates": [ [ [ 435044.203774524852633, 439681.389546581020113 ], [ 435044.203987430781126, 439681.395868544525001 ], [ 435044.656965694099199, 439694.638943049125373 ], [ 435046.569949737517163, 439758.040179210598581 ], [ 435046.879567423311528, 439768.33245560497744 ], [ 435045.855519014643505, 439771.996259642241057 ], [ 435043.851769372005947, 439775.406991001917049 ], [ 435041.045714809792116, 439778.196460252860561 ], [ 435037.472117310215253, 439780.258999808458611 ], [ 434994.688654999306891, 439794.507119303976651 ], [ 434967.247574096138123, 439803.281976398779079 ], [ 434953.78373690036824, 439806.732145001878962 ], [ 434931.179641607450321, 439810.521504861768335 ], [ 434910.268855295900721, 439813.878110086778179 ], [ 434910.06277042045258, 439813.914889614563435 ], [ 434889.389377617102582, 439817.977781360852532 ], [ 434889.002915644668974, 439818.067093376943376 ], [ 434873.064682378317229, 439822.309984674036968 ], [ 434876.151672392035834, 439833.906125957088079 ], [ 434891.898151538625825, 439829.71428121405188 ], [ 434912.274114911444485, 439825.70984255237272 ], [ 434933.102075434639119, 439822.366532545886002 ], [ 434933.143127094954252, 439822.359796858450864 ], [ 434956.018668977776542, 439818.524931580235716 ], [ 434956.516071696474683, 439818.419706049200613 ], [ 434970.396837474952918, 439814.862697628850583 ], [ 434970.734901202493347, 439814.765421600022819 ], [ 434998.377824021270499, 439805.926021349208895 ], [ 434998.446163374523167, 439805.903716287401039 ], [ 435041.840589138912037, 439791.452128446369898 ], [ 435042.404851087194402, 439791.23199133068556 ], [ 435042.944044134113938, 439790.956087807368021 ], [ 435047.720921295229346, 439788.199062681233045 ], [ 435048.157795085746329, 439787.921119469741825 ], [ 435048.569078156724572, 439787.60654456098564 ], [ 435048.951707464409992, 439787.257680761569645 ], [ 435052.862110592017416, 439783.370390246913303 ], [ 435053.210935321054421, 439782.992554877127986 ], [ 435053.526125916570891, 439782.586238317366224 ], [ 435053.805367143708281, 439782.15442516875919 ], [ 435056.597329071257263, 439777.402019030414522 ], [ 435056.839792961080093, 439776.945317597710527 ], [ 435057.042035010352265, 439776.469436215469614 ], [ 435057.202553207054734, 439775.977909161243588 ], [ 435058.682890700933058, 439770.68161023594439 ], [ 435058.816163522715215, 439770.091484110511374 ], [ 435058.889331319136545, 439769.490936891292222 ], [ 435058.90165019617416, 439768.886074316629674 ], [ 435058.564515547652263, 439757.679082132934127 ], [ 435056.651142635906581, 439694.264957063947804 ], [ 435056.650365088891704, 439694.24080113315722 ], [ 435056.197081846417859, 439680.988810390408617 ], [ 435053.7552277155919, 439607.326859407883603 ], [ 435041.761815608013421, 439607.724434580828529 ], [ 435044.203774524852633, 439681.389546581020113 ] ] ] } },
{ "type": "Feature", "properties": { "highway": "residential", "name": "Strickland Crescent", "osm_type": "way", "osm_id": 98639352, "maxspeed": "20 mph", "maxspeed:type": null, "source": "bing", "surface": "asphalt", "source:name": "OS_OpenData_Locator", "bicycle": "yes", "cycleway": "no", "foot": "yes", "lanes": "2", "oneway": "no", "sidewalk": "both", "postal_code": null, "source_ref": null }, "geometry": { "type": "Polygon", "coordinates": [ [ [ 434918.179010810388718, 439701.968819063098636 ], [ 434921.898447456187569, 439703.267521949310321 ], [ 434924.651649647857994, 439705.438999810023233 ], [ 434926.54644310392905, 439708.383557179884519 ], [ 434927.439477342239115, 439712.008655896235723 ], [ 434926.151584117556922, 439816.368330545665231 ], [ 434938.150670433766209, 439816.516410175303463 ], [ 434939.44801302277483, 439711.391041157708969 ], [ 434939.432800954265986, 439710.883663818589412 ], [ 434939.374757171142846, 439710.379388010536786 ], [ 434939.274297110794578, 439709.881822992116213 ], [ 434937.958938289084472, 439704.542379808728583 ], [ 434937.766005945450161, 439703.911040553124622 ], [ 434937.504882379376795, 439703.304718338360544 ], [ 434937.178728724713437, 439702.730753236275632 ], [ 434934.200257378863171, 439698.102132779371459 ], [ 434933.811830220511183, 439697.566005449858494 ], [ 434933.366700710495934, 439697.075936179142445 ], [ 434932.870288401667494, 439696.637891671794932 ], [ 434928.540722546982579, 439693.223120163718704 ], [ 434927.997893060964998, 439692.841699384967797 ], [ 434927.416271835623775, 439692.522540472040419 ], [ 434926.802969928248785, 439692.269545547605958 ], [ 434921.593122685269918, 439690.450441125256475 ], [ 434921.044920579646714, 439690.287886202218942 ], [ 434920.483734086563345, 439690.17825330758933 ], [ 434871.59873346547829, 439683.026769593707286 ], [ 434869.861718491243664, 439694.900386522873305 ], [ 434918.179010810388718, 439701.968819063098636 ] ] ] } },
{ "type": "Feature", "properties": { "highway": "residential", "name": "Church Farm Garth", "osm_type": "way", "osm_id": 98639364, "maxspeed": "20 mph", "maxspeed:type": null, "source": "bing", "surface": "asphalt", "source:name": "OS_OpenData_Locator", "bicycle": "yes", "cycleway": "no", "foot": "yes", "lanes": "2", "oneway": "no", "sidewalk": "both", "postal_code": null, "source_ref": null }, "geometry": { "type": "Polygon", "coordinates": [ [ [ 434585.977801040455233, 439725.794812186097261 ], [ 434586.068843119486701, 439726.377106179774273 ], [ 434586.21657455060631, 439726.94765887624817 ], [ 434586.419569910271093, 439727.500965155952144 ], [ 434586.675870547245722, 439728.031686305592302 ], [ 434586.983003481116612, 439728.534701530123129 ], [ 434587.338005263358355, 439729.00515736208763 ], [ 434587.737450570974033, 439729.438514491252135 ], [ 434588.177485256514046, 439729.830591563659254 ], [ 434588.653863535902929, 439730.177605526114348 ], [ 434589.161988954816479, 439730.476208128035069 ], [ 434589.696958738670219, 439730.723518227983732 ], [ 434590.253611098509282, 439730.917149592947681 ], [ 434590.826575035578571, 439731.055233922495972 ], [ 434591.410322164709214, 439731.136438875691965 ], [ 434591.999220056575723, 439731.15998092625523 ], [ 434632.960102642362472, 439730.7840064582997 ], [ 434632.849960885534529, 439718.784511935838964 ], [ 434597.334543812903576, 439719.110503203468397 ], [ 434596.704830910137389, 439713.189901922189165 ], [ 434584.772134634724353, 439714.459058964333963 ], [ 434585.977801040455233, 439725.794812186097261 ] ] ] } },
{ "type": "Feature", "properties": { "highway": "residential", "name": "Ash Hill Lane", "osm_type": "way", "osm_id": 98639366, "maxspeed": "20 mph", "maxspeed:type": null, "source": "bing", "surface": "asphalt", "source:name": "OS_OpenData_Locator", "bicycle": "yes", "cycleway": "no", "foot": "yes", "lanes": "2", "oneway": "no", "sidewalk": "both", "postal_code": null, "source_ref": null }, "geometry": { "type": "Polygon", "coordinates": [ [ [ 434877.459258244023658, 439636.61667606869014 ], [ 434876.618065275775734, 439641.2331889825291 ], [ 434874.930687667161692, 439646.677892156352755 ], [ 434871.856127742736135, 439652.068885156069882 ], [ 434871.530666159407701, 439652.731150190054905 ], [ 434869.554687827068847, 439657.467482124979142 ], [ 434869.38352367922198, 439657.930494760570582 ], [ 434869.250999968207907, 439658.406010619655717 ], [ 434869.158013724489138, 439658.890811016375665 ], [ 434864.796131373790558, 439688.076717740099411 ], [ 434864.783968636183999, 439688.162314293615054 ], [ 434858.475176654756069, 439734.980481162609067 ], [ 434858.423007735342253, 439735.644331739051268 ], [ 434858.101391503121704, 439749.683677439345047 ], [ 434858.139816040406004, 439750.512740428035613 ], [ 434862.479494716098998, 439787.908099137421232 ], [ 434862.506624067900702, 439788.111449566844385 ], [ 434868.675305012671743, 439829.003055545443203 ], [ 434880.541049757681321, 439827.213055085681845 ], [ 434874.387671983626205, 439786.42289238673402 ], [ 434870.107770712289494, 439749.542640358617064 ], [ 434870.412223235471174, 439736.252533101651352 ], [ 434876.670710308360867, 439689.807683915249072 ], [ 434880.916165689064655, 439661.400804779375903 ], [ 434882.463177315716166, 439657.692686906200834 ], [ 434885.679562122910284, 439652.053015406592749 ], [ 434885.971725326089654, 439651.468999914184678 ], [ 434886.19869014894357, 439650.856692473520525 ], [ 434888.187192347308155, 439644.440343118505552 ], [ 434888.35891328798607, 439643.73978564015124 ], [ 434889.367198478721548, 439638.206261490937322 ], [ 434889.442530929925852, 439637.642388857260812 ], [ 434889.464122004224919, 439637.073916209978051 ], [ 434889.372097870451398, 439627.348603620077483 ], [ 434877.372635048697703, 439627.462146517704241 ], [ 434877.459258244023658, 439636.61667606869014 ] ] ] } },
{ "type": "Feature", "properties": { "highway": "residential", "name": "Church Farm Garth", "osm_type": "way", "osm_id": 98639368, "maxspeed": "20 mph", "maxspeed:type": null, "source": "bing", "surface": "asphalt", "source:name": "OS_OpenData_Locator", "bicycle": "yes", "cycleway": "no", "foot": "yes", "lanes": "2", "oneway": "no", "sidewalk": "both", "postal_code": null, "source_ref": null }, "geometry": { "type": "Polygon", "coordinates": [ [ [ 434643.095234358683228, 439739.074597094208002 ], [ 434639.428998623858206, 439725.856640892685391 ], [ 434642.551517458807211, 439721.257061002717819 ], [ 434642.858025065856054, 439720.754092471848708 ], [ 434643.113740336033516, 439720.223494736419525 ], [ 434643.316198996210005, 439719.670381052710582 ], [ 434643.463449995906558, 439719.100081658223644 ], [ 434647.837033643911127, 439697.91406311665196 ], [ 434647.934274305705912, 439697.266024148557335 ], [ 434647.960264617635403, 439696.611245747713838 ], [ 434647.638895209005568, 439675.134588345710654 ], [ 434635.640238450199831, 439675.314132171159144 ], [ 434635.951759251358453, 439696.132621238415595 ], [ 434631.95262517419178, 439715.50477358023636 ], [ 434627.940866895369254, 439721.41423439636128 ], [ 434627.639748823887203, 439721.907317146717105 ], [ 434627.387452019553166, 439722.427075758227147 ], [ 434627.186315853323322, 439722.968690874637105 ], [ 434627.038205319375265, 439723.527140479709487 ], [ 434626.944493742659688, 439724.097246462944895 ], [ 434626.906050044693984, 439724.673722632229328 ], [ 434626.923230686865281, 439725.251223729399499 ], [ 434626.995876365224831, 439725.824394992727321 ], [ 434627.12331348733278, 439726.387921808054671 ], [ 434632.640327719389461, 439746.278528347611427 ], [ 434632.831061773642432, 439746.852225473790895 ], [ 434633.078561070782598, 439747.403815874306019 ], [ 434633.380312751396559, 439747.927699253777973 ], [ 434633.733253131737001, 439748.41855662612943 ], [ 434634.13379880937282, 439748.871404318138957 ], [ 434634.577883045421913, 439749.28164456889499 ], [ 434635.060997054271866, 439749.645112210535444 ], [ 434635.578235781053081, 439749.958116957335733 ], [ 434636.124347702832893, 439750.217480873339809 ], [ 434636.693788147240411, 439750.420570637506898 ], [ 434637.280775587423705, 439750.56532428029459 ], [ 434637.879350342031103, 439750.650272118393332 ], [ 434661.486986889271066, 439752.794354200130329 ], [ 434662.572378197219223, 439740.843541436595842 ], [ 434643.095234358683228, 439739.074597094208002 ] ] ] } },
{ "type": "Feature", "properties": { "highway": "residential", "name": null, "osm_type": "way", "osm_id": 98639374, "maxspeed": "20 mph", "maxspeed:type": null, "source": "bing", "surface": "asphalt", "source:name": null, "bicycle": "yes", "cycleway": "no", "foot": "yes", "lanes": "2", "oneway": "no", "sidewalk": "both", "postal_code": null, "source_ref": null }, "geometry": { "type": "Polygon", "coordinates": [ [ [ 434561.299610559712164, 439621.777259147900622 ], [ 434573.600498058251105, 439623.047616003372241 ], [ 434574.833224649890326, 439611.111101221002173 ], [ 434562.534582482650876, 439609.840976438601501 ], [ 434550.847310339857358, 439608.631027499155607 ], [ 434549.611590088636149, 439620.567232736211736 ], [ 434561.299610559712164, 439621.777259147900622 ] ] ] } },
{ "type": "Feature", "properties": { "highway": "residential", "name": "Ash Hill Garth", "osm_type": "way", "osm_id": 98639376, "maxspeed": null, "maxspeed:type": null, "source": "bing", "surface": null, "source:name": "OS_OpenData_Locator", "bicycle": null, "cycleway": null, "foot": null, "lanes": null, "oneway": null, "sidewalk": null, "postal_code": null, "source_ref": null }, "geometry": { "type": "Polygon", "coordinates": [ [ [ 434564.078014912898652, 439818.877875994832721 ], [ 434555.355187573120929, 439823.767894727003295 ], [ 434578.755550294357818, 439865.509518815262709 ], [ 434587.478377634135541, 439860.619500083092134 ], [ 434564.078014912898652, 439818.877875994832721 ] ] ] } },
{ "type": "Feature", "properties": { "highway": "residential", "name": "Strickland Close", "osm_type": "way", "osm_id": 98639382, "maxspeed": "20 mph", "maxspeed:type": null, "source": "bing", "surface": "asphalt", "source:name": "OS_OpenData_Locator", "bicycle": "yes", "cycleway": "no", "foot": "yes", "lanes": "2", "oneway": "no", "sidewalk": "both", "postal_code": null, "source_ref": null }, "geometry": { "type": "Polygon", "coordinates": [ [ [ 434990.554775832802989, 439800.441308064677287 ], [ 435002.545939678675495, 439799.980884757533204 ], [ 434998.201086187560577, 439686.824471333471593 ], [ 434986.20992234168807, 439687.284894640615676 ], [ 434990.554775832802989, 439800.441308064677287 ] ] ] } },
{ "type": "Feature", "properties": { "highway": "tertiary", "name": "Main Street", "osm_type": "way", "osm_id": 128918540, "maxspeed": "20 mph", "maxspeed:type": null, "source": "local_knowledge", "surface": "asphalt", "source:name": null, "bicycle": "yes", "cycleway": null, "foot": "yes", "lanes": "2", "oneway": "no", "sidewalk": "both", "postal_code": "LS17", "source_ref": "npe" }, "geometry": { "type": "Polygon", "coordinates": [ [ [ 433612.468407447508071, 440138.016264645557385 ], [ 433612.792559887981042, 440137.895853025140241 ], [ 433676.650205655430909, 440112.362828628916759 ], [ 433768.204911080945749, 440088.546560290094931 ], [ 433768.703782500640955, 440088.396763727301732 ], [ 433769.190134030301124, 440088.210286132874899 ], [ 433847.0312845853623, 440054.992003312916495 ], [ 433862.658636314619798, 440048.316822006192524 ], [ 433862.960707973805256, 440048.179235204530414 ], [ 433891.812055160000455, 440034.202889415551908 ], [ 433914.701710637891665, 440024.525722632941324 ], [ 433915.273651429044548, 440024.25277526548598 ], [ 433918.559413305658381, 440022.497873611922842 ], [ 433945.994657936156727, 440007.877627464360557 ], [ 433975.066426556964871, 439992.371694732340984 ], [ 433987.386580784339458, 439986.068709615268745 ], [ 433987.549524550675415, 439985.982622801151592 ], [ 433995.342625780554954, 439981.733206984063145 ], [ 433995.643808709923178, 439981.559132905502338 ], [ 434010.656131367490161, 439972.37745235330658 ], [ 434023.60945402312791, 439964.447771748818923 ], [ 434024.193025971122552, 439964.048662473564036 ], [ 434042.562305192754138, 439950.07367044116836 ], [ 434043.088344794581644, 439949.631051275879145 ], [ 434043.568429592822213, 439949.138965943129733 ], [ 434043.997928930737544, 439948.602160851005465 ], [ 434053.706425459880847, 439935.165096518700011 ], [ 434053.945787144068163, 439934.811576877953485 ], [ 434065.991484264784958, 439915.796649221796542 ], [ 434075.393207768443972, 439905.745477386401035 ], [ 434088.293196777696721, 439897.020253820170183 ], [ 434099.402193384652492, 439892.214454686210956 ], [ 434114.405378391209524, 439889.357605523371603 ], [ 434172.016764855012298, 439885.025814855878707 ], [ 434172.126447681977879, 439885.016700136882719 ], [ 434227.914923471864313, 439879.938727347820532 ], [ 434228.32685139059322, 439879.888884268002585 ], [ 434250.158188447763678, 439876.588138451101258 ], [ 434250.341199885180686, 439876.557983147737104 ], [ 434304.07756991655333, 439866.970771886350121 ], [ 434304.101237611961551, 439866.966507323610131 ], [ 434353.299836130463518, 439858.014376753359102 ], [ 434379.608110714470968, 439853.234023655415513 ], [ 434379.868912095960695, 439853.181496418314055 ], [ 434393.665811465936713, 439850.128791559312958 ], [ 434451.025892746751197, 439840.433611433254555 ], [ 434451.213778439036105, 439840.399211414973252 ], [ 434469.106690729619004, 439836.870234852889553 ], [ 434469.722451076726429, 439836.719531773414928 ], [ 434470.322052380768582, 439836.513739403686486 ], [ 434478.707573051971849, 439833.20411734492518 ], [ 434479.309090533759445, 439832.933291659399401 ], [ 434479.882442939095199, 439832.607045046868734 ], [ 434480.422538315469865, 439832.22827490902273 ], [ 434487.256993965362199, 439826.937843548657838 ], [ 434487.823090256075375, 439826.449116025003605 ], [ 434488.333814776910003, 439825.902782732446212 ], [ 434488.783337767934427, 439825.305079893849324 ], [ 434489.166528065514285, 439824.66283009928884 ], [ 434491.581706818891689, 439820.074215967964847 ], [ 434491.902515229710843, 439819.373662487778347 ], [ 434492.14438461640384, 439818.642094025562983 ], [ 434492.30438444390893, 439817.888374402420595 ], [ 434493.133081357460469, 439812.553724449826404 ], [ 434493.196955829276703, 439811.995785983279347 ], [ 434493.215899533999618, 439811.434522750321776 ], [ 434493.121197369298898, 439796.602110411971807 ], [ 434493.111625557823572, 439796.278145548363682 ], [ 434492.315029635792598, 439781.173527126491535 ], [ 434492.227709761646111, 439780.380692018894479 ], [ 434489.549080257478636, 439764.461102755041793 ], [ 434489.459379905660171, 439764.01653941872064 ], [ 434481.454937368573155, 439730.059823256160598 ], [ 434480.912002516677603, 439724.78899586154148 ], [ 434481.182899399893358, 439723.870162513863761 ], [ 434481.185101834591478, 439723.862676874035969 ], [ 434482.018898383306805, 439721.022923250624444 ], [ 434484.928515956737101, 439714.47907213907456 ], [ 434491.659942382888403, 439703.114582515321672 ], [ 434500.155503855145071, 439695.325220827013254 ], [ 434504.071330522943754, 439692.520411515317392 ], [ 434504.078814335342031, 439692.515043593943119 ], [ 434512.561895702267066, 439686.421919905871619 ], [ 434524.692816653579939, 439682.128380065085366 ], [ 434539.050604184274562, 439679.015540283638984 ], [ 434568.294697866425849, 439676.995028935023583 ], [ 434606.14911408466287, 439678.387505322054494 ], [ 434606.288030803669244, 439678.391235034971032 ], [ 434622.195957633201033, 439678.660355110419914 ], [ 434631.410361174028367, 439679.99428391980473 ], [ 434640.025538018031511, 439682.035741248750128 ], [ 434640.183037212118506, 439682.071149394498207 ], [ 434669.227992438245565, 439688.249934323364869 ], [ 434669.870796393312048, 439688.355687926930841 ], [ 434686.007323059195187, 439690.244307147630025 ], [ 434686.346091794548556, 439690.275632671196945 ], [ 434700.851215924427379, 439691.262093028635718 ], [ 434701.48969545471482, 439691.276314530405216 ], [ 434702.126813881681301, 439691.232286452024709 ], [ 434711.206476471736096, 439690.186918904597405 ], [ 434712.032403074728791, 439690.041254807380028 ], [ 434712.834981036896352, 439689.797859249752946 ], [ 434718.996312620816752, 439687.518077551852912 ], [ 434719.528007451968733, 439687.296057781553827 ], [ 434720.039641551615205, 439687.03106208355166 ], [ 434720.527748419437557, 439686.724885896604974 ], [ 434725.949805512500461, 439683.004303091729525 ], [ 434726.594803508080076, 439682.503985718765762 ], [ 434727.177171274030115, 439681.931982507929206 ], [ 434732.503412484948058, 439676.052140406216495 ], [ 434732.882148719916586, 439675.596709523408208 ], [ 434733.221025408653077, 439675.110889582894742 ], [ 434733.517616066616029, 439674.598159238288645 ], [ 434746.564416058419738, 439649.665789757040329 ], [ 434750.6077461115201, 439643.498930747678969 ], [ 434755.2557614511461, 439637.510062491171993 ], [ 434758.919369437848218, 439634.99148703366518 ], [ 434762.56666220043553, 439633.534244801150635 ], [ 434769.128930459439289, 439632.961002030060627 ], [ 434776.722805341763888, 439632.64098534459481 ], [ 434795.026654714543838, 439633.596242353029083 ], [ 434831.263786176685244, 439635.589778109278996 ], [ 434831.55892180185765, 439635.599776240880601 ], [ 434856.614809457852971, 439635.919724073144607 ], [ 434856.979169874626677, 439635.914891532855108 ], [ 434870.30493878031848, 439635.391008822130971 ], [ 434870.548468715220224, 439635.377181664807722 ], [ 434883.890878526784945, 439634.386144742486067 ], [ 434884.152491124987137, 439634.361768208036665 ], [ 434895.595839535933919, 439633.078453971480485 ], [ 434894.035590205108747, 439619.16566769318888 ], [ 434882.722819308342878, 439620.434338315215427 ], [ 434869.633089075738098, 439621.406606904405635 ], [ 434856.611322906450368, 439621.918538201367483 ], [ 434831.885351652512327, 439621.602803192858119 ], [ 434795.785839070915245, 439619.61683834932046 ], [ 434795.766150676528923, 439619.615783029061276 ], [ 434777.122757395263761, 439618.642805611540098 ], [ 434776.463203514402267, 439618.639499552897178 ], [ 434768.38202847802313, 439618.980051759746857 ], [ 434768.067596065113321, 439619.000400240242016 ], [ 434760.319440109888092, 439619.677235476963688 ], [ 434759.642404484504368, 439619.769858529500198 ], [ 434758.977625950414222, 439619.928053878596984 ], [ 434758.331439660745673, 439620.150313967023976 ], [ 434753.000040795945097, 439622.280425282428041 ], [ 434752.295507088827435, 439622.608367536158767 ], [ 434751.631666021537967, 439623.012383505760226 ], [ 434746.42768431303557, 439626.589900712890085 ], [ 434745.856431007967331, 439627.027497431554366 ], [ 434745.333121494797524, 439627.521428985754028 ], [ 434744.863285993458703, 439628.066475615371019 ], [ 434739.376837956195232, 439635.135646452894434 ], [ 434739.05283888138365, 439635.589320068771485 ], [ 434734.667873910279013, 439642.277238290349487 ], [ 434734.319656569568906, 439642.869888571847696 ], [ 434721.527613790123723, 439667.315418295329437 ], [ 434717.352115233021323, 439671.924911414331291 ], [ 434713.323071927938145, 439674.689616577641573 ], [ 434708.767509092343971, 439676.375240640365519 ], [ 434701.161966852552723, 439677.250888491689693 ], [ 434687.465770749258809, 439676.319441481493413 ], [ 434671.822112816385925, 439674.488507621572353 ], [ 434643.175050197110977, 439668.394367093860637 ], [ 434634.335445617267396, 439666.299729237798601 ], [ 434633.724321630958002, 439666.183326894941274 ], [ 434623.761778613727074, 439664.741093213029671 ], [ 434622.877278344356455, 439664.669878020591568 ], [ 434606.594316786853597, 439664.394413348753005 ], [ 434568.439120131719392, 439662.990872739988845 ], [ 434567.699310253781732, 439663.002789581893012 ], [ 434537.580132970353588, 439665.083761561196297 ], [ 434536.57944440015126, 439665.226047425530851 ], [ 434521.29258924984606, 439668.54031368996948 ], [ 434520.440203371632379, 439668.782505253562704 ], [ 434506.951734726899303, 439673.556526760221459 ], [ 434506.341169084946159, 439673.805572508368641 ], [ 434505.756746678845957, 439674.110965106578078 ], [ 434505.203653532080352, 439674.469994574435987 ], [ 434495.915265972202178, 439681.141543722362258 ], [ 434491.659914059680887, 439684.189546527748462 ], [ 434491.005420082714409, 439684.720775767054874 ], [ 434481.434716586314607, 439693.495907509408426 ], [ 434480.952616278431378, 439693.983495274558663 ], [ 434480.52053315367084, 439694.515911191760097 ], [ 434480.142613116186112, 439695.088046648481395 ], [ 434472.675193207687698, 439707.695094649039675 ], [ 434472.301719899522141, 439708.418520158564206 ], [ 434469.037327702273615, 439715.760274175845552 ], [ 434468.717088673089165, 439716.632193121942692 ], [ 434467.753260535595473, 439719.914809786656406 ], [ 434467.093155636684969, 439722.153766495466698 ], [ 434466.932558017899282, 439722.815654777397867 ], [ 434466.837045408261474, 439723.490017464908306 ], [ 434466.807522034912836, 439724.170470301876776 ], [ 434466.844267398293596, 439724.850571376096923 ], [ 434467.574899855535477, 439731.943572603573557 ], [ 434467.724790590989869, 439732.832371259573847 ], [ 434475.780794678837992, 439767.007823572261259 ], [ 434478.355496502772439, 439782.309751461085398 ], [ 434479.122517656243872, 439796.85358921502484 ], [ 434479.212590677489061, 439810.960977313749027 ], [ 434478.649440806882922, 439814.586195872456301 ], [ 434477.485621365718544, 439816.79734414734412 ], [ 434472.640905009699054, 439820.547553477052134 ], [ 434465.773816577217076, 439823.257876216317527 ], [ 434448.598485580412671, 439826.645325925434008 ], [ 434391.158917819033377, 439836.353941104724072 ], [ 434390.813285713782534, 439836.421344034839422 ], [ 434376.974319774308242, 439839.483356551907491 ], [ 434350.796099084021989, 439844.240078167174943 ], [ 434301.606793383602053, 439853.19051761040464 ], [ 434247.973566815489903, 439862.759326844010502 ], [ 434226.439160260837525, 439866.015178841014858 ], [ 434170.912192965042777, 439871.069348631368484 ], [ 434112.96047424263088, 439875.426728825375903 ], [ 434112.175935030856635, 439875.530579238664359 ], [ 434096.023492294712923, 439878.606265667127445 ], [ 434095.276085808814969, 439878.791702394664753 ], [ 434094.553570851800032, 439879.058114428888075 ], [ 434082.134070300555322, 439884.430843137437478 ], [ 434081.548228034982458, 439884.717381542781368 ], [ 434080.991594958875794, 439885.05719772313023 ], [ 434066.897279540542513, 439894.590233212511521 ], [ 434066.27359698707005, 439895.06506135239033 ], [ 434065.706912877096329, 439895.606643118604552 ], [ 434055.317940290027764, 439906.713260817516129 ], [ 434054.893078107153997, 439907.212396056216676 ], [ 434054.516765787207987, 439907.749083021655679 ], [ 434042.233426200400572, 439927.13914498972008 ], [ 434033.258590289216954, 439939.560784854169469 ], [ 434015.998043478990439, 439952.692274731234647 ], [ 434003.350271883886307, 439960.434905754344072 ], [ 433988.487602480396163, 439969.525056940736249 ], [ 433980.928161300427746, 439973.647062798321713 ], [ 433968.636763196438551, 439979.935336296213791 ], [ 433968.530672279594, 439979.990761887573171 ], [ 433939.409466096607503, 439995.523063527944032 ], [ 433911.972477626928594, 440010.144238967681304 ], [ 433908.957902211812325, 440011.754298473708332 ], [ 433886.195546079252381, 440021.377646316250321 ], [ 433885.869613126909826, 440021.525373196171131 ], [ 433857.006592404330149, 440035.507373950968031 ], [ 433841.535198404453695, 440042.115938769944478 ], [ 433764.175218791759107, 440075.12888453702908 ], [ 433672.698709862248506, 440098.924811499367934 ], [ 433671.862127348489594, 440099.199662995059043 ], [ 433607.755440022738185, 440124.832264882861637 ], [ 433598.561809480015654, 440127.991245348064695 ], [ 433603.111213172145654, 440141.231446481251623 ], [ 433612.468407447508071, 440138.016264645557385 ] ] ] } },
{ "type": "Feature", "properties": { "highway": "residential", "name": "Blind Lane", "osm_type": "way", "osm_id": 151525778, "maxspeed": "20 mph", "maxspeed:type": null, "source": "bing", "surface": "asphalt", "source:name": null, "bicycle": "yes", "cycleway": "no", "foot": "yes", "lanes": "2", "oneway": "no", "sidewalk": "both", "postal_code": null, "source_ref": null }, "geometry": { "type": "Polygon", "coordinates": [ [ [ 434169.131158523377962, 439708.093652811774518 ], [ 434169.471066322701517, 439708.094466708018444 ], [ 434227.709116051788442, 439706.583720469498076 ], [ 434228.546435410738923, 439706.503011696855538 ], [ 434343.467449317162391, 439687.219385824049823 ], [ 434354.416430603945628, 439686.164269153785426 ], [ 434353.265363140031695, 439674.219603244157042 ], [ 434342.106726153986529, 439675.294923732231837 ], [ 434341.689347591891419, 439675.349983229069039 ], [ 434226.976434683136176, 439694.598689972248394 ], [ 434169.329845883476082, 439696.09409319399856 ], [ 434116.817172077135183, 439694.480187129636761 ], [ 434116.448542348691262, 439706.474523798387963 ], [ 434169.131158523377962, 439708.093652811774518 ] ] ] } },
{ "type": "Feature", "properties": { "highway": "residential", "name": "Cricketers View", "osm_type": "way", "osm_id": 151526282, "maxspeed": "20 mph", "maxspeed:type": null, "source": "bing", "surface": "asphalt", "source:name": null, "bicycle": "yes", "cycleway": "no", "foot": "yes", "lanes": "2", "oneway": "no", "sidewalk": "both", "postal_code": null, "source_ref": null }, "geometry": { "type": "Polygon", "coordinates": [ [ [ 434247.119300313817803, 439966.207819971314166 ], [ 434247.477982174197678, 439965.722693109768443 ], [ 434247.786130881635472, 439965.203997512231581 ], [ 434248.040630703791976, 439964.656977778300643 ], [ 434248.238908359489869, 439964.087164896714967 ], [ 434248.378959037130699, 439963.50032032065792 ], [ 434248.459366665920243, 439962.90237771300599 ], [ 434255.192711608717218, 439882.328540430869907 ], [ 434255.213342768896837, 439881.778646680351812 ], [ 434255.11152011086233, 439869.6165689327172 ], [ 434243.111940645496361, 439869.717031131789554 ], [ 434243.211457444354892, 439881.60368846723577 ], [ 434236.656593600055203, 439960.041751166572794 ], [ 434232.869719438371249, 439964.658616898756009 ], [ 434242.1479038791731, 439972.268826717336196 ], [ 434247.119300313817803, 439966.207819971314166 ] ] ] } },
{ "type": "Feature", "properties": { "highway": "residential", "name": "Cricketers View", "osm_type": "way", "osm_id": 151526322, "maxspeed": "20 mph", "maxspeed:type": null, "source": "bing", "surface": "asphalt", "source:name": null, "bicycle": "yes", "cycleway": "no", "foot": "yes", "lanes": "2", "oneway": "no", "sidewalk": "both", "postal_code": null, "source_ref": null }, "geometry": { "type": "Polygon", "coordinates": [ [ [ 434118.914480102888774, 439976.125373654183932 ], [ 434119.295338366762735, 439976.447801827976946 ], [ 434119.701672151102684, 439976.73746680712793 ], [ 434120.13067083444912, 439976.992364971258212 ], [ 434125.569202623970341, 439979.924903735925909 ], [ 434126.087636221258435, 439980.17316914559342 ], [ 434126.627447749022394, 439980.370685278845485 ], [ 434127.183682800561655, 439980.515639326476958 ], [ 434127.751236233278178, 439980.606700895878021 ], [ 434142.909491571248509, 439982.298829258594196 ], [ 434163.498554066813085, 439985.233961460762657 ], [ 434175.548827580118086, 439988.19937326508807 ], [ 434184.073883412987925, 439992.836486645683181 ], [ 434184.122899906535167, 439992.862854768289253 ], [ 434189.148839355038945, 439995.536545207141899 ], [ 434189.72540663840482, 439995.805081242986489 ], [ 434190.327160807617474, 439996.011074822046794 ], [ 434190.947339793376159, 439996.152211140433792 ], [ 434198.023123051563744, 439997.372170642658602 ], [ 434198.734089499048423, 439997.451474656059872 ], [ 434199.449441075325012, 439997.44559773238143 ], [ 434217.482588903571013, 439996.219891151005868 ], [ 434218.11885681230342, 439996.142327506328002 ], [ 434218.743219720199704, 439995.997331196034793 ], [ 434219.348552033945452, 439995.786557002633344 ], [ 434227.734498654550407, 439992.354099916119594 ], [ 434228.278387965168804, 439992.098983438161667 ], [ 434228.794039542437531, 439991.790757140901405 ], [ 434229.276283979415894, 439991.432510992977768 ], [ 434229.720286775554996, 439991.02783641195856 ], [ 434235.65144311147742, 439985.051718839094974 ], [ 434236.079932888853364, 439984.570913266332354 ], [ 434236.45441955793649, 439984.046950268791988 ], [ 434236.770588434243109, 439983.485866736911703 ], [ 434242.886587296437938, 439971.124460275226738 ], [ 434232.131036021106411, 439965.802983340865467 ], [ 434226.44738952582702, 439977.29053690249566 ], [ 434222.061266429489478, 439981.709909083612729 ], [ 434215.700812267954461, 439984.313310577592347 ], [ 434199.353242784738541, 439985.424449004232883 ], [ 434193.934856409556232, 439984.490246852452401 ], [ 434189.7833481010166, 439982.281734755379148 ], [ 434180.602003580483142, 439977.287640128575731 ], [ 434180.140725252160337, 439977.061757753661368 ], [ 434179.66181861696532, 439976.876153394288849 ], [ 434179.168793003482278, 439976.732187120825984 ], [ 434166.075402563612442, 439973.510078134946525 ], [ 434165.488443042442668, 439973.39631261152681 ], [ 434144.512670506024733, 439970.40605186263565 ], [ 434144.331534949655179, 439970.38303597754566 ], [ 434130.23970824747812, 439968.80995391018223 ], [ 434126.488511930045206, 439966.787252004491165 ], [ 434122.912509467452765, 439963.495032725972123 ], [ 434114.784760310547426, 439972.323378756991588 ], [ 434118.914480102888774, 439976.125373654183932 ] ] ] } },
{ "type": "Feature", "properties": { "highway": "residential", "name": "Cricketers Fold", "osm_type": "way", "osm_id": 151526364, "maxspeed": "20 mph", "maxspeed:type": null, "source": "bing", "surface": "asphalt", "source:name": null, "bicycle": "yes", "cycleway": "no", "foot": "yes", "lanes": "2", "oneway": "no", "sidewalk": "both", "postal_code": null, "source_ref": null }, "geometry": { "type": "Polygon", "coordinates": [ [ [ 434328.220689855981618, 439950.00531447987305 ], [ 434327.681880864314735, 439949.738646319834515 ], [ 434327.119090532476548, 439949.527236576657742 ], [ 434326.537969072815031, 439949.373207728029229 ], [ 434325.944350735459011, 439949.278106168145314 ], [ 434325.344195234822109, 439949.242886682448443 ], [ 434324.743527916027233, 439949.267902861873154 ], [ 434311.413634244236164, 439950.494273156218696 ], [ 434310.777620702516288, 439950.587364372157026 ], [ 434289.900409838184714, 439954.796051206125412 ], [ 434289.253589776402805, 439954.964421172626317 ], [ 434288.629509502497967, 439955.203687655215617 ], [ 434273.916717327781953, 439961.806392345461063 ], [ 434257.264685998379719, 439961.684542815666646 ], [ 434244.643337936024182, 439956.806209966540337 ], [ 434240.317078250809573, 439967.999220157507807 ], [ 434253.961185052932706, 439973.272863993421197 ], [ 434254.475122950680088, 439973.445255320053548 ], [ 434255.002522420370951, 439973.570557880215347 ], [ 434255.53907855018042, 439973.647748888586648 ], [ 434256.08041168685304, 439973.676198271452449 ], [ 434275.136457072221674, 439973.815638927277178 ], [ 434275.779183663311414, 439973.785842313780449 ], [ 434276.4150240298477, 439973.68739264481701 ], [ 434277.03666626708582, 439973.521422051417176 ], [ 434277.636961743060965, 439973.289839127624873 ], [ 434292.930073031806387, 439966.426702855795156 ], [ 434312.83351302461233, 439962.414320819079876 ], [ 434323.989977149583865, 439961.387909316516016 ], [ 434337.211150102433749, 439968.778021343925502 ], [ 434343.066098812851124, 439958.303310102142859 ], [ 434328.220689855981618, 439950.00531447987305 ] ] ] } },
{ "type": "Feature", "properties": { "highway": "residential", "name": "Colliers Lane", "osm_type": "way", "osm_id": 151655940, "maxspeed": "20 mph", "maxspeed:type": null, "source": "bing", "surface": "asphalt", "source:name": null, "bicycle": "yes", "cycleway": "no", "foot": "yes", "lanes": "2", "oneway": "no", "sidewalk": "both", "postal_code": null, "source_ref": null }, "geometry": { "type": "Polygon", "coordinates": [ [ [ 434110.75616036739666, 439699.258911477285437 ], [ 434089.089205845608376, 439792.592512686213013 ], [ 434089.075978971377481, 439792.650806134450249 ], [ 434079.322226454212796, 439836.652098734979518 ], [ 434079.302799181314185, 439836.743071478500497 ], [ 434073.730903272575233, 439863.862447814026382 ], [ 434073.635301350383088, 439864.49968542624265 ], [ 434073.60858804685995, 439865.143500540521927 ], [ 434073.651071464002598, 439865.786467616795562 ], [ 434075.567802336474415, 439881.722521428018808 ], [ 434075.676806873758323, 439882.347733688890003 ], [ 434075.851240231539123, 439882.957934773759916 ], [ 434079.239750129811, 439892.807347868219949 ], [ 434090.587006428453606, 439888.903532491880469 ], [ 434087.405828334041871, 439879.656772671383806 ], [ 434085.681691158388276, 439865.32197835855186 ], [ 434091.047906637075357, 439839.203684074396733 ], [ 434100.785124649468344, 439795.276982210343704 ], [ 434122.477437301597092, 439701.834147116111126 ], [ 434122.535088827775326, 439701.556087110366207 ], [ 434123.946536832780112, 439693.833412925305311 ], [ 434112.142073603055906, 439691.675949632597622 ], [ 434110.75616036739666, 439699.258911477285437 ] ] ] } },
{ "type": "Feature", "properties": { "highway": "residential", "name": "Ash Hill Drive", "osm_type": "way", "osm_id": 189058458, "maxspeed": "20 mph", "maxspeed:type": null, "source": "bing", "surface": "asphalt", "source:name": "OS_OpenData_Locator", "bicycle": "yes", "cycleway": "no", "foot": "yes", "lanes": "2", "oneway": "no", "sidewalk": "both", "postal_code": null, "source_ref": null }, "geometry": { "type": "Polygon", "coordinates": [ [ [ 434749.828652799711563, 439881.730450768547598 ], [ 434750.40885876561515, 439881.758507245744113 ], [ 434750.939409707090817, 439881.760677774320357 ], [ 434751.468078166013584, 439881.715971250494476 ], [ 434751.990730410034303, 439881.624737240781542 ], [ 434756.774441739195026, 439880.569835616915952 ], [ 434757.236690811696462, 439880.448408457799815 ], [ 434795.624951744161081, 439868.711260955489706 ], [ 434830.470964245207142, 439858.294284262170549 ], [ 434830.927835818962194, 439858.137410260445904 ], [ 434838.448961357702501, 439855.211433775548358 ], [ 434838.984891529835295, 439854.972135576594155 ], [ 434839.494877075427212, 439854.681619620707352 ], [ 434847.029920531436801, 439849.886493591417093 ], [ 434847.55784159299219, 439849.508926648006309 ], [ 434855.116374249802902, 439843.459319684596267 ], [ 434863.46127521264134, 439838.862994339491706 ], [ 434876.776393906446174, 439833.7025916785351 ], [ 434872.43996086390689, 439822.513518952589948 ], [ 434858.750242029724177, 439827.819101510627661 ], [ 434858.023740917386021, 439828.15810651879292 ], [ 434848.875136854068842, 439833.197107091196813 ], [ 434848.435632531007286, 439833.464355781266931 ], [ 434848.020633434527554, 439833.768266396888066 ], [ 434840.313134325901046, 439839.937101327581331 ], [ 434833.549227960116696, 439844.241493686218746 ], [ 434826.802343054732773, 439846.866263938718475 ], [ 434792.17000434017973, 439857.219364317541476 ], [ 434792.134194091020618, 439857.230191279319115 ], [ 434753.956749450648203, 439868.902882047812454 ], [ 434750.188591590092983, 439869.733834329992533 ], [ 434746.911963137856219, 439869.57538947253488 ], [ 434743.794973327312618, 439868.545956170826685 ], [ 434740.688685333356261, 439866.492250010487624 ], [ 434723.505425555282272, 439851.773550040088594 ], [ 434723.071838357427623, 439851.435331249551382 ], [ 434718.994933393027168, 439848.54557552334154 ], [ 434718.575207844958641, 439848.273618691193406 ], [ 434718.134291168651544, 439848.037562471523415 ], [ 434717.67524687841069, 439847.839046996377874 ], [ 434713.004728219879325, 439846.046425595122855 ], [ 434712.530975029047113, 439845.886896857235115 ], [ 434712.045586461725179, 439845.767358400102239 ], [ 434711.551931808935478, 439845.688639991800301 ], [ 434706.576410477922764, 439845.106559415231459 ], [ 434706.036434447218198, 439845.067976685066242 ], [ 434677.759324983519036, 439844.326850576268043 ], [ 434672.415369639813434, 439842.873227468866389 ], [ 434667.773386537679471, 439840.059856337145902 ], [ 434663.865126103744842, 439835.858713248337153 ], [ 434647.839296202058904, 439811.078997697972227 ], [ 434647.420241539657582, 439810.508015977975447 ], [ 434646.936823715688661, 439809.990392425388563 ], [ 434640.913892281707376, 439804.26016137219267 ], [ 434640.441547676571645, 439803.855289125931449 ], [ 434639.929818852455355, 439803.501503071456682 ], [ 434639.384207334253006, 439803.202606713224668 ], [ 434631.885210639797151, 439799.586643239308614 ], [ 434631.310230609204154, 439799.34536355396267 ], [ 434630.713314391381573, 439799.16506116616074 ], [ 434630.100908978609368, 439799.047683431475889 ], [ 434621.853389568568673, 439797.907423593394924 ], [ 434621.233187499805354, 439797.854274386598263 ], [ 434620.610816525120754, 439797.865667988662608 ], [ 434619.992975352040958, 439797.941481767920777 ], [ 434611.79215413966449, 439799.382946245139465 ], [ 434611.097220142662991, 439799.548269264341798 ], [ 434557.982966223207768, 439815.57880061067408 ], [ 434557.890701348951552, 439815.607459779479541 ], [ 434538.214329134498257, 439821.893445911235176 ], [ 434537.897872132249177, 439822.004381602513604 ], [ 434529.645016084890813, 439825.159095664625056 ], [ 434529.154895005573053, 439825.371919791039545 ], [ 434528.685651873704046, 439825.62750473653432 ], [ 434528.241008214652538, 439825.923823479795828 ], [ 434520.363570215238724, 439831.696063548442908 ], [ 434519.886763579852413, 439832.084523356636055 ], [ 434519.452227690024301, 439832.519752205116674 ], [ 434519.064528137037996, 439832.997177221986931 ], [ 434512.784557102771942, 439841.59622724953806 ], [ 434512.481759368558414, 439842.053319288766943 ], [ 434512.221951945568435, 439842.536144001409411 ], [ 434512.007304367143661, 439843.040669538197108 ], [ 434508.296016646840144, 439853.004974068026058 ], [ 434508.128683874267153, 439853.525652757205535 ], [ 434508.009457342326641, 439854.059405123232864 ], [ 434507.939327646454331, 439854.601796476345044 ], [ 434507.058745780319441, 439865.187800569983665 ], [ 434507.038317614467815, 439865.73694324225653 ], [ 434507.068216740037315, 439866.285651750280522 ], [ 434507.14819235727191, 439866.829323420592118 ], [ 434509.176313527510501, 439877.269867286842782 ], [ 434509.38646601815708, 439878.059751270804554 ], [ 434517.351427999150474, 439901.450882550445385 ], [ 434517.65986703831004, 439902.190625264949631 ], [ 434521.32884582108818, 439909.561212410742883 ], [ 434521.638190972036682, 439910.108705181686673 ], [ 434522.003139387525152, 439910.620813969697338 ], [ 434525.952945025754161, 439915.590135726437438 ], [ 434526.383633458521217, 439916.075588222418446 ], [ 434531.54854209034238, 439921.298659434367437 ], [ 434531.948191419709474, 439921.667735826864373 ], [ 434532.379626674402971, 439921.99909754912369 ], [ 434532.839301253203303, 439922.290020651649684 ], [ 434544.958067392522935, 439929.211129114846699 ], [ 434545.48480277339695, 439929.478466813859995 ], [ 434546.035272770153824, 439929.692715243145358 ], [ 434546.604142111260444, 439929.851797861629166 ], [ 434560.218076542951167, 439932.945306093897671 ], [ 434560.802108671050519, 439933.047966599231586 ], [ 434561.393422159890179, 439933.092475744546391 ], [ 434561.986241310369223, 439933.078398783341981 ], [ 434575.913403931655921, 439932.057427943567745 ], [ 434576.780324893188663, 439931.929715559002943 ], [ 434593.810844531399198, 439928.132922257238533 ], [ 434603.536244007991627, 439926.540466372098308 ], [ 434611.920026158040855, 439925.881627619906794 ], [ 434697.089039559592493, 439923.913369850255549 ], [ 434697.772554419701919, 439923.858378627919592 ], [ 434698.44533086521551, 439923.725757163483649 ], [ 434711.225003080500755, 439920.437989001045935 ], [ 434711.698386923642829, 439920.295166032679845 ], [ 434712.158403251552954, 439920.113849620509427 ], [ 434712.601927905983757, 439919.895271158195101 ], [ 434724.180479110043962, 439913.5833293821197 ], [ 434724.645043597032782, 439913.302085138100665 ], [ 434725.082275663386099, 439912.979987936152611 ], [ 434725.488593425252475, 439912.619676454516593 ], [ 434725.8606682542013, 439912.224102429812774 ], [ 434745.123911165457685, 439889.791153624188155 ], [ 434745.406187566928566, 439889.436113063828088 ], [ 434745.660836753610056, 439889.06076314963866 ], [ 434748.849741521989927, 439883.955070990370587 ], [ 434749.123794518178329, 439883.467002680583391 ], [ 434749.351172114664223, 439882.955519398034085 ], [ 434749.828652799711563, 439881.730450768547598 ] ], [ [ 434737.811528363614343, 439878.975587635941338 ], [ 434735.723724783340003, 439882.318328527966514 ], [ 434717.472276427550241, 439903.572995173628442 ], [ 434707.512986231653485, 439909.002211553102825 ], [ 434696.122873958083801, 439911.932493947562762 ], [ 434611.476828416460194, 439913.888665918493643 ], [ 434611.145391300495248, 439913.905505733098835 ], [ 434602.345115980424453, 439914.597074562916532 ], [ 434601.845635917619802, 439914.657485341653228 ], [ 434591.702812349598389, 439916.318291061907075 ], [ 434591.36676151183201, 439916.38320872222539 ], [ 434574.597927640890703, 439920.121661656885408 ], [ 434562.00292563252151, 439921.044974619231652 ], [ 434550.133840010210406, 439918.34795016492717 ], [ 434539.503674397186842, 439912.276991426711902 ], [ 434535.144780616217759, 439907.86901168373879 ], [ 434531.790076787467115, 439903.648398253426421 ], [ 434528.581466184463352, 439897.202641691139434 ], [ 434520.878004794591106, 439874.579473230580334 ], [ 434519.086231338442303, 439865.355621301976498 ], [ 434519.829568258603103, 439856.419521227478981 ], [ 434522.963653268408962, 439848.004927745671012 ], [ 434528.2066872594296, 439840.825736736878753 ], [ 434534.683134519669693, 439836.080081057851203 ], [ 434542.025908070325386, 439833.273252628743649 ], [ 434561.496484073926695, 439827.053011956217233 ], [ 434614.221952546271496, 439811.13982081215363 ], [ 434621.142843156587332, 439809.923330693971366 ], [ 434627.52296001027571, 439810.805413008551113 ], [ 434633.324387272063177, 439813.602820439147763 ], [ 434638.149598922813311, 439818.193538089282811 ], [ 434654.0749830189161, 439842.817940716340672 ], [ 434654.37941040948499, 439843.246281268075109 ], [ 434654.720149787084665, 439843.64634168962948 ], [ 434659.556261001678649, 439848.844868131098337 ], [ 434659.951225242286455, 439849.232008068880532 ], [ 434660.380158849817235, 439849.581135614484083 ], [ 434660.839417388953734, 439849.889284404926002 ], [ 434666.916893309680745, 439853.572666040039621 ], [ 434667.407355158124119, 439853.839540218061302 ], [ 434667.920501966553275, 439854.059665193257388 ], [ 434668.451889674703125, 439854.231134593777824 ], [ 434675.305918364378158, 439856.095516655652318 ], [ 434676.008502894605044, 439856.242141730326694 ], [ 434676.723568709508982, 439856.303824913164135 ], [ 434705.451170412299689, 439857.05675815383438 ], [ 434709.408696252328809, 439857.519744596735109 ], [ 434712.671039757085964, 439858.771885357215069 ], [ 434715.907964414800517, 439861.066253670083825 ], [ 434733.165364566841163, 439875.848460212233476 ], [ 434733.759569750633091, 439876.296656261605676 ], [ 434737.811528363614343, 439878.975587635941338 ] ] ] } },
{ "type": "Feature", "properties": { "highway": "residential", "name": "Avon Close", "osm_type": "way", "osm_id": 189058459, "maxspeed": "20 mph", "maxspeed:type": null, "source": "bing", "surface": "asphalt", "source:name": "OS_OpenData_Locator", "bicycle": "yes", "cycleway": "no", "foot": "yes", "lanes": "2", "oneway": "no", "sidewalk": "both", "postal_code": null, "source_ref": null }, "geometry": { "type": "Polygon", "coordinates": [ [ [ 434695.287550748093054, 439693.911777839181013 ], [ 434695.321162901935168, 439694.570459831389599 ], [ 434695.426866959431209, 439695.221473192214034 ], [ 434695.603385687456466, 439695.856951659545302 ], [ 434704.429104615992401, 439721.969664765172638 ], [ 434704.641220477467868, 439722.509654287423473 ], [ 434704.904496786301024, 439723.026633405068424 ], [ 434712.205609242722858, 439735.796270849532448 ], [ 434713.223418589157518, 439742.550638665037695 ], [ 434725.089452653715853, 439740.762557129317429 ], [ 434723.90441183472285, 439732.898410866677295 ], [ 434723.796528374194168, 439732.354460372007452 ], [ 434723.638885169406421, 439731.822793557483237 ], [ 434723.432828847900964, 439731.307952053670306 ], [ 434723.18011959415162, 439730.81433376512723 ], [ 434715.610923044965602, 439717.575817545061 ], [ 434707.291454185382463, 439692.960949874657672 ], [ 434707.326124752871692, 439684.302249356289394 ], [ 434695.326220950111747, 439684.254200174589641 ], [ 434695.287550748093054, 439693.911777839181013 ] ] ] } },
{ "type": "Feature", "properties": { "highway": "residential", "name": "Avon Court", "osm_type": "way", "osm_id": 189058460, "maxspeed": "20 mph", "maxspeed:type": null, "source": "bing", "surface": null, "source:name": "OS_OpenData_Locator", "bicycle": null, "cycleway": null, "foot": null, "lanes": null, "oneway": null, "sidewalk": null, "postal_code": null, "source_ref": null }, "geometry": { "type": "Polygon", "coordinates": [ [ [ 434051.869554966513533, 439992.286969412700273 ], [ 434048.610087255889084, 439982.833088186220266 ], [ 434014.475976447109133, 439994.601697220699862 ], [ 434017.735444157733582, 440004.055578447179869 ], [ 434051.869554966513533, 439992.286969412700273 ] ] ] } },
{ "type": "Feature", "properties": { "highway": "residential", "name": "Avon Court", "osm_type": "way", "osm_id": 189058461, "maxspeed": "20 mph", "maxspeed:type": null, "source": "bing", "surface": null, "source:name": "OS_OpenData_Locator", "bicycle": null, "cycleway": null, "foot": null, "lanes": null, "oneway": null, "sidewalk": null, "postal_code": null, "source_ref": null }, "geometry": { "type": "Polygon", "coordinates": [ [ [ 434027.924561580468435, 440024.35192346398253 ], [ 434020.938197203970049, 439998.045255448902026 ], [ 434020.924932086607441, 439997.996308522240724 ], [ 434011.823035977664404, 439965.073475089797284 ], [ 434002.184592409292236, 439967.738133713195566 ], [ 434011.279731847054791, 440000.636527319264133 ], [ 434018.278087466955185, 440026.988347525475547 ], [ 434018.317086990515236, 440027.127103937149514 ], [ 434036.455821132811252, 440088.265857317892369 ], [ 434046.042795888788532, 440085.421579724468756 ], [ 434027.924561580468435, 440024.35192346398253 ] ] ] } },
{ "type": "Feature", "properties": { "highway": "residential", "name": "Avon Court", "osm_type": "way", "osm_id": 189058463, "maxspeed": "20 mph", "maxspeed:type": null, "source": "bing", "surface": null, "source:name": "OS_OpenData_Locator", "bicycle": null, "cycleway": null, "foot": null, "lanes": null, "oneway": null, "sidewalk": null, "postal_code": null, "source_ref": null }, "geometry": { "type": "Polygon", "coordinates": [ [ [ 434039.870259934396017, 439953.407969934283756 ], [ 434041.540633630356751, 439956.744758736982476 ], [ 434045.274794367782306, 439988.150375677854754 ], [ 434045.373409085150342, 439988.70808541518636 ], [ 434054.805162755073979, 440028.687646403675899 ], [ 434054.811805243662093, 440028.71544694021577 ], [ 434064.531434483942576, 440068.886277220270131 ], [ 434074.250973558868282, 440066.534562915738206 ], [ 434064.534705295984168, 440026.377623417938594 ], [ 434055.171359144500457, 439986.688029984827153 ], [ 434051.367593830334954, 439954.697013852884993 ], [ 434051.298086070630234, 439954.270555007329676 ], [ 434051.192018873582128, 439953.851689604867715 ], [ 434051.050184342660941, 439953.443545706861187 ], [ 434050.873641689424403, 439953.04917130706599 ], [ 434048.481025725021027, 439948.269609596871305 ], [ 434048.240597462921869, 439947.842910366307478 ], [ 434047.95957564440323, 439947.441781060304493 ], [ 434047.640656707459129, 439947.07007056241855 ], [ 434041.954671713348944, 439941.064902404905297 ], [ 434034.693260543455835, 439947.940359322237782 ], [ 434039.870259934396017, 439953.407969934283756 ] ] ] } },
{ "type": "Feature", "properties": { "highway": "residential", "name": "Charville Gardens", "osm_type": "way", "osm_id": 189058469, "maxspeed": null, "maxspeed:type": null, "source": "bing", "surface": "asphalt", "source:name": "OS_OpenData_Locator", "bicycle": null, "cycleway": null, "foot": null, "lanes": null, "oneway": null, "sidewalk": null, "postal_code": null, "source_ref": null }, "geometry": { "type": "Polygon", "coordinates": [ [ [ 434786.229048869456165, 439370.471237922611181 ], [ 434785.739377767313272, 439380.459241837903392 ], [ 434857.168444978364278, 439383.961117724131327 ], [ 434857.65811608050717, 439373.973113808839116 ], [ 434786.229048869456165, 439370.471237922611181 ] ] ] } },
{ "type": "Feature", "properties": { "highway": "residential", "name": "Charville Gardens", "osm_type": "way", "osm_id": 189058470, "maxspeed": null, "maxspeed:type": null, "source": "bing", "surface": null, "source:name": "OS_OpenData_Locator", "bicycle": null, "cycleway": null, "foot": null, "lanes": null, "oneway": null, "sidewalk": null, "postal_code": null, "source_ref": null }, "geometry": { "type": "Polygon", "coordinates": [ [ [ 434790.953519147471525, 439376.018412165343761 ], [ 434790.983052406169008, 439375.357500497950241 ], [ 434790.860729926032946, 439369.682041979162022 ], [ 434780.863051750464365, 439369.897520743776113 ], [ 434780.978230853856076, 439375.241544366348535 ], [ 434780.458004527434241, 439379.91488716728054 ], [ 434790.396616185607854, 439381.02123173745349 ], [ 434790.953519147471525, 439376.018412165343761 ] ] ] } },
{ "type": "Feature", "properties": { "highway": "residential", "name": "Hastings Court", "osm_type": "way", "osm_id": 189058473, "maxspeed": "20 mph", "maxspeed:type": null, "source": "bing", "surface": "asphalt", "source:name": "OS_OpenData_Locator", "bicycle": "yes", "cycleway": "no", "foot": "yes", "lanes": "2", "oneway": "no", "sidewalk": "both", "postal_code": null, "source_ref": null }, "geometry": { "type": "Polygon", "coordinates": [ [ [ 434480.536750879196916, 439687.476793355948757 ], [ 434479.898797873815056, 439684.5993108387338 ], [ 434480.924585496191867, 439681.246840898355003 ], [ 434485.887832693115342, 439678.27755650121253 ], [ 434485.921073320612777, 439678.257523881911766 ], [ 434492.476380068808794, 439674.277979827660602 ], [ 434492.971222767781001, 439673.942747352994047 ], [ 434493.430256636405829, 439673.5599445104599 ], [ 434493.848926399718039, 439673.133370087714866 ], [ 434494.223077340517193, 439672.667257244815119 ], [ 434494.548996529250871, 439672.166231505747419 ], [ 434494.823449669580441, 439671.635264856566209 ], [ 434495.043713194550946, 439671.079626405437011 ], [ 434495.207601293921471, 439670.504830093937926 ], [ 434498.3668524386012, 439656.884725266951136 ], [ 434501.846858558245003, 439651.03112591028912 ], [ 434505.771287515526637, 439645.521651170623954 ], [ 434495.997339941561222, 439638.559614915226121 ], [ 434491.929122018860653, 439644.270953844941687 ], [ 434491.658682161767501, 439644.685853171278723 ], [ 434487.575373422878329, 439651.554247244494036 ], [ 434487.287919634545688, 439652.099767179810442 ], [ 434487.05797297519166, 439652.671908957825508 ], [ 434486.887962075532414, 439653.264629781013355 ], [ 434484.088966169278137, 439665.331608918786515 ], [ 434479.71045371243963, 439667.989681818115059 ], [ 434472.782382711826358, 439672.134430670645088 ], [ 434472.259890669200104, 439672.485492002044339 ], [ 434471.777054251986556, 439672.88936201488832 ], [ 434471.339187906531151, 439673.34159542422276 ], [ 434470.951111105969176, 439673.837214622704778 ], [ 434470.617095303721726, 439674.370764467515983 ], [ 434470.340816918876953, 439674.936372323776595 ], [ 434470.125316870922688, 439675.527812703163363 ], [ 434467.961522511672229, 439682.59950609121006 ], [ 434467.811403672210872, 439683.198850358137861 ], [ 434467.723717242944986, 439683.810455055965576 ], [ 434467.6993930634344, 439684.427834639791399 ], [ 434467.738689070858527, 439685.044442327111028 ], [ 434467.841188564547338, 439685.653739520639647 ], [ 434469.331111537409015, 439692.374026548524853 ], [ 434469.478005757846404, 439692.915432586916722 ], [ 434469.674822236702312, 439693.440753140544984 ], [ 434469.919840478687547, 439693.945396055351011 ], [ 434470.210918626689818, 439694.424949933600146 ], [ 434470.545512185548432, 439694.875222696224228 ], [ 434470.920696264656726, 439695.292278228735086 ], [ 434471.333191146375611, 439695.672470789111685 ], [ 434471.77939095615875, 439696.012476877484005 ], [ 434482.755887489067391, 439703.592600093164947 ], [ 434489.574854505248368, 439693.718305747082923 ], [ 434480.536750879196916, 439687.476793355948757 ] ] ] } },
{ "type": "Feature", "properties": { "highway": "residential", "name": null, "osm_type": "way", "osm_id": 702066177, "maxspeed": null, "maxspeed:type": null, "source": null, "surface": null, "source:name": null, "bicycle": null, "cycleway": null, "foot": null, "lanes": null, "oneway": null, "sidewalk": null, "postal_code": null, "source_ref": null }, "geometry": { "type": "Polygon", "coordinates": [ [ [ 434411.867961941228714, 439784.679538421798497 ], [ 434410.331865090120118, 439774.79822239279747 ], [ 434374.655553695745766, 439780.344272072077729 ], [ 434376.191650546854362, 439790.225588101078756 ], [ 434411.867961941228714, 439784.679538421798497 ] ] ] } },
{ "type": "Feature", "properties": { "highway": "tertiary", "name": "Main Street", "osm_type": "way", "osm_id": 847224272, "maxspeed": "20 mph", "maxspeed:type": null, "source": "local_knowledge", "surface": "asphalt", "source:name": null, "bicycle": "yes", "cycleway": null, "foot": "yes", "lanes": "2", "oneway": "no", "sidewalk": "both", "postal_code": "LS17", "source_ref": "npe" }, "geometry": { "type": "Polygon", "coordinates": [ [ [ 434985.369320550234988, 439622.668903642392252 ], [ 435020.379524158197455, 439618.402162942686118 ], [ 435020.497518223768566, 439618.386763954360504 ], [ 435048.723349489155225, 439614.458835817931686 ], [ 435048.75114081823267, 439614.454911544802599 ], [ 435075.999551180982962, 439610.551568858034443 ], [ 435110.711699955340009, 439606.220655206067022 ], [ 435119.370772483351175, 439606.325223627383821 ], [ 435124.81905517319683, 439607.311781783064362 ], [ 435128.844643218617421, 439609.109982957597822 ], [ 435136.82499027083395, 439616.963955396320671 ], [ 435144.697651339345612, 439628.030140977236442 ], [ 435181.968227070989087, 439680.394845714326948 ], [ 435182.234484273823909, 439680.745090499985963 ], [ 435223.572777844558004, 439731.71524625911843 ], [ 435224.02332424710039, 439732.218978199991398 ], [ 435224.520347578800283, 439732.676914589479566 ], [ 435239.713372820522636, 439745.375409826403484 ], [ 435240.209639281092677, 439745.753929788887035 ], [ 435240.737649712071288, 439746.086740165308584 ], [ 435251.683468102943152, 439752.322139685449656 ], [ 435252.244456102373078, 439752.609073646424804 ], [ 435252.828973699186463, 439752.844398554880172 ], [ 435253.432284647016786, 439753.026207613176666 ], [ 435266.131007366930135, 439756.237276475294493 ], [ 435269.563098805840127, 439742.664482055814005 ], [ 435257.786624586908147, 439739.686618021456525 ], [ 435248.211319999652915, 439734.231945972598623 ], [ 435234.018996497150511, 439722.369848100002855 ], [ 435193.246536712802481, 439672.09736594412243 ], [ 435156.104933424270712, 439619.913866213639267 ], [ 435147.876687626936473, 439608.347853882354684 ], [ 435147.500186448043678, 439607.864839897316415 ], [ 435147.082908570475411, 439607.416582359350286 ], [ 435137.763866837834939, 439598.245114446384832 ], [ 435137.299209849734325, 439597.826975680189207 ], [ 435136.799103176163044, 439597.451956401404459 ], [ 435136.267534873331897, 439597.123047167959157 ], [ 435135.708743885450531, 439596.842870837310329 ], [ 435129.755193005490582, 439594.183462556102313 ], [ 435128.966316141712014, 439593.886653904104605 ], [ 435128.147484301007353, 439593.686812720145099 ], [ 435121.288586623966694, 439592.444824771373533 ], [ 435120.709552353597246, 439592.364778234215919 ], [ 435120.125858426734339, 439592.333321372978389 ], [ 435110.403348153515253, 439592.215910697937943 ], [ 435109.452174920763355, 439592.26925576874055 ], [ 435074.203195656707976, 439596.667147887288593 ], [ 435074.077222714782692, 439596.68402790336404 ], [ 435046.779794236237649, 439600.594392449420411 ], [ 435018.626794156734832, 439604.51218534266809 ], [ 434983.674881149665453, 439608.771822088281624 ], [ 434932.661521390778944, 439615.000388920831028 ], [ 434934.358275821316056, 439628.89718799124239 ], [ 434985.369320550234988, 439622.668903642392252 ] ] ] } },
{ "type": "Feature", "properties": { "highway": "residential", "name": "Hastings Court", "osm_type": "way", "osm_id": 974138047, "maxspeed": "20 mph", "maxspeed:type": null, "source": "bing", "surface": "asphalt", "source:name": "OS_OpenData_Locator", "bicycle": "yes", "cycleway": "no", "foot": "yes", "lanes": "2", "oneway": "no", "sidewalk": "both", "postal_code": null, "source_ref": null }, "geometry": { "type": "Polygon", "coordinates": [ [ [ 434509.082016727887094, 439636.334429362148512 ], [ 434508.570673624111805, 439636.134345741418656 ], [ 434508.043180169770494, 439635.981846952287015 ], [ 434507.503954199084546, 439635.878210194176063 ], [ 434506.957511807850096, 439635.824303440109361 ], [ 434506.408429530391004, 439635.820578166865744 ], [ 434503.717079198511783, 439635.925565646437462 ], [ 434502.656485004059505, 439634.570740752969868 ], [ 434493.207428563211579, 439641.967722054687329 ], [ 434496.159785508119967, 439645.739123693783768 ], [ 434496.530102121643722, 439646.168688430392649 ], [ 434496.939323646947742, 439646.561368962633424 ], [ 434497.383793686807621, 439646.913656687189359 ], [ 434497.859540898236446, 439647.22240391059313 ], [ 434498.362314476515166, 439647.484851974295452 ], [ 434498.887622136157006, 439647.69865590299014 ], [ 434499.430770249455236, 439647.861905356985517 ], [ 434499.986905784055125, 439647.973141701251734 ], [ 434500.551059665100183, 439648.031371038290672 ], [ 434501.118191173591185, 439648.03607308852952 ], [ 434505.479539705615025, 439647.865940280258656 ], [ 434507.913953598355874, 439648.9494333108305 ], [ 434512.793373103253543, 439637.986255610187072 ], [ 434509.082016727887094, 439636.334429362148512 ] ] ] } },
{ "type": "Feature", "properties": { "highway": "tertiary", "name": "Main Street", "osm_type": "way", "osm_id": 1169372195, "maxspeed": "20 mph", "maxspeed:type": null, "source": "local_knowledge", "surface": "asphalt", "source:name": null, "bicycle": "yes", "cycleway": null, "foot": "yes", "lanes": "2", "oneway": "no", "sidewalk": "both", "postal_code": "LS17", "source_ref": "npe" }, "geometry": { "type": "Polygon", "coordinates": [ [ [ 434934.260514502646402, 439628.908427511050832 ], [ 434932.759282709448598, 439614.989149401022587 ], [ 434894.065098973922431, 439619.16242177732056 ], [ 434895.566330767120235, 439633.081699887348805 ], [ 434934.260514502646402, 439628.908427511050832 ] ] ] } },
{ "type": "Feature", "properties": { "highway": "unclassified", "name": "Gateland Lane", "osm_type": "way", "osm_id": 1525901990, "maxspeed": "20 mph", "maxspeed:type": null, "source": null, "surface": null, "source:name": null, "bicycle": null, "cycleway": null, "foot": null, "lanes": null, "oneway": null, "sidewalk": null, "postal_code": null, "source_ref": null }, "geometry": { "type": "Polygon", "coordinates": [ [ [ 434366.061658067395911, 439747.950999550055712 ], [ 434366.606944864674006, 439768.775819940608926 ], [ 434366.644788501958828, 439769.272639433620498 ], [ 434366.731891671253834, 439769.763225600821897 ], [ 434370.550085453724023, 439786.40244335931493 ], [ 434375.305089664645493, 439807.154244685429148 ], [ 434375.425520302960649, 439807.588789935573004 ], [ 434387.572270135045983, 439844.80733132106252 ], [ 434397.078795133740641, 439841.704754577483982 ], [ 434385.002067956607789, 439804.700767794332933 ], [ 434380.297295258962549, 439784.168186964932829 ], [ 434376.59042752685491, 439768.014113292214461 ], [ 434376.043449356686324, 439747.124698383966461 ], [ 434375.997180084581487, 439746.564546005334705 ], [ 434375.888334834366105, 439746.013125798606779 ], [ 434358.684069164970424, 439678.949486143479589 ], [ 434348.997724579006899, 439681.434386254462879 ], [ 434366.061658067395911, 439747.950999550055712 ] ] ] } }
]
}
