{
"type": "FeatureCollection",
"name": "se2727_rgb_250_03_original",
"crs": { "type": "name", "properties": { "name": "urn:ogc:def:crs:EPSG::27700" } },
"features": [
{ "type": "Feature", "properties": { }, "geometry": { "type": "Polygon", "coordinates": [ [ [ 427313.75, 428000.0 ], [ 427313.75, 427999.0 ], [ 427314.0, 427999.0 ], [ 427314.0, 427997.25 ], [ 427314.25, 427997.25 ], [ 427314.25, 427996.75 ], [ 427314.5, 427996.75 ], [ 427314.5, 427996.5 ], [ 427314.75, 427996.5 ], [ 427314.75, 427996.75 ], [ 427315.75, 427996.75 ], [ 427315.75, 427996.5 ], [ 427316.0, 427996.5 ], [ 427316.0, 427996.0 ], [ 427316.25, 427996.0 ], [ 427316.25, 427995.75 ], [ 427316.5, 427995.75 ], [ 427316.5, 427996.0 ], [ 427316.75, 427996.0 ], [ 427316.75, 427996.25 ], [ 427317.0, 427996.25 ], [ 427317.0, 427996.5 ], [ 427317.25, 427996.5 ], [ 427317.25, 427997.0 ], [ 427317.5, 427997.0 ], [ 427317.5, 427997.75 ], [ 427317.25, 427997.75 ], [ 427317.25, 427998.0 ], [ 427317.0, 427998.0 ], [ 427317.0, 427998.25 ], [ 427316.75, 427998.25 ], [ 427316.75, 427999.0 ], [ 427317.0, 427999.0 ], [ 427317.0, 428000.0 ], [ 427313.75, 428000.0 ] ] ] } },
{ "type": "Feature", "properties": { }, "geometry": { "type": "Polygon", "coordinates": [ [ [ 427271.25, 428000.0 ], [ 427271.25, 427994.25 ], [ 427271.5, 427994.25 ], [ 427271.5, 427993.25 ], [ 427271.75, 427993.25 ], [ 427271.75, 427993.0 ], [ 427272.0, 427993.0 ], [ 427272.0, 427992.5 ], [ 427272.25, 427992.5 ], [ 427272.25, 427992.25 ], [ 427272.5, 427992.25 ], [ 427272.5, 427992.0 ], [ 427272.75, 427992.0 ], [ 427272.75, 427991.75 ], [ 427273.0, 427991.75 ], [ 427273.0, 427991.5 ], [ 427273.25, 427991.5 ], [ 427273.25, 427991.25 ], [ 427273.5, 427991.25 ], [ 427273.5, 427991.0 ], [ 427274.0, 427991.0 ], [ 427274.0, 427990.75 ], [ 427278.0, 427990.75 ], [ 427278.0, 427990.5 ], [ 427282.0, 427990.5 ], [ 427282.0, 427990.25 ], [ 427282.75, 427990.25 ], [ 427282.75, 427990.5 ], [ 427283.5, 427990.5 ], [ 427283.5, 427990.75 ], [ 427283.75, 427990.75 ], [ 427283.75, 427991.0 ], [ 427284.0, 427991.0 ], [ 427284.0, 427991.25 ], [ 427284.5, 427991.25 ], [ 427284.5, 427991.5 ], [ 427284.75, 427991.5 ], [ 427284.75, 427991.75 ], [ 427285.0, 427991.75 ], [ 427285.0, 427992.0 ], [ 427285.25, 427992.0 ], [ 427285.25, 427992.25 ], [ 427285.5, 427992.25 ], [ 427285.5, 427992.5 ], [ 427285.75, 427992.5 ], [ 427285.75, 427992.75 ], [ 427286.25, 427992.75 ], [ 427286.25, 427993.0 ], [ 427286.5, 427993.0 ], [ 427286.5, 427993.25 ], [ 427287.25, 427993.25 ], [ 427287.25, 427993.5 ], [ 427288.75, 427993.5 ], [ 427288.75, 427993.75 ], [ 427289.25, 427993.75 ], [ 427289.25, 427994.0 ], [ 427289.75, 427994.0 ], [ 427289.75, 427994.25 ], [ 427290.0, 427994.25 ], [ 427290.0, 427994.5 ], [ 427290.25, 427994.5 ], [ 427290.25, 427995.25 ], [ 427290.5, 427995.25 ], [ 427290.5, 427995.75 ], [ 427290.75, 427995.75 ], [ 427290.75, 427996.25 ], [ 427291.0, 427996.25 ], [ 427291.0, 427997.0 ], [ 427290.75, 427997.0 ], [ 427290.75, 427998.0 ], [ 427290.5, 427998.0 ], [ 427290.5, 427998.75 ], [ 427290.25, 427998.75 ], [ 427290.25, 427999.5 ], [ 427290.0, 427999.5 ], [ 427290.0, 428000.0 ], [ 427271.25, 428000.0 ] ] ] } },
{ "type": "Feature", "properties": { }, "geometry": { "type": "Polygon", "coordinates": [ [ [ 427804.0, 427878.25 ], [ 427804.0, 427878.0 ], [ 427803.75, 427878.0 ], [ 427803.75, 427877.75 ], [ 427803.5, 427877.75 ], [ 427803.5, 427877.5 ], [ 427803.25, 427877.5 ], [ 427803.25, 427875.75 ], [ 427803.0, 427875.75 ], [ 427803.0, 427872.0 ], [ 427808.5, 427872.0 ], [ 427808.5, 427874.5 ], [ 427808.25, 427874.5 ], [ 427808.25, 427874.75 ], [ 427808.0, 427874.75 ], [ 427808.0, 427875.5 ], [ 427807.75, 427875.5 ], [ 427807.75, 427875.75 ], [ 427807.5, 427875.75 ], [ 427807.5, 427876.0 ], [ 427807.25, 427876.0 ], [ 427807.25, 427876.25 ], [ 427807.0, 427876.25 ], [ 427807.0, 427876.5 ], [ 427806.5, 427876.5 ], [ 427806.5, 427876.75 ], [ 427806.25, 427876.75 ], [ 427806.25, 427877.0 ], [ 427806.0, 427877.0 ], [ 427806.0, 427877.25 ], [ 427805.75, 427877.25 ], [ 427805.75, 427877.5 ], [ 427805.5, 427877.5 ], [ 427805.5, 427877.75 ], [ 427805.25, 427877.75 ], [ 427805.25, 427878.0 ], [ 427804.75, 427878.0 ], [ 427804.75, 427878.25 ], [ 427804.0, 427878.25 ] ] ] } },
{ "type": "Feature", "properties": { }, "geometry": { "type": "Polygon", "coordinates": [ [ [ 427768.0, 427872.0 ], [ 427768.0, 427866.0 ], [ 427771.5, 427866.0 ], [ 427771.5, 427866.25 ], [ 427771.75, 427866.25 ], [ 427771.75, 427866.75 ], [ 427772.0, 427866.75 ], [ 427772.0, 427867.75 ], [ 427772.25, 427867.75 ], [ 427772.25, 427870.5 ], [ 427772.5, 427870.5 ], [ 427772.5, 427872.0 ], [ 427768.0, 427872.0 ] ] ] } },
{ "type": "Feature", "properties": { }, "geometry": { "type": "Polygon", "coordinates": [ [ [ 427830.5, 427770.5 ], [ 427830.5, 427770.25 ], [ 427830.25, 427770.25 ], [ 427830.25, 427769.75 ], [ 427830.0, 427769.75 ], [ 427830.0, 427768.75 ], [ 427829.75, 427768.75 ], [ 427829.75, 427768.0 ], [ 427829.5, 427768.0 ], [ 427829.5, 427766.75 ], [ 427829.25, 427766.75 ], [ 427829.25, 427765.25 ], [ 427829.5, 427765.25 ], [ 427829.5, 427764.5 ], [ 427830.0, 427764.5 ], [ 427830.0, 427764.25 ], [ 427830.75, 427764.25 ], [ 427830.75, 427764.0 ], [ 427831.75, 427764.0 ], [ 427831.75, 427763.75 ], [ 427833.75, 427763.75 ], [ 427833.75, 427763.5 ], [ 427835.75, 427763.5 ], [ 427835.75, 427763.75 ], [ 427836.25, 427763.75 ], [ 427836.25, 427764.0 ], [ 427836.75, 427764.0 ], [ 427836.75, 427764.25 ], [ 427837.0, 427764.25 ], [ 427837.0, 427764.5 ], [ 427837.5, 427764.5 ], [ 427837.5, 427764.75 ], [ 427838.0, 427764.75 ], [ 427838.0, 427765.0 ], [ 427838.25, 427765.0 ], [ 427838.25, 427765.25 ], [ 427838.75, 427765.25 ], [ 427838.75, 427765.5 ], [ 427839.0, 427765.5 ], [ 427839.0, 427766.0 ], [ 427839.25, 427766.0 ], [ 427839.25, 427767.0 ], [ 427839.0, 427767.0 ], [ 427839.0, 427767.25 ], [ 427838.75, 427767.25 ], [ 427838.75, 427767.75 ], [ 427838.25, 427767.75 ], [ 427838.25, 427768.0 ], [ 427837.75, 427768.0 ], [ 427837.75, 427768.25 ], [ 427837.25, 427768.25 ], [ 427837.25, 427768.5 ], [ 427836.5, 427768.5 ], [ 427836.5, 427768.75 ], [ 427836.0, 427768.75 ], [ 427836.0, 427769.0 ], [ 427835.5, 427769.0 ], [ 427835.5, 427769.25 ], [ 427835.0, 427769.25 ], [ 427835.0, 427769.5 ], [ 427834.75, 427769.5 ], [ 427834.75, 427770.0 ], [ 427834.5, 427770.0 ], [ 427834.5, 427770.5 ], [ 427833.0, 427770.5 ], [ 427833.0, 427770.25 ], [ 427831.75, 427770.25 ], [ 427831.75, 427770.5 ], [ 427830.5, 427770.5 ] ] ] } },
{ "type": "Feature", "properties": { }, "geometry": { "type": "Polygon", "coordinates": [ [ [ 427253.25, 427684.75 ], [ 427253.25, 427684.5 ], [ 427252.5, 427684.5 ], [ 427252.5, 427684.25 ], [ 427251.75, 427684.25 ], [ 427251.75, 427684.0 ], [ 427251.0, 427684.0 ], [ 427251.0, 427683.75 ], [ 427250.0, 427683.75 ], [ 427250.0, 427683.5 ], [ 427249.25, 427683.5 ], [ 427249.25, 427683.25 ], [ 427249.0, 427683.25 ], [ 427249.0, 427683.0 ], [ 427248.5, 427683.0 ], [ 427248.5, 427682.75 ], [ 427248.0, 427682.75 ], [ 427248.0, 427682.5 ], [ 427247.5, 427682.5 ], [ 427247.5, 427682.25 ], [ 427247.25, 427682.25 ], [ 427247.25, 427682.0 ], [ 427247.0, 427682.0 ], [ 427247.0, 427681.75 ], [ 427246.75, 427681.75 ], [ 427246.75, 427681.5 ], [ 427246.5, 427681.5 ], [ 427246.5, 427681.0 ], [ 427246.25, 427681.0 ], [ 427246.25, 427680.5 ], [ 427246.0, 427680.5 ], [ 427246.0, 427680.0 ], [ 427245.75, 427680.0 ], [ 427245.75, 427679.75 ], [ 427245.5, 427679.75 ], [ 427245.5, 427679.5 ], [ 427245.25, 427679.5 ], [ 427245.25, 427678.75 ], [ 427245.0, 427678.75 ], [ 427245.0, 427677.5 ], [ 427245.25, 427677.5 ], [ 427245.25, 427677.0 ], [ 427245.5, 427677.0 ], [ 427245.5, 427676.75 ], [ 427245.75, 427676.75 ], [ 427245.75, 427676.5 ], [ 427246.0, 427676.5 ], [ 427246.0, 427676.25 ], [ 427246.25, 427676.25 ], [ 427246.25, 427676.0 ], [ 427246.5, 427676.0 ], [ 427246.5, 427675.75 ], [ 427246.75, 427675.75 ], [ 427246.75, 427675.5 ], [ 427247.0, 427675.5 ], [ 427247.0, 427675.25 ], [ 427247.25, 427675.25 ], [ 427247.25, 427675.0 ], [ 427247.5, 427675.0 ], [ 427247.5, 427674.75 ], [ 427247.75, 427674.75 ], [ 427247.75, 427674.25 ], [ 427248.0, 427674.25 ], [ 427248.0, 427673.75 ], [ 427248.25, 427673.75 ], [ 427248.25, 427673.25 ], [ 427248.5, 427673.25 ], [ 427248.5, 427672.25 ], [ 427248.75, 427672.25 ], [ 427248.75, 427671.75 ], [ 427249.0, 427671.75 ], [ 427249.0, 427671.0 ], [ 427249.25, 427671.0 ], [ 427249.25, 427670.5 ], [ 427249.5, 427670.5 ], [ 427249.5, 427670.25 ], [ 427250.0, 427670.25 ], [ 427250.0, 427670.0 ], [ 427250.5, 427670.0 ], [ 427250.5, 427669.75 ], [ 427250.75, 427669.75 ], [ 427250.75, 427669.5 ], [ 427251.0, 427669.5 ], [ 427251.0, 427669.25 ], [ 427251.5, 427669.25 ], [ 427251.5, 427669.0 ], [ 427252.0, 427669.0 ], [ 427252.0, 427668.75 ], [ 427252.25, 427668.75 ], [ 427252.25, 427668.5 ], [ 427252.5, 427668.5 ], [ 427252.5, 427668.25 ], [ 427253.0, 427668.25 ], [ 427253.0, 427668.0 ], [ 427253.25, 427668.0 ], [ 427253.25, 427667.75 ], [ 427253.75, 427667.75 ], [ 427253.75, 427667.5 ], [ 427254.25, 427667.5 ], [ 427254.25, 427667.25 ], [ 427256.0, 427667.25 ], [ 427256.0, 427684.75 ], [ 427253.25, 427684.75 ] ] ] } },
{ "type": "Feature", "properties": { }, "geometry": { "type": "Polygon", "coordinates": [ [ [ 427638.25, 427621.25 ], [ 427638.25, 427621.0 ], [ 427638.0, 427621.0 ], [ 427638.0, 427620.75 ], [ 427637.75, 427620.75 ], [ 427637.75, 427620.5 ], [ 427637.5, 427620.5 ], [ 427637.5, 427620.25 ], [ 427637.0, 427620.25 ], [ 427637.0, 427620.0 ], [ 427636.25, 427620.0 ], [ 427636.25, 427619.75 ], [ 427636.0, 427619.75 ], [ 427636.0, 427619.0 ], [ 427636.25, 427619.0 ], [ 427636.25, 427618.75 ], [ 427636.5, 427618.75 ], [ 427636.5, 427618.5 ], [ 427636.25, 427618.5 ], [ 427636.25, 427618.25 ], [ 427636.0, 427618.25 ], [ 427636.0, 427618.0 ], [ 427635.75, 427618.0 ], [ 427635.75, 427617.75 ], [ 427635.5, 427617.75 ], [ 427635.5, 427617.0 ], [ 427635.75, 427617.0 ], [ 427635.75, 427616.75 ], [ 427636.0, 427616.75 ], [ 427636.0, 427616.0 ], [ 427640.0, 427616.0 ], [ 427640.0, 427620.25 ], [ 427639.5, 427620.25 ], [ 427639.5, 427620.5 ], [ 427639.0, 427620.5 ], [ 427639.0, 427620.75 ], [ 427638.75, 427620.75 ], [ 427638.75, 427621.25 ], [ 427638.25, 427621.25 ] ] ] } },
{ "type": "Feature", "properties": { }, "geometry": { "type": "Polygon", "coordinates": [ [ [ 427203.75, 427616.0 ], [ 427203.75, 427613.25 ], [ 427204.0, 427613.25 ], [ 427204.0, 427612.25 ], [ 427204.25, 427612.25 ], [ 427204.25, 427611.5 ], [ 427204.5, 427611.5 ], [ 427204.5, 427610.5 ], [ 427204.75, 427610.5 ], [ 427204.75, 427609.75 ], [ 427205.0, 427609.75 ], [ 427205.0, 427609.0 ], [ 427205.25, 427609.0 ], [ 427205.25, 427608.5 ], [ 427205.5, 427608.5 ], [ 427205.5, 427608.0 ], [ 427205.75, 427608.0 ], [ 427205.75, 427607.75 ], [ 427206.0, 427607.75 ], [ 427206.0, 427607.5 ], [ 427206.25, 427607.5 ], [ 427206.25, 427607.25 ], [ 427206.5, 427607.25 ], [ 427206.5, 427607.0 ], [ 427206.75, 427607.0 ], [ 427206.75, 427606.75 ], [ 427207.0, 427606.75 ], [ 427207.0, 427606.25 ], [ 427207.25, 427606.25 ], [ 427207.25, 427606.0 ], [ 427207.5, 427606.0 ], [ 427207.5, 427605.75 ], [ 427207.75, 427605.75 ], [ 427207.75, 427605.5 ], [ 427208.0, 427605.5 ], [ 427208.0, 427605.25 ], [ 427208.25, 427605.25 ], [ 427208.25, 427605.0 ], [ 427208.5, 427605.0 ], [ 427208.5, 427604.75 ], [ 427209.0, 427604.75 ], [ 427209.0, 427604.5 ], [ 427209.5, 427604.5 ], [ 427209.5, 427604.25 ], [ 427210.25, 427604.25 ], [ 427210.25, 427604.0 ], [ 427211.75, 427604.0 ], [ 427211.75, 427604.25 ], [ 427212.75, 427604.25 ], [ 427212.75, 427604.0 ], [ 427213.0, 427604.0 ], [ 427213.0, 427603.75 ], [ 427213.5, 427603.75 ], [ 427213.5, 427603.5 ], [ 427213.75, 427603.5 ], [ 427213.75, 427603.25 ], [ 427214.25, 427603.25 ], [ 427214.25, 427603.0 ], [ 427214.75, 427603.0 ], [ 427214.75, 427602.75 ], [ 427215.25, 427602.75 ], [ 427215.25, 427602.5 ], [ 427215.5, 427602.5 ], [ 427215.5, 427602.25 ], [ 427216.25, 427602.25 ], [ 427216.25, 427602.0 ], [ 427216.75, 427602.0 ], [ 427216.75, 427601.75 ], [ 427217.5, 427601.75 ], [ 427217.5, 427601.5 ], [ 427218.25, 427601.5 ], [ 427218.25, 427601.25 ], [ 427219.0, 427601.25 ], [ 427219.0, 427601.0 ], [ 427219.75, 427601.0 ], [ 427219.75, 427600.75 ], [ 427220.25, 427600.75 ], [ 427220.25, 427600.5 ], [ 427220.75, 427600.5 ], [ 427220.75, 427600.25 ], [ 427221.25, 427600.25 ], [ 427221.25, 427600.0 ], [ 427222.0, 427600.0 ], [ 427222.0, 427600.25 ], [ 427223.0, 427600.25 ], [ 427223.0, 427600.0 ], [ 427223.75, 427600.0 ], [ 427223.75, 427599.75 ], [ 427226.75, 427599.75 ], [ 427226.75, 427600.0 ], [ 427227.25, 427600.0 ], [ 427227.25, 427600.25 ], [ 427227.5, 427600.25 ], [ 427227.5, 427600.5 ], [ 427227.75, 427600.5 ], [ 427227.75, 427600.75 ], [ 427228.0, 427600.75 ], [ 427228.0, 427601.0 ], [ 427228.25, 427601.0 ], [ 427228.25, 427601.25 ], [ 427228.5, 427601.25 ], [ 427228.5, 427601.5 ], [ 427228.75, 427601.5 ], [ 427228.75, 427602.0 ], [ 427229.0, 427602.0 ], [ 427229.0, 427602.5 ], [ 427229.25, 427602.5 ], [ 427229.25, 427602.75 ], [ 427229.5, 427602.75 ], [ 427229.5, 427603.0 ], [ 427229.75, 427603.0 ], [ 427229.75, 427603.25 ], [ 427230.0, 427603.25 ], [ 427230.0, 427603.75 ], [ 427230.25, 427603.75 ], [ 427230.25, 427604.0 ], [ 427230.5, 427604.0 ], [ 427230.5, 427604.25 ], [ 427230.75, 427604.25 ], [ 427230.75, 427604.75 ], [ 427231.0, 427604.75 ], [ 427231.0, 427605.25 ], [ 427231.25, 427605.25 ], [ 427231.25, 427605.75 ], [ 427231.5, 427605.75 ], [ 427231.5, 427606.25 ], [ 427231.75, 427606.25 ], [ 427231.75, 427607.0 ], [ 427232.0, 427607.0 ], [ 427232.0, 427607.5 ], [ 427232.25, 427607.5 ], [ 427232.25, 427608.25 ], [ 427232.5, 427608.25 ], [ 427232.5, 427609.0 ], [ 427232.75, 427609.0 ], [ 427232.75, 427609.75 ], [ 427233.0, 427609.75 ], [ 427233.0, 427610.75 ], [ 427233.25, 427610.75 ], [ 427233.25, 427611.5 ], [ 427233.5, 427611.5 ], [ 427233.5, 427612.0 ], [ 427233.75, 427612.0 ], [ 427233.75, 427612.5 ], [ 427234.0, 427612.5 ], [ 427234.0, 427613.0 ], [ 427234.25, 427613.0 ], [ 427234.25, 427613.75 ], [ 427234.5, 427613.75 ], [ 427234.5, 427614.25 ], [ 427234.75, 427614.25 ], [ 427234.75, 427614.75 ], [ 427235.0, 427614.75 ], [ 427235.0, 427615.0 ], [ 427235.25, 427615.0 ], [ 427235.25, 427615.25 ], [ 427235.5, 427615.25 ], [ 427235.5, 427616.0 ], [ 427203.75, 427616.0 ] ] ] } },
{ "type": "Feature", "properties": { }, "geometry": { "type": "Polygon", "coordinates": [ [ [ 427672.5, 427586.5 ], [ 427672.5, 427586.25 ], [ 427671.75, 427586.25 ], [ 427671.75, 427586.0 ], [ 427671.25, 427586.0 ], [ 427671.25, 427585.75 ], [ 427671.0, 427585.75 ], [ 427671.0, 427585.5 ], [ 427670.75, 427585.5 ], [ 427670.75, 427585.25 ], [ 427671.0, 427585.25 ], [ 427671.0, 427585.0 ], [ 427671.25, 427585.0 ], [ 427671.25, 427584.75 ], [ 427671.5, 427584.75 ], [ 427671.5, 427584.5 ], [ 427671.75, 427584.5 ], [ 427671.75, 427584.0 ], [ 427671.5, 427584.0 ], [ 427671.5, 427583.5 ], [ 427671.75, 427583.5 ], [ 427671.75, 427583.0 ], [ 427672.0, 427583.0 ], [ 427672.0, 427582.75 ], [ 427672.25, 427582.75 ], [ 427672.25, 427582.5 ], [ 427673.25, 427582.5 ], [ 427673.25, 427582.25 ], [ 427673.5, 427582.25 ], [ 427673.5, 427582.5 ], [ 427673.75, 427582.5 ], [ 427673.75, 427582.75 ], [ 427674.0, 427582.75 ], [ 427674.0, 427583.0 ], [ 427674.25, 427583.0 ], [ 427674.25, 427583.25 ], [ 427674.5, 427583.25 ], [ 427674.5, 427585.0 ], [ 427674.75, 427585.0 ], [ 427674.75, 427585.75 ], [ 427674.5, 427585.75 ], [ 427674.5, 427586.0 ], [ 427674.0, 427586.0 ], [ 427674.0, 427586.25 ], [ 427673.75, 427586.25 ], [ 427673.75, 427586.5 ], [ 427672.5, 427586.5 ] ] ] } },
{ "type": "Feature", "properties": { }, "geometry": { "type": "Polygon", "coordinates": [ [ [ 427253.5, 427464.25 ], [ 427253.5, 427464.0 ], [ 427250.5, 427464.0 ], [ 427250.5, 427463.75 ], [ 427250.0, 427463.75 ], [ 427250.0, 427463.5 ], [ 427249.75, 427463.5 ], [ 427249.75, 427463.25 ], [ 427249.5, 427463.25 ], [ 427249.5, 427463.0 ], [ 427249.0, 427463.0 ], [ 427249.0, 427462.75 ], [ 427248.5, 427462.75 ], [ 427248.5, 427462.5 ], [ 427248.25, 427462.5 ], [ 427248.25, 427461.75 ], [ 427248.0, 427461.75 ], [ 427248.0, 427460.5 ], [ 427248.25, 427460.5 ], [ 427248.25, 427459.0 ], [ 427248.5, 427459.0 ], [ 427248.5, 427458.0 ], [ 427248.75, 427458.0 ], [ 427248.75, 427457.25 ], [ 427249.0, 427457.25 ], [ 427249.0, 427456.75 ], [ 427249.25, 427456.75 ], [ 427249.25, 427456.5 ], [ 427249.5, 427456.5 ], [ 427249.5, 427456.25 ], [ 427249.75, 427456.25 ], [ 427249.75, 427456.0 ], [ 427250.0, 427456.0 ], [ 427250.0, 427455.75 ], [ 427250.25, 427455.75 ], [ 427250.25, 427455.5 ], [ 427250.5, 427455.5 ], [ 427250.5, 427455.25 ], [ 427251.0, 427455.25 ], [ 427251.0, 427455.0 ], [ 427251.5, 427455.0 ], [ 427251.5, 427454.75 ], [ 427251.75, 427454.75 ], [ 427251.75, 427454.5 ], [ 427252.0, 427454.5 ], [ 427252.0, 427454.25 ], [ 427252.25, 427454.25 ], [ 427252.25, 427454.0 ], [ 427252.5, 427454.0 ], [ 427252.5, 427453.75 ], [ 427252.75, 427453.75 ], [ 427252.75, 427453.5 ], [ 427253.0, 427453.5 ], [ 427253.0, 427453.25 ], [ 427253.5, 427453.25 ], [ 427253.5, 427453.0 ], [ 427254.0, 427453.0 ], [ 427254.0, 427452.75 ], [ 427256.0, 427452.75 ], [ 427256.0, 427464.25 ], [ 427253.5, 427464.25 ] ] ] } },
{ "type": "Feature", "properties": { }, "geometry": { "type": "Polygon", "coordinates": [ [ [ 427420.75, 427420.25 ], [ 427420.75, 427420.0 ], [ 427419.75, 427420.0 ], [ 427419.75, 427419.75 ], [ 427418.75, 427419.75 ], [ 427418.75, 427419.5 ], [ 427418.25, 427419.5 ], [ 427418.25, 427419.25 ], [ 427417.75, 427419.25 ], [ 427417.75, 427419.0 ], [ 427417.25, 427419.0 ], [ 427417.25, 427418.75 ], [ 427416.75, 427418.75 ], [ 427416.75, 427418.5 ], [ 427416.25, 427418.5 ], [ 427416.25, 427418.0 ], [ 427416.0, 427418.0 ], [ 427416.0, 427417.75 ], [ 427415.5, 427417.75 ], [ 427415.5, 427417.25 ], [ 427415.25, 427417.25 ], [ 427415.25, 427416.75 ], [ 427415.0, 427416.75 ], [ 427415.0, 427416.5 ], [ 427414.75, 427416.5 ], [ 427414.75, 427416.25 ], [ 427414.5, 427416.25 ], [ 427414.5, 427416.0 ], [ 427414.0, 427416.0 ], [ 427414.0, 427415.75 ], [ 427413.75, 427415.75 ], [ 427413.75, 427415.5 ], [ 427413.5, 427415.5 ], [ 427413.5, 427415.25 ], [ 427413.0, 427415.25 ], [ 427413.0, 427415.0 ], [ 427412.25, 427415.0 ], [ 427412.25, 427414.75 ], [ 427411.5, 427414.75 ], [ 427411.5, 427414.5 ], [ 427410.25, 427414.5 ], [ 427410.25, 427414.0 ], [ 427410.0, 427414.0 ], [ 427410.0, 427413.75 ], [ 427409.75, 427413.75 ], [ 427409.75, 427413.25 ], [ 427409.5, 427413.25 ], [ 427409.5, 427412.75 ], [ 427409.25, 427412.75 ], [ 427409.25, 427411.75 ], [ 427409.0, 427411.75 ], [ 427409.0, 427411.0 ], [ 427408.75, 427411.0 ], [ 427408.75, 427410.0 ], [ 427409.0, 427410.0 ], [ 427409.0, 427409.75 ], [ 427409.25, 427409.75 ], [ 427409.25, 427409.5 ], [ 427410.25, 427409.5 ], [ 427410.25, 427409.25 ], [ 427410.5, 427409.25 ], [ 427410.5, 427409.5 ], [ 427411.0, 427409.5 ], [ 427411.0, 427409.75 ], [ 427411.25, 427409.75 ], [ 427411.25, 427410.25 ], [ 427411.5, 427410.25 ], [ 427411.5, 427410.5 ], [ 427412.0, 427410.5 ], [ 427412.0, 427410.75 ], [ 427412.75, 427410.75 ], [ 427412.75, 427411.0 ], [ 427413.75, 427411.0 ], [ 427413.75, 427411.5 ], [ 427414.25, 427411.5 ], [ 427414.25, 427411.75 ], [ 427415.5, 427411.75 ], [ 427415.5, 427411.5 ], [ 427416.0, 427411.5 ], [ 427416.0, 427411.25 ], [ 427416.25, 427411.25 ], [ 427416.25, 427411.0 ], [ 427416.5, 427411.0 ], [ 427416.5, 427410.75 ], [ 427418.25, 427410.75 ], [ 427418.25, 427410.5 ], [ 427418.75, 427410.5 ], [ 427418.75, 427410.0 ], [ 427419.0, 427410.0 ], [ 427419.0, 427409.75 ], [ 427419.5, 427409.75 ], [ 427419.5, 427409.5 ], [ 427420.5, 427409.5 ], [ 427420.5, 427409.75 ], [ 427422.0, 427409.75 ], [ 427422.0, 427410.0 ], [ 427422.75, 427410.0 ], [ 427422.75, 427410.25 ], [ 427423.0, 427410.25 ], [ 427423.0, 427410.5 ], [ 427423.25, 427410.5 ], [ 427423.25, 427410.75 ], [ 427423.5, 427410.75 ], [ 427423.5, 427411.25 ], [ 427423.75, 427411.25 ], [ 427423.75, 427411.5 ], [ 427424.0, 427411.5 ], [ 427424.0, 427412.0 ], [ 427424.25, 427412.0 ], [ 427424.25, 427413.25 ], [ 427424.0, 427413.25 ], [ 427424.0, 427415.25 ], [ 427424.25, 427415.25 ], [ 427424.25, 427418.5 ], [ 427424.0, 427418.5 ], [ 427424.0, 427419.0 ], [ 427423.75, 427419.0 ], [ 427423.75, 427419.25 ], [ 427423.5, 427419.25 ], [ 427423.5, 427419.5 ], [ 427423.25, 427419.5 ], [ 427423.25, 427419.75 ], [ 427423.0, 427419.75 ], [ 427423.0, 427420.0 ], [ 427422.5, 427420.0 ], [ 427422.5, 427420.25 ], [ 427420.75, 427420.25 ] ] ] } },
{ "type": "Feature", "properties": { }, "geometry": { "type": "Polygon", "coordinates": [ [ [ 427419.5, 427409.25 ], [ 427419.5, 427409.0 ], [ 427419.25, 427409.0 ], [ 427419.25, 427407.5 ], [ 427419.5, 427407.5 ], [ 427419.5, 427407.25 ], [ 427420.75, 427407.25 ], [ 427420.75, 427408.25 ], [ 427420.5, 427408.25 ], [ 427420.5, 427409.25 ], [ 427419.5, 427409.25 ] ] ] } },
{ "type": "Feature", "properties": { }, "geometry": { "type": "Polygon", "coordinates": [ [ [ 427418.0, 427406.75 ], [ 427418.0, 427406.5 ], [ 427417.75, 427406.5 ], [ 427417.75, 427405.0 ], [ 427418.0, 427405.0 ], [ 427418.0, 427404.75 ], [ 427418.25, 427404.75 ], [ 427418.25, 427404.5 ], [ 427418.5, 427404.5 ], [ 427418.5, 427404.75 ], [ 427418.75, 427404.75 ], [ 427418.75, 427406.25 ], [ 427419.0, 427406.25 ], [ 427419.0, 427406.75 ], [ 427418.0, 427406.75 ] ] ] } },
{ "type": "Feature", "properties": { }, "geometry": { "type": "Polygon", "coordinates": [ [ [ 427413.5, 427408.25 ], [ 427413.5, 427408.0 ], [ 427413.0, 427408.0 ], [ 427413.0, 427407.75 ], [ 427412.75, 427407.75 ], [ 427412.75, 427407.25 ], [ 427412.5, 427407.25 ], [ 427412.5, 427405.75 ], [ 427412.75, 427405.75 ], [ 427412.75, 427405.25 ], [ 427413.0, 427405.25 ], [ 427413.0, 427405.0 ], [ 427413.5, 427405.0 ], [ 427413.5, 427404.75 ], [ 427414.25, 427404.75 ], [ 427414.25, 427404.5 ], [ 427414.75, 427404.5 ], [ 427414.75, 427404.25 ], [ 427416.5, 427404.25 ], [ 427416.5, 427404.5 ], [ 427417.0, 427404.5 ], [ 427417.0, 427405.0 ], [ 427417.25, 427405.0 ], [ 427417.25, 427406.0 ], [ 427416.75, 427406.0 ], [ 427416.75, 427406.25 ], [ 427416.25, 427406.25 ], [ 427416.25, 427406.0 ], [ 427415.25, 427406.0 ], [ 427415.25, 427407.25 ], [ 427415.0, 427407.25 ], [ 427415.0, 427408.0 ], [ 427414.75, 427408.0 ], [ 427414.75, 427408.25 ], [ 427413.5, 427408.25 ] ] ] } },
{ "type": "Feature", "properties": { }, "geometry": { "type": "Polygon", "coordinates": [ [ [ 427432.25, 427413.75 ], [ 427432.25, 427413.5 ], [ 427430.25, 427413.5 ], [ 427430.25, 427413.25 ], [ 427429.25, 427413.25 ], [ 427429.25, 427413.0 ], [ 427428.25, 427413.0 ], [ 427428.25, 427412.75 ], [ 427428.0, 427412.75 ], [ 427428.0, 427410.25 ], [ 427427.75, 427410.25 ], [ 427427.75, 427410.0 ], [ 427427.5, 427410.0 ], [ 427427.5, 427409.75 ], [ 427427.0, 427409.75 ], [ 427427.0, 427408.0 ], [ 427426.75, 427408.0 ], [ 427426.75, 427407.5 ], [ 427426.5, 427407.5 ], [ 427426.5, 427407.0 ], [ 427426.25, 427407.0 ], [ 427426.25, 427406.5 ], [ 427426.0, 427406.5 ], [ 427426.0, 427406.0 ], [ 427425.75, 427406.0 ], [ 427425.75, 427405.25 ], [ 427426.0, 427405.25 ], [ 427426.0, 427405.0 ], [ 427426.25, 427405.0 ], [ 427426.25, 427404.75 ], [ 427426.5, 427404.75 ], [ 427426.5, 427404.25 ], [ 427427.5, 427404.25 ], [ 427427.5, 427404.0 ], [ 427429.5, 427404.0 ], [ 427429.5, 427404.25 ], [ 427430.0, 427404.25 ], [ 427430.0, 427404.5 ], [ 427430.5, 427404.5 ], [ 427430.5, 427404.75 ], [ 427430.75, 427404.75 ], [ 427430.75, 427405.25 ], [ 427431.0, 427405.25 ], [ 427431.0, 427405.5 ], [ 427431.25, 427405.5 ], [ 427431.25, 427406.0 ], [ 427431.5, 427406.0 ], [ 427431.5, 427406.25 ], [ 427431.75, 427406.25 ], [ 427431.75, 427406.75 ], [ 427432.0, 427406.75 ], [ 427432.0, 427407.25 ], [ 427432.25, 427407.25 ], [ 427432.25, 427407.5 ], [ 427432.5, 427407.5 ], [ 427432.5, 427408.0 ], [ 427432.75, 427408.0 ], [ 427432.75, 427408.25 ], [ 427433.0, 427408.25 ], [ 427433.0, 427408.5 ], [ 427433.25, 427408.5 ], [ 427433.25, 427408.75 ], [ 427433.5, 427408.75 ], [ 427433.5, 427409.25 ], [ 427433.75, 427409.25 ], [ 427433.75, 427409.5 ], [ 427434.25, 427409.5 ], [ 427434.25, 427409.75 ], [ 427434.5, 427409.75 ], [ 427434.5, 427410.0 ], [ 427434.75, 427410.0 ], [ 427434.75, 427410.25 ], [ 427435.0, 427410.25 ], [ 427435.0, 427410.5 ], [ 427435.25, 427410.5 ], [ 427435.25, 427410.75 ], [ 427435.0, 427410.75 ], [ 427435.0, 427411.0 ], [ 427434.75, 427411.0 ], [ 427434.75, 427411.5 ], [ 427434.5, 427411.5 ], [ 427434.5, 427412.25 ], [ 427434.25, 427412.25 ], [ 427434.25, 427412.75 ], [ 427434.0, 427412.75 ], [ 427434.0, 427413.0 ], [ 427433.5, 427413.0 ], [ 427433.5, 427413.25 ], [ 427433.0, 427413.25 ], [ 427433.0, 427413.5 ], [ 427432.5, 427413.5 ], [ 427432.5, 427413.75 ], [ 427432.25, 427413.75 ] ] ] } },
{ "type": "Feature", "properties": { }, "geometry": { "type": "Polygon", "coordinates": [ [ [ 427498.25, 427368.75 ], [ 427498.25, 427368.5 ], [ 427497.75, 427368.5 ], [ 427497.75, 427368.25 ], [ 427497.5, 427368.25 ], [ 427497.5, 427367.5 ], [ 427497.25, 427367.5 ], [ 427497.25, 427366.75 ], [ 427497.0, 427366.75 ], [ 427497.0, 427365.75 ], [ 427496.75, 427365.75 ], [ 427496.75, 427365.0 ], [ 427496.5, 427365.0 ], [ 427496.5, 427363.75 ], [ 427496.75, 427363.75 ], [ 427496.75, 427363.0 ], [ 427496.5, 427363.0 ], [ 427496.5, 427361.25 ], [ 427496.75, 427361.25 ], [ 427496.75, 427361.0 ], [ 427497.0, 427361.0 ], [ 427497.0, 427360.75 ], [ 427497.25, 427360.75 ], [ 427497.25, 427360.5 ], [ 427497.5, 427360.5 ], [ 427497.5, 427360.0 ], [ 427503.75, 427360.0 ], [ 427503.75, 427361.0 ], [ 427504.0, 427361.0 ], [ 427504.0, 427361.5 ], [ 427504.25, 427361.5 ], [ 427504.25, 427361.75 ], [ 427504.5, 427361.75 ], [ 427504.5, 427362.0 ], [ 427505.25, 427362.0 ], [ 427505.25, 427362.25 ], [ 427506.0, 427362.25 ], [ 427506.0, 427362.0 ], [ 427507.0, 427362.0 ], [ 427507.0, 427361.5 ], [ 427507.25, 427361.5 ], [ 427507.25, 427361.0 ], [ 427507.5, 427361.0 ], [ 427507.5, 427360.75 ], [ 427508.0, 427360.75 ], [ 427508.0, 427361.25 ], [ 427508.25, 427361.25 ], [ 427508.25, 427362.5 ], [ 427508.0, 427362.5 ], [ 427508.0, 427362.75 ], [ 427507.75, 427362.75 ], [ 427507.75, 427363.0 ], [ 427507.5, 427363.0 ], [ 427507.5, 427363.25 ], [ 427507.0, 427363.25 ], [ 427507.0, 427365.0 ], [ 427506.75, 427365.0 ], [ 427506.75, 427365.25 ], [ 427505.75, 427365.25 ], [ 427505.75, 427365.5 ], [ 427504.75, 427365.5 ], [ 427504.75, 427365.25 ], [ 427504.0, 427365.25 ], [ 427504.0, 427365.0 ], [ 427501.75, 427365.0 ], [ 427501.75, 427364.75 ], [ 427501.5, 427364.75 ], [ 427501.5, 427365.0 ], [ 427501.0, 427365.0 ], [ 427501.0, 427365.25 ], [ 427500.5, 427365.25 ], [ 427500.5, 427366.0 ], [ 427501.75, 427366.0 ], [ 427501.75, 427367.0 ], [ 427501.25, 427367.0 ], [ 427501.25, 427368.0 ], [ 427501.0, 427368.0 ], [ 427501.0, 427368.5 ], [ 427500.75, 427368.5 ], [ 427500.75, 427368.75 ], [ 427500.0, 427368.75 ], [ 427500.0, 427368.5 ], [ 427499.25, 427368.5 ], [ 427499.25, 427368.75 ], [ 427498.25, 427368.75 ] ] ] } },
{ "type": "Feature", "properties": { }, "geometry": { "type": "Polygon", "coordinates": [ [ [ 427441.0, 427287.75 ], [ 427441.0, 427287.5 ], [ 427440.25, 427287.5 ], [ 427440.25, 427287.25 ], [ 427439.75, 427287.25 ], [ 427439.75, 427287.0 ], [ 427439.25, 427287.0 ], [ 427439.25, 427286.75 ], [ 427438.75, 427286.75 ], [ 427438.75, 427286.5 ], [ 427438.5, 427286.5 ], [ 427438.5, 427284.25 ], [ 427438.75, 427284.25 ], [ 427438.75, 427283.5 ], [ 427439.0, 427283.5 ], [ 427439.0, 427282.25 ], [ 427439.25, 427282.25 ], [ 427439.25, 427281.75 ], [ 427439.5, 427281.75 ], [ 427439.5, 427281.25 ], [ 427439.25, 427281.25 ], [ 427439.25, 427281.0 ], [ 427438.75, 427281.0 ], [ 427438.75, 427280.75 ], [ 427438.25, 427280.75 ], [ 427438.25, 427281.0 ], [ 427438.0, 427281.0 ], [ 427438.0, 427281.5 ], [ 427437.75, 427281.5 ], [ 427437.75, 427282.0 ], [ 427437.5, 427282.0 ], [ 427437.5, 427282.25 ], [ 427437.25, 427282.25 ], [ 427437.25, 427282.75 ], [ 427437.0, 427282.75 ], [ 427437.0, 427283.5 ], [ 427436.75, 427283.5 ], [ 427436.75, 427283.75 ], [ 427436.5, 427283.75 ], [ 427436.5, 427284.0 ], [ 427436.25, 427284.0 ], [ 427436.25, 427283.75 ], [ 427435.75, 427283.75 ], [ 427435.75, 427283.5 ], [ 427435.25, 427283.5 ], [ 427435.25, 427284.0 ], [ 427434.75, 427284.0 ], [ 427434.75, 427284.25 ], [ 427434.5, 427284.25 ], [ 427434.5, 427284.0 ], [ 427434.25, 427284.0 ], [ 427434.25, 427283.75 ], [ 427434.0, 427283.75 ], [ 427434.0, 427283.5 ], [ 427433.75, 427283.5 ], [ 427433.75, 427282.0 ], [ 427433.5, 427282.0 ], [ 427433.5, 427280.25 ], [ 427433.75, 427280.25 ], [ 427433.75, 427280.0 ], [ 427434.0, 427280.0 ], [ 427434.0, 427279.75 ], [ 427434.5, 427279.75 ], [ 427434.5, 427279.5 ], [ 427436.5, 427279.5 ], [ 427436.5, 427279.75 ], [ 427437.0, 427279.75 ], [ 427437.0, 427280.0 ], [ 427437.25, 427280.0 ], [ 427437.25, 427280.25 ], [ 427438.25, 427280.25 ], [ 427438.25, 427280.0 ], [ 427438.5, 427280.0 ], [ 427438.5, 427279.75 ], [ 427438.75, 427279.75 ], [ 427438.75, 427279.5 ], [ 427439.0, 427279.5 ], [ 427439.0, 427279.25 ], [ 427439.5, 427279.25 ], [ 427439.5, 427279.0 ], [ 427440.0, 427279.0 ], [ 427440.0, 427278.75 ], [ 427440.25, 427278.75 ], [ 427440.25, 427278.25 ], [ 427440.0, 427278.25 ], [ 427440.0, 427277.75 ], [ 427439.75, 427277.75 ], [ 427439.75, 427277.25 ], [ 427439.5, 427277.25 ], [ 427439.5, 427277.0 ], [ 427438.25, 427277.0 ], [ 427438.25, 427276.75 ], [ 427437.75, 427276.75 ], [ 427437.75, 427276.5 ], [ 427437.5, 427276.5 ], [ 427437.5, 427276.25 ], [ 427437.25, 427276.25 ], [ 427437.25, 427276.5 ], [ 427436.75, 427276.5 ], [ 427436.75, 427276.75 ], [ 427437.0, 427276.75 ], [ 427437.0, 427277.5 ], [ 427436.75, 427277.5 ], [ 427436.75, 427277.75 ], [ 427435.5, 427277.75 ], [ 427435.5, 427278.0 ], [ 427434.5, 427278.0 ], [ 427434.5, 427277.75 ], [ 427434.25, 427277.75 ], [ 427434.25, 427277.25 ], [ 427434.0, 427277.25 ], [ 427434.0, 427275.75 ], [ 427434.25, 427275.75 ], [ 427434.25, 427275.5 ], [ 427434.0, 427275.5 ], [ 427434.0, 427274.25 ], [ 427434.25, 427274.25 ], [ 427434.25, 427274.0 ], [ 427434.5, 427274.0 ], [ 427434.5, 427273.75 ], [ 427435.0, 427273.75 ], [ 427435.0, 427273.5 ], [ 427435.5, 427273.5 ], [ 427435.5, 427273.25 ], [ 427438.75, 427273.25 ], [ 427438.75, 427273.5 ], [ 427439.25, 427273.5 ], [ 427439.25, 427273.75 ], [ 427439.5, 427273.75 ], [ 427439.5, 427274.0 ], [ 427439.75, 427274.0 ], [ 427439.75, 427274.25 ], [ 427440.0, 427274.25 ], [ 427440.0, 427274.5 ], [ 427440.25, 427274.5 ], [ 427440.25, 427274.75 ], [ 427440.5, 427274.75 ], [ 427440.5, 427275.0 ], [ 427441.0, 427275.0 ], [ 427441.0, 427275.25 ], [ 427441.75, 427275.25 ], [ 427441.75, 427275.5 ], [ 427442.5, 427275.5 ], [ 427442.5, 427275.75 ], [ 427443.25, 427275.75 ], [ 427443.25, 427276.0 ], [ 427443.5, 427276.0 ], [ 427443.5, 427276.25 ], [ 427443.75, 427276.25 ], [ 427443.75, 427277.0 ], [ 427444.0, 427277.0 ], [ 427444.0, 427277.25 ], [ 427444.25, 427277.25 ], [ 427444.25, 427277.75 ], [ 427444.0, 427277.75 ], [ 427444.0, 427278.75 ], [ 427444.25, 427278.75 ], [ 427444.25, 427279.0 ], [ 427444.5, 427279.0 ], [ 427444.5, 427279.25 ], [ 427444.75, 427279.25 ], [ 427444.75, 427279.5 ], [ 427445.0, 427279.5 ], [ 427445.0, 427280.25 ], [ 427445.25, 427280.25 ], [ 427445.25, 427281.5 ], [ 427445.5, 427281.5 ], [ 427445.5, 427282.0 ], [ 427445.75, 427282.0 ], [ 427445.75, 427282.5 ], [ 427446.0, 427282.5 ], [ 427446.0, 427283.75 ], [ 427445.75, 427283.75 ], [ 427445.75, 427284.25 ], [ 427445.5, 427284.25 ], [ 427445.5, 427284.5 ], [ 427445.25, 427284.5 ], [ 427445.25, 427285.0 ], [ 427445.0, 427285.0 ], [ 427445.0, 427285.75 ], [ 427444.75, 427285.75 ], [ 427444.75, 427286.25 ], [ 427444.5, 427286.25 ], [ 427444.5, 427286.5 ], [ 427444.25, 427286.5 ], [ 427444.25, 427286.75 ], [ 427443.5, 427286.75 ], [ 427443.5, 427287.0 ], [ 427443.0, 427287.0 ], [ 427443.0, 427287.25 ], [ 427442.75, 427287.25 ], [ 427442.75, 427287.5 ], [ 427441.75, 427287.5 ], [ 427441.75, 427287.75 ], [ 427441.0, 427287.75 ] ] ] } },
{ "type": "Feature", "properties": { }, "geometry": { "type": "Polygon", "coordinates": [ [ [ 427825.25, 427114.75 ], [ 427825.25, 427114.25 ], [ 427826.75, 427114.25 ], [ 427826.75, 427114.75 ], [ 427825.25, 427114.75 ] ] ] } },
{ "type": "Feature", "properties": { }, "geometry": { "type": "Polygon", "coordinates": [ [ [ 427297.75, 427104.0 ], [ 427297.75, 427101.5 ], [ 427297.5, 427101.5 ], [ 427297.5, 427100.0 ], [ 427297.75, 427100.0 ], [ 427297.75, 427098.75 ], [ 427298.0, 427098.75 ], [ 427298.0, 427098.25 ], [ 427298.25, 427098.25 ], [ 427298.25, 427097.75 ], [ 427298.5, 427097.75 ], [ 427298.5, 427097.25 ], [ 427298.75, 427097.25 ], [ 427298.75, 427097.0 ], [ 427299.0, 427097.0 ], [ 427299.0, 427096.75 ], [ 427299.25, 427096.75 ], [ 427299.25, 427096.0 ], [ 427299.5, 427096.0 ], [ 427299.5, 427095.75 ], [ 427299.75, 427095.75 ], [ 427299.75, 427095.5 ], [ 427300.0, 427095.5 ], [ 427300.0, 427095.25 ], [ 427300.25, 427095.25 ], [ 427300.25, 427095.0 ], [ 427300.5, 427095.0 ], [ 427300.5, 427094.75 ], [ 427301.0, 427094.75 ], [ 427301.0, 427094.0 ], [ 427300.75, 427094.0 ], [ 427300.75, 427092.75 ], [ 427301.0, 427092.75 ], [ 427301.0, 427090.75 ], [ 427301.25, 427090.75 ], [ 427301.25, 427090.5 ], [ 427301.5, 427090.5 ], [ 427301.5, 427090.25 ], [ 427301.75, 427090.25 ], [ 427301.75, 427089.75 ], [ 427302.0, 427089.75 ], [ 427302.0, 427089.25 ], [ 427301.75, 427089.25 ], [ 427301.75, 427088.75 ], [ 427301.5, 427088.75 ], [ 427301.5, 427088.5 ], [ 427301.0, 427088.5 ], [ 427301.0, 427088.25 ], [ 427300.75, 427088.25 ], [ 427300.75, 427088.0 ], [ 427300.5, 427088.0 ], [ 427300.5, 427087.0 ], [ 427300.75, 427087.0 ], [ 427300.75, 427086.75 ], [ 427301.0, 427086.75 ], [ 427301.0, 427086.5 ], [ 427301.5, 427086.5 ], [ 427301.5, 427086.25 ], [ 427302.25, 427086.25 ], [ 427302.25, 427086.0 ], [ 427302.75, 427086.0 ], [ 427302.75, 427086.25 ], [ 427304.0, 427086.25 ], [ 427304.0, 427086.5 ], [ 427305.0, 427086.5 ], [ 427305.0, 427086.75 ], [ 427305.25, 427086.75 ], [ 427305.25, 427087.25 ], [ 427305.5, 427087.25 ], [ 427305.5, 427087.5 ], [ 427306.25, 427087.5 ], [ 427306.25, 427088.25 ], [ 427306.5, 427088.25 ], [ 427306.5, 427089.0 ], [ 427306.75, 427089.0 ], [ 427306.75, 427088.75 ], [ 427307.0, 427088.75 ], [ 427307.0, 427088.5 ], [ 427307.5, 427088.5 ], [ 427307.5, 427088.25 ], [ 427307.75, 427088.25 ], [ 427307.75, 427088.0 ], [ 427308.25, 427088.0 ], [ 427308.25, 427087.75 ], [ 427308.75, 427087.75 ], [ 427308.75, 427088.0 ], [ 427310.5, 427088.0 ], [ 427310.5, 427088.25 ], [ 427311.25, 427088.25 ], [ 427311.25, 427088.5 ], [ 427312.0, 427088.5 ], [ 427312.0, 427088.75 ], [ 427314.0, 427088.75 ], [ 427314.0, 427089.0 ], [ 427315.75, 427089.0 ], [ 427315.75, 427089.25 ], [ 427317.25, 427089.25 ], [ 427317.25, 427089.5 ], [ 427318.25, 427089.5 ], [ 427318.25, 427089.75 ], [ 427318.75, 427089.75 ], [ 427318.75, 427090.0 ], [ 427319.0, 427090.0 ], [ 427319.0, 427090.25 ], [ 427319.25, 427090.25 ], [ 427319.25, 427090.5 ], [ 427319.5, 427090.5 ], [ 427319.5, 427090.75 ], [ 427319.75, 427090.75 ], [ 427319.75, 427091.0 ], [ 427320.25, 427091.0 ], [ 427320.25, 427091.25 ], [ 427320.75, 427091.25 ], [ 427320.75, 427091.5 ], [ 427321.0, 427091.5 ], [ 427321.0, 427092.0 ], [ 427321.25, 427092.0 ], [ 427321.25, 427092.25 ], [ 427321.5, 427092.25 ], [ 427321.5, 427092.5 ], [ 427322.0, 427092.5 ], [ 427322.0, 427092.75 ], [ 427322.25, 427092.75 ], [ 427322.25, 427093.0 ], [ 427322.5, 427093.0 ], [ 427322.5, 427093.25 ], [ 427323.0, 427093.25 ], [ 427323.0, 427093.5 ], [ 427323.25, 427093.5 ], [ 427323.25, 427093.75 ], [ 427323.5, 427093.75 ], [ 427323.5, 427094.0 ], [ 427323.75, 427094.0 ], [ 427323.75, 427094.25 ], [ 427324.0, 427094.25 ], [ 427324.0, 427097.0 ], [ 427323.75, 427097.0 ], [ 427323.75, 427098.0 ], [ 427323.5, 427098.0 ], [ 427323.5, 427098.25 ], [ 427323.25, 427098.25 ], [ 427323.25, 427098.75 ], [ 427323.0, 427098.75 ], [ 427323.0, 427099.5 ], [ 427322.75, 427099.5 ], [ 427322.75, 427100.0 ], [ 427322.5, 427100.0 ], [ 427322.5, 427100.5 ], [ 427322.25, 427100.5 ], [ 427322.25, 427101.0 ], [ 427322.0, 427101.0 ], [ 427322.0, 427101.25 ], [ 427321.75, 427101.25 ], [ 427321.75, 427103.0 ], [ 427321.5, 427103.0 ], [ 427321.5, 427104.0 ], [ 427297.75, 427104.0 ] ], [ [ 427305.0, 427093.75 ], [ 427305.75, 427093.75 ], [ 427305.75, 427093.0 ], [ 427306.0, 427093.0 ], [ 427306.0, 427092.25 ], [ 427305.75, 427092.25 ], [ 427305.75, 427091.5 ], [ 427305.5, 427091.5 ], [ 427305.5, 427091.75 ], [ 427305.25, 427091.75 ], [ 427305.25, 427092.75 ], [ 427305.0, 427092.75 ], [ 427305.0, 427093.75 ] ], [ [ 427306.25, 427090.5 ], [ 427306.5, 427090.5 ], [ 427306.5, 427090.25 ], [ 427306.25, 427090.25 ], [ 427306.25, 427090.5 ] ] ] } },
{ "type": "Feature", "properties": { }, "geometry": { "type": "Polygon", "coordinates": [ [ [ 427834.25, 427120.25 ], [ 427834.25, 427120.0 ], [ 427833.0, 427120.0 ], [ 427833.0, 427119.75 ], [ 427832.75, 427119.75 ], [ 427832.75, 427119.25 ], [ 427832.5, 427119.25 ], [ 427832.5, 427119.0 ], [ 427831.25, 427119.0 ], [ 427831.25, 427118.75 ], [ 427831.0, 427118.75 ], [ 427831.0, 427118.5 ], [ 427830.5, 427118.5 ], [ 427830.5, 427118.0 ], [ 427830.25, 427118.0 ], [ 427830.25, 427117.75 ], [ 427830.0, 427117.75 ], [ 427830.0, 427117.5 ], [ 427829.75, 427117.5 ], [ 427829.75, 427117.25 ], [ 427829.25, 427117.25 ], [ 427829.25, 427117.0 ], [ 427829.0, 427117.0 ], [ 427829.0, 427116.75 ], [ 427828.75, 427116.75 ], [ 427828.75, 427116.5 ], [ 427828.5, 427116.5 ], [ 427828.5, 427116.25 ], [ 427828.25, 427116.25 ], [ 427828.25, 427115.75 ], [ 427827.75, 427115.75 ], [ 427827.75, 427115.25 ], [ 427828.0, 427115.25 ], [ 427828.0, 427114.75 ], [ 427828.25, 427114.75 ], [ 427828.25, 427114.25 ], [ 427828.0, 427114.25 ], [ 427828.0, 427114.0 ], [ 427827.25, 427114.0 ], [ 427827.25, 427113.75 ], [ 427827.0, 427113.75 ], [ 427827.0, 427113.25 ], [ 427827.25, 427113.25 ], [ 427827.25, 427113.0 ], [ 427827.5, 427113.0 ], [ 427827.5, 427112.75 ], [ 427828.0, 427112.75 ], [ 427828.0, 427112.5 ], [ 427828.25, 427112.5 ], [ 427828.25, 427112.25 ], [ 427828.75, 427112.25 ], [ 427828.75, 427112.5 ], [ 427829.0, 427112.5 ], [ 427829.0, 427112.75 ], [ 427829.5, 427112.75 ], [ 427829.5, 427112.5 ], [ 427829.75, 427112.5 ], [ 427829.75, 427112.25 ], [ 427830.0, 427112.25 ], [ 427830.0, 427112.0 ], [ 427830.25, 427112.0 ], [ 427830.25, 427111.75 ], [ 427830.5, 427111.75 ], [ 427830.5, 427111.5 ], [ 427831.0, 427111.5 ], [ 427831.0, 427111.25 ], [ 427831.25, 427111.25 ], [ 427831.25, 427111.0 ], [ 427831.5, 427111.0 ], [ 427831.5, 427110.75 ], [ 427832.25, 427110.75 ], [ 427832.25, 427111.0 ], [ 427833.5, 427111.0 ], [ 427833.5, 427110.75 ], [ 427833.75, 427110.75 ], [ 427833.75, 427110.5 ], [ 427834.0, 427110.5 ], [ 427834.0, 427110.0 ], [ 427834.25, 427110.0 ], [ 427834.25, 427109.75 ], [ 427834.5, 427109.75 ], [ 427834.5, 427109.0 ], [ 427834.75, 427109.0 ], [ 427834.75, 427106.0 ], [ 427835.0, 427106.0 ], [ 427835.0, 427105.75 ], [ 427835.5, 427105.75 ], [ 427835.5, 427104.75 ], [ 427835.75, 427104.75 ], [ 427835.75, 427104.0 ], [ 427802.0, 427104.0 ], [ 427802.0, 427102.75 ], [ 427802.25, 427102.75 ], [ 427802.25, 427101.75 ], [ 427802.0, 427101.75 ], [ 427802.0, 427101.5 ], [ 427802.25, 427101.5 ], [ 427802.25, 427101.25 ], [ 427802.5, 427101.25 ], [ 427802.5, 427100.75 ], [ 427802.75, 427100.75 ], [ 427802.75, 427100.25 ], [ 427802.5, 427100.25 ], [ 427802.5, 427099.25 ], [ 427802.25, 427099.25 ], [ 427802.25, 427098.75 ], [ 427802.0, 427098.75 ], [ 427802.0, 427097.5 ], [ 427802.25, 427097.5 ], [ 427802.25, 427097.0 ], [ 427802.5, 427097.0 ], [ 427802.5, 427096.75 ], [ 427802.75, 427096.75 ], [ 427802.75, 427096.25 ], [ 427803.0, 427096.25 ], [ 427803.0, 427095.75 ], [ 427803.25, 427095.75 ], [ 427803.25, 427095.25 ], [ 427803.5, 427095.25 ], [ 427803.5, 427094.75 ], [ 427803.75, 427094.75 ], [ 427803.75, 427086.75 ], [ 427803.5, 427086.75 ], [ 427803.5, 427086.5 ], [ 427803.75, 427086.5 ], [ 427803.75, 427085.25 ], [ 427804.0, 427085.25 ], [ 427804.0, 427084.75 ], [ 427804.25, 427084.75 ], [ 427804.25, 427084.25 ], [ 427804.5, 427084.25 ], [ 427804.5, 427084.0 ], [ 427804.75, 427084.0 ], [ 427804.75, 427083.75 ], [ 427805.0, 427083.75 ], [ 427805.0, 427083.5 ], [ 427805.25, 427083.5 ], [ 427805.25, 427083.25 ], [ 427805.75, 427083.25 ], [ 427805.75, 427083.0 ], [ 427806.0, 427083.0 ], [ 427806.0, 427082.75 ], [ 427806.25, 427082.75 ], [ 427806.25, 427082.25 ], [ 427806.5, 427082.25 ], [ 427806.5, 427081.75 ], [ 427806.75, 427081.75 ], [ 427806.75, 427081.25 ], [ 427807.0, 427081.25 ], [ 427807.0, 427080.5 ], [ 427807.25, 427080.5 ], [ 427807.25, 427080.0 ], [ 427807.5, 427080.0 ], [ 427807.5, 427079.25 ], [ 427807.75, 427079.25 ], [ 427807.75, 427078.5 ], [ 427808.0, 427078.5 ], [ 427808.0, 427077.5 ], [ 427808.25, 427077.5 ], [ 427808.25, 427076.75 ], [ 427808.5, 427076.75 ], [ 427808.5, 427076.0 ], [ 427808.75, 427076.0 ], [ 427808.75, 427075.25 ], [ 427809.0, 427075.25 ], [ 427809.0, 427074.75 ], [ 427809.25, 427074.75 ], [ 427809.25, 427074.5 ], [ 427809.5, 427074.5 ], [ 427809.5, 427074.25 ], [ 427809.75, 427074.25 ], [ 427809.75, 427074.0 ], [ 427810.0, 427074.0 ], [ 427810.0, 427073.75 ], [ 427810.25, 427073.75 ], [ 427810.25, 427073.5 ], [ 427810.75, 427073.5 ], [ 427810.75, 427073.25 ], [ 427811.25, 427073.25 ], [ 427811.25, 427073.0 ], [ 427811.75, 427073.0 ], [ 427811.75, 427072.75 ], [ 427812.25, 427072.75 ], [ 427812.25, 427072.5 ], [ 427812.75, 427072.5 ], [ 427812.75, 427072.25 ], [ 427813.0, 427072.25 ], [ 427813.0, 427072.0 ], [ 427813.75, 427072.0 ], [ 427813.75, 427071.75 ], [ 427814.5, 427071.75 ], [ 427814.5, 427071.5 ], [ 427815.25, 427071.5 ], [ 427815.25, 427071.25 ], [ 427816.0, 427071.25 ], [ 427816.0, 427071.0 ], [ 427817.0, 427071.0 ], [ 427817.0, 427070.75 ], [ 427817.75, 427070.75 ], [ 427817.75, 427070.5 ], [ 427818.0, 427070.5 ], [ 427818.0, 427070.25 ], [ 427818.25, 427070.25 ], [ 427818.25, 427070.0 ], [ 427818.5, 427070.0 ], [ 427818.5, 427069.75 ], [ 427818.75, 427069.75 ], [ 427818.75, 427069.25 ], [ 427818.5, 427069.25 ], [ 427818.5, 427068.75 ], [ 427818.25, 427068.75 ], [ 427818.25, 427068.0 ], [ 427818.0, 427068.0 ], [ 427818.0, 427067.0 ], [ 427817.75, 427067.0 ], [ 427817.75, 427065.25 ], [ 427818.0, 427065.25 ], [ 427818.0, 427065.0 ], [ 427818.25, 427065.0 ], [ 427818.25, 427064.5 ], [ 427818.5, 427064.5 ], [ 427818.5, 427064.25 ], [ 427819.0, 427064.25 ], [ 427819.0, 427064.0 ], [ 427819.25, 427064.0 ], [ 427819.25, 427063.5 ], [ 427819.5, 427063.5 ], [ 427819.5, 427063.25 ], [ 427819.75, 427063.25 ], [ 427819.75, 427063.0 ], [ 427820.0, 427063.0 ], [ 427820.0, 427062.75 ], [ 427820.25, 427062.75 ], [ 427820.25, 427062.5 ], [ 427820.5, 427062.5 ], [ 427820.5, 427062.0 ], [ 427820.75, 427062.0 ], [ 427820.75, 427061.75 ], [ 427821.0, 427061.75 ], [ 427821.0, 427061.25 ], [ 427821.25, 427061.25 ], [ 427821.25, 427060.75 ], [ 427821.5, 427060.75 ], [ 427821.5, 427060.5 ], [ 427821.75, 427060.5 ], [ 427821.75, 427059.75 ], [ 427822.0, 427059.75 ], [ 427822.0, 427059.0 ], [ 427822.25, 427059.0 ], [ 427822.25, 427058.25 ], [ 427822.5, 427058.25 ], [ 427822.5, 427058.0 ], [ 427823.0, 427058.0 ], [ 427823.0, 427057.75 ], [ 427823.5, 427057.75 ], [ 427823.5, 427057.5 ], [ 427824.0, 427057.5 ], [ 427824.0, 427057.25 ], [ 427824.25, 427057.25 ], [ 427824.25, 427056.75 ], [ 427824.5, 427056.75 ], [ 427824.5, 427056.5 ], [ 427824.75, 427056.5 ], [ 427824.75, 427056.25 ], [ 427825.0, 427056.25 ], [ 427825.0, 427055.75 ], [ 427825.25, 427055.75 ], [ 427825.25, 427055.0 ], [ 427825.5, 427055.0 ], [ 427825.5, 427054.5 ], [ 427825.75, 427054.5 ], [ 427825.75, 427054.25 ], [ 427826.0, 427054.25 ], [ 427826.0, 427053.75 ], [ 427826.25, 427053.75 ], [ 427826.25, 427053.5 ], [ 427826.5, 427053.5 ], [ 427826.5, 427053.25 ], [ 427827.25, 427053.25 ], [ 427827.25, 427053.0 ], [ 427827.75, 427053.0 ], [ 427827.75, 427053.25 ], [ 427828.25, 427053.25 ], [ 427828.25, 427056.75 ], [ 427829.0, 427056.75 ], [ 427829.0, 427056.5 ], [ 427829.75, 427056.5 ], [ 427829.75, 427056.75 ], [ 427830.0, 427056.75 ], [ 427830.0, 427057.25 ], [ 427830.25, 427057.25 ], [ 427830.25, 427057.5 ], [ 427830.75, 427057.5 ], [ 427830.75, 427057.25 ], [ 427831.0, 427057.25 ], [ 427831.0, 427056.5 ], [ 427831.25, 427056.5 ], [ 427831.25, 427056.0 ], [ 427831.5, 427056.0 ], [ 427831.5, 427055.75 ], [ 427832.0, 427055.75 ], [ 427832.0, 427055.5 ], [ 427832.25, 427055.5 ], [ 427832.25, 427055.25 ], [ 427835.5, 427055.25 ], [ 427835.5, 427055.0 ], [ 427836.75, 427055.0 ], [ 427836.75, 427055.25 ], [ 427837.25, 427055.25 ], [ 427837.25, 427055.5 ], [ 427837.75, 427055.5 ], [ 427837.75, 427055.75 ], [ 427838.0, 427055.75 ], [ 427838.0, 427056.25 ], [ 427838.25, 427056.25 ], [ 427838.25, 427057.25 ], [ 427838.5, 427057.25 ], [ 427838.5, 427058.0 ], [ 427838.75, 427058.0 ], [ 427838.75, 427058.25 ], [ 427839.0, 427058.25 ], [ 427839.0, 427058.5 ], [ 427839.25, 427058.5 ], [ 427839.25, 427058.75 ], [ 427839.5, 427058.75 ], [ 427839.5, 427059.25 ], [ 427839.75, 427059.25 ], [ 427839.75, 427059.5 ], [ 427840.0, 427059.5 ], [ 427840.0, 427059.75 ], [ 427840.25, 427059.75 ], [ 427840.25, 427060.0 ], [ 427840.75, 427060.0 ], [ 427840.75, 427060.25 ], [ 427841.25, 427060.25 ], [ 427841.25, 427060.5 ], [ 427841.5, 427060.5 ], [ 427841.5, 427061.25 ], [ 427841.75, 427061.25 ], [ 427841.75, 427061.75 ], [ 427841.5, 427061.75 ], [ 427841.5, 427062.0 ], [ 427841.25, 427062.0 ], [ 427841.25, 427062.75 ], [ 427842.0, 427062.75 ], [ 427842.0, 427062.5 ], [ 427842.25, 427062.5 ], [ 427842.25, 427062.25 ], [ 427842.75, 427062.25 ], [ 427842.75, 427062.0 ], [ 427843.0, 427062.0 ], [ 427843.0, 427061.5 ], [ 427843.25, 427061.5 ], [ 427843.25, 427061.25 ], [ 427843.75, 427061.25 ], [ 427843.75, 427061.5 ], [ 427844.0, 427061.5 ], [ 427844.0, 427062.0 ], [ 427844.5, 427062.0 ], [ 427844.5, 427062.25 ], [ 427844.75, 427062.25 ], [ 427844.75, 427062.0 ], [ 427845.5, 427062.0 ], [ 427845.5, 427062.25 ], [ 427846.0, 427062.25 ], [ 427846.0, 427062.5 ], [ 427846.5, 427062.5 ], [ 427846.5, 427062.75 ], [ 427846.75, 427062.75 ], [ 427846.75, 427063.0 ], [ 427847.5, 427063.0 ], [ 427847.5, 427063.25 ], [ 427847.75, 427063.25 ], [ 427847.75, 427063.75 ], [ 427848.0, 427063.75 ], [ 427848.0, 427064.25 ], [ 427848.25, 427064.25 ], [ 427848.25, 427064.75 ], [ 427848.5, 427064.75 ], [ 427848.5, 427065.25 ], [ 427848.75, 427065.25 ], [ 427848.75, 427065.75 ], [ 427849.0, 427065.75 ], [ 427849.0, 427067.75 ], [ 427848.75, 427067.75 ], [ 427848.75, 427069.0 ], [ 427848.5, 427069.0 ], [ 427848.5, 427071.0 ], [ 427848.75, 427071.0 ], [ 427848.75, 427076.75 ], [ 427849.0, 427076.75 ], [ 427849.0, 427077.75 ], [ 427849.25, 427077.75 ], [ 427849.25, 427078.25 ], [ 427849.5, 427078.25 ], [ 427849.5, 427078.75 ], [ 427849.75, 427078.75 ], [ 427849.75, 427079.25 ], [ 427850.0, 427079.25 ], [ 427850.0, 427079.5 ], [ 427850.25, 427079.5 ], [ 427850.25, 427080.0 ], [ 427850.5, 427080.0 ], [ 427850.5, 427080.25 ], [ 427850.75, 427080.25 ], [ 427850.75, 427080.5 ], [ 427851.0, 427080.5 ], [ 427851.0, 427081.0 ], [ 427851.25, 427081.0 ], [ 427851.25, 427081.25 ], [ 427851.5, 427081.25 ], [ 427851.5, 427082.0 ], [ 427851.75, 427082.0 ], [ 427851.75, 427083.25 ], [ 427852.0, 427083.25 ], [ 427852.0, 427086.25 ], [ 427851.75, 427086.25 ], [ 427851.75, 427087.5 ], [ 427851.5, 427087.5 ], [ 427851.5, 427088.5 ], [ 427851.25, 427088.5 ], [ 427851.25, 427089.0 ], [ 427851.0, 427089.0 ], [ 427851.0, 427089.75 ], [ 427850.75, 427089.75 ], [ 427850.75, 427090.25 ], [ 427850.5, 427090.25 ], [ 427850.5, 427090.5 ], [ 427850.25, 427090.5 ], [ 427850.25, 427091.0 ], [ 427850.0, 427091.0 ], [ 427850.0, 427091.25 ], [ 427849.75, 427091.25 ], [ 427849.75, 427091.5 ], [ 427849.5, 427091.5 ], [ 427849.5, 427092.0 ], [ 427849.25, 427092.0 ], [ 427849.25, 427092.25 ], [ 427849.0, 427092.25 ], [ 427849.0, 427092.75 ], [ 427848.75, 427092.75 ], [ 427848.75, 427093.25 ], [ 427848.5, 427093.25 ], [ 427848.5, 427093.75 ], [ 427848.25, 427093.75 ], [ 427848.25, 427094.5 ], [ 427848.0, 427094.5 ], [ 427848.0, 427095.25 ], [ 427847.75, 427095.25 ], [ 427847.75, 427095.75 ], [ 427847.5, 427095.75 ], [ 427847.5, 427096.5 ], [ 427847.25, 427096.5 ], [ 427847.25, 427097.0 ], [ 427847.0, 427097.0 ], [ 427847.0, 427097.75 ], [ 427846.75, 427097.75 ], [ 427846.75, 427098.25 ], [ 427846.5, 427098.25 ], [ 427846.5, 427099.0 ], [ 427846.25, 427099.0 ], [ 427846.25, 427099.5 ], [ 427846.0, 427099.5 ], [ 427846.0, 427100.0 ], [ 427845.75, 427100.0 ], [ 427845.75, 427100.5 ], [ 427845.5, 427100.5 ], [ 427845.5, 427101.0 ], [ 427845.25, 427101.0 ], [ 427845.25, 427101.75 ], [ 427845.0, 427101.75 ], [ 427845.0, 427103.0 ], [ 427845.25, 427103.0 ], [ 427845.25, 427104.0 ], [ 427838.0, 427104.0 ], [ 427838.0, 427104.75 ], [ 427837.75, 427104.75 ], [ 427837.75, 427106.25 ], [ 427837.5, 427106.25 ], [ 427837.5, 427106.75 ], [ 427837.25, 427106.75 ], [ 427837.25, 427107.25 ], [ 427837.0, 427107.25 ], [ 427837.0, 427107.75 ], [ 427837.25, 427107.75 ], [ 427837.25, 427108.0 ], [ 427837.5, 427108.0 ], [ 427837.5, 427108.25 ], [ 427837.75, 427108.25 ], [ 427837.75, 427108.75 ], [ 427838.0, 427108.75 ], [ 427838.0, 427109.5 ], [ 427838.25, 427109.5 ], [ 427838.25, 427112.5 ], [ 427838.0, 427112.5 ], [ 427838.0, 427114.75 ], [ 427837.75, 427114.75 ], [ 427837.75, 427115.5 ], [ 427837.5, 427115.5 ], [ 427837.5, 427116.0 ], [ 427837.25, 427116.0 ], [ 427837.25, 427116.5 ], [ 427837.0, 427116.5 ], [ 427837.0, 427117.25 ], [ 427836.75, 427117.25 ], [ 427836.75, 427117.75 ], [ 427836.5, 427117.75 ], [ 427836.5, 427118.25 ], [ 427836.25, 427118.25 ], [ 427836.25, 427118.75 ], [ 427836.0, 427118.75 ], [ 427836.0, 427119.0 ], [ 427835.75, 427119.0 ], [ 427835.75, 427119.5 ], [ 427835.5, 427119.5 ], [ 427835.5, 427119.75 ], [ 427835.0, 427119.75 ], [ 427835.0, 427120.0 ], [ 427834.5, 427120.0 ], [ 427834.5, 427120.25 ], [ 427834.25, 427120.25 ] ] ] } },
{ "type": "Feature", "properties": { }, "geometry": { "type": "Polygon", "coordinates": [ [ [ 427087.0, 427077.5 ], [ 427087.0, 427077.25 ], [ 427086.0, 427077.25 ], [ 427086.0, 427077.0 ], [ 427085.25, 427077.0 ], [ 427085.25, 427076.75 ], [ 427084.5, 427076.75 ], [ 427084.5, 427076.5 ], [ 427084.0, 427076.5 ], [ 427084.0, 427076.25 ], [ 427083.25, 427076.25 ], [ 427083.25, 427076.0 ], [ 427082.25, 427076.0 ], [ 427082.25, 427075.75 ], [ 427081.5, 427075.75 ], [ 427081.5, 427075.5 ], [ 427080.75, 427075.5 ], [ 427080.75, 427075.25 ], [ 427079.5, 427075.25 ], [ 427079.5, 427075.0 ], [ 427078.5, 427075.0 ], [ 427078.5, 427074.75 ], [ 427077.25, 427074.75 ], [ 427077.25, 427074.5 ], [ 427076.0, 427074.5 ], [ 427076.0, 427074.25 ], [ 427075.0, 427074.25 ], [ 427075.0, 427074.0 ], [ 427074.0, 427074.0 ], [ 427074.0, 427073.75 ], [ 427073.0, 427073.75 ], [ 427073.0, 427073.5 ], [ 427072.25, 427073.5 ], [ 427072.25, 427073.25 ], [ 427071.5, 427073.25 ], [ 427071.5, 427073.0 ], [ 427070.25, 427073.0 ], [ 427070.25, 427072.75 ], [ 427069.0, 427072.75 ], [ 427069.0, 427072.5 ], [ 427068.0, 427072.5 ], [ 427068.0, 427072.25 ], [ 427067.0, 427072.25 ], [ 427067.0, 427072.0 ], [ 427065.25, 427072.0 ], [ 427065.25, 427071.75 ], [ 427062.5, 427071.75 ], [ 427062.5, 427071.5 ], [ 427060.5, 427071.5 ], [ 427060.5, 427071.25 ], [ 427058.75, 427071.25 ], [ 427058.75, 427071.0 ], [ 427057.75, 427071.0 ], [ 427057.75, 427070.75 ], [ 427057.0, 427070.75 ], [ 427057.0, 427070.5 ], [ 427056.75, 427070.5 ], [ 427056.75, 427070.25 ], [ 427056.5, 427070.25 ], [ 427056.5, 427069.75 ], [ 427056.25, 427069.75 ], [ 427056.25, 427069.5 ], [ 427056.0, 427069.5 ], [ 427056.0, 427068.75 ], [ 427055.75, 427068.75 ], [ 427055.75, 427067.75 ], [ 427055.5, 427067.75 ], [ 427055.5, 427064.75 ], [ 427055.75, 427064.75 ], [ 427055.75, 427062.25 ], [ 427056.0, 427062.25 ], [ 427056.0, 427058.0 ], [ 427056.25, 427058.0 ], [ 427056.25, 427056.25 ], [ 427056.5, 427056.25 ], [ 427056.5, 427054.75 ], [ 427056.75, 427054.75 ], [ 427056.75, 427053.75 ], [ 427057.0, 427053.75 ], [ 427057.0, 427052.75 ], [ 427057.25, 427052.75 ], [ 427057.25, 427052.0 ], [ 427057.5, 427052.0 ], [ 427057.5, 427051.5 ], [ 427057.75, 427051.5 ], [ 427057.75, 427051.25 ], [ 427058.0, 427051.25 ], [ 427058.0, 427051.0 ], [ 427058.25, 427051.0 ], [ 427058.25, 427050.75 ], [ 427058.5, 427050.75 ], [ 427058.5, 427050.5 ], [ 427058.75, 427050.5 ], [ 427058.75, 427050.25 ], [ 427059.0, 427050.25 ], [ 427059.0, 427050.0 ], [ 427059.25, 427050.0 ], [ 427059.25, 427049.75 ], [ 427059.5, 427049.75 ], [ 427059.5, 427049.5 ], [ 427059.75, 427049.5 ], [ 427059.75, 427049.25 ], [ 427060.25, 427049.25 ], [ 427060.25, 427049.0 ], [ 427061.25, 427049.0 ], [ 427061.25, 427048.75 ], [ 427063.75, 427048.75 ], [ 427063.75, 427049.0 ], [ 427064.75, 427049.0 ], [ 427064.75, 427049.25 ], [ 427066.75, 427049.25 ], [ 427066.75, 427049.0 ], [ 427067.5, 427049.0 ], [ 427067.5, 427048.75 ], [ 427068.0, 427048.75 ], [ 427068.0, 427048.5 ], [ 427069.0, 427048.5 ], [ 427069.0, 427048.25 ], [ 427070.25, 427048.25 ], [ 427070.25, 427048.0 ], [ 427072.75, 427048.0 ], [ 427072.75, 427047.75 ], [ 427074.75, 427047.75 ], [ 427074.75, 427048.0 ], [ 427076.5, 427048.0 ], [ 427076.5, 427048.25 ], [ 427078.0, 427048.25 ], [ 427078.0, 427048.5 ], [ 427080.25, 427048.5 ], [ 427080.25, 427048.75 ], [ 427082.5, 427048.75 ], [ 427082.5, 427049.0 ], [ 427083.25, 427049.0 ], [ 427083.25, 427049.25 ], [ 427084.0, 427049.25 ], [ 427084.0, 427049.5 ], [ 427084.5, 427049.5 ], [ 427084.5, 427049.75 ], [ 427084.75, 427049.75 ], [ 427084.75, 427050.0 ], [ 427085.0, 427050.0 ], [ 427085.0, 427050.25 ], [ 427085.5, 427050.25 ], [ 427085.5, 427050.5 ], [ 427085.75, 427050.5 ], [ 427085.75, 427050.75 ], [ 427086.0, 427050.75 ], [ 427086.0, 427051.0 ], [ 427086.25, 427051.0 ], [ 427086.25, 427051.25 ], [ 427086.5, 427051.25 ], [ 427086.5, 427051.75 ], [ 427086.75, 427051.75 ], [ 427086.75, 427052.5 ], [ 427087.0, 427052.5 ], [ 427087.0, 427053.0 ], [ 427087.25, 427053.0 ], [ 427087.25, 427053.5 ], [ 427087.5, 427053.5 ], [ 427087.5, 427053.75 ], [ 427087.75, 427053.75 ], [ 427087.75, 427054.25 ], [ 427088.0, 427054.25 ], [ 427088.0, 427054.5 ], [ 427088.25, 427054.5 ], [ 427088.25, 427054.75 ], [ 427088.75, 427054.75 ], [ 427088.75, 427055.0 ], [ 427089.25, 427055.0 ], [ 427089.25, 427055.25 ], [ 427089.75, 427055.25 ], [ 427089.75, 427055.5 ], [ 427090.75, 427055.5 ], [ 427090.75, 427055.75 ], [ 427091.25, 427055.75 ], [ 427091.25, 427056.0 ], [ 427092.0, 427056.0 ], [ 427092.0, 427056.25 ], [ 427092.5, 427056.25 ], [ 427092.5, 427056.5 ], [ 427093.0, 427056.5 ], [ 427093.0, 427056.75 ], [ 427093.5, 427056.75 ], [ 427093.5, 427057.0 ], [ 427094.0, 427057.0 ], [ 427094.0, 427057.25 ], [ 427094.25, 427057.25 ], [ 427094.25, 427057.5 ], [ 427094.5, 427057.5 ], [ 427094.5, 427057.75 ], [ 427095.0, 427057.75 ], [ 427095.0, 427058.25 ], [ 427095.25, 427058.25 ], [ 427095.25, 427058.5 ], [ 427095.5, 427058.5 ], [ 427095.5, 427058.75 ], [ 427095.75, 427058.75 ], [ 427095.75, 427059.0 ], [ 427096.0, 427059.0 ], [ 427096.0, 427059.25 ], [ 427096.25, 427059.25 ], [ 427096.25, 427059.5 ], [ 427096.5, 427059.5 ], [ 427096.5, 427059.75 ], [ 427096.75, 427059.75 ], [ 427096.75, 427060.25 ], [ 427097.0, 427060.25 ], [ 427097.0, 427060.5 ], [ 427097.25, 427060.5 ], [ 427097.25, 427061.0 ], [ 427097.5, 427061.0 ], [ 427097.5, 427061.75 ], [ 427097.75, 427061.75 ], [ 427097.75, 427062.75 ], [ 427098.0, 427062.75 ], [ 427098.0, 427064.75 ], [ 427098.25, 427064.75 ], [ 427098.25, 427066.0 ], [ 427098.0, 427066.0 ], [ 427098.0, 427067.5 ], [ 427097.75, 427067.5 ], [ 427097.75, 427069.25 ], [ 427097.5, 427069.25 ], [ 427097.5, 427070.0 ], [ 427097.25, 427070.0 ], [ 427097.25, 427070.75 ], [ 427097.0, 427070.75 ], [ 427097.0, 427071.25 ], [ 427096.75, 427071.25 ], [ 427096.75, 427072.0 ], [ 427096.5, 427072.0 ], [ 427096.5, 427072.5 ], [ 427096.25, 427072.5 ], [ 427096.25, 427073.0 ], [ 427096.0, 427073.0 ], [ 427096.0, 427073.5 ], [ 427095.75, 427073.5 ], [ 427095.75, 427074.0 ], [ 427095.5, 427074.0 ], [ 427095.5, 427074.25 ], [ 427095.25, 427074.25 ], [ 427095.25, 427074.75 ], [ 427095.0, 427074.75 ], [ 427095.0, 427075.0 ], [ 427094.75, 427075.0 ], [ 427094.75, 427075.25 ], [ 427094.5, 427075.25 ], [ 427094.5, 427075.5 ], [ 427094.25, 427075.5 ], [ 427094.25, 427075.75 ], [ 427093.75, 427075.75 ], [ 427093.75, 427076.0 ], [ 427093.5, 427076.0 ], [ 427093.5, 427076.25 ], [ 427093.0, 427076.25 ], [ 427093.0, 427076.5 ], [ 427092.5, 427076.5 ], [ 427092.5, 427076.75 ], [ 427092.0, 427076.75 ], [ 427092.0, 427077.0 ], [ 427091.25, 427077.0 ], [ 427091.25, 427077.25 ], [ 427090.5, 427077.25 ], [ 427090.5, 427077.5 ], [ 427087.0, 427077.5 ] ] ] } }
]
}
