{
"type": "FeatureCollection",
"name": "se2727_rgb_250_03_min_500m2",
"crs": { "type": "name", "properties": { "name": "urn:ogc:def:crs:EPSG::27700" } },
"features": [
{ "type": "Feature", "properties": { "area_m2": 1914.125 }, "geometry": { "type": "Polygon", "coordinates": [ [ [ 427834.25, 427120.25 ], [ 427834.25, 427120.0 ], [ 427833.0, 427120.0 ], [ 427833.0, 427119.75 ], [ 427832.75, 427119.75 ], [ 427832.75, 427119.25 ], [ 427832.5, 427119.25 ], [ 427832.5, 427119.0 ], [ 427831.25, 427119.0 ], [ 427831.25, 427118.75 ], [ 427831.0, 427118.75 ], [ 427831.0, 427118.5 ], [ 427830.5, 427118.5 ], [ 427830.5, 427118.0 ], [ 427830.25, 427118.0 ], [ 427830.25, 427117.75 ], [ 427830.0, 427117.75 ], [ 427830.0, 427117.5 ], [ 427829.75, 427117.5 ], [ 427829.75, 427117.25 ], [ 427829.25, 427117.25 ], [ 427829.25, 427117.0 ], [ 427829.0, 427117.0 ], [ 427829.0, 427116.75 ], [ 427828.75, 427116.75 ], [ 427828.75, 427116.5 ], [ 427828.5, 427116.5 ], [ 427828.5, 427116.25 ], [ 427828.25, 427116.25 ], [ 427828.25, 427115.75 ], [ 427827.75, 427115.75 ], [ 427827.75, 427115.25 ], [ 427828.0, 427115.25 ], [ 427828.0, 427114.75 ], [ 427828.25, 427114.75 ], [ 427828.25, 427114.25 ], [ 427828.0, 427114.25 ], [ 427828.0, 427114.0 ], [ 427827.25, 427114.0 ], [ 427827.25, 427113.75 ], [ 427827.0, 427113.75 ], [ 427827.0, 427113.25 ], [ 427827.25, 427113.25 ], [ 427827.25, 427113.0 ], [ 427827.5, 427113.0 ], [ 427827.5, 427112.75 ], [ 427828.0, 427112.75 ], [ 427828.0, 427112.5 ], [ 427828.25, 427112.5 ], [ 427828.25, 427112.25 ], [ 427828.75, 427112.25 ], [ 427828.75, 427112.5 ], [ 427829.0, 427112.5 ], [ 427829.0, 427112.75 ], [ 427829.5, 427112.75 ], [ 427829.5, 427112.5 ], [ 427829.75, 427112.5 ], [ 427829.75, 427112.25 ], [ 427830.0, 427112.25 ], [ 427830.0, 427112.0 ], [ 427830.25, 427112.0 ], [ 427830.25, 427111.75 ], [ 427830.5, 427111.75 ], [ 427830.5, 427111.5 ], [ 427831.0, 427111.5 ], [ 427831.0, 427111.25 ], [ 427831.25, 427111.25 ], [ 427831.25, 427111.0 ], [ 427831.5, 427111.0 ], [ 427831.5, 427110.75 ], [ 427832.25, 427110.75 ], [ 427832.25, 427111.0 ], [ 427833.5, 427111.0 ], [ 427833.5, 427110.75 ], [ 427833.75, 427110.75 ], [ 427833.75, 427110.5 ], [ 427834.0, 427110.5 ], [ 427834.0, 427110.0 ], [ 427834.25, 427110.0 ], [ 427834.25, 427109.75 ], [ 427834.5, 427109.75 ], [ 427834.5, 427109.0 ], [ 427834.75, 427109.0 ], [ 427834.75, 427106.0 ], [ 427835.0, 427106.0 ], [ 427835.0, 427105.75 ], [ 427835.5, 427105.75 ], [ 427835.5, 427104.75 ], [ 427835.75, 427104.75 ], [ 427835.75, 427104.0 ], [ 427802.0, 427104.0 ], [ 427802.0, 427102.75 ], [ 427802.25, 427102.75 ], [ 427802.25, 427101.75 ], [ 427802.0, 427101.75 ], [ 427802.0, 427101.5 ], [ 427802.25, 427101.5 ], [ 427802.25, 427101.25 ], [ 427802.5, 427101.25 ], [ 427802.5, 427100.75 ], [ 427802.75, 427100.75 ], [ 427802.75, 427100.25 ], [ 427802.5, 427100.25 ], [ 427802.5, 427099.25 ], [ 427802.25, 427099.25 ], [ 427802.25, 427098.75 ], [ 427802.0, 427098.75 ], [ 427802.0, 427097.5 ], [ 427802.25, 427097.5 ], [ 427802.25, 427097.0 ], [ 427802.5, 427097.0 ], [ 427802.5, 427096.75 ], [ 427802.75, 427096.75 ], [ 427802.75, 427096.25 ], [ 427803.0, 427096.25 ], [ 427803.0, 427095.75 ], [ 427803.25, 427095.75 ], [ 427803.25, 427095.25 ], [ 427803.5, 427095.25 ], [ 427803.5, 427094.75 ], [ 427803.75, 427094.75 ], [ 427803.75, 427086.75 ], [ 427803.5, 427086.75 ], [ 427803.5, 427086.5 ], [ 427803.75, 427086.5 ], [ 427803.75, 427085.25 ], [ 427804.0, 427085.25 ], [ 427804.0, 427084.75 ], [ 427804.25, 427084.75 ], [ 427804.25, 427084.25 ], [ 427804.5, 427084.25 ], [ 427804.5, 427084.0 ], [ 427804.75, 427084.0 ], [ 427804.75, 427083.75 ], [ 427805.0, 427083.75 ], [ 427805.0, 427083.5 ], [ 427805.25, 427083.5 ], [ 427805.25, 427083.25 ], [ 427805.75, 427083.25 ], [ 427805.75, 427083.0 ], [ 427806.0, 427083.0 ], [ 427806.0, 427082.75 ], [ 427806.25, 427082.75 ], [ 427806.25, 427082.25 ], [ 427806.5, 427082.25 ], [ 427806.5, 427081.75 ], [ 427806.75, 427081.75 ], [ 427806.75, 427081.25 ], [ 427807.0, 427081.25 ], [ 427807.0, 427080.5 ], [ 427807.25, 427080.5 ], [ 427807.25, 427080.0 ], [ 427807.5, 427080.0 ], [ 427807.5, 427079.25 ], [ 427807.75, 427079.25 ], [ 427807.75, 427078.5 ], [ 427808.0, 427078.5 ], [ 427808.0, 427077.5 ], [ 427808.25, 427077.5 ], [ 427808.25, 427076.75 ], [ 427808.5, 427076.75 ], [ 427808.5, 427076.0 ], [ 427808.75, 427076.0 ], [ 427808.75, 427075.25 ], [ 427809.0, 427075.25 ], [ 427809.0, 427074.75 ], [ 427809.25, 427074.75 ], [ 427809.25, 427074.5 ], [ 427809.5, 427074.5 ], [ 427809.5, 427074.25 ], [ 427809.75, 427074.25 ], [ 427809.75, 427074.0 ], [ 427810.0, 427074.0 ], [ 427810.0, 427073.75 ], [ 427810.25, 427073.75 ], [ 427810.25, 427073.5 ], [ 427810.75, 427073.5 ], [ 427810.75, 427073.25 ], [ 427811.25, 427073.25 ], [ 427811.25, 427073.0 ], [ 427811.75, 427073.0 ], [ 427811.75, 427072.75 ], [ 427812.25, 427072.75 ], [ 427812.25, 427072.5 ], [ 427812.75, 427072.5 ], [ 427812.75, 427072.25 ], [ 427813.0, 427072.25 ], [ 427813.0, 427072.0 ], [ 427813.75, 427072.0 ], [ 427813.75, 427071.75 ], [ 427814.5, 427071.75 ], [ 427814.5, 427071.5 ], [ 427815.25, 427071.5 ], [ 427815.25, 427071.25 ], [ 427816.0, 427071.25 ], [ 427816.0, 427071.0 ], [ 427817.0, 427071.0 ], [ 427817.0, 427070.75 ], [ 427817.75, 427070.75 ], [ 427817.75, 427070.5 ], [ 427818.0, 427070.5 ], [ 427818.0, 427070.25 ], [ 427818.25, 427070.25 ], [ 427818.25, 427070.0 ], [ 427818.5, 427070.0 ], [ 427818.5, 427069.75 ], [ 427818.75, 427069.75 ], [ 427818.75, 427069.25 ], [ 427818.5, 427069.25 ], [ 427818.5, 427068.75 ], [ 427818.25, 427068.75 ], [ 427818.25, 427068.0 ], [ 427818.0, 427068.0 ], [ 427818.0, 427067.0 ], [ 427817.75, 427067.0 ], [ 427817.75, 427065.25 ], [ 427818.0, 427065.25 ], [ 427818.0, 427065.0 ], [ 427818.25, 427065.0 ], [ 427818.25, 427064.5 ], [ 427818.5, 427064.5 ], [ 427818.5, 427064.25 ], [ 427819.0, 427064.25 ], [ 427819.0, 427064.0 ], [ 427819.25, 427064.0 ], [ 427819.25, 427063.5 ], [ 427819.5, 427063.5 ], [ 427819.5, 427063.25 ], [ 427819.75, 427063.25 ], [ 427819.75, 427063.0 ], [ 427820.0, 427063.0 ], [ 427820.0, 427062.75 ], [ 427820.25, 427062.75 ], [ 427820.25, 427062.5 ], [ 427820.5, 427062.5 ], [ 427820.5, 427062.0 ], [ 427820.75, 427062.0 ], [ 427820.75, 427061.75 ], [ 427821.0, 427061.75 ], [ 427821.0, 427061.25 ], [ 427821.25, 427061.25 ], [ 427821.25, 427060.75 ], [ 427821.5, 427060.75 ], [ 427821.5, 427060.5 ], [ 427821.75, 427060.5 ], [ 427821.75, 427059.75 ], [ 427822.0, 427059.75 ], [ 427822.0, 427059.0 ], [ 427822.25, 427059.0 ], [ 427822.25, 427058.25 ], [ 427822.5, 427058.25 ], [ 427822.5, 427058.0 ], [ 427823.0, 427058.0 ], [ 427823.0, 427057.75 ], [ 427823.5, 427057.75 ], [ 427823.5, 427057.5 ], [ 427824.0, 427057.5 ], [ 427824.0, 427057.25 ], [ 427824.25, 427057.25 ], [ 427824.25, 427056.75 ], [ 427824.5, 427056.75 ], [ 427824.5, 427056.5 ], [ 427824.75, 427056.5 ], [ 427824.75, 427056.25 ], [ 427825.0, 427056.25 ], [ 427825.0, 427055.75 ], [ 427825.25, 427055.75 ], [ 427825.25, 427055.0 ], [ 427825.5, 427055.0 ], [ 427825.5, 427054.5 ], [ 427825.75, 427054.5 ], [ 427825.75, 427054.25 ], [ 427826.0, 427054.25 ], [ 427826.0, 427053.75 ], [ 427826.25, 427053.75 ], [ 427826.25, 427053.5 ], [ 427826.5, 427053.5 ], [ 427826.5, 427053.25 ], [ 427827.25, 427053.25 ], [ 427827.25, 427053.0 ], [ 427827.75, 427053.0 ], [ 427827.75, 427053.25 ], [ 427828.25, 427053.25 ], [ 427828.25, 427056.75 ], [ 427829.0, 427056.75 ], [ 427829.0, 427056.5 ], [ 427829.75, 427056.5 ], [ 427829.75, 427056.75 ], [ 427830.0, 427056.75 ], [ 427830.0, 427057.25 ], [ 427830.25, 427057.25 ], [ 427830.25, 427057.5 ], [ 427830.75, 427057.5 ], [ 427830.75, 427057.25 ], [ 427831.0, 427057.25 ], [ 427831.0, 427056.5 ], [ 427831.25, 427056.5 ], [ 427831.25, 427056.0 ], [ 427831.5, 427056.0 ], [ 427831.5, 427055.75 ], [ 427832.0, 427055.75 ], [ 427832.0, 427055.5 ], [ 427832.25, 427055.5 ], [ 427832.25, 427055.25 ], [ 427835.5, 427055.25 ], [ 427835.5, 427055.0 ], [ 427836.75, 427055.0 ], [ 427836.75, 427055.25 ], [ 427837.25, 427055.25 ], [ 427837.25, 427055.5 ], [ 427837.75, 427055.5 ], [ 427837.75, 427055.75 ], [ 427838.0, 427055.75 ], [ 427838.0, 427056.25 ], [ 427838.25, 427056.25 ], [ 427838.25, 427057.25 ], [ 427838.5, 427057.25 ], [ 427838.5, 427058.0 ], [ 427838.75, 427058.0 ], [ 427838.75, 427058.25 ], [ 427839.0, 427058.25 ], [ 427839.0, 427058.5 ], [ 427839.25, 427058.5 ], [ 427839.25, 427058.75 ], [ 427839.5, 427058.75 ], [ 427839.5, 427059.25 ], [ 427839.75, 427059.25 ], [ 427839.75, 427059.5 ], [ 427840.0, 427059.5 ], [ 427840.0, 427059.75 ], [ 427840.25, 427059.75 ], [ 427840.25, 427060.0 ], [ 427840.75, 427060.0 ], [ 427840.75, 427060.25 ], [ 427841.25, 427060.25 ], [ 427841.25, 427060.5 ], [ 427841.5, 427060.5 ], [ 427841.5, 427061.25 ], [ 427841.75, 427061.25 ], [ 427841.75, 427061.75 ], [ 427841.5, 427061.75 ], [ 427841.5, 427062.0 ], [ 427841.25, 427062.0 ], [ 427841.25, 427062.75 ], [ 427842.0, 427062.75 ], [ 427842.0, 427062.5 ], [ 427842.25, 427062.5 ], [ 427842.25, 427062.25 ], [ 427842.75, 427062.25 ], [ 427842.75, 427062.0 ], [ 427843.0, 427062.0 ], [ 427843.0, 427061.5 ], [ 427843.25, 427061.5 ], [ 427843.25, 427061.25 ], [ 427843.75, 427061.25 ], [ 427843.75, 427061.5 ], [ 427844.0, 427061.5 ], [ 427844.0, 427062.0 ], [ 427844.5, 427062.0 ], [ 427844.5, 427062.25 ], [ 427844.75, 427062.25 ], [ 427844.75, 427062.0 ], [ 427845.5, 427062.0 ], [ 427845.5, 427062.25 ], [ 427846.0, 427062.25 ], [ 427846.0, 427062.5 ], [ 427846.5, 427062.5 ], [ 427846.5, 427062.75 ], [ 427846.75, 427062.75 ], [ 427846.75, 427063.0 ], [ 427847.5, 427063.0 ], [ 427847.5, 427063.25 ], [ 427847.75, 427063.25 ], [ 427847.75, 427063.75 ], [ 427848.0, 427063.75 ], [ 427848.0, 427064.25 ], [ 427848.25, 427064.25 ], [ 427848.25, 427064.75 ], [ 427848.5, 427064.75 ], [ 427848.5, 427065.25 ], [ 427848.75, 427065.25 ], [ 427848.75, 427065.75 ], [ 427849.0, 427065.75 ], [ 427849.0, 427067.75 ], [ 427848.75, 427067.75 ], [ 427848.75, 427069.0 ], [ 427848.5, 427069.0 ], [ 427848.5, 427071.0 ], [ 427848.75, 427071.0 ], [ 427848.75, 427076.75 ], [ 427849.0, 427076.75 ], [ 427849.0, 427077.75 ], [ 427849.25, 427077.75 ], [ 427849.25, 427078.25 ], [ 427849.5, 427078.25 ], [ 427849.5, 427078.75 ], [ 427849.75, 427078.75 ], [ 427849.75, 427079.25 ], [ 427850.0, 427079.25 ], [ 427850.0, 427079.5 ], [ 427850.25, 427079.5 ], [ 427850.25, 427080.0 ], [ 427850.5, 427080.0 ], [ 427850.5, 427080.25 ], [ 427850.75, 427080.25 ], [ 427850.75, 427080.5 ], [ 427851.0, 427080.5 ], [ 427851.0, 427081.0 ], [ 427851.25, 427081.0 ], [ 427851.25, 427081.25 ], [ 427851.5, 427081.25 ], [ 427851.5, 427082.0 ], [ 427851.75, 427082.0 ], [ 427851.75, 427083.25 ], [ 427852.0, 427083.25 ], [ 427852.0, 427086.25 ], [ 427851.75, 427086.25 ], [ 427851.75, 427087.5 ], [ 427851.5, 427087.5 ], [ 427851.5, 427088.5 ], [ 427851.25, 427088.5 ], [ 427851.25, 427089.0 ], [ 427851.0, 427089.0 ], [ 427851.0, 427089.75 ], [ 427850.75, 427089.75 ], [ 427850.75, 427090.25 ], [ 427850.5, 427090.25 ], [ 427850.5, 427090.5 ], [ 427850.25, 427090.5 ], [ 427850.25, 427091.0 ], [ 427850.0, 427091.0 ], [ 427850.0, 427091.25 ], [ 427849.75, 427091.25 ], [ 427849.75, 427091.5 ], [ 427849.5, 427091.5 ], [ 427849.5, 427092.0 ], [ 427849.25, 427092.0 ], [ 427849.25, 427092.25 ], [ 427849.0, 427092.25 ], [ 427849.0, 427092.75 ], [ 427848.75, 427092.75 ], [ 427848.75, 427093.25 ], [ 427848.5, 427093.25 ], [ 427848.5, 427093.75 ], [ 427848.25, 427093.75 ], [ 427848.25, 427094.5 ], [ 427848.0, 427094.5 ], [ 427848.0, 427095.25 ], [ 427847.75, 427095.25 ], [ 427847.75, 427095.75 ], [ 427847.5, 427095.75 ], [ 427847.5, 427096.5 ], [ 427847.25, 427096.5 ], [ 427847.25, 427097.0 ], [ 427847.0, 427097.0 ], [ 427847.0, 427097.75 ], [ 427846.75, 427097.75 ], [ 427846.75, 427098.25 ], [ 427846.5, 427098.25 ], [ 427846.5, 427099.0 ], [ 427846.25, 427099.0 ], [ 427846.25, 427099.5 ], [ 427846.0, 427099.5 ], [ 427846.0, 427100.0 ], [ 427845.75, 427100.0 ], [ 427845.75, 427100.5 ], [ 427845.5, 427100.5 ], [ 427845.5, 427101.0 ], [ 427845.25, 427101.0 ], [ 427845.25, 427101.75 ], [ 427845.0, 427101.75 ], [ 427845.0, 427103.0 ], [ 427845.25, 427103.0 ], [ 427845.25, 427104.0 ], [ 427838.0, 427104.0 ], [ 427838.0, 427104.75 ], [ 427837.75, 427104.75 ], [ 427837.75, 427106.25 ], [ 427837.5, 427106.25 ], [ 427837.5, 427106.75 ], [ 427837.25, 427106.75 ], [ 427837.25, 427107.25 ], [ 427837.0, 427107.25 ], [ 427837.0, 427107.75 ], [ 427837.25, 427107.75 ], [ 427837.25, 427108.0 ], [ 427837.5, 427108.0 ], [ 427837.5, 427108.25 ], [ 427837.75, 427108.25 ], [ 427837.75, 427108.75 ], [ 427838.0, 427108.75 ], [ 427838.0, 427109.5 ], [ 427838.25, 427109.5 ], [ 427838.25, 427112.5 ], [ 427838.0, 427112.5 ], [ 427838.0, 427114.75 ], [ 427837.75, 427114.75 ], [ 427837.75, 427115.5 ], [ 427837.5, 427115.5 ], [ 427837.5, 427116.0 ], [ 427837.25, 427116.0 ], [ 427837.25, 427116.5 ], [ 427837.0, 427116.5 ], [ 427837.0, 427117.25 ], [ 427836.75, 427117.25 ], [ 427836.75, 427117.75 ], [ 427836.5, 427117.75 ], [ 427836.5, 427118.25 ], [ 427836.25, 427118.25 ], [ 427836.25, 427118.75 ], [ 427836.0, 427118.75 ], [ 427836.0, 427119.0 ], [ 427835.75, 427119.0 ], [ 427835.75, 427119.5 ], [ 427835.5, 427119.5 ], [ 427835.5, 427119.75 ], [ 427835.0, 427119.75 ], [ 427835.0, 427120.0 ], [ 427834.5, 427120.0 ], [ 427834.5, 427120.25 ], [ 427834.25, 427120.25 ] ] ] } },
{ "type": "Feature", "properties": { "area_m2": 960.1875 }, "geometry": { "type": "Polygon", "coordinates": [ [ [ 427087.0, 427077.5 ], [ 427087.0, 427077.25 ], [ 427086.0, 427077.25 ], [ 427086.0, 427077.0 ], [ 427085.25, 427077.0 ], [ 427085.25, 427076.75 ], [ 427084.5, 427076.75 ], [ 427084.5, 427076.5 ], [ 427084.0, 427076.5 ], [ 427084.0, 427076.25 ], [ 427083.25, 427076.25 ], [ 427083.25, 427076.0 ], [ 427082.25, 427076.0 ], [ 427082.25, 427075.75 ], [ 427081.5, 427075.75 ], [ 427081.5, 427075.5 ], [ 427080.75, 427075.5 ], [ 427080.75, 427075.25 ], [ 427079.5, 427075.25 ], [ 427079.5, 427075.0 ], [ 427078.5, 427075.0 ], [ 427078.5, 427074.75 ], [ 427077.25, 427074.75 ], [ 427077.25, 427074.5 ], [ 427076.0, 427074.5 ], [ 427076.0, 427074.25 ], [ 427075.0, 427074.25 ], [ 427075.0, 427074.0 ], [ 427074.0, 427074.0 ], [ 427074.0, 427073.75 ], [ 427073.0, 427073.75 ], [ 427073.0, 427073.5 ], [ 427072.25, 427073.5 ], [ 427072.25, 427073.25 ], [ 427071.5, 427073.25 ], [ 427071.5, 427073.0 ], [ 427070.25, 427073.0 ], [ 427070.25, 427072.75 ], [ 427069.0, 427072.75 ], [ 427069.0, 427072.5 ], [ 427068.0, 427072.5 ], [ 427068.0, 427072.25 ], [ 427067.0, 427072.25 ], [ 427067.0, 427072.0 ], [ 427065.25, 427072.0 ], [ 427065.25, 427071.75 ], [ 427062.5, 427071.75 ], [ 427062.5, 427071.5 ], [ 427060.5, 427071.5 ], [ 427060.5, 427071.25 ], [ 427058.75, 427071.25 ], [ 427058.75, 427071.0 ], [ 427057.75, 427071.0 ], [ 427057.75, 427070.75 ], [ 427057.0, 427070.75 ], [ 427057.0, 427070.5 ], [ 427056.75, 427070.5 ], [ 427056.75, 427070.25 ], [ 427056.5, 427070.25 ], [ 427056.5, 427069.75 ], [ 427056.25, 427069.75 ], [ 427056.25, 427069.5 ], [ 427056.0, 427069.5 ], [ 427056.0, 427068.75 ], [ 427055.75, 427068.75 ], [ 427055.75, 427067.75 ], [ 427055.5, 427067.75 ], [ 427055.5, 427064.75 ], [ 427055.75, 427064.75 ], [ 427055.75, 427062.25 ], [ 427056.0, 427062.25 ], [ 427056.0, 427058.0 ], [ 427056.25, 427058.0 ], [ 427056.25, 427056.25 ], [ 427056.5, 427056.25 ], [ 427056.5, 427054.75 ], [ 427056.75, 427054.75 ], [ 427056.75, 427053.75 ], [ 427057.0, 427053.75 ], [ 427057.0, 427052.75 ], [ 427057.25, 427052.75 ], [ 427057.25, 427052.0 ], [ 427057.5, 427052.0 ], [ 427057.5, 427051.5 ], [ 427057.75, 427051.5 ], [ 427057.75, 427051.25 ], [ 427058.0, 427051.25 ], [ 427058.0, 427051.0 ], [ 427058.25, 427051.0 ], [ 427058.25, 427050.75 ], [ 427058.5, 427050.75 ], [ 427058.5, 427050.5 ], [ 427058.75, 427050.5 ], [ 427058.75, 427050.25 ], [ 427059.0, 427050.25 ], [ 427059.0, 427050.0 ], [ 427059.25, 427050.0 ], [ 427059.25, 427049.75 ], [ 427059.5, 427049.75 ], [ 427059.5, 427049.5 ], [ 427059.75, 427049.5 ], [ 427059.75, 427049.25 ], [ 427060.25, 427049.25 ], [ 427060.25, 427049.0 ], [ 427061.25, 427049.0 ], [ 427061.25, 427048.75 ], [ 427063.75, 427048.75 ], [ 427063.75, 427049.0 ], [ 427064.75, 427049.0 ], [ 427064.75, 427049.25 ], [ 427066.75, 427049.25 ], [ 427066.75, 427049.0 ], [ 427067.5, 427049.0 ], [ 427067.5, 427048.75 ], [ 427068.0, 427048.75 ], [ 427068.0, 427048.5 ], [ 427069.0, 427048.5 ], [ 427069.0, 427048.25 ], [ 427070.25, 427048.25 ], [ 427070.25, 427048.0 ], [ 427072.75, 427048.0 ], [ 427072.75, 427047.75 ], [ 427074.75, 427047.75 ], [ 427074.75, 427048.0 ], [ 427076.5, 427048.0 ], [ 427076.5, 427048.25 ], [ 427078.0, 427048.25 ], [ 427078.0, 427048.5 ], [ 427080.25, 427048.5 ], [ 427080.25, 427048.75 ], [ 427082.5, 427048.75 ], [ 427082.5, 427049.0 ], [ 427083.25, 427049.0 ], [ 427083.25, 427049.25 ], [ 427084.0, 427049.25 ], [ 427084.0, 427049.5 ], [ 427084.5, 427049.5 ], [ 427084.5, 427049.75 ], [ 427084.75, 427049.75 ], [ 427084.75, 427050.0 ], [ 427085.0, 427050.0 ], [ 427085.0, 427050.25 ], [ 427085.5, 427050.25 ], [ 427085.5, 427050.5 ], [ 427085.75, 427050.5 ], [ 427085.75, 427050.75 ], [ 427086.0, 427050.75 ], [ 427086.0, 427051.0 ], [ 427086.25, 427051.0 ], [ 427086.25, 427051.25 ], [ 427086.5, 427051.25 ], [ 427086.5, 427051.75 ], [ 427086.75, 427051.75 ], [ 427086.75, 427052.5 ], [ 427087.0, 427052.5 ], [ 427087.0, 427053.0 ], [ 427087.25, 427053.0 ], [ 427087.25, 427053.5 ], [ 427087.5, 427053.5 ], [ 427087.5, 427053.75 ], [ 427087.75, 427053.75 ], [ 427087.75, 427054.25 ], [ 427088.0, 427054.25 ], [ 427088.0, 427054.5 ], [ 427088.25, 427054.5 ], [ 427088.25, 427054.75 ], [ 427088.75, 427054.75 ], [ 427088.75, 427055.0 ], [ 427089.25, 427055.0 ], [ 427089.25, 427055.25 ], [ 427089.75, 427055.25 ], [ 427089.75, 427055.5 ], [ 427090.75, 427055.5 ], [ 427090.75, 427055.75 ], [ 427091.25, 427055.75 ], [ 427091.25, 427056.0 ], [ 427092.0, 427056.0 ], [ 427092.0, 427056.25 ], [ 427092.5, 427056.25 ], [ 427092.5, 427056.5 ], [ 427093.0, 427056.5 ], [ 427093.0, 427056.75 ], [ 427093.5, 427056.75 ], [ 427093.5, 427057.0 ], [ 427094.0, 427057.0 ], [ 427094.0, 427057.25 ], [ 427094.25, 427057.25 ], [ 427094.25, 427057.5 ], [ 427094.5, 427057.5 ], [ 427094.5, 427057.75 ], [ 427095.0, 427057.75 ], [ 427095.0, 427058.25 ], [ 427095.25, 427058.25 ], [ 427095.25, 427058.5 ], [ 427095.5, 427058.5 ], [ 427095.5, 427058.75 ], [ 427095.75, 427058.75 ], [ 427095.75, 427059.0 ], [ 427096.0, 427059.0 ], [ 427096.0, 427059.25 ], [ 427096.25, 427059.25 ], [ 427096.25, 427059.5 ], [ 427096.5, 427059.5 ], [ 427096.5, 427059.75 ], [ 427096.75, 427059.75 ], [ 427096.75, 427060.25 ], [ 427097.0, 427060.25 ], [ 427097.0, 427060.5 ], [ 427097.25, 427060.5 ], [ 427097.25, 427061.0 ], [ 427097.5, 427061.0 ], [ 427097.5, 427061.75 ], [ 427097.75, 427061.75 ], [ 427097.75, 427062.75 ], [ 427098.0, 427062.75 ], [ 427098.0, 427064.75 ], [ 427098.25, 427064.75 ], [ 427098.25, 427066.0 ], [ 427098.0, 427066.0 ], [ 427098.0, 427067.5 ], [ 427097.75, 427067.5 ], [ 427097.75, 427069.25 ], [ 427097.5, 427069.25 ], [ 427097.5, 427070.0 ], [ 427097.25, 427070.0 ], [ 427097.25, 427070.75 ], [ 427097.0, 427070.75 ], [ 427097.0, 427071.25 ], [ 427096.75, 427071.25 ], [ 427096.75, 427072.0 ], [ 427096.5, 427072.0 ], [ 427096.5, 427072.5 ], [ 427096.25, 427072.5 ], [ 427096.25, 427073.0 ], [ 427096.0, 427073.0 ], [ 427096.0, 427073.5 ], [ 427095.75, 427073.5 ], [ 427095.75, 427074.0 ], [ 427095.5, 427074.0 ], [ 427095.5, 427074.25 ], [ 427095.25, 427074.25 ], [ 427095.25, 427074.75 ], [ 427095.0, 427074.75 ], [ 427095.0, 427075.0 ], [ 427094.75, 427075.0 ], [ 427094.75, 427075.25 ], [ 427094.5, 427075.25 ], [ 427094.5, 427075.5 ], [ 427094.25, 427075.5 ], [ 427094.25, 427075.75 ], [ 427093.75, 427075.75 ], [ 427093.75, 427076.0 ], [ 427093.5, 427076.0 ], [ 427093.5, 427076.25 ], [ 427093.0, 427076.25 ], [ 427093.0, 427076.5 ], [ 427092.5, 427076.5 ], [ 427092.5, 427076.75 ], [ 427092.0, 427076.75 ], [ 427092.0, 427077.0 ], [ 427091.25, 427077.0 ], [ 427091.25, 427077.25 ], [ 427090.5, 427077.25 ], [ 427090.5, 427077.5 ], [ 427087.0, 427077.5 ] ] ] } }
]
}
