{
"type": "FeatureCollection",
"name": "fn_unclassified",
"crs": { "type": "name", "properties": { "name": "urn:ogc:def:crs:EPSG::27700" } },
"features": [
{ "type": "Feature", "properties": { "lot_id": 1817, "area_m2": 9559.6545840550862, "cov": 0.039086995699275595, "cov_original": 0.039086995699275595, "confidence": 3, "notes": null }, "geometry": { "type": "Polygon", "coordinates": [ [ [ 432173.744197056628764, 430589.524627245031297 ], [ 432240.376559675845783, 430522.585588211892173 ], [ 432262.968560067703947, 430511.737172813038342 ], [ 432293.819431984156836, 430502.779514439869672 ], [ 432302.062423475261312, 430506.962494445964694 ], [ 432319.841732751287054, 430527.716299791238271 ], [ 432339.946876675356179, 430544.35980970854871 ], [ 432349.152997118304484, 430542.130802476895042 ], [ 432375.46555429964792, 430524.889897297602147 ], [ 432388.823209096910432, 430520.39717230538372 ], [ 432396.172349164029583, 430520.906316459644586 ], [ 432397.579370884748641, 430516.789708381984383 ], [ 432399.876967296004295, 430516.805551199708134 ], [ 432401.730860421259422, 430514.525939551764168 ], [ 432400.371280277555343, 430511.765687667299062 ], [ 432400.409237060172018, 430506.264191797468811 ], [ 432399.103423487686086, 430495.710134148714133 ], [ 432397.32543026690837, 430486.986725792172365 ], [ 432395.062606845516711, 430481.927820303360932 ], [ 432390.52429672004655, 430473.643842648365535 ], [ 432387.849362209497485, 430461.704825234017335 ], [ 432380.997585557925049, 430455.697301756357774 ], [ 432379.159484185453039, 430455.684635168989189 ], [ 432361.200085703341756, 430461.062728284508921 ], [ 432352.887580761162098, 430466.965779217425734 ], [ 432337.229032687959261, 430471.901308914413676 ], [ 432323.871290098701138, 430476.394229294266552 ], [ 432314.183447295392398, 430481.82938435242977 ], [ 432306.377868468349334, 430480.858746096491814 ], [ 432159.347454536473379, 430544.495663255802356 ], [ 432159.338036941539031, 430545.871025639586151 ], [ 432122.454445466748439, 430563.499234915245324 ], [ 432126.102338564815, 430567.650437269592658 ], [ 432156.98081499862019, 430554.56591973232571 ], [ 432168.26145429443568, 430584.902371072559617 ], [ 432173.744197056628764, 430589.524627245031297 ] ] ] } },
{ "type": "Feature", "properties": { "lot_id": 745, "area_m2": 3218.8040333490007, "cov": 3.4429630352798565e-06, "cov_original": 3.4429630352798565e-06, "confidence": 3, "notes": null }, "geometry": { "type": "Polygon", "coordinates": [ [ [ 429002.139611895894632, 430621.379981605568901 ], [ 429008.592701929796021, 430618.210504150018096 ], [ 429012.705804471275769, 430621.903506132774055 ], [ 429032.104700414463878, 430605.976940155844204 ], [ 429042.197259435779415, 430608.789913583779708 ], [ 429050.085543757828418, 430596.460112674627453 ], [ 429041.842376489774324, 430591.824670358328149 ], [ 429018.17312600358855, 430555.001731890602969 ], [ 429014.482767439447343, 430557.271327819093131 ], [ 429009.929856917297002, 430550.366309436736628 ], [ 429013.628694843500853, 430546.721360736293718 ], [ 428994.483745869947597, 430521.387799376971088 ], [ 428990.316901972750202, 430526.405307141831145 ], [ 429006.704677395755425, 430551.721847278531641 ], [ 428972.062235356250312, 430580.391907317331061 ], [ 429002.139611895894632, 430621.379981605568901 ] ] ] } },
{ "type": "Feature", "properties": { "lot_id": 1794, "area_m2": 2968.9447526213498, "cov": 0.049668373042897881, "cov_original": 0.049668373042897881, "confidence": 2, "notes": null }, "geometry": { "type": "Polygon", "coordinates": [ [ [ 432985.991352050565183, 431567.477375420625322 ], [ 433021.373402508557774, 431566.809191716252826 ], [ 433018.741164680453949, 431483.82354018103797 ], [ 433006.339733523491304, 431483.278008582768962 ], [ 433000.823329713137355, 431483.697641182458028 ], [ 432981.941531658987515, 431489.982443406945094 ], [ 432985.991352050565183, 431567.477375420625322 ] ] ] } },
{ "type": "Feature", "properties": { "lot_id": 1840, "area_m2": 2535.1548256341225, "cov": 0.0, "cov_original": 0.0, "confidence": 3, "notes": null }, "geometry": { "type": "Polygon", "coordinates": [ [ [ 433448.988986562239006, 431069.258502544718795 ], [ 433463.786907406698447, 431056.069454260054044 ], [ 433441.445793744176626, 431031.613589190412313 ], [ 433479.345241860253736, 431000.710056786192581 ], [ 433457.906563074328005, 430978.552442391868681 ], [ 433449.127400709316134, 430985.366477721720003 ], [ 433419.580243817705195, 431004.868921843939461 ], [ 433411.674456858600024, 431018.107259906595573 ], [ 433436.766113251447678, 431043.499482781044208 ], [ 433432.601444911095314, 431047.595716043724678 ], [ 433448.988986562239006, 431069.258502544718795 ] ] ] } },
{ "type": "Feature", "properties": { "lot_id": 881, "area_m2": 2088.5632004821869, "cov": 0.0, "cov_original": 0.0, "confidence": 3, "notes": null }, "geometry": { "type": "Polygon", "coordinates": [ [ [ 429145.691868499445263, 433335.552963650785387 ], [ 429156.232233528397046, 433339.283917242544703 ], [ 429161.794608497642912, 433331.070997989620082 ], [ 429171.461956990766339, 433327.465493139228784 ], [ 429184.489338848390616, 433300.512982664629817 ], [ 429180.381527777761221, 433296.36370051978156 ], [ 429188.294428476772737, 433279.459598766523413 ], [ 429158.972163183265366, 433267.822522090398706 ], [ 429138.93644210655475, 433313.975985868368298 ], [ 429145.691868499445263, 433335.552963650785387 ] ] ] } },
{ "type": "Feature", "properties": { "lot_id": 1355, "area_m2": 2025.1234405659209, "cov": 0.040525714393403287, "cov_original": 0.040620572456569241, "confidence": 1, "notes": null }, "geometry": { "type": "Polygon", "coordinates": [ [ [ 431533.583928538486362, 430970.170669099781662 ], [ 431584.795525489491411, 430939.340972868958488 ], [ 431584.872550247935578, 430927.880589192034677 ], [ 431533.413557527004741, 430927.076690775109455 ], [ 431533.502750439627562, 430913.782611213508062 ], [ 431528.91098356427392, 430913.293375037959777 ], [ 431528.972486385493539, 430904.125021630898118 ], [ 431538.680122654768638, 430895.479793928912841 ], [ 431538.239093167707324, 430892.726196683826856 ], [ 431534.560126180527732, 430893.159956957679242 ], [ 431513.815621487912722, 430903.10651511431206 ], [ 431512.841328561946284, 430911.351874996908009 ], [ 431509.529670646996237, 430925.541232756455429 ], [ 431520.554187372559682, 430926.073576728347689 ], [ 431520.529593201703392, 430929.740902999299578 ], [ 431532.476138793339487, 430929.821021105744876 ], [ 431533.583928538486362, 430970.170669099781662 ] ] ] } },
{ "type": "Feature", "properties": { "lot_id": 1921, "area_m2": 2004.2945617090611, "cov": 0.058849076111216453, "cov_original": 0.058849076111216453, "confidence": 2, "notes": null }, "geometry": { "type": "Polygon", "coordinates": [ [ [ 433787.037105058319867, 435591.71930878108833 ], [ 433851.196359382942319, 435606.836222508572973 ], [ 433857.275750529835932, 435591.308956310153008 ], [ 433842.757879119133577, 435567.389691395801492 ], [ 433819.84229269460775, 435562.186960669583641 ], [ 433792.204805694054812, 435575.269405637402087 ], [ 433787.037105058319867, 435591.71930878108833 ] ] ] } },
{ "type": "Feature", "properties": { "lot_id": 1820, "area_m2": 1885.5381622996633, "cov": 0.0, "cov_original": 0.0, "confidence": 3, "notes": null }, "geometry": { "type": "Polygon", "coordinates": [ [ [ 432510.233122186735272, 430075.687757588922977 ], [ 432545.302867848542519, 430055.29693162580952 ], [ 432537.10054434009362, 430045.152602104237303 ], [ 432515.133366624068003, 430031.703339145169593 ], [ 432466.222745522391051, 430059.793771473574452 ], [ 432466.19106511696009, 430064.378784185857512 ], [ 432510.233122186735272, 430075.687757588922977 ] ] ] } },
{ "type": "Feature", "properties": { "lot_id": 694, "area_m2": 1749.7017461259782, "cov": 0.0, "cov_original": 0.0, "confidence": 1, "notes": null }, "geometry": { "type": "Polygon", "coordinates": [ [ [ 427965.222297211585101, 431705.639330369071104 ], [ 427983.599171999259852, 431705.748664293321781 ], [ 427984.397277232492343, 431648.917811059043743 ], [ 427998.180090236128308, 431648.999858076218516 ], [ 427998.746090137341525, 431631.12737101840321 ], [ 427962.445760325237643, 431631.828079044818878 ], [ 427965.222297211585101, 431705.639330369071104 ] ] ] } },
{ "type": "Feature", "properties": { "lot_id": 1791, "area_m2": 1568.7116444333233, "cov": 0.0, "cov_original": 0.0, "confidence": 2, "notes": null }, "geometry": { "type": "Polygon", "coordinates": [ [ [ 432918.694381118926685, 431041.789510226808488 ], [ 432945.07705272489693, 431014.468654232681729 ], [ 432920.901953613152727, 430989.085315778735094 ], [ 432908.978161906648893, 430985.792713883449323 ], [ 432901.106078192940913, 430994.447816363768652 ], [ 432897.844798359728884, 431000.843042487394996 ], [ 432899.078642362961546, 431021.481135919690132 ], [ 432918.694381118926685, 431041.789510226808488 ] ] ] } },
{ "type": "Feature", "properties": { "lot_id": 1330, "area_m2": 1554.1369693730046, "cov": 0.0, "cov_original": 0.0, "confidence": 2, "notes": null }, "geometry": { "type": "Polygon", "coordinates": [ [ [ 430133.941500827146228, 430000.374056910979562 ], [ 430157.29505745327333, 430013.820645933039486 ], [ 430178.284832050150726, 429965.810181524488144 ], [ 430145.253334222710691, 429956.428140612551942 ], [ 430132.179468917369377, 429988.441201310721226 ], [ 430138.133516067522578, 429991.688956339610741 ], [ 430133.941500827146228, 430000.374056910979562 ] ] ] } },
{ "type": "Feature", "properties": { "lot_id": 1804, "area_m2": 1150.1928505872902, "cov": 0.074788634136946516, "cov_original": 0.077986272738601092, "confidence": 2, "notes": null }, "geometry": { "type": "Polygon", "coordinates": [ [ [ 432715.895726600545458, 431856.190515997121111 ], [ 432746.856969659158494, 431830.280339638120495 ], [ 432733.646569468080997, 431814.145890720072202 ], [ 432728.570889768539928, 431817.318985352409072 ], [ 432726.296310061123222, 431814.094659780035727 ], [ 432694.413105630374048, 431840.456992982770316 ], [ 432703.521023312117904, 431851.979171938961372 ], [ 432715.895726600545458, 431856.190515997121111 ] ] ] } },
{ "type": "Feature", "properties": { "lot_id": 1736, "area_m2": 1108.332177469244, "cov": 0.01466166942577189, "cov_original": 0.01466166942577189, "confidence": 2, "notes": null }, "geometry": { "type": "Polygon", "coordinates": [ [ [ 432134.719197246537078, 431993.919816463836469 ], [ 432172.113813893578481, 431967.134007454733364 ], [ 432174.907777297717985, 431961.653093232423998 ], [ 432171.707851861719973, 431959.33947782299947 ], [ 432171.761265816865489, 431951.548082425491884 ], [ 432169.498937922588084, 431946.490849292720668 ], [ 432140.489068563794717, 431956.375674568582326 ], [ 432140.929611712112091, 431959.128721552551724 ], [ 432137.701420013385359, 431960.939981638570316 ], [ 432138.591924376261886, 431965.071119044790976 ], [ 432128.913647468260024, 431969.588269794592634 ], [ 432134.719197246537078, 431993.919816463836469 ] ] ] } },
{ "type": "Feature", "properties": { "lot_id": 1967, "area_m2": 1104.4511121578596, "cov": 0.0, "cov_original": 0.0, "confidence": 3, "notes": null }, "geometry": { "type": "Polygon", "coordinates": [ [ [ 434259.565994011296425, 433931.222117640892975 ], [ 434268.00346828205511, 433926.625864133005962 ], [ 434263.392514595529065, 433918.674121986608952 ], [ 434274.651571751455776, 433911.3037796667777 ], [ 434261.29233995534014, 433886.520230600959621 ], [ 434224.696985398244578, 433910.939976646914147 ], [ 434259.565994011296425, 433931.222117640892975 ] ] ] } },
{ "type": "Feature", "properties": { "lot_id": 1749, "area_m2": 1094.011695227809, "cov": 0.0, "cov_original": 0.0, "confidence": 2, "notes": null }, "geometry": { "type": "Polygon", "coordinates": [ [ [ 432947.972632287826855, 432270.768235825467855 ], [ 432979.276360007061157, 432261.363420247798786 ], [ 432973.92835413076682, 432237.951960645266809 ], [ 432964.734767229761928, 432238.804051766288467 ], [ 432955.644188838137779, 432224.990847340668552 ], [ 432941.333286050590687, 432234.973359623574652 ], [ 432941.750815371691715, 432240.934357822174206 ], [ 432947.972632287826855, 432270.768235825467855 ] ] ] } },
{ "type": "Feature", "properties": { "lot_id": 188, "area_m2": 1049.0302434521006, "cov": 0.0, "cov_original": 0.0, "confidence": 2, "notes": null }, "geometry": { "type": "Polygon", "coordinates": [ [ [ 426530.239927918068133, 433020.718396932817996 ], [ 426536.468414216651581, 433020.293461038148962 ], [ 426537.599221792828757, 433024.21068723895587 ], [ 426572.450611449137796, 433018.656365754781291 ], [ 426569.812597925891168, 432995.866478436044417 ], [ 426528.762474073213525, 432996.554791271453723 ], [ 426530.239927918068133, 433020.718396932817996 ] ] ] } },
{ "type": "Feature", "properties": { "lot_id": 978, "area_m2": 1007.7791516601508, "cov": 0.0, "cov_original": 0.0, "confidence": 3, "notes": null }, "geometry": { "type": "Polygon", "coordinates": [ [ [ 429583.477862464962527, 438642.770174176432192 ], [ 429607.695508719538338, 438658.026279820362106 ], [ 429627.608802072296385, 438628.40265618567355 ], [ 429602.467918215028476, 438614.055976446717978 ], [ 429583.477862464962527, 438642.770174176432192 ] ] ] } },
{ "type": "Feature", "properties": { "lot_id": 502, "area_m2": 998.68975299201043, "cov": 0.0093875634573644586, "cov_original": 0.0093875634573644586, "confidence": 2, "notes": null }, "geometry": { "type": "Polygon", "coordinates": [ [ [ 428354.908797093259636, 434905.828173357527703 ], [ 428379.864502317330334, 434901.373508473974653 ], [ 428383.443570046860259, 434920.277460930985399 ], [ 428390.323486388544552, 434927.68774776707869 ], [ 428402.336885213037021, 434925.918238404789008 ], [ 428403.69672995689325, 434930.071349290781654 ], [ 428413.401998807850759, 434928.287905734498054 ], [ 428409.834186019259505, 434907.541848917026073 ], [ 428397.809613667486701, 434911.153457264997996 ], [ 428398.710620673489757, 434914.84326027345378 ], [ 428389.466956969932653, 434916.629531263839453 ], [ 428386.736112680693623, 434910.16540209739469 ], [ 428391.830698454228695, 434907.432940951781347 ], [ 428389.127652545750607, 434896.363510770024732 ], [ 428386.836186684551649, 434893.586380268796347 ], [ 428385.495774162467569, 434886.209534229245037 ], [ 428357.775759846612345, 434889.726395965437405 ], [ 428358.657362896250561, 434896.639910482685082 ], [ 428353.571114836959168, 434897.990827950416133 ], [ 428354.908797093259636, 434905.828173357527703 ] ] ] } },
{ "type": "Feature", "properties": { "lot_id": 1999, "area_m2": 995.60450174335972, "cov": 0.0, "cov_original": 0.0, "confidence": 3, "notes": null }, "geometry": { "type": "Polygon", "coordinates": [ [ [ 434360.934193994267844, 435201.718379928031936 ], [ 434389.394582613313105, 435203.323460161220282 ], [ 434390.402931082935538, 435193.086617298191413 ], [ 434382.478694846678991, 435191.631704432656989 ], [ 434383.149615693255328, 435163.697707912069745 ], [ 434374.751784037798643, 435163.170635754591785 ], [ 434374.836840456759091, 435151.529997825738974 ], [ 434368.302529318258166, 435151.482216010452248 ], [ 434367.70653537218459, 435169.172561556799337 ], [ 434358.841978025971912, 435168.64210586482659 ], [ 434358.256225368822925, 435184.935519254766405 ], [ 434362.456821835250594, 435184.96622635202948 ], [ 434360.934193994267844, 435201.718379928031936 ] ] ] } },
{ "type": "Feature", "properties": { "lot_id": 2034, "area_m2": 989.09524365393088, "cov": 0.0, "cov_original": 0.0, "confidence": 1, "notes": null }, "geometry": { "type": "Polygon", "coordinates": [ [ [ 426212.55762378743384, 430278.342247875756584 ], [ 426216.729397174727637, 430287.067325312877074 ], [ 426229.624854783236515, 430295.560303936945274 ], [ 426247.644398164062295, 430293.415148385684006 ], [ 426247.946173693926539, 430289.76768050994724 ], [ 426241.221809541864786, 430284.677502458216622 ], [ 426251.731073195172939, 430267.051711191423237 ], [ 426229.855557504459284, 430254.29796741809696 ], [ 426212.55762378743384, 430278.342247875756584 ] ] ] } },
{ "type": "Feature", "properties": { "lot_id": 341, "area_m2": 924.5727448287455, "cov": 0.0, "cov_original": 0.0, "confidence": 2, "notes": null }, "geometry": { "type": "Polygon", "coordinates": [ [ [ 427960.742762320616748, 432848.93717990256846 ], [ 427974.909817228210159, 432842.979525468545035 ], [ 427951.513733690197114, 432788.46221423021052 ], [ 427936.844859410310164, 432793.913524502073415 ], [ 427960.742762320616748, 432848.93717990256846 ] ] ] } },
{ "type": "Feature", "properties": { "lot_id": 1771, "area_m2": 907.3271438768129, "cov": 0.0024187210442818052, "cov_original": 0.0024187210442818052, "confidence": 2, "notes": null }, "geometry": { "type": "Polygon", "coordinates": [ [ [ 432342.298902806767728, 431803.642266141949221 ], [ 432351.930338701815344, 431806.000377672957256 ], [ 432368.525348685507197, 431797.864358079968952 ], [ 432357.195378421456553, 431775.326852518133819 ], [ 432323.700589926855173, 431769.137545212754048 ], [ 432342.298902806767728, 431803.642266141949221 ] ] ] } },
{ "type": "Feature", "properties": { "lot_id": 15, "area_m2": 901.571237097638, "cov": 0.0, "cov_original": 0.0, "confidence": 2, "notes": null }, "geometry": { "type": "Polygon", "coordinates": [ [ [ 425077.96991018333938, 431887.638269108254462 ], [ 425095.444887232792098, 431887.731188466539606 ], [ 425095.849714868236333, 431876.109847475541756 ], [ 425106.129141473968048, 431876.164537877310067 ], [ 425107.255892022221815, 431857.709631695761345 ], [ 425071.624043548712507, 431856.836403919383883 ], [ 425069.493253651482519, 431870.84170258208178 ], [ 425073.220360018603969, 431878.724473064765334 ], [ 425077.672947997460142, 431879.09000586415641 ], [ 425077.96991018333938, 431887.638269108254462 ] ] ] } },
{ "type": "Feature", "properties": { "lot_id": 1705, "area_m2": 870.54983017492941, "cov": 0.0, "cov_original": 0.0, "confidence": 2, "notes": null }, "geometry": { "type": "Polygon", "coordinates": [ [ [ 432631.51852431986481, 434675.76006271794904 ], [ 432618.089817946602125, 434692.157005214132369 ], [ 432613.976864065800328, 434689.380041694152169 ], [ 432587.038391692971345, 434667.663884940440767 ], [ 432575.930768140300643, 434680.412584050209261 ], [ 432602.872394812933635, 434701.670577362179756 ], [ 432613.862490046070889, 434705.8694958826527 ], [ 432636.540170857741032, 434679.917561749229208 ], [ 432631.51852431986481, 434675.76006271794904 ] ] ] } },
{ "type": "Feature", "properties": { "lot_id": 1996, "area_m2": 860.77443796473835, "cov": 0.0, "cov_original": 0.0, "confidence": 3, "notes": null }, "geometry": { "type": "Polygon", "coordinates": [ [ [ 434480.694628369878046, 435992.497522326884791 ], [ 434509.163552020851057, 435992.240972903673537 ], [ 434505.212889059563167, 435958.225400510942563 ], [ 434481.393209688714705, 435960.843952927622013 ], [ 434480.694628369878046, 435992.497522326884791 ] ] ] } },
{ "type": "Feature", "properties": { "lot_id": 1248, "area_m2": 852.85578282770769, "cov": 0.0, "cov_original": 0.0, "confidence": 2, "notes": null }, "geometry": { "type": "Polygon", "coordinates": [ [ [ 430959.504976393189281, 432476.39444733702112 ], [ 430959.698395975283347, 432447.065397173864767 ], [ 430925.251704156107735, 432446.38015393842943 ], [ 430925.182272461417597, 432456.920302834827453 ], [ 430937.523741405108012, 432466.167312801233493 ], [ 430936.109520428872202, 432471.65742347901687 ], [ 430949.83192771213362, 432480.45525112003088 ], [ 430954.452384271775372, 432476.361141490750015 ], [ 430959.504976393189281, 432476.39444733702112 ] ] ] } },
{ "type": "Feature", "properties": { "lot_id": 1653, "area_m2": 833.52585738089863, "cov": 0.0, "cov_original": 0.0, "confidence": 2, "notes": null }, "geometry": { "type": "Polygon", "coordinates": [ [ [ 432136.46425377659034, 437111.231704610516317 ], [ 432155.306606143945828, 437107.240267949528061 ], [ 432153.505459352396429, 437102.191893712733872 ], [ 432157.20154521940276, 437098.554616809822619 ], [ 432163.167044355825055, 437098.595463367877528 ], [ 432174.249093999387696, 437088.599251948529854 ], [ 432180.292825736571103, 437077.195048143737949 ], [ 432166.598157386702951, 437066.571256687166169 ], [ 432148.510869956808165, 437094.374717605765909 ], [ 432141.178085547464434, 437092.951063522952609 ], [ 432131.972266981960274, 437097.008484414429404 ], [ 432136.46425377659034, 437111.231704610516317 ] ] ] } },
{ "type": "Feature", "properties": { "lot_id": 1404, "area_m2": 778.35577241534065, "cov": 0.0, "cov_original": 0.00010240224939125865, "confidence": 2, "notes": null }, "geometry": { "type": "Polygon", "coordinates": [ [ [ 431940.836862927186303, 431490.235141013632528 ], [ 431952.3941993250628, 431479.770911939092912 ], [ 431946.462245589355007, 431473.771550835575908 ], [ 431950.631386533379555, 431468.757667356170714 ], [ 431920.002654255658854, 431446.088436258258298 ], [ 431912.114484873716719, 431457.494523791479878 ], [ 431940.836862927186303, 431490.235141013632528 ] ] ] } },
{ "type": "Feature", "properties": { "lot_id": 1768, "area_m2": 765.57169070447219, "cov": 0.0, "cov_original": 0.0, "confidence": 1, "notes": null }, "geometry": { "type": "Polygon", "coordinates": [ [ [ 432098.389393230958376, 431932.254051203490235 ], [ 432124.536367824824993, 431937.932932516094297 ], [ 432125.036532858910505, 431931.977923197089694 ], [ 432134.680361661710776, 431932.502246189280413 ], [ 432136.618312084930949, 431917.848570105619729 ], [ 432124.218168167339172, 431917.305386114632711 ], [ 432123.337053236900829, 431911.799244944355451 ], [ 432104.533770541660488, 431907.087226804229431 ], [ 432098.389393230958376, 431932.254051203490235 ] ] ] } },
{ "type": "Feature", "properties": { "lot_id": 732, "area_m2": 740.14712589564067, "cov": 0.0, "cov_original": 0.0, "confidence": 2, "notes": null }, "geometry": { "type": "Polygon", "coordinates": [ [ [ 428084.662193353753537, 430083.637044228846207 ], [ 428109.438126461580396, 430090.662400235538371 ], [ 428119.239712288952433, 430065.503048644517548 ], [ 428093.558182583423331, 430056.179665315779857 ], [ 428084.662193353753537, 430083.637044228846207 ] ] ] } },
{ "type": "Feature", "properties": { "lot_id": 1842, "area_m2": 722.3747677801349, "cov": 0.034694594991208402, "cov_original": 0.034694594991208402, "confidence": 1, "notes": null }, "geometry": { "type": "Polygon", "coordinates": [ [ [ 433435.940603404422291, 430740.117674738983624 ], [ 433448.957041129237041, 430719.121117355534807 ], [ 433426.086133072210941, 430704.287572146393359 ], [ 433411.208887857850641, 430728.480253671994433 ], [ 433435.940603404422291, 430740.117674738983624 ] ] ] } },
{ "type": "Feature", "properties": { "lot_id": 517, "area_m2": 697.56200341110798, "cov": 0.0, "cov_original": 0.0, "confidence": 1, "notes": null }, "geometry": { "type": "Polygon", "coordinates": [ [ [ 428177.071555155038368, 434152.859551560832188 ], [ 428183.554692457022611, 434149.674131771549582 ], [ 428131.922657363174949, 434059.082611041027121 ], [ 428126.821805803279858, 434062.73706968605984 ], [ 428177.071555155038368, 434152.859551560832188 ] ] ] } },
{ "type": "Feature", "properties": { "lot_id": 851, "area_m2": 693.3335356162039, "cov": 0.0, "cov_original": 0.0, "confidence": 2, "notes": null }, "geometry": { "type": "Polygon", "coordinates": [ [ [ 429854.242881279671565, 432703.071858142735437 ], [ 429873.984506505192257, 432704.57216714520473 ], [ 429886.923882756498642, 432692.281525599421002 ], [ 429871.412126424023882, 432675.685499678133056 ], [ 429868.188195093185641, 432677.039776166784577 ], [ 429856.263511342811398, 432674.214394528768025 ], [ 429854.242881279671565, 432703.071858142735437 ] ] ] } },
{ "type": "Feature", "properties": { "lot_id": 1102, "area_m2": 667.58002479249944, "cov": 0.0, "cov_original": 0.0, "confidence": 3, "notes": null }, "geometry": { "type": "Polygon", "coordinates": [ [ [ 430486.539727967465296, 434432.38293203827925 ], [ 430489.735871521872468, 434435.15223245404195 ], [ 430509.988588727544993, 434427.496442675357684 ], [ 430504.612740670330822, 434406.847468815394677 ], [ 430494.034624222433195, 434409.527222218108363 ], [ 430489.976662323460914, 434398.048582861432806 ], [ 430479.377732862252742, 434403.934872469864786 ], [ 430486.539727967465296, 434432.38293203827925 ] ] ] } },
{ "type": "Feature", "properties": { "lot_id": 1258, "area_m2": 651.56261854462889, "cov": 0.0, "cov_original": 0.0, "confidence": 3, "notes": null }, "geometry": { "type": "Polygon", "coordinates": [ [ [ 430819.8116356531973, 432659.24416211002972 ], [ 430830.780864989908878, 432667.564963504206389 ], [ 430846.085551680938806, 432645.210389381158166 ], [ 430858.08483643369982, 432636.582123465021141 ], [ 430854.920863898121752, 432628.770753156743012 ], [ 430833.321189954935107, 432630.46195657690987 ], [ 430832.348394136293791, 432638.704413760220632 ], [ 430826.77949688246008, 432647.374949913239107 ], [ 430828.154416228411719, 432647.842244006227702 ], [ 430819.8116356531973, 432659.24416211002972 ] ] ] } },
{ "type": "Feature", "properties": { "lot_id": 754, "area_m2": 644.01475044865958, "cov": 0.0, "cov_original": 0.0, "confidence": 1, "notes": null }, "geometry": { "type": "Polygon", "coordinates": [ [ [ 429433.400237059278879, 430293.378753841971047 ], [ 429431.99578741483856, 430297.49641491798684 ], [ 429434.279228155850433, 430299.803138155024499 ], [ 429440.761700047820341, 430292.049259846447967 ], [ 429440.798959545441903, 430286.089080962934531 ], [ 429447.712348070868757, 430282.922820905223489 ], [ 429450.458210195531137, 430284.773955179611221 ], [ 429459.700930062797852, 430276.578832087107003 ], [ 429450.572891799092758, 430266.434889316908084 ], [ 429444.104701906151604, 430271.896414126968011 ], [ 429434.422503217530902, 430276.879370827577077 ], [ 429422.999494076648261, 430266.262656342121772 ], [ 429417.918595764786005, 430270.357393070822582 ], [ 429422.459735227399506, 430279.097138396580704 ], [ 429418.295096905902028, 430283.656077195773832 ], [ 429424.220614346151706, 430291.487456890637986 ], [ 429426.992263654305134, 430289.212298534344882 ], [ 429429.275710751884617, 430291.51902310969308 ], [ 429431.582077552448027, 430290.157947917818092 ], [ 429433.400237059278879, 430293.378753841971047 ] ] ] } },
{ "type": "Feature", "properties": { "lot_id": 2020, "area_m2": 623.76927799920441, "cov": 0.0, "cov_original": 0.0, "confidence": 2, "notes": null }, "geometry": { "type": "Polygon", "coordinates": [ [ [ 434937.98326366400579, 436313.499123076442629 ], [ 434956.616712630377151, 436317.827584837563336 ], [ 434961.442036007356364, 436296.448773531941697 ], [ 434966.574817409215029, 436296.48697929258924 ], [ 434970.867824038607068, 436283.949380850419402 ], [ 434954.09380135894753, 436280.565750490990467 ], [ 434951.186851323815063, 436294.975840395432897 ], [ 434944.204895064875018, 436292.596200958127156 ], [ 434937.98326366400579, 436313.499123076442629 ] ] ] } },
{ "type": "Feature", "properties": { "lot_id": 1368, "area_m2": 600.53752209550635, "cov": 0.0, "cov_original": 0.0, "confidence": 2, "notes": null }, "geometry": { "type": "Polygon", "coordinates": [ [ [ 431598.543080893985461, 430979.087867110501975 ], [ 431613.708918670541607, 430978.731405451893806 ], [ 431612.953412251197733, 430954.429379450622946 ], [ 431608.818092456203885, 430954.401571297203191 ], [ 431608.907514142454602, 430941.107564917649142 ], [ 431613.03976252587745, 430941.593787571764551 ], [ 431613.092189530027099, 430933.800732552655973 ], [ 431598.848243224085309, 430933.704965067561716 ], [ 431598.543080893985461, 430979.087867110501975 ] ] ] } },
{ "type": "Feature", "properties": { "lot_id": 648, "area_m2": 577.79206226343661, "cov": 0.0, "cov_original": 0.0, "confidence": 2, "notes": null }, "geometry": { "type": "Polygon", "coordinates": [ [ [ 428935.659918455407023, 432695.829371977830306 ], [ 428972.377803129260428, 432700.638151374296285 ], [ 428977.06718173972331, 432685.086406617541797 ], [ 428938.044073066033889, 432681.638150182086974 ], [ 428935.659918455407023, 432695.829371977830306 ] ] ] } },
{ "type": "Feature", "properties": { "lot_id": 142, "area_m2": 561.28500325178379, "cov": 0.021950227204315078, "cov_original": 0.021950227204315078, "confidence": 2, "notes": null }, "geometry": { "type": "Polygon", "coordinates": [ [ [ 426389.424897418939508, 435527.887896726024337 ], [ 426404.801210074394476, 435498.543597307056189 ], [ 426389.169254860957153, 435491.327940116636455 ], [ 426374.252663969295099, 435520.904844457632862 ], [ 426389.424897418939508, 435527.887896726024337 ] ] ] } },
{ "type": "Feature", "properties": { "lot_id": 1676, "area_m2": 551.4807267491617, "cov": 0.0, "cov_original": 0.0, "confidence": 1, "notes": null }, "geometry": { "type": "Polygon", "coordinates": [ [ [ 432102.904516170558054, 435302.825691049569286 ], [ 432095.066192400059663, 435307.810123165720142 ], [ 432093.192475984222256, 435313.293327178689651 ], [ 432095.906184086750727, 435319.265880068414845 ], [ 432117.041450197051745, 435316.662393812439404 ], [ 432128.652313854778185, 435297.047773495432921 ], [ 432124.111786426161416, 435289.688666790258139 ], [ 432102.904516170558054, 435302.825691049569286 ] ] ] } },
{ "type": "Feature", "properties": { "lot_id": 477, "area_m2": 539.41847240848313, "cov": 0.0, "cov_original": 0.0, "confidence": 1, "notes": null }, "geometry": { "type": "Polygon", "coordinates": [ [ [ 428551.131477269867901, 436954.153123129392043 ], [ 428564.451050010276958, 436964.3617835897021 ], [ 428565.385069153446238, 436962.526096610352397 ], [ 428574.115611133223865, 436968.563736264943145 ], [ 428577.373500394460279, 436963.980148817761801 ], [ 428569.571381730784196, 436957.027463179896586 ], [ 428580.284705182886682, 436940.520301074022427 ], [ 428565.111029234307352, 436931.681293153902516 ], [ 428551.131477269867901, 436954.153123129392043 ] ] ] } },
{ "type": "Feature", "properties": { "lot_id": 1674, "area_m2": 533.81144343231585, "cov": 0.0, "cov_original": 0.0, "confidence": 2, "notes": null }, "geometry": { "type": "Polygon", "coordinates": [ [ [ 432092.385823675722349, 435364.240108955069445 ], [ 432096.988826099724974, 435362.439586729044095 ], [ 432098.884404084645212, 435353.75061511201784 ], [ 432108.056051633611787, 435355.187309372820891 ], [ 432115.956846794579178, 435341.04342650459148 ], [ 432116.022506336157676, 435331.425909996498376 ], [ 432092.607660846086219, 435331.723819784703664 ], [ 432092.385823675722349, 435364.240108955069445 ] ] ] } },
{ "type": "Feature", "properties": { "lot_id": 465, "area_m2": 530.72361491661889, "cov": 0.018528444263654381, "cov_original": 0.018528444263654381, "confidence": 1, "notes": null }, "geometry": { "type": "Polygon", "coordinates": [ [ [ 428561.142892182338983, 437850.881861673551612 ], [ 428562.057164278579876, 437852.268207297543995 ], [ 428574.054443271714263, 437851.880994194303639 ], [ 428569.2257535327808, 437811.348532213829458 ], [ 428554.913335856515914, 437813.102460854337551 ], [ 428556.221915866888594, 437825.537532731541432 ], [ 428558.522974693623837, 437826.472063199151307 ], [ 428561.142892182338983, 437850.881861673551612 ] ] ] } },
{ "type": "Feature", "properties": { "lot_id": 1732, "area_m2": 527.6062939802348, "cov": 0.0003434552061583514, "cov_original": 0.051197550252119674, "confidence": 2, "notes": null }, "geometry": { "type": "Polygon", "coordinates": [ [ [ 432463.634463567927014, 432128.410078178276308 ], [ 432471.484813936869614, 432122.50616161886137 ], [ 432439.145827256026678, 432082.408350839628838 ], [ 432430.829752699763048, 432089.22580890241079 ], [ 432463.634463567927014, 432128.410078178276308 ] ] ] } },
{ "type": "Feature", "properties": { "lot_id": 901, "area_m2": 521.23385448230658, "cov": 0.0, "cov_original": 0.0, "confidence": 1, "notes": null }, "geometry": { "type": "Polygon", "coordinates": [ [ [ 429342.052946302806959, 434325.67926497827284 ], [ 429362.233481360482983, 434329.470220676390454 ], [ 429362.930171671439894, 434291.45250177453272 ], [ 429352.363488848088309, 434292.302614418324083 ], [ 429350.877272338955663, 434309.701053262571804 ], [ 429343.952538088429719, 434315.613021464436315 ], [ 429342.052946302806959, 434325.67926497827284 ] ] ] } },
{ "type": "Feature", "properties": { "lot_id": 2017, "area_m2": 489.50399737649769, "cov": 0.0, "cov_original": 0.0, "confidence": 2, "notes": null }, "geometry": { "type": "Polygon", "coordinates": [ [ [ 434234.326658588484861, 436372.678188603837043 ], [ 434273.386174131126609, 436391.584135552751832 ], [ 434274.254984047904145, 436400.435487241018564 ], [ 434277.991217632545158, 436399.997222608653829 ], [ 434277.575461511209141, 436393.011284642736427 ], [ 434285.088631189370062, 436386.548726895241998 ], [ 434277.660210541216657, 436381.373706303304061 ], [ 434275.756493392167613, 436386.480625548865646 ], [ 434268.307728106097784, 436384.098641317337751 ], [ 434270.671266945020761, 436379.926128415158018 ], [ 434239.527070303913206, 436363.405496486579068 ], [ 434234.326658588484861, 436372.678188603837043 ] ] ] } },
{ "type": "Feature", "properties": { "lot_id": 26, "area_m2": 473.16835377297082, "cov": 0.0, "cov_original": 0.0, "confidence": 2, "notes": null }, "geometry": { "type": "Polygon", "coordinates": [ [ [ 426007.45578013692284, 433001.742628088104539 ], [ 426031.764174471260048, 433004.611442486406304 ], [ 426034.234402422618587, 432991.637180379359052 ], [ 426009.988522968371399, 432977.489658840815537 ], [ 426007.45578013692284, 433001.742628088104539 ] ] ] } },
{ "type": "Feature", "properties": { "lot_id": 324, "area_m2": 465.33314816587665, "cov": 0.0, "cov_original": 0.0, "confidence": 1, "notes": null }, "geometry": { "type": "Polygon", "coordinates": [ [ [ 427831.984785295790061, 430202.413851824356243 ], [ 427854.730366805859376, 430187.479158646077849 ], [ 427847.261515955964569, 430173.370420147082768 ], [ 427821.995543380384333, 430188.792614498641342 ], [ 427831.984785295790061, 430202.413851824356243 ] ] ] } },
{ "type": "Feature", "properties": { "lot_id": 1800, "area_m2": 426.29137474499862, "cov": 0.0, "cov_original": 0.0, "confidence": 2, "notes": null }, "geometry": { "type": "Polygon", "coordinates": [ [ [ 432764.072792433726136, 431799.117804816341959 ], [ 432783.472951750911307, 431784.127465365687385 ], [ 432771.178135411755648, 431768.457502237288281 ], [ 432754.968117594660725, 431787.137044322327711 ], [ 432764.072792433726136, 431799.117804816341959 ] ] ] } },
{ "type": "Feature", "properties": { "lot_id": 1667, "area_m2": 418.90281740369835, "cov": 0.0, "cov_original": 0.0, "confidence": 1, "notes": null }, "geometry": { "type": "Polygon", "coordinates": [ [ [ 432102.252638175734319, 436003.967788732727058 ], [ 432114.239476630929857, 435996.264900572248735 ], [ 432100.182464734767564, 435970.982525707921013 ], [ 432087.73659407638479, 435978.682355820434168 ], [ 432102.252638175734319, 436003.967788732727058 ] ] ] } },
{ "type": "Feature", "properties": { "lot_id": 539, "area_m2": 416.11592444036762, "cov": 0.0, "cov_original": 0.0, "confidence": 1, "notes": null }, "geometry": { "type": "Polygon", "coordinates": [ [ [ 428665.389791207329836, 434560.79592363385018 ], [ 428674.217466881906148, 434551.638269931310788 ], [ 428666.417003816110082, 434543.760773906135 ], [ 428649.223346588434651, 434562.078957466292195 ], [ 428665.744746120646596, 434578.300028996309265 ], [ 428673.190226969949435, 434568.673389802570455 ], [ 428665.389791207329836, 434560.79592363385018 ] ] ] } },
{ "type": "Feature", "properties": { "lot_id": 161, "area_m2": 402.69041905625488, "cov": 0.0, "cov_original": 0.0, "confidence": 2, "notes": null }, "geometry": { "type": "Polygon", "coordinates": [ [ [ 426123.148246061697137, 433554.480450904695317 ], [ 426137.73381512821652, 433543.750443740049377 ], [ 426122.614255795371719, 433526.184557281201705 ], [ 426109.172502010944299, 433538.531173320952803 ], [ 426123.148246061697137, 433554.480450904695317 ] ] ] } },
{ "type": "Feature", "properties": { "lot_id": 1310, "area_m2": 400.14514463196303, "cov": 0.0, "cov_original": 0.0, "confidence": 1, "notes": null }, "geometry": { "type": "Polygon", "coordinates": [ [ [ 430267.025292271457147, 430818.130060099065304 ], [ 430292.047838146274444, 430785.741364178946242 ], [ 430283.361440349777695, 430778.808776060352102 ], [ 430260.162204208318144, 430813.501505516469479 ], [ 430267.025292271457147, 430818.130060099065304 ] ] ] } },
{ "type": "Feature", "properties": { "lot_id": 650, "area_m2": 380.55754960545079, "cov": 0.0, "cov_original": 0.0, "confidence": 2, "notes": null }, "geometry": { "type": "Polygon", "coordinates": [ [ [ 429015.064419870031998, 432743.060713647631928 ], [ 429048.243312354839873, 432725.85217367275618 ], [ 429046.440016864100471, 432720.342002084944397 ], [ 429006.8673580615432, 432731.553842777037062 ], [ 429015.064419870031998, 432743.060713647631928 ] ] ] } },
{ "type": "Feature", "properties": { "lot_id": 1182, "area_m2": 370.9850800576537, "cov": 0.0, "cov_original": 0.0, "confidence": 2, "notes": null }, "geometry": { "type": "Polygon", "coordinates": [ [ [ 431038.956275712233037, 433937.923714426462539 ], [ 431067.516379542008508, 433924.368681058753282 ], [ 431065.290140174387489, 433913.816751363337971 ], [ 431033.977912413189188, 433926.895481796585955 ], [ 431038.956275712233037, 433937.923714426462539 ] ] ] } },
{ "type": "Feature", "properties": { "lot_id": 53, "area_m2": 369.26668782837385, "cov": 0.0, "cov_original": 0.0, "confidence": 2, "notes": null }, "geometry": { "type": "Polygon", "coordinates": [ [ [ 425798.990512543125078, 436679.360750115476549 ], [ 425815.442420669598505, 436675.694246866856702 ], [ 425811.790665617154445, 436654.84103759098798 ], [ 425792.925657151034102, 436661.56808312877547 ], [ 425792.882790758507326, 436669.422974686836824 ], [ 425796.992510791227687, 436669.103990755858831 ], [ 425798.990512543125078, 436679.360750115476549 ] ] ] } },
{ "type": "Feature", "properties": { "lot_id": 2001, "area_m2": 339.36630841552011, "cov": 0.0, "cov_original": 0.0, "confidence": 2, "notes": null }, "geometry": { "type": "Polygon", "coordinates": [ [ [ 434401.590880637115333, 435195.031076110550202 ], [ 434412.315495157672558, 435196.506522278650664 ], [ 434412.441527016926557, 435179.278488839743659 ], [ 434418.975796961167362, 435179.326332741300575 ], [ 434421.391237924108282, 435168.168447609292343 ], [ 434405.055521350586787, 435168.048846924561076 ], [ 434401.590880637115333, 435195.031076110550202 ] ] ] } },
{ "type": "Feature", "properties": { "lot_id": 1285, "area_m2": 338.68160930061725, "cov": 0.0, "cov_original": 0.0, "confidence": 2, "notes": null }, "geometry": { "type": "Polygon", "coordinates": [ [ [ 430915.097765667422209, 431162.473520765197463 ], [ 430924.362358210899401, 431151.074118697200902 ], [ 430908.377777244721074, 431136.299704580218531 ], [ 430897.731801810674369, 431148.148508073296398 ], [ 430915.097765667422209, 431162.473520765197463 ] ] ] } },
{ "type": "Feature", "properties": { "lot_id": 605, "area_m2": 336.89936488891806, "cov": 0.050327419968487427, "cov_original": 0.050327419968487427, "confidence": 2, "notes": null }, "geometry": { "type": "Polygon", "coordinates": [ [ [ 428581.817871331120841, 432606.82418165076524 ], [ 428596.93406156427227, 432613.790051116957329 ], [ 428598.379058183170855, 432602.800568811828271 ], [ 428602.624748721194919, 432584.495889401994646 ], [ 428595.751437080965843, 432581.704482804052532 ], [ 428581.817871331120841, 432606.82418165076524 ] ] ] } },
{ "type": "Feature", "properties": { "lot_id": 953, "area_m2": 333.65600576316689, "cov": 0.0, "cov_original": 0.0, "confidence": 2, "notes": null }, "geometry": { "type": "Polygon", "coordinates": [ [ [ 429192.006411931477487, 436894.988306809682399 ], [ 429201.572441802709363, 436906.49396778899245 ], [ 429214.495944893104024, 436894.670487795141526 ], [ 429210.847415007418022, 436890.985001133405603 ], [ 429214.079724430805072, 436887.800213216571137 ], [ 429212.249765455431771, 436886.873123786062934 ], [ 429215.940991841373034, 436883.691192604717799 ], [ 429211.383164831495378, 436878.626493103452958 ], [ 429206.759884129394777, 436884.091858684550971 ], [ 429204.020631191553548, 436881.785570664214902 ], [ 429192.006411931477487, 436894.988306809682399 ] ] ] } },
{ "type": "Feature", "properties": { "lot_id": 411, "area_m2": 333.46990880008678, "cov": 0.0, "cov_original": 0.0, "confidence": 1, "notes": null }, "geometry": { "type": "Polygon", "coordinates": [ [ [ 427912.249827004096005, 435535.447625274537131 ], [ 427926.866816818714142, 435539.917167005478404 ], [ 427932.371880755817983, 435517.063049901742488 ], [ 427917.24359184136847, 435516.486079676775262 ], [ 427916.70055667636916, 435525.735005736816674 ], [ 427911.334328836761415, 435525.216133440495469 ], [ 427912.249827004096005, 435535.447625274537131 ] ] ] } },
{ "type": "Feature", "properties": { "lot_id": 497, "area_m2": 324.12672225314691, "cov": 0.0, "cov_original": 0.0, "confidence": 1, "notes": null }, "geometry": { "type": "Polygon", "coordinates": [ [ [ 428437.52800576138543, 435557.147852270165458 ], [ 428470.32415336946724, 435553.202377690351568 ], [ 428469.921140655118506, 435543.529810075531714 ], [ 428435.27588089031633, 435547.924574489239603 ], [ 428437.52800576138543, 435557.147852270165458 ] ] ] } },
{ "type": "Feature", "properties": { "lot_id": 528, "area_m2": 324.00084210476734, "cov": 0.0, "cov_original": 0.0, "confidence": 2, "notes": null }, "geometry": { "type": "Polygon", "coordinates": [ [ [ 428606.055574219790287, 434144.859003143152222 ], [ 428614.86990434845211, 434138.003428826690651 ], [ 428608.921043835754972, 434129.215397215681151 ], [ 428613.098773205885664, 434125.555891606025398 ], [ 428604.844183709821664, 434116.293169474345632 ], [ 428592.764309930324089, 434128.656354392296635 ], [ 428606.055574219790287, 434144.859003143152222 ] ] ] } },
{ "type": "Feature", "properties": { "lot_id": 1350, "area_m2": 310.49263272716456, "cov": 0.0, "cov_original": 0.0, "confidence": 1, "notes": null }, "geometry": { "type": "Polygon", "coordinates": [ [ [ 431543.320090530440211, 430135.471302629564889 ], [ 431567.251343478041235, 430130.588190028560348 ], [ 431570.125660703983158, 430113.183935732231475 ], [ 431562.772575006762054, 430113.134594222530723 ], [ 431561.785766713845078, 430123.215295320143923 ], [ 431544.787942242925055, 430122.184252996114083 ], [ 431543.320090530440211, 430135.471302629564889 ] ] ] } },
{ "type": "Feature", "properties": { "lot_id": 193, "area_m2": 306.55470908021834, "cov": 0.0, "cov_original": 0.0, "confidence": 2, "notes": null }, "geometry": { "type": "Polygon", "coordinates": [ [ [ 426029.704434733779635, 433005.497666289680637 ], [ 426029.386985898949206, 433021.13927240553312 ], [ 426050.137187957996503, 433021.714286371832713 ], [ 426050.187045502185356, 433012.742640018230304 ], [ 426046.302862636221107, 433006.279731518821791 ], [ 426029.704434733779635, 433005.497666289680637 ] ] ] } },
{ "type": "Feature", "properties": { "lot_id": 674, "area_m2": 304.79093615510118, "cov": 0.0, "cov_original": 0.0, "confidence": 1, "notes": null }, "geometry": { "type": "Polygon", "coordinates": [ [ [ 428354.127753508160822, 431859.450691098114476 ], [ 428373.945934506540652, 431849.028548435308039 ], [ 428368.051086004998069, 431836.159545866190456 ], [ 428348.686745939601678, 431847.501152392593212 ], [ 428354.127753508160822, 431859.450691098114476 ] ] ] } },
{ "type": "Feature", "properties": { "lot_id": 573, "area_m2": 303.96397422599421, "cov": 0.0, "cov_original": 0.0, "confidence": 1, "notes": null }, "geometry": { "type": "Polygon", "coordinates": [ [ [ 428552.344233594310936, 433675.829172365949489 ], [ 428565.788095126976259, 433667.158293220563792 ], [ 428554.804201202932745, 433650.96817753976211 ], [ 428541.805265036760829, 433662.405818586004898 ], [ 428552.344233594310936, 433675.829172365949489 ] ] ] } },
{ "type": "Feature", "properties": { "lot_id": 751, "area_m2": 292.68405610184868, "cov": 0.0, "cov_original": 0.0, "confidence": 2, "notes": null }, "geometry": { "type": "Polygon", "coordinates": [ [ [ 429253.417514714295976, 431005.732132622157224 ], [ 429266.397105427284259, 430987.475868892623112 ], [ 429258.608608258713502, 430983.760061532957479 ], [ 429253.979546845715959, 430989.23238685936667 ], [ 429247.578050080337562, 430984.14994506619405 ], [ 429240.16929998859996, 430993.272405078052543 ], [ 429253.417514714295976, 431005.732132622157224 ] ] ] } },
{ "type": "Feature", "properties": { "lot_id": 1985, "area_m2": 292.19333235963654, "cov": 0.0, "cov_original": 0.0, "confidence": 1, "notes": null }, "geometry": { "type": "Polygon", "coordinates": [ [ [ 434296.051090658351313, 434434.029685577610508 ], [ 434309.128609079285525, 434433.1936459307326 ], [ 434307.417664521373808, 434411.757865159772336 ], [ 434292.932850813784171, 434413.515100065036677 ], [ 434296.051090658351313, 434434.029685577610508 ] ] ] } },
{ "type": "Feature", "properties": { "lot_id": 798, "area_m2": 284.74343447293279, "cov": 0.016023196490712075, "cov_original": 0.016023196490712075, "confidence": 2, "notes": null }, "geometry": { "type": "Polygon", "coordinates": [ [ [ 429523.775539749593008, 431345.035878311609849 ], [ 429540.737946158333216, 431351.101388036739081 ], [ 429546.340559142990969, 431336.926496671279892 ], [ 429529.38386008888483, 431329.944204720901325 ], [ 429523.775539749593008, 431345.035878311609849 ] ] ] } },
{ "type": "Feature", "properties": { "lot_id": 525, "area_m2": 282.96723054240516, "cov": 0.0, "cov_original": 0.0, "confidence": 1, "notes": null }, "geometry": { "type": "Polygon", "coordinates": [ [ [ 428582.602203375659883, 434053.397603551158682 ], [ 428588.610014708712697, 434052.512924854294397 ], [ 428555.17656817677198, 434007.628366399090737 ], [ 428552.375528250471689, 434012.678283476503566 ], [ 428582.602203375659883, 434053.397603551158682 ] ] ] } },
{ "type": "Feature", "properties": { "lot_id": 1527, "area_m2": 282.48516626691531, "cov": 0.0, "cov_original": 0.0, "confidence": 2, "notes": null }, "geometry": { "type": "Polygon", "coordinates": [ [ [ 431257.120556248875801, 434259.278446731972508 ], [ 431275.878572835412342, 434269.481811819598079 ], [ 431281.47987266513519, 434255.776011304929852 ], [ 431261.785218739649281, 434248.314991657156497 ], [ 431257.120556248875801, 434259.278446731972508 ] ] ] } },
{ "type": "Feature", "properties": { "lot_id": 1994, "area_m2": 272.82664128336671, "cov": 0.0, "cov_original": 0.0, "confidence": 2, "notes": null }, "geometry": { "type": "Polygon", "coordinates": [ [ [ 434964.790518329711631, 434591.477287883404642 ], [ 434968.691241923661437, 434569.152244295109995 ], [ 434949.528281129314564, 434572.269717618706636 ], [ 434949.462468066718429, 434581.117715274915099 ], [ 434955.530824587796815, 434581.162832447211258 ], [ 434955.959511589375325, 434586.288820649147965 ], [ 434958.760288349818438, 434586.309646892477758 ], [ 434960.582427967805415, 434592.37740887934342 ], [ 434964.790518329711631, 434591.477287883404642 ] ] ] } },
{ "type": "Feature", "properties": { "lot_id": 954, "area_m2": 272.51675977573888, "cov": 0.0, "cov_original": 0.0, "confidence": 2, "notes": null }, "geometry": { "type": "Polygon", "coordinates": [ [ [ 429166.021748489001766, 436866.898019405896775 ], [ 429176.50288698571967, 436878.867234667646699 ], [ 429188.973174321057741, 436866.125099437194876 ], [ 429178.027437592332717, 436855.068631515256129 ], [ 429166.021748489001766, 436866.898019405896775 ] ] ] } },
{ "type": "Feature", "properties": { "lot_id": 1695, "area_m2": 271.53674699815531, "cov": 0.065979416103764843, "cov_original": 0.065979416103764843, "confidence": 1, "notes": null }, "geometry": { "type": "Polygon", "coordinates": [ [ [ 432342.001199142017867, 434380.126977249514312 ], [ 432359.005205311463214, 434377.953741495031863 ], [ 432370.09085323457839, 434368.410221271333285 ], [ 432367.383311207639053, 434361.520114667364396 ], [ 432344.819092600489967, 434370.98451585706789 ], [ 432342.001199142017867, 434380.126977249514312 ] ] ] } },
{ "type": "Feature", "properties": { "lot_id": 505, "area_m2": 267.2497392347712, "cov": 0.054886787352626532, "cov_original": 0.054886787352626532, "confidence": 1, "notes": null }, "geometry": { "type": "Polygon", "coordinates": [ [ [ 428441.761028367443942, 434819.079450825112872 ], [ 428460.246000265469775, 434815.967587221413851 ], [ 428458.460762708564289, 434805.824571671197191 ], [ 428456.644864209985826, 434800.747460159822367 ], [ 428442.317362960020546, 434803.423977483413182 ], [ 428443.207215253729373, 434808.956024633138441 ], [ 428440.43181972351158, 434809.860321154817939 ], [ 428441.761028367443942, 434819.079450825112872 ] ] ] } },
{ "type": "Feature", "properties": { "lot_id": 366, "area_m2": 257.71903660310619, "cov": 0.0, "cov_original": 0.0, "confidence": 1, "notes": null }, "geometry": { "type": "Polygon", "coordinates": [ [ [ 427788.337502562673762, 434009.970863135531545 ], [ 427806.058395667234436, 434012.945406471844763 ], [ 427806.154585242620669, 433996.684541098191403 ], [ 427787.931610224535689, 433997.533244489692152 ], [ 427788.337502562673762, 434009.970863135531545 ] ] ] } },
{ "type": "Feature", "properties": { "lot_id": 917, "area_m2": 252.15978154043881, "cov": 0.0, "cov_original": 0.0, "confidence": 1, "notes": null }, "geometry": { "type": "Polygon", "coordinates": [ [ [ 429970.534754516964313, 434634.27584432833828 ], [ 429977.459545212972444, 434628.365225784247741 ], [ 429982.480641281232238, 434632.977994300075807 ], [ 429986.639031954342499, 434628.881973858689889 ], [ 429972.037756553036161, 434614.588529582717456 ], [ 429960.501294244255405, 434623.676189058809541 ], [ 429970.534754516964313, 434634.27584432833828 ] ] ] } },
{ "type": "Feature", "properties": { "lot_id": 1114, "area_m2": 251.97387672782477, "cov": 0.0, "cov_original": 0.0, "confidence": 1, "notes": null }, "geometry": { "type": "Polygon", "coordinates": [ [ [ 430740.378939877031371, 434373.800846224999987 ], [ 430783.591916683421005, 434365.838583327014931 ], [ 430782.7156606176286, 434359.419504377292469 ], [ 430739.952772274322342, 434368.759019725257531 ], [ 430740.378939877031371, 434373.800846224999987 ] ] ] } },
{ "type": "Feature", "properties": { "lot_id": 1061, "area_m2": 251.05242611803376, "cov": 0.0, "cov_original": 0.0, "confidence": 1, "notes": null }, "geometry": { "type": "Polygon", "coordinates": [ [ [ 430180.185780383239035, 435161.795345904421993 ], [ 430191.218125058105215, 435159.576282646739855 ], [ 430200.585011110757478, 435130.781502474448644 ], [ 430191.397707269992679, 435131.6383807399543 ], [ 430190.841486975143198, 435146.749392728321254 ], [ 430181.630672758677974, 435151.270271156914532 ], [ 430180.185780383239035, 435161.795345904421993 ] ] ] } },
{ "type": "Feature", "properties": { "lot_id": 1127, "area_m2": 243.63193745114356, "cov": 0.0, "cov_original": 0.0, "confidence": 2, "notes": null }, "geometry": { "type": "Polygon", "coordinates": [ [ [ 430956.062489182397258, 434705.608039890765212 ], [ 430963.411188707745168, 434705.198492355062626 ], [ 430964.95156239089556, 434680.473267721477896 ], [ 430950.211832011118531, 434687.70498680009041 ], [ 430956.062489182397258, 434705.608039890765212 ] ] ] } },
{ "type": "Feature", "properties": { "lot_id": 1031, "area_m2": 242.43507419475682, "cov": 0.0, "cov_original": 0.0, "confidence": 1, "notes": null }, "geometry": { "type": "Polygon", "coordinates": [ [ [ 430540.010092385171447, 437154.463168211164884 ], [ 430546.568129314633552, 437133.904005866264924 ], [ 430541.106198194494937, 437127.001132719218731 ], [ 430533.704722462047357, 437136.109357124310918 ], [ 430532.218136816285551, 437153.038990179426037 ], [ 430540.010092385171447, 437154.463168211164884 ] ] ] } },
{ "type": "Feature", "properties": { "lot_id": 1450, "area_m2": 240.97518487605751, "cov": 0.0, "cov_original": 0.0, "confidence": 1, "notes": null }, "geometry": { "type": "Polygon", "coordinates": [ [ [ 431522.781807862222195, 432954.81031079753302 ], [ 431535.583159798698034, 432963.602759614936076 ], [ 431545.30495870282175, 432952.212191523634829 ], [ 431532.969050521904137, 432942.506306218216196 ], [ 431522.781807862222195, 432954.81031079753302 ] ] ] } },
{ "type": "Feature", "properties": { "lot_id": 363, "area_m2": 236.64932057948207, "cov": 0.0, "cov_original": 0.0, "confidence": 1, "notes": null }, "geometry": { "type": "Polygon", "coordinates": [ [ [ 427486.362135571602266, 433754.222320621367544 ], [ 427500.240307362691965, 433758.608262090478092 ], [ 427504.644839456654154, 433743.328391191549599 ], [ 427489.80776927160332, 433738.936811429681256 ], [ 427486.362135571602266, 433754.222320621367544 ] ] ] } },
{ "type": "Feature", "properties": { "lot_id": 866, "area_m2": 236.12552053036583, "cov": 0.0, "cov_original": 0.0, "confidence": 1, "notes": null }, "geometry": { "type": "Polygon", "coordinates": [ [ [ 429725.279320925183129, 433049.140958815580234 ], [ 429740.894702426099684, 433049.239864590810612 ], [ 429740.53111985384021, 433034.116243348107673 ], [ 429724.915687731583603, 433034.017339503043331 ], [ 429725.279320925183129, 433049.140958815580234 ] ] ] } },
{ "type": "Feature", "properties": { "lot_id": 261, "area_m2": 235.48975861611314, "cov": 0.0, "cov_original": 0.0, "confidence": 2, "notes": null }, "geometry": { "type": "Polygon", "coordinates": [ [ [ 427832.398114769835956, 431041.822113827918656 ], [ 427850.338414475030731, 431036.165549064637162 ], [ 427849.211167545523494, 431031.433434445993043 ], [ 427852.452664029318839, 431030.300074927858077 ], [ 427850.294576996529941, 431024.063538072747178 ], [ 427829.10932969674468, 431031.429746205802076 ], [ 427832.398114769835956, 431041.822113827918656 ] ] ] } },
{ "type": "Feature", "properties": { "lot_id": 440, "area_m2": 229.79944517840036, "cov": 0.0, "cov_original": 0.0, "confidence": 2, "notes": null }, "geometry": { "type": "Polygon", "coordinates": [ [ [ 427654.840464216191322, 438359.771290745236911 ], [ 427669.614842762472108, 438357.557226524921134 ], [ 427671.956330146640539, 438351.588266218313947 ], [ 427665.997500818688422, 438345.110199986607768 ], [ 427659.55848392349435, 438341.850796536775306 ], [ 427653.06280157843139, 438348.255533982184716 ], [ 427654.840464216191322, 438359.771290745236911 ] ] ] } },
{ "type": "Feature", "properties": { "lot_id": 845, "area_m2": 225.45839064592585, "cov": 0.0, "cov_original": 0.0, "confidence": 2, "notes": null }, "geometry": { "type": "Polygon", "coordinates": [ [ [ 429538.898491700645536, 432449.030574211967178 ], [ 429556.836199953570031, 432445.477095171925612 ], [ 429554.614351280324627, 432433.547800486558117 ], [ 429536.679480305756442, 432436.643034824519418 ], [ 429538.898491700645536, 432449.030574211967178 ] ] ] } },
{ "type": "Feature", "properties": { "lot_id": 1416, "area_m2": 221.81058497476249, "cov": 0.0, "cov_original": 0.0, "confidence": 1, "notes": null }, "geometry": { "type": "Polygon", "coordinates": [ [ [ 431489.182246354350355, 432006.849599487148225 ], [ 431502.482546466402709, 432010.147102874470875 ], [ 431504.89629091770621, 431992.74663565098308 ], [ 431492.043018884607591, 431991.285447697038762 ], [ 431489.182246354350355, 432006.849599487148225 ] ] ] } },
{ "type": "Feature", "properties": { "lot_id": 1422, "area_m2": 217.80421778053312, "cov": 0.0, "cov_original": 0.0, "confidence": 1, "notes": null }, "geometry": { "type": "Polygon", "coordinates": [ [ [ 431263.420078445109539, 432071.340959536726587 ], [ 431263.569633959035855, 432048.883966303314082 ], [ 431251.626036409812514, 432048.804491634014994 ], [ 431253.800834185443819, 432067.152019984205253 ], [ 431263.420078445109539, 432071.340959536726587 ] ] ] } },
{ "type": "Feature", "properties": { "lot_id": 206, "area_m2": 217.55739582945512, "cov": 0.0, "cov_original": 0.0, "confidence": 1, "notes": null }, "geometry": { "type": "Polygon", "coordinates": [ [ [ 427015.585378898249473, 432310.275505234370939 ], [ 427031.033100803731941, 432311.054565893253312 ], [ 427032.044436616648454, 432295.644697864889167 ], [ 427015.886241731001064, 432298.082741019316018 ], [ 427015.585378898249473, 432310.275505234370939 ] ] ] } },
{ "type": "Feature", "properties": { "lot_id": 534, "area_m2": 209.14250496372409, "cov": 0.0, "cov_original": 0.0, "confidence": 1, "notes": null }, "geometry": { "type": "Polygon", "coordinates": [ [ [ 428587.864538334019016, 434327.034549706499092 ], [ 428596.597267334116623, 434333.536145428312011 ], [ 428606.874726012989413, 434313.792906883056276 ], [ 428604.61394362320425, 434305.948886278900318 ], [ 428587.864538334019016, 434327.034549706499092 ] ] ] } },
{ "type": "Feature", "properties": { "lot_id": 1417, "area_m2": 199.59582429124629, "cov": 0.0, "cov_original": 0.0, "confidence": 1, "notes": null }, "geometry": { "type": "Polygon", "coordinates": [ [ [ 431486.756268703495152, 432026.083256519515999 ], [ 431506.944003569718916, 432029.885259890696034 ], [ 431508.843017083301675, 432020.7313905316405 ], [ 431487.739570996374823, 432016.464900588383898 ], [ 431486.756268703495152, 432026.083256519515999 ] ] ] } },
{ "type": "Feature", "properties": { "lot_id": 687, "area_m2": 187.62608178167383, "cov": 0.0, "cov_original": 0.0, "confidence": 1, "notes": null }, "geometry": { "type": "Polygon", "coordinates": [ [ [ 428163.217726939124987, 431671.069731153780594 ], [ 428173.294843779411167, 431676.171979106962681 ], [ 428181.195793252903968, 431661.093676056596451 ], [ 428172.037506754044443, 431655.996900553349406 ], [ 428163.217726939124987, 431671.069731153780594 ] ] ] } },
{ "type": "Feature", "properties": { "lot_id": 1910, "area_m2": 186.99758254306121, "cov": 0.0, "cov_original": 0.0, "confidence": 1, "notes": null }, "geometry": { "type": "Polygon", "coordinates": [ [ [ 433227.184689998801332, 435563.912458108621649 ], [ 433236.430051940784324, 435554.818328165216371 ], [ 433223.189079769188538, 435544.649212218006141 ], [ 433216.701174124551471, 435553.304902408854105 ], [ 433227.184689998801332, 435563.912458108621649 ] ] ] } },
{ "type": "Feature", "properties": { "lot_id": 1989, "area_m2": 184.46059072721258, "cov": 0.0, "cov_original": 0.0, "confidence": 1, "notes": null }, "geometry": { "type": "Polygon", "coordinates": [ [ [ 434733.149294360424392, 434541.559163111378439 ], [ 434741.181293455767445, 434528.578529624501243 ], [ 434723.501308946462814, 434520.530769685399719 ], [ 434720.19584621564718, 434525.629219393362291 ], [ 434729.487155362789053, 434531.752128736581653 ], [ 434728.522581754543353, 434535.936426313826814 ], [ 434733.149294360424392, 434541.559163111378439 ] ] ] } },
{ "type": "Feature", "properties": { "lot_id": 926, "area_m2": 184.37281035856702, "cov": 0.0, "cov_original": 0.0, "confidence": 1, "notes": null }, "geometry": { "type": "Polygon", "coordinates": [ [ [ 429215.805865971313324, 435576.586652724072337 ], [ 429226.851407092704903, 435572.075699780951254 ], [ 429226.024460612155963, 435557.41534165549092 ], [ 429215.4664023538935, 435557.349589328281581 ], [ 429215.805865971313324, 435576.586652724072337 ] ] ] } },
{ "type": "Feature", "properties": { "lot_id": 1009, "area_m2": 177.13529935856639, "cov": 0.0, "cov_original": 0.0, "confidence": 1, "notes": null }, "geometry": { "type": "Polygon", "coordinates": [ [ [ 430215.752611110801809, 438089.999255514703691 ], [ 430225.366513373795897, 438093.265243005007505 ], [ 430231.892572572629433, 438077.286727383499965 ], [ 430221.358123688667547, 438074.472519565024413 ], [ 430215.752611110801809, 438089.999255514703691 ] ] ] } },
{ "type": "Feature", "properties": { "lot_id": 1665, "area_m2": 174.41041212445117, "cov": 0.0, "cov_original": 0.0, "confidence": 1, "notes": null }, "geometry": { "type": "Polygon", "coordinates": [ [ [ 432987.102704123128206, 436611.780788007075898 ], [ 432996.367956805450376, 436599.483303250628524 ], [ 432987.702736642619129, 436591.638599535916001 ], [ 432978.890012751915492, 436604.855043716495857 ], [ 432987.102704123128206, 436611.780788007075898 ] ] ] } },
{ "type": "Feature", "properties": { "lot_id": 483, "area_m2": 156.54731694768333, "cov": 0.0, "cov_original": 0.0, "confidence": 1, "notes": null }, "geometry": { "type": "Polygon", "coordinates": [ [ [ 428280.810197197890375, 435405.506031000637449 ], [ 428290.041776613274124, 435405.561667278176174 ], [ 428289.674394065281376, 435389.902577609405853 ], [ 428278.126573305286001, 435391.214477528817952 ], [ 428280.810197197890375, 435405.506031000637449 ] ] ] } },
{ "type": "Feature", "properties": { "lot_id": 486, "area_m2": 135.28993331585787, "cov": 0.0, "cov_original": 0.0, "confidence": 1, "notes": null }, "geometry": { "type": "Polygon", "coordinates": [ [ [ 428361.41778058296768, 435433.96747783489991 ], [ 428377.100255222176202, 435435.904246777296066 ], [ 428376.702596573333722, 435425.310495738405734 ], [ 428361.459443453582935, 435427.060330091509968 ], [ 428361.41778058296768, 435433.96747783489991 ] ] ] } }
]
}
